{
"type": "FeatureCollection",
"name": "10107",
"crs": { "type": "name", "properties": { "name": "urn:ogc:def:crs:OGC:1.3:CRS84" } },
"features": [
{ "type": "Feature", "properties": { "capa": "comuna", "popup": "", "etiqueta": "" }, "geometry": { "type": "Polygon", "coordinates": [ [ [ -73.31968472580526, -41.129715785545208 ], [ -73.318675467685239, -41.129962305492192 ], [ -73.318194863618345, -41.130441683606925 ], [ -73.317560967438098, -41.130540580877003 ], [ -73.316826144637375, -41.131002722664675 ], [ -73.316473064509893, -41.131213668774926 ], [ -73.315994363973104, -41.131503980249065 ], [ -73.315170334871382, -41.131928815197263 ], [ -73.314536010194772, -41.132158202610974 ], [ -73.31380367482906, -41.132147468933148 ], [ -73.313224143791501, -41.132242605767345 ], [ -73.312727447304596, -41.132217346064628 ], [ -73.311992884117004, -41.132404671431381 ], [ -73.311490330614461, -41.132545967047932 ], [ -73.311114950708358, -41.132896264599793 ], [ -73.311523207157222, -41.133298543710886 ], [ -73.311827171896525, -41.133699346741992 ], [ -73.312099685719446, -41.13424827008572 ], [ -73.311113626591634, -41.134751812037329 ], [ -73.310584950978949, -41.135185382860904 ], [ -73.309891458766117, -41.135688642255445 ], [ -73.309363021206963, -41.135879067891281 ], [ -73.308514453724982, -41.135925104239938 ], [ -73.307792225304524, -41.135896545659413 ], [ -73.307313923619716, -41.136168733574351 ], [ -73.306790542677305, -41.136161045093822 ], [ -73.306176274686024, -41.136043896462226 ], [ -73.305385013430922, -41.135861156438594 ], [ -73.304811589140684, -41.135776108431905 ], [ -73.30424027409471, -41.135605558108992 ], [ -73.303666170678099, -41.135520530068071 ], [ -73.303090835671227, -41.135512039774461 ], [ -73.302616540472584, -41.13562214287726 ], [ -73.302143029503156, -41.135736788956606 ], [ -73.301348602585009, -41.136080898516624 ], [ -73.301021950893201, -41.136589486395167 ], [ -73.300320197773019, -41.137407755214198 ], [ -73.299947805663578, -41.137640987243685 ], [ -73.299196274198565, -41.138341536888305 ], [ -73.298461653518785, -41.138411785608675 ], [ -73.297308809582049, -41.13847125425275 ], [ -73.296687732360922, -41.138187377774855 ], [ -73.296063578409942, -41.138020531042606 ], [ -73.295606401507342, -41.137500302701781 ], [ -73.294882465389534, -41.137129305514826 ], [ -73.294108128394413, -41.136725959282252 ], [ -73.293753162703155, -41.136283859734995 ], [ -73.29307697653428, -41.136116209813885 ], [ -73.29219159699025, -41.135945448609789 ], [ -73.291518508212491, -41.13565625621623 ], [ -73.290839194109807, -41.135776766056644 ], [ -73.290359706648815, -41.13591828917906 ], [ -73.290352653077193, -41.136188387096404 ], [ -73.289998019762592, -41.136484879947474 ], [ -73.289422138580036, -41.137007823242136 ], [ -73.288603800305651, -41.137036135749121 ], [ -73.287662387447469, -41.136986117970771 ], [ -73.286712557375068, -41.137287236868801 ], [ -73.285696517872964, -41.138100831531652 ], [ -73.285150807507534, -41.138353975791794 ], [ -73.284277543541748, -41.138318357195807 ], [ -73.28359718559669, -41.138308223266023 ], [ -73.281949290886686, -41.139274487340963 ], [ -73.281547144778386, -41.13964678350716 ], [ -73.281046345685581, -41.139972665230594 ], [ -73.2805138630127, -41.140122317205631 ], [ -73.279934396653843, -41.140235283732068 ], [ -73.27953107914243, -41.140738183036447 ], [ -73.27896483957781, -41.141288158310267 ], [ -73.277751773482748, -41.141625775386913 ], [ -73.277121303477003, -41.141733470009385 ], [ -73.276372810114296, -41.141506080662417 ], [ -73.27599758561675, -41.140649302111555 ], [ -73.275536837012567, -41.140246043147449 ], [ -73.274652505802493, -41.140034609893057 ], [ -73.273863150772442, -41.1405677741541 ], [ -73.272820886752228, -41.140471075131103 ], [ -73.272928506719907, -41.139891702007944 ], [ -73.272570534367404, -41.139571065015673 ], [ -73.271781745275973, -41.139716848166998 ], [ -73.271123440971152, -41.140004204835407 ], [ -73.270574040326537, -41.139856351475011 ], [ -73.269889460299652, -41.140003710295588 ], [ -73.269538915217922, -41.140169643412264 ], [ -73.268669223852001, -41.140620407328569 ], [ -73.268231029249677, -41.141365924647715 ], [ -73.267275064582194, -41.141864951757761 ], [ -73.26643006341186, -41.142167546034628 ], [ -73.265738097436724, -41.142593989639167 ], [ -73.26532533952998, -41.142349056199116 ], [ -73.26474689275895, -41.142457407868108 ], [ -73.26427237208317, -41.142571861375295 ], [ -73.263652564181513, -41.142242834655782 ], [ -73.263129998909406, -41.142234916876554 ], [ -73.262705670701806, -41.142426654183112 ], [ -73.262534966543299, -41.14294204236699 ], [ -73.262729265851036, -41.143534925758672 ], [ -73.262144622501211, -41.143845835130762 ], [ -73.261012122710724, -41.143977360674505 ], [ -73.260458551188236, -41.144185239158851 ], [ -73.260151298614986, -41.144513891511075 ], [ -73.259692866765931, -41.145795005513222 ], [ -73.259564683463097, -41.147090144394895 ], [ -73.259102668234377, -41.148033391666445 ], [ -73.258346335274169, -41.148891199332006 ], [ -73.258069286755699, -41.149481556594594 ], [ -73.257427383891354, -41.149985248785022 ], [ -73.256991069462899, -41.150654159836691 ], [ -73.257037525837816, -41.151825836402985 ], [ -73.256730522996207, -41.152586813187156 ], [ -73.256349451364486, -41.153418765249768 ], [ -73.25580401229027, -41.153959965675298 ], [ -73.25589719992459, -41.154465797331405 ], [ -73.255559790008931, -41.154803004317792 ], [ -73.254944069441834, -41.155410608441535 ], [ -73.25444168931412, -41.15595699566412 ], [ -73.253752750661491, -41.156261764330857 ], [ -73.252695808169534, -41.156484466772504 ], [ -73.251851396294043, -41.156867929185147 ], [ -73.251169449229252, -41.156938732957521 ], [ -73.250383955158298, -41.156926758850211 ], [ -73.249068463154558, -41.157181484109792 ], [ -73.247022503382581, -41.15731247361461 ], [ -73.246128604216409, -41.157452007124988 ], [ -73.244644591858616, -41.158104972391435 ], [ -73.243707546609343, -41.158824701952021 ], [ -73.242404966091158, -41.159822733496078 ], [ -73.241669529741088, -41.159978810513266 ], [ -73.241183719038801, -41.159999608670617 ], [ -73.240882172564241, -41.160107808082941 ], [ -73.240468042031736, -41.160242583844827 ], [ -73.240129334050508, -41.160447974000952 ], [ -73.239798286902001, -41.160933834909251 ], [ -73.239625168970335, -41.161197515124755 ], [ -73.239482280246293, -41.161415378748117 ], [ -73.239442325877391, -41.161475347960888 ], [ -73.239159330511768, -41.161901308230249 ], [ -73.238823967856618, -41.162382530483711 ], [ -73.238490760259864, -41.162859393901101 ], [ -73.238153920774408, -41.163336022559363 ], [ -73.237806928529608, -41.163808155226896 ], [ -73.237441458837722, -41.164270861282375 ], [ -73.237034768152412, -41.164710521522686 ], [ -73.236608240868989, -41.165145378679838 ], [ -73.236197720665629, -41.165589382087795 ], [ -73.235966237393328, -41.165859633708976 ], [ -73.235725867087908, -41.166173733958786 ], [ -73.235619079858509, -41.166308456670905 ], [ -73.235471243213894, -41.166515062651804 ], [ -73.235123329297608, -41.166987073683124 ], [ -73.234705650419727, -41.167449039799529 ], [ -73.234208257738501, -41.167855738511136 ], [ -73.23346684669346, -41.168110093320898 ], [ -73.232881013075882, -41.168150620750815 ], [ -73.232775484386195, -41.168139974111995 ], [ -73.232607921636244, -41.168110440229469 ], [ -73.232457448436278, -41.168081013178821 ], [ -73.232305719391519, -41.168042707816547 ], [ -73.232154948849171, -41.16803136531346 ], [ -73.232019055306267, -41.167984289137358 ], [ -73.231823161488876, -41.16792717554339 ], [ -73.231717169268506, -41.167880545609115 ], [ -73.231611955887487, -41.167833888592163 ], [ -73.231490724646633, -41.167768935910132 ], [ -73.231355427585058, -41.16770383709602 ], [ -73.231249631197414, -41.167648127807738 ], [ -73.231068914416753, -41.167555341553623 ], [ -73.230902265253462, -41.167462701236303 ], [ -73.230766871173842, -41.167397605499161 ], [ -73.230615673931737, -41.167287208834679 ], [ -73.23046571905968, -41.167212763846344 ], [ -73.230298293751972, -41.167120150770756 ], [ -73.230133306471942, -41.167027522010606 ], [ -73.230026457258774, -41.166953924064664 ], [ -73.229875524121383, -41.166888514043173 ], [ -73.229679368894253, -41.166786334295757 ], [ -73.229514193866336, -41.166693784861167 ], [ -73.229393550123675, -41.166637882659032 ], [ -73.229256809469447, -41.166545762434261 ], [ -73.229107277703875, -41.166426302552757 ], [ -73.229000644984708, -41.166316624461835 ], [ -73.228881620006206, -41.166170666465902 ], [ -73.228776181148035, -41.166024946187193 ], [ -73.228701108939745, -41.165906656634675 ], [ -73.228625259688727, -41.165788395947779 ], [ -73.228520223275822, -41.165624661265241 ], [ -73.228355322234052, -41.165415032963317 ], [ -73.227796812672452, -41.165073083814072 ], [ -73.227253375044697, -41.164866602453891 ], [ -73.226546022725358, -41.164618786767932 ], [ -73.226481706045959, -41.164596217569418 ], [ -73.225911385435012, -41.164349556613004 ], [ -73.225831267389779, -41.164315028089689 ], [ -73.225318871046653, -41.164111379967565 ], [ -73.225258722550166, -41.164083789240721 ], [ -73.224783029572947, -41.16385127478992 ], [ -73.224666442622109, -41.163802151894011 ], [ -73.224389241390043, -41.16366436115279 ], [ -73.223822551769473, -41.163384360639185 ], [ -73.223659758175373, -41.163302780471746 ], [ -73.223267897777077, -41.163106276878281 ], [ -73.223063261555339, -41.163020625789926 ], [ -73.222968773160517, -41.162981165074669 ], [ -73.222521970901127, -41.162812125324422 ], [ -73.221896526969402, -41.162554780349481 ], [ -73.221327075029322, -41.162428893813058 ], [ -73.221285319538296, -41.162421648002208 ], [ -73.221216923609191, -41.162403872971161 ], [ -73.220456561704921, -41.162211371706846 ], [ -73.21982492478763, -41.162120217097865 ], [ -73.219370987209942, -41.16209512512691 ], [ -73.218988364187709, -41.162089174388313 ], [ -73.218365758033968, -41.162106633674014 ], [ -73.217946682275837, -41.162118246368756 ], [ -73.217551144174777, -41.162143746814017 ], [ -73.216963997220233, -41.16217988944792 ], [ -73.216413406307879, -41.162189458362775 ], [ -73.215948449096601, -41.162128020886882 ], [ -73.215472570168089, -41.162030245206921 ], [ -73.21505678763377, -41.161924364615793 ], [ -73.21449947372983, -41.161739427044083 ], [ -73.214097606099259, -41.161561331104544 ], [ -73.213733310505461, -41.161320704216571 ], [ -73.213502426409448, -41.16110712806703 ], [ -73.213471559397959, -41.161077867624471 ], [ -73.213181919194184, -41.160663510897827 ], [ -73.213007730470693, -41.160413112704191 ], [ -73.213006268013416, -41.160411617372873 ], [ -73.212947100477237, -41.160313979129462 ], [ -73.212785327369289, -41.160103401873421 ], [ -73.212599125475506, -41.159910684869182 ], [ -73.212352431928821, -41.159744157848934 ], [ -73.212044936810429, -41.159612758617889 ], [ -73.211677655216619, -41.159480523186858 ], [ -73.211261888851979, -41.159374553935841 ], [ -73.210750379146063, -41.159267145967448 ], [ -73.210179081168079, -41.159158901206013 ], [ -73.209761519071208, -41.159116208700112 ], [ -73.209583482863351, -41.159149652427899 ], [ -73.209687153837024, -41.159197051471999 ], [ -73.210145841705938, -41.159560007452242 ], [ -73.210719064773585, -41.160010311413856 ], [ -73.210840931123329, -41.160737245084178 ], [ -73.210686120857147, -41.161221290671357 ], [ -73.210451387480148, -41.162019263482499 ], [ -73.210373259203266, -41.162945755979251 ], [ -73.209449191914899, -41.163616048978206 ], [ -73.20900901562905, -41.164131637145111 ], [ -73.208574885903374, -41.164863507849063 ], [ -73.208705485674315, -41.165541068627398 ], [ -73.208595861565257, -41.167430923953653 ], [ -73.207956641070325, -41.168006389889811 ], [ -73.207458476736264, -41.168214864361303 ], [ -73.207128005407853, -41.168615043521569 ], [ -73.20653652587869, -41.168803987950618 ], [ -73.206261821064814, -41.169123932220224 ], [ -73.206403680319525, -41.169770174549747 ], [ -73.206272121147862, -41.170412184184713 ], [ -73.206213515957032, -41.170893147162587 ], [ -73.205724075162706, -41.171250378549608 ], [ -73.205537392670252, -41.171481605632124 ], [ -73.205705332712611, -41.171934585878169 ], [ -73.205513762486689, -41.172372980257663 ], [ -73.205028640792236, -41.173090473857698 ], [ -73.205289269903943, -41.173499862554451 ], [ -73.205275087302226, -41.174022131986412 ], [ -73.204676866815177, -41.174454153698051 ], [ -73.204026879113272, -41.174849337103709 ], [ -73.203903832377222, -41.175450903898785 ], [ -73.203919127093229, -41.176392417821646 ], [ -73.204075953178929, -41.177223566011783 ], [ -73.203982496948328, -41.177645461072274 ], [ -73.203553676265983, -41.178206201762364 ], [ -73.203601592403245, -41.178632664489058 ], [ -73.15289427637282, -41.166065508719619 ], [ -73.151329632133439, -41.166602234794254 ], [ -73.150226288962145, -41.167134018530881 ], [ -73.149117544221042, -41.167881831136441 ], [ -73.148381501508155, -41.168252807838009 ], [ -73.147556179730756, -41.169225770886733 ], [ -73.147258791557647, -41.169495716735092 ], [ -73.146882227672009, -41.169985097888365 ], [ -73.146297447778238, -41.170137861597446 ], [ -73.145997013417983, -41.170515835120874 ], [ -73.145911649211484, -41.170955764514169 ], [ -73.145827076420744, -41.171391238168773 ], [ -73.145744859910991, -41.171718705352866 ], [ -73.145518105370343, -41.172043858991408 ], [ -73.145291346338126, -41.172368938663652 ], [ -73.144916225146829, -41.172804338010984 ], [ -73.143952637375861, -41.17355431864101 ], [ -73.143499882879411, -41.174150521079667 ], [ -73.143133383718194, -41.174306762766591 ], [ -73.142841256079393, -41.174360590019987 ], [ -73.14255316187618, -41.174297350464379 ], [ -73.142193637234868, -41.174183570364349 ], [ -73.141758643329894, -41.174176520590933 ], [ -73.141312255193853, -41.174552141413486 ], [ -73.141011675306515, -41.174930108402044 ], [ -73.140573621739691, -41.17503558526974 ], [ -73.140065616361682, -41.175027321198122 ], [ -73.139911241778435, -41.175353621410594 ], [ -73.139900326349405, -41.175736276975975 ], [ -73.139670478010913, -41.176169378691853 ], [ -73.138860385372539, -41.176597697858057 ], [ -73.138423902060836, -41.176644686031338 ], [ -73.138134220534511, -41.176639990866697 ], [ -73.137693905908122, -41.176795035923867 ], [ -73.137547774265897, -41.176851194508451 ], [ -73.136970886970232, -41.17672928548356 ], [ -73.136827134965216, -41.176672936121115 ], [ -73.136243939699611, -41.176771594634737 ], [ -73.135802714181509, -41.176985089978444 ], [ -73.134495713952134, -41.17701800598514 ], [ -73.134063757251127, -41.176902895901868 ], [ -73.13363199638286, -41.176787776150299 ], [ -73.132979531127376, -41.176777224223137 ], [ -73.132466972189192, -41.176931010651508 ], [ -73.132022774145838, -41.177252594089815 ], [ -73.131145834273894, -41.177459081718489 ], [ -73.130200705983682, -41.177551754554507 ], [ -73.129764908984853, -41.177544688240168 ], [ -73.129406164081203, -41.177430840757594 ], [ -73.128754582767954, -41.177366161284326 ], [ -73.128460150950417, -41.177523457514077 ], [ -73.128450849793978, -41.177852130694909 ], [ -73.128591231320058, -41.17802103360566 ], [ -73.128805628635661, -41.178132617726135 ], [ -73.129015368186515, -41.178410713441245 ], [ -73.128637037314704, -41.178954098263127 ], [ -73.128339629378644, -41.179219421958308 ], [ -73.127820598078856, -41.179598338328141 ], [ -73.127445513718484, -41.180029031889049 ], [ -73.127653679420959, -41.180361258969754 ], [ -73.128085450170687, -41.180476325789286 ], [ -73.128371274331158, -41.180647605205252 ], [ -73.128577861693685, -41.18103381115403 ], [ -73.128637625711221, -41.1814716145783 ], [ -73.128773469846791, -41.181802599794125 ], [ -73.128981638244227, -41.182134676575174 ], [ -73.129045147338175, -41.182468996956743 ], [ -73.129104915847293, -41.182906800252056 ], [ -73.129170915969524, -41.183128609636519 ], [ -73.129158459031487, -41.183565317336289 ], [ -73.128928516369882, -41.183998402439592 ], [ -73.128693818925512, -41.184598076734211 ], [ -73.128236977094502, -41.18536078634439 ], [ -73.127999199327007, -41.186068418792317 ], [ -73.127617651588182, -41.186719763042277 ], [ -73.127389370809851, -41.18709886113794 ], [ -73.127226887134526, -41.187699702941508 ], [ -73.126919925615411, -41.188298206263624 ], [ -73.127269522076247, -41.188740728430872 ], [ -73.127402208633569, -41.189184323827142 ], [ -73.127311256906012, -41.189840356988626 ], [ -73.127011325602339, -41.190164193716868 ], [ -73.126716936903932, -41.190321557229701 ], [ -73.126374675187435, -41.190388577081968 ], [ -73.126037137710995, -41.190454615307281 ], [ -73.125826109976018, -41.189939103152582 ], [ -73.125766219296025, -41.189792684019018 ], [ -73.125475716709545, -41.189592575605154 ], [ -73.125196761966066, -41.189400609184034 ], [ -73.124915717741203, -41.189276362868689 ], [ -73.124551411367634, -41.189115340937313 ], [ -73.12412117853367, -41.188941708134003 ], [ -73.123621686489614, -41.188658873598499 ], [ -73.123422254208322, -41.187998061237082 ], [ -73.123507671415439, -41.187562572243273 ], [ -73.123961499398661, -41.186912410660256 ], [ -73.124268487867212, -41.186313988641515 ], [ -73.124147527019261, -41.185487851805469 ], [ -73.123659872075706, -41.184768331951879 ], [ -73.123645942798916, -41.184734676846489 ], [ -73.099015663946005, -41.184111943739765 ], [ -73.014008341934698, -41.181922073556585 ], [ -73.014309335047059, -41.189200521880402 ], [ -73.0144035296928, -41.191480674433087 ], [ -73.014355206618731, -41.192042783161483 ], [ -73.014057385457633, -41.192501474552216 ], [ -73.013531887186105, -41.192852737488103 ], [ -73.012934251502315, -41.193171106215182 ], [ -73.012315780293818, -41.193466666735425 ], [ -73.011715000506513, -41.193762566610239 ], [ -73.01111227496834, -41.194053883441967 ], [ -73.010505163854916, -41.194340628783081 ], [ -73.009891627092273, -41.194618225759278 ], [ -73.009271570357299, -41.194886678542709 ], [ -73.008643060475521, -41.195141554326568 ], [ -73.008003862438457, -41.195378210144824 ], [ -73.007354736220904, -41.195601118288558 ], [ -73.006697526064087, -41.195814861832886 ], [ -73.006036913088977, -41.196024146809755 ], [ -73.005376876832301, -41.196233333781478 ], [ -73.004721106674893, -41.196451663558911 ], [ -73.00407139565408, -41.196670146722468 ], [ -73.003425416234947, -41.196906644252408 ], [ -73.002447401520513, -41.197281358062973 ], [ -72.991869129992239, -41.199808391538532 ], [ -72.975668549239046, -41.20328055671574 ], [ -72.968933727738715, -41.203923092165752 ], [ -72.960430353412676, -41.204051941702417 ], [ -72.94584977917151, -41.202689370218017 ], [ -72.930851945565706, -41.199286409526472 ], [ -72.925096683882117, -41.197966892705729 ], [ -72.920288566308216, -41.196878451558362 ], [ -72.919859075482677, -41.196781184676823 ], [ -72.919844221839455, -41.196777781323597 ], [ -72.913882082637485, -41.194877539581562 ], [ -72.909850303505195, -41.193259781406304 ], [ -72.906409755068694, -41.191661631635803 ], [ -72.903129906253369, -41.189660964453097 ], [ -72.899133262926767, -41.187426460719635 ], [ -72.894963525024707, -41.184837455310038 ], [ -72.89141227629743, -41.182092957735051 ], [ -72.890227810764401, -41.18116491592113 ], [ -72.930914365901543, -41.250000051849582 ], [ -72.939926335798731, -41.26524712023577 ], [ -72.95042117539667, -41.282922641631878 ], [ -72.953643078384587, -41.284527765605937 ], [ -72.95392961311245, -41.286289679642458 ], [ -72.95797719091567, -41.28869429002458 ], [ -72.964113305042076, -41.291986913451048 ], [ -72.978879155912267, -41.291679774471042 ], [ -72.981373906813658, -41.291714509832723 ], [ -72.981523926364432, -41.291690132377909 ], [ -72.981646885065572, -41.291674291785824 ], [ -72.981812357435857, -41.291677190731242 ], [ -72.981948492625577, -41.291670555892068 ], [ -72.982100313298488, -41.291682188121321 ], [ -72.982220452187946, -41.291684296690477 ], [ -72.982371825499854, -41.291686944551003 ], [ -72.982601062983946, -41.2917090258005 ], [ -72.98281249226585, -41.291703690258551 ], [ -72.982948295977252, -41.291706066785267 ], [ -72.983069356538195, -41.291699215962538 ], [ -72.9831906326948, -41.29171035681734 ], [ -72.983448494097104, -41.291723845848104 ], [ -72.983645729997519, -41.29171833684326 ], [ -72.98378276979075, -41.291729742953166 ], [ -72.984024081530578, -41.291742918124683 ], [ -72.984160789845461, -41.29176333423564 ], [ -72.984387222789238, -41.291776287339502 ], [ -72.984538918596328, -41.291797068591698 ], [ -72.984812224733304, -41.291792757641673 ], [ -72.985054093428602, -41.291815058891231 ], [ -72.985250994257427, -41.291818485646544 ], [ -72.985507841461768, -41.291841004898238 ], [ -72.985705078260494, -41.291835493203457 ], [ -72.985977603761498, -41.291831205204467 ], [ -72.986265782406335, -41.2918542590172 ], [ -72.986537748256922, -41.291868063222772 ], [ -72.986721454630825, -41.291889280467309 ], [ -72.986948450818289, -41.291884209522877 ], [ -72.987220964641196, -41.291906992659598 ], [ -72.987523243242734, -41.291930291454428 ], [ -72.987720475549878, -41.291924702822229 ], [ -72.987962346041812, -41.291946998627061 ], [ -72.988265639739609, -41.291961260432664 ], [ -72.988568579501205, -41.291966534532612 ], [ -72.988750817129613, -41.291987725421876 ], [ -72.989023017440502, -41.29199251625198 ], [ -72.989341510632897, -41.292025058519755 ], [ -72.989493900837701, -41.292018735545064 ], [ -72.989765180375414, -41.292032482344673 ], [ -72.989962415377505, -41.292026963916506 ], [ -72.990251283928458, -41.292050056807398 ], [ -72.990371325799899, -41.292052159290066 ], [ -72.990659505343046, -41.292075202225483 ], [ -72.990795760907005, -41.292086552926769 ], [ -72.991008332845951, -41.29209031039521 ], [ -72.991175138316109, -41.292102222655437 ], [ -72.991356140761027, -41.292114379246712 ], [ -72.991568475544739, -41.292127069723932 ], [ -72.99177979253723, -41.292148720879204 ], [ -72.991962500882863, -41.292151965379574 ], [ -72.992159499628045, -41.292155377268209 ], [ -72.992280327525336, -41.292157523619409 ], [ -72.992432029620616, -41.292151147336227 ], [ -72.992553307573871, -41.292162279339493 ], [ -72.993264029473835, -41.292156619857082 ], [ -72.994082839363728, -41.292179952985364 ], [ -72.994202881235154, -41.292182051414102 ], [ -72.994385914770916, -41.292176206321344 ], [ -72.994552367203184, -41.292179126842903 ], [ -72.994688405374859, -41.292172480580632 ], [ -72.994916636745842, -41.292176424331167 ], [ -72.995066875485534, -41.292170095296527 ], [ -72.995233128491776, -41.292172946973174 ], [ -72.995415479307937, -41.292167124153046 ], [ -72.995550503281663, -41.292169512812002 ], [ -72.995687872756591, -41.292171892696523 ], [ -72.995868779081775, -41.292184045225085 ], [ -72.996006284202323, -41.292177419886841 ], [ -72.996142210982896, -41.292197775790989 ], [ -72.996309350626362, -41.292200742208415 ], [ -72.996475249696402, -41.29219460486275 ], [ -72.996688724442194, -41.292216320116097 ], [ -72.996823060306397, -41.292218656126977 ], [ -72.997005862076847, -41.292221815579872 ], [ -72.997126811246687, -41.292241952785645 ], [ -72.997369574664006, -41.29223719842129 ], [ -72.997551249048769, -41.292276319999161 ], [ -72.997793903769946, -41.292298567762245 ], [ -72.997916194124514, -41.292300658087768 ], [ -72.998157611865551, -41.292313874316022 ], [ -72.998294421690048, -41.292334270674687 ], [ -72.998505878819728, -41.292346978657889 ], [ -72.998657903410205, -41.292358655988245 ], [ -72.998945305012327, -41.292381705564914 ], [ -72.999112672827863, -41.292375586459912 ], [ -72.999233398317187, -41.292377655859497 ], [ -72.999414955920955, -41.292398853364723 ], [ -72.999703150735471, -41.292394873855237 ], [ -72.999823974141165, -41.292396939204501 ], [ -73.000095814227606, -41.292392641793107 ], [ -73.000292719548, -41.292396116439583 ], [ -73.000429541948932, -41.292389510021465 ], [ -73.000581011380561, -41.292392131530335 ], [ -73.001186241421763, -41.292393561076025 ], [ -73.002247134704319, -41.29238495005368 ], [ -73.008406123531117, -41.292113435661498 ], [ -73.010070324460159, -41.292196278745706 ], [ -73.01227593821433, -41.292144308709375 ], [ -73.013354421408465, -41.292167438006238 ], [ -73.013367108315222, -41.29287915326659 ], [ -73.052459282282143, -41.294368541714789 ], [ -73.052210463321501, -41.293706028769314 ], [ -73.052130200647483, -41.293499949200104 ], [ -73.052399853336212, -41.29398579097986 ], [ -73.052712446393841, -41.294594638256946 ], [ -73.052648262665087, -41.295197001952651 ], [ -73.052634681036324, -41.295651595264481 ], [ -73.052762885898716, -41.296108638714465 ], [ -73.052894261814075, -41.296462222295439 ], [ -73.053166577109295, -41.296867635293488 ], [ -73.053190476787435, -41.297268826295038 ], [ -73.05332273125515, -41.297590731353935 ], [ -73.05362837314911, -41.298082308941808 ], [ -73.053976315811468, -41.29832689470588 ], [ -73.054399187849981, -41.298442177180917 ], [ -73.054536930125764, -41.298579615313066 ], [ -73.054814850908372, -41.298795980947077 ], [ -73.054973376606554, -41.299240002153589 ], [ -73.055110108277631, -41.299512470178811 ], [ -73.055247514583485, -41.299789487067962 ], [ -73.05567661194695, -41.300017484155326 ], [ -73.055891311994799, -41.300129188177138 ], [ -73.056170754523507, -41.300521212649521 ], [ -73.056223554800951, -41.301179642307808 ], [ -73.056286186240868, -41.301509460327722 ], [ -73.056421964799426, -41.301840457672427 ], [ -73.056704913452677, -41.302115434724058 ], [ -73.056990151911592, -41.302286981409821 ], [ -73.05741126415046, -41.302789372381341 ], [ -73.05754705708209, -41.303120442186 ], [ -73.057434049019349, -41.304487657936065 ], [ -73.05755923644071, -41.305147293262962 ], [ -73.057717960666565, -41.305627006003043 ], [ -73.060868772779529, -41.305780905211464 ], [ -73.061505744791305, -41.302017862789974 ], [ -73.083182001867272, -41.302798554297091 ], [ -73.083083147660133, -41.306174634690159 ], [ -73.112213454283818, -41.306805623823955 ], [ -73.113278442087434, -41.307138555924936 ], [ -73.114038269494088, -41.307376105370103 ], [ -73.114377302665474, -41.307558710909632 ], [ -73.114560815901612, -41.307584893579801 ], [ -73.114798627805087, -41.307618868077128 ], [ -73.115258964082543, -41.307546615229086 ], [ -73.115763051009282, -41.307182742369534 ], [ -73.125074901904497, -41.307331356951295 ], [ -73.123509138364298, -41.30054612399779 ], [ -73.135602862386975, -41.298823782133745 ], [ -73.135801615541894, -41.299424908865781 ], [ -73.136080253180111, -41.299866259365636 ], [ -73.136214857640581, -41.300251197264998 ], [ -73.136487903266143, -41.300859091191171 ], [ -73.137065394229708, -41.30168366820967 ], [ -73.13718659313119, -41.301856714204533 ], [ -73.137393577549076, -41.30224288072764 ], [ -73.137669780752859, -41.302742737326113 ], [ -73.138236919531067, -41.30324731261279 ], [ -73.138586386634472, -41.303743790719928 ], [ -73.138780929385646, -41.304571158104771 ], [ -73.138838494327388, -41.305117023584401 ], [ -73.138824371912804, -41.305612210708318 ], [ -73.13858863691425, -41.306211867219481 ], [ -73.138489687485716, -41.307142456258276 ], [ -73.138480614501333, -41.307461012161184 ], [ -73.139959746312186, -41.307517422961212 ], [ -73.172998470023472, -41.308771980278912 ], [ -73.172981151403107, -41.30939224504791 ], [ -73.190586542750424, -41.30979856350914 ], [ -73.190820434406021, -41.303154854955771 ], [ -73.191264647720757, -41.3032418524947 ], [ -73.192469332534202, -41.303981373452558 ], [ -73.192515417006589, -41.30480173991544 ], [ -73.192194402243189, -41.30550375451589 ], [ -73.191598112235681, -41.306007790184729 ], [ -73.191485705145865, -41.306186125997201 ], [ -73.192601656172172, -41.306599959484736 ], [ -73.193301581220751, -41.306962279507829 ], [ -73.194720037224059, -41.307804181549059 ], [ -73.196172099202144, -41.307939561411175 ], [ -73.197436600135404, -41.307999894347269 ], [ -73.199224296059839, -41.309099782124861 ], [ -73.200399183755309, -41.310766436547823 ], [ -73.200919461018415, -41.311040267332352 ], [ -73.203558172333985, -41.311279619003237 ], [ -73.204545754106206, -41.311833611684804 ], [ -73.210429713827295, -41.310347464854296 ], [ -73.212145617292521, -41.310284057834139 ], [ -73.214580749703458, -41.310484072228519 ], [ -73.222625067851325, -41.310766236818658 ], [ -73.223084968445875, -41.30699938674946 ], [ -73.229956079646158, -41.3070602941347 ], [ -73.229674982420732, -41.308564614940089 ], [ -73.229253025765473, -41.310805283180585 ], [ -73.235739439733536, -41.310607729280207 ], [ -73.240259976042267, -41.311028164875367 ], [ -73.25238220899881, -41.311622685297628 ], [ -73.262165602654662, -41.312184015625569 ], [ -73.262375081694088, -41.307675909671659 ], [ -73.268993975606989, -41.308978062877841 ], [ -73.269888191878465, -41.306780274221182 ], [ -73.275028078846361, -41.307015141294286 ], [ -73.275106186461997, -41.312322352570156 ], [ -73.280636443523107, -41.312574303039433 ], [ -73.280293695818031, -41.305686587987481 ], [ -73.280919193648685, -41.305788241769619 ], [ -73.281117325169433, -41.305890327272365 ], [ -73.281321121466362, -41.305974349297635 ], [ -73.281564267566011, -41.306009473835346 ], [ -73.281791922218559, -41.305981369348054 ], [ -73.281987171045571, -41.305970772803306 ], [ -73.28203485901075, -41.305971503622843 ], [ -73.282264787299297, -41.306001956453038 ], [ -73.28248289016544, -41.306081828933308 ], [ -73.282701479918472, -41.306175108405455 ], [ -73.282912617247902, -41.306232298371128 ], [ -73.283152723448623, -41.306244887579723 ], [ -73.28339879176788, -41.306230549944701 ], [ -73.283637803820568, -41.306198109237201 ], [ -73.283875542062205, -41.306183565100646 ], [ -73.284108109601036, -41.3061960645692 ], [ -73.284327577008114, -41.306253457633495 ], [ -73.284539226377277, -41.306355696938553 ], [ -73.284743823073114, -41.306466754437338 ], [ -73.284956160551758, -41.306569039969418 ], [ -73.285159955052066, -41.306626058189487 ], [ -73.285371654726873, -41.306611228706444 ], [ -73.285591938702524, -41.306524452949809 ], [ -73.285816035128249, -41.306428682595481 ], [ -73.286042113237485, -41.306378055966036 ], [ -73.286288094420158, -41.30639071397669 ], [ -73.286492000311554, -41.306474796089582 ], [ -73.286677412586215, -41.30657668212509 ], [ -73.286861461218237, -41.30670546901505 ], [ -73.287045704784703, -41.306825322630011 ], [ -73.287223979046104, -41.306945103821072 ], [ -73.287294453676765, -41.312617199742874 ], [ -73.299708746000164, -41.31285766096763 ], [ -73.30025367213635, -41.291883596662785 ], [ -73.300174740765598, -41.291901377702153 ], [ -73.300173112119992, -41.291901881219196 ], [ -73.300094908384608, -41.291927748896853 ], [ -73.299848551706148, -41.292014125604709 ], [ -73.299589570104686, -41.292100384756289 ], [ -73.299314637118712, -41.292195428305178 ], [ -73.299071780276591, -41.292236897392527 ], [ -73.29866084954314, -41.292311873759516 ], [ -73.298312136126256, -41.292315698035161 ], [ -73.29799437506081, -41.292338059851588 ], [ -73.297752662672352, -41.292334487334095 ], [ -73.297404428057533, -41.292320292430311 ], [ -73.297088114177996, -41.292315598817297 ], [ -73.296830162944161, -41.292329818695308 ], [ -73.296467146551336, -41.292315436828929 ], [ -73.296361424723855, -41.292331855698656 ], [ -73.296119423976208, -41.292337289732124 ], [ -73.295831403434875, -41.292333009865537 ], [ -73.295559149225085, -41.292329026302347 ], [ -73.295286791709032, -41.29232497051909 ], [ -73.295029908572062, -41.292330147396655 ], [ -73.294728574998217, -41.292325698791714 ], [ -73.294428613151808, -41.292321272459894 ], [ -73.29532543184267, -41.275847410506529 ], [ -73.29544376242346, -41.27170145572083 ], [ -73.296291566337473, -41.267219524850198 ], [ -73.296494585591674, -41.262849697676984 ], [ -73.296890864802862, -41.25526718494632 ], [ -73.29722118072273, -41.255272021693528 ], [ -73.297991519316525, -41.255310488070656 ], [ -73.298686705751976, -41.255338777142597 ], [ -73.299396660490686, -41.255349321806776 ], [ -73.300031271729893, -41.255358699492461 ], [ -73.300730159224301, -41.255359987354012 ], [ -73.300740324560053, -41.255342124773144 ], [ -73.300857335515701, -41.255172659625387 ], [ -73.300973478698793, -41.255012300287774 ], [ -73.301033843689254, -41.254842077904549 ], [ -73.301014175974416, -41.254679645809802 ], [ -73.300931297406308, -41.254507260788095 ], [ -73.300856296164909, -41.254091820444359 ], [ -73.300951844571799, -41.253859057672308 ], [ -73.301096276601484, -41.253726112326817 ], [ -73.302639770007502, -41.252595939673569 ], [ -73.302954627717966, -41.252303401762831 ], [ -73.303165853082305, -41.251982287023409 ], [ -73.303247935743059, -41.250740552465331 ], [ -73.303254275154018, -41.247299919074564 ], [ -73.30341105812056, -41.246770832998244 ], [ -73.303677620604702, -41.246270388209972 ], [ -73.303753294684242, -41.245740061131514 ], [ -73.30371768456807, -41.245271216931826 ], [ -73.303712155437495, -41.245198986895332 ], [ -73.303644257175051, -41.245026927410436 ], [ -73.303069213222344, -41.244216759760121 ], [ -73.30295416418727, -41.243881896293622 ], [ -73.30304296444973, -41.243531875905518 ], [ -73.30371888651392, -41.242370953875565 ], [ -73.303807728098889, -41.24147153023037 ], [ -73.303773666678254, -41.241119840652615 ], [ -73.303595002548036, -41.240585759300004 ], [ -73.303321770971209, -41.240077349029548 ], [ -73.303056111293913, -41.239794153901038 ], [ -73.302748442800691, -41.238942990607264 ], [ -73.302318607920398, -41.238089982888347 ], [ -73.301990550365147, -41.237625815124822 ], [ -73.301327604465257, -41.236877423015549 ], [ -73.301095699883078, -41.23655880622502 ], [ -73.300446416460332, -41.235198163587555 ], [ -73.299210425359234, -41.233882923093418 ], [ -73.298739126940376, -41.233254443103398 ], [ -73.298267426076251, -41.232031503171761 ], [ -73.298222942401694, -41.229785617149993 ], [ -73.298423792224497, -41.229552679962886 ], [ -73.29927255104765, -41.229403131562435 ], [ -73.299762530831174, -41.228851849435486 ], [ -73.300036749656499, -41.228459634980716 ], [ -73.300868245554824, -41.228426900228719 ], [ -73.301361005624159, -41.228317065192584 ], [ -73.301733758856358, -41.228205449727923 ], [ -73.302008054038467, -41.227808654080093 ], [ -73.301651757043956, -41.227285496225718 ], [ -73.301240352898347, -41.226842590796188 ], [ -73.300511050245035, -41.226471549420232 ], [ -73.300256469490137, -41.226107454181104 ], [ -73.300372894744214, -41.225672235643422 ], [ -73.300593918033357, -41.225315278189889 ], [ -73.300970083965325, -41.225041549784514 ], [ -73.301354206275761, -41.224488763365102 ], [ -73.301948318767018, -41.223979678583341 ], [ -73.301908429975143, -41.223501624400754 ], [ -73.301639422276779, -41.222862633897343 ], [ -73.301047415436557, -41.222052275293144 ], [ -73.301004477762618, -41.22169582578659 ], [ -73.301539438887346, -41.221424489018794 ], [ -73.302348472412021, -41.220756434306338 ], [ -73.303200948463811, -41.220489801878145 ], [ -73.303728521843652, -41.220330854092403 ], [ -73.304367173705003, -41.220308783160831 ], [ -73.305280059663033, -41.219723198705744 ], [ -73.305203193519134, -41.219423124802667 ], [ -73.305136453185085, -41.219162652097729 ], [ -73.305273687912717, -41.218845558515397 ], [ -73.304772113573833, -41.218698078308691 ], [ -73.304529742720291, -41.218613399968461 ], [ -73.304257187574891, -41.218573373388331 ], [ -73.304001437213486, -41.218515528868828 ], [ -73.303728390689628, -41.218466519273306 ], [ -73.303472758905855, -41.218435741796135 ], [ -73.303139771396332, -41.21839480289092 ], [ -73.302821931279141, -41.218345033024079 ], [ -73.302445218273164, -41.218267519531572 ], [ -73.302067332965748, -41.218207824626425 ], [ -73.301674190671548, -41.218130037305279 ], [ -73.301356047822082, -41.218062203236862 ], [ -73.301023834660356, -41.217994304904678 ], [ -73.300721440176162, -41.217926764633994 ], [ -73.300435201892341, -41.217895502410876 ], [ -73.300087534114439, -41.217818368816971 ], [ -73.299755636261366, -41.217795451033609 ], [ -73.299512617722499, -41.217764782707683 ], [ -73.299256510729933, -41.217752010878897 ], [ -73.299078919188162, -41.217731360797558 ], [ -73.298999223351117, -41.217725711080142 ], [ -73.298819782178143, -41.217718554500415 ], [ -73.298501174001387, -41.217668876017349 ], [ -73.298229781275964, -41.217610718513484 ], [ -73.297988529723241, -41.217571202843047 ], [ -73.297687224895498, -41.217521686422018 ], [ -73.297384737884812, -41.217454140933164 ], [ -73.29705204502271, -41.217404173714286 ], [ -73.296779694693186, -41.217355195720856 ], [ -73.296538134120013, -41.21729754135481 ], [ -73.296235953434859, -41.217248053782917 ], [ -73.295888882138328, -41.217179884314241 ], [ -73.295510117380246, -41.217093203849906 ], [ -73.29522436418668, -41.21704391073358 ], [ -73.294999743144842, -41.217022577265702 ], [ -73.294921799022575, -41.217012358876055 ], [ -73.294649146859115, -41.216945314929248 ], [ -73.29439274342252, -41.216914544845039 ], [ -73.294090163885357, -41.21685592041559 ], [ -73.293728038621282, -41.216787568090496 ], [ -73.293440331591981, -41.21672927127775 ], [ -73.293107645018097, -41.21667929269335 ], [ -73.292820811151245, -41.216611961893868 ], [ -73.292488798313798, -41.216534957878892 ], [ -73.292140953567809, -41.216466805911899 ], [ -73.291808558048061, -41.216407812129113 ], [ -73.291431572852545, -41.216339197149793 ], [ -73.291143867619866, -41.216280894531515 ], [ -73.290796712780008, -41.216239636004957 ], [ -73.290478693898081, -41.216171914851621 ], [ -73.290056527037052, -41.216093548027636 ], [ -73.289799334879632, -41.216035725641696 ], [ -73.289497454231764, -41.215977209894604 ], [ -73.289255912523231, -41.215946538013171 ], [ -73.288968995113052, -41.21588827288646 ], [ -73.288725694503171, -41.215839667443412 ], [ -73.288364652607342, -41.215789182723725 ], [ -73.288047432327701, -41.215748496241453 ], [ -73.287819378823144, -41.215691058048677 ], [ -73.287699492360275, -41.215680260338551 ], [ -73.287433750037977, -41.215649971464856 ], [ -73.289104404464027, -41.21429571680946 ], [ -73.289853778175726, -41.213460169626281 ], [ -73.290160531285693, -41.212987392013147 ], [ -73.290299585101778, -41.21277322542894 ], [ -73.289998522819147, -41.212255343388144 ], [ -73.290065096066542, -41.211702421862356 ], [ -73.290442011193434, -41.21091079312837 ], [ -73.290582054054667, -41.209967123675519 ], [ -73.29046815845642, -41.208992582324186 ], [ -73.290032167421487, -41.208927639372135 ], [ -73.289302045504641, -41.208799685429547 ], [ -73.288943592553451, -41.208479124673794 ], [ -73.288532158763431, -41.208193734118979 ], [ -73.28854247771109, -41.207797523963052 ], [ -73.288760011045355, -41.207485568353022 ], [ -73.289036976918808, -41.206895143663182 ], [ -73.289411634579409, -41.206626009552117 ], [ -73.28999888124693, -41.206197941541724 ], [ -73.289857184587291, -41.205601304328312 ], [ -73.290444415983472, -41.205177661854087 ], [ -73.289790994022212, -41.204794199685765 ], [ -73.289677649091246, -41.204450183870101 ], [ -73.290055555059908, -41.204023436457604 ], [ -73.290856425593574, -41.203440819947957 ], [ -73.292239100800785, -41.202668732954756 ], [ -73.293188765583182, -41.202408062415216 ], [ -73.293628857427407, -41.201621957465818 ], [ -73.294173248167667, -41.200837339510123 ], [ -73.294493290055641, -41.199648604713865 ], [ -73.293902601942236, -41.195874779955496 ], [ -73.294002557483907, -41.195295307770294 ], [ -73.294436417715005, -41.194693698156776 ], [ -73.295181886450152, -41.194281381841201 ], [ -73.295778313001591, -41.193502114764627 ], [ -73.296371642161901, -41.192835305323371 ], [ -73.296072097133788, -41.192087749866644 ], [ -73.295969518511484, -41.191329660626927 ], [ -73.295856345158725, -41.190494735479021 ], [ -73.295344927080961, -41.190009806969385 ], [ -73.29509200641273, -41.189650282777514 ], [ -73.294893538023729, -41.189314025091718 ], [ -73.294389607403858, -41.188455411339362 ], [ -73.293944566740748, -41.187457982902238 ], [ -73.293903906296038, -41.186984452248886 ], [ -73.293930317663708, -41.18693743633952 ], [ -73.293858377880824, -41.185832314780505 ], [ -73.293509227882694, -41.185764065932723 ], [ -73.293238472961121, -41.185715018282956 ], [ -73.292951397447467, -41.185665767780293 ], [ -73.292678586282193, -41.18560764808317 ], [ -73.29242308744908, -41.185576838923659 ], [ -73.292136302989576, -41.185518576499931 ], [ -73.291879048848386, -41.185496756810018 ], [ -73.291591584364213, -41.185456442927915 ], [ -73.291306267751892, -41.185398197298461 ], [ -73.29103337124667, -41.185376074018954 ], [ -73.290702126468801, -41.18533518000541 ], [ -73.290355430668043, -41.185284975299602 ], [ -73.290022617431703, -41.185243989961307 ], [ -73.289795538599222, -41.185150520118817 ], [ -73.289676660046098, -41.185337968065397 ], [ -73.289556991873852, -41.185525298517881 ], [ -73.289269100689921, -41.185367928209857 ], [ -73.289027252655856, -41.185238199522743 ], [ -73.288770365027318, -41.185144290233495 ], [ -73.288497853001047, -41.185077224449515 ], [ -73.28816472625266, -41.184964175643351 ], [ -73.28781771783818, -41.184841906504587 ], [ -73.287544712636816, -41.184738858974782 ], [ -73.287197900055077, -41.184607581529214 ], [ -73.286894593780872, -41.184521965309308 ], [ -73.286533225796575, -41.184408488946403 ], [ -73.286260911399665, -41.18433241110457 ], [ -73.285989183602624, -41.184265310009607 ], [ -73.285716960833867, -41.184162227768986 ], [ -73.285489698745096, -41.184077755553716 ], [ -73.285233112052168, -41.183974827838206 ], [ -73.284975937861063, -41.183862922395605 ], [ -73.284818461395133, -41.183794436897855 ], [ -73.284989953376112, -41.183289610458324 ], [ -73.286044543180338, -41.18302612326228 ], [ -73.286780551757232, -41.182919973038437 ], [ -73.287204368823438, -41.18272809049536 ], [ -73.287526893654842, -41.182417606224561 ], [ -73.287513860896709, -41.181976089942637 ], [ -73.287284971958925, -41.181661901837892 ], [ -73.287103840156632, -41.180551329720799 ], [ -73.287698068530545, -41.179997171454694 ], [ -73.287820763126987, -41.179174830452112 ], [ -73.287263591156872, -41.178454930216446 ], [ -73.28702797563426, -41.177460653064479 ], [ -73.287514186985149, -41.176873420737266 ], [ -73.288316319651798, -41.176254779320736 ], [ -73.289015614083041, -41.175553663800372 ], [ -73.290562300999895, -41.174468691342099 ], [ -73.29104104106257, -41.174196554224665 ], [ -73.291726876934206, -41.174008521278054 ], [ -73.291741241893931, -41.173454817494871 ], [ -73.291385207207483, -41.173053251290071 ], [ -73.29166202845218, -41.172462825024226 ], [ -73.292642569229201, -41.172288202750359 ], [ -73.29316327319205, -41.171143023855329 ], [ -73.292923387078588, -41.170108125751149 ], [ -73.292950315875856, -41.167635900714529 ], [ -73.293111002920611, -41.167241966773936 ], [ -73.292967126049774, -41.166586769617311 ], [ -73.293198967749873, -41.165721030372296 ], [ -73.29358290410903, -41.16505113828984 ], [ -73.294746048128815, -41.164636063462851 ], [ -73.296314671006584, -41.164735830927398 ], [ -73.297157913275569, -41.164590643064813 ], [ -73.297322464872693, -41.163935577646612 ], [ -73.296934902913037, -41.163335300964 ], [ -73.29615144622116, -41.162954369863279 ], [ -73.295532250970538, -41.162589499838305 ], [ -73.296285414674401, -41.161807915989343 ], [ -73.296822177819593, -41.161302480496488 ], [ -73.297609817965778, -41.161233059749669 ], [ -73.298234483956477, -41.161363951885242 ], [ -73.298862901311793, -41.161373207790263 ], [ -73.299463134025075, -41.160431718789106 ], [ -73.299785598669359, -41.160116778082994 ], [ -73.300057213278649, -41.15972444104878 ], [ -73.299895290152065, -41.15921767944301 ], [ -73.300029340352012, -41.158814331770024 ], [ -73.300227969539435, -41.158222680849867 ], [ -73.300290035939042, -41.157863333858202 ], [ -73.299913402883135, -41.157191253953371 ], [ -73.300248461009375, -41.156705221237992 ], [ -73.30030730515206, -41.15612971490134 ], [ -73.300841014025309, -41.155741219413756 ], [ -73.300855305323154, -41.155187443097383 ], [ -73.301135737795292, -41.154480016102859 ], [ -73.301669432295469, -41.154091590650914 ], [ -73.302249049571301, -41.153942437257697 ], [ -73.302782734190018, -41.1535540065913 ], [ -73.303323495736549, -41.152886402154927 ], [ -73.303288675239514, -41.152214890126558 ], [ -73.303266480563792, -41.151025514772485 ], [ -73.302937640575934, -41.150174028443786 ], [ -73.302686869576178, -41.149156966078223 ], [ -73.303284250138432, -41.148287485190572 ], [ -73.303928364655022, -41.147711536967492 ], [ -73.304762162037107, -41.147147292382847 ], [ -73.305325950997641, -41.146741274201773 ], [ -73.305548348709152, -41.145798707131235 ], [ -73.306052772504131, -41.145094609217111 ], [ -73.306481486286955, -41.144758631511287 ], [ -73.308019821566603, -41.144132713700074 ], [ -73.30937772572986, -41.14417964127081 ], [ -73.309645264682729, -41.144030417973703 ], [ -73.310232555367705, -41.142183594030229 ], [ -73.310880653014266, -41.141625529814405 ], [ -73.312209705985552, -41.14122619183032 ], [ -73.313052285297871, -41.141040344807315 ], [ -73.314049820403426, -41.140937860921575 ], [ -73.314878474930538, -41.141265266500227 ], [ -73.315499755170919, -41.141549108684877 ], [ -73.31602897246772, -41.141322627930066 ], [ -73.317558096422459, -41.140908119944534 ], [ -73.318496798165114, -41.141038986366489 ], [ -73.319174037159499, -41.141170447182255 ], [ -73.319857546394559, -41.141058832588833 ], [ -73.320338956250268, -41.140669484004839 ], [ -73.320772358340577, -41.140085795057139 ], [ -73.320573305148329, -41.139686606681863 ], [ -73.32037320811375, -41.139327879945689 ], [ -73.321052430588281, -41.13900006621617 ], [ -73.321562511074589, -41.138331834596102 ], [ -73.321828346821661, -41.137687165784151 ], [ -73.322619054714536, -41.137459973492412 ], [ -73.322998274918461, -41.136952078391481 ], [ -73.322959386849817, -41.136433568839053 ], [ -73.322726152761007, -41.136033898847394 ], [ -73.322661412076812, -41.135798734236708 ], [ -73.322668520445646, -41.13551963428764 ], [ -73.32278146472801, -41.135206015680957 ], [ -73.323048772813848, -41.134971203305199 ], [ -73.324042216991614, -41.135026202222377 ], [ -73.325092772461872, -41.135293701034222 ], [ -73.325662098637807, -41.135130875947475 ], [ -73.326190374500186, -41.134940307411554 ], [ -73.32682954738442, -41.134463190829543 ], [ -73.327135317737458, -41.133652511807682 ], [ -73.326816862274285, -41.132967781682979 ], [ -73.326793524043211, -41.132390930967688 ], [ -73.326827307884415, -41.131914093551636 ], [ -73.327770181403253, -41.130441514451007 ], [ -73.327717084681765, -41.130125510815958 ], [ -73.326325691324712, -41.130555622873281 ], [ -73.325513861344561, -41.130624966492441 ], [ -73.325166185481834, -41.130592826950313 ], [ -73.323867217089415, -41.129880348800867 ], [ -73.323122628703246, -41.129644339346513 ], [ -73.322339975105209, -41.129678041018913 ], [ -73.320723628329645, -41.12967697397093 ], [ -73.320049155248043, -41.129698627530274 ], [ -73.31968472580526, -41.129715785545208 ] ] ] } },
{ "type": "Feature", "properties": { "capa": "ds19", "popup": "<strong>CONJUNTO EL MAÑIO</strong><br><br><strong>Programa:</strong> DS19<br><strong>Comuna:</strong> Llanquihue<br><strong>Región:</strong> Los Lagos<br><strong>Año de inicio:</strong> 2020", "etiqueta": "CONJUNTO EL MAÑIO" }, "geometry": { "type": "Polygon", "coordinates": [ [ [ -72.999009957661627, -41.270763382433472 ], [ -72.999176956269579, -41.270677712185361 ], [ -72.999052117394541, -41.270467267104472 ], [ -72.998443017411091, -41.270692094769885 ], [ -72.99850256493464, -41.271773810391764 ], [ -72.99763107424323, -41.272180195771533 ], [ -72.997708930330589, -41.272317596732826 ], [ -72.998138616090543, -41.272180245733395 ], [ -72.998221886324117, -41.272276622030105 ], [ -72.999710101899126, -41.271740499139241 ], [ -72.999009957661627, -41.270763382433472 ] ] ] } },
{ "type": "Feature", "properties": { "capa": "colegios", "popup": "<strong>ESCUELA RURAL LONCOTORO</strong><br><br><strong>Dirección:</strong> RUTA V-40 18", "etiqueta": "" }, "geometry": { "type": "Point", "coordinates": [ -73.199158, -41.306999 ] } },
{ "type": "Feature", "properties": { "capa": "colegios", "popup": "<strong>ESCUELA PARTICULAR N.199 LINEA CRUZADA</strong><br><br><strong>Dirección:</strong> LINEA CRUZADA 0", "etiqueta": "" }, "geometry": { "type": "Point", "coordinates": [ -73.080383, -41.300621 ] } },
{ "type": "Feature", "properties": { "capa": "colegios", "popup": "<strong>ESCUELA RURAL LINEA SOLAR</strong><br><br><strong>Dirección:</strong> CAMINO LONCOTORO 5", "etiqueta": "" }, "geometry": { "type": "Point", "coordinates": [ -73.254539, -41.29282 ] } },
{ "type": "Feature", "properties": { "capa": "colegios", "popup": "<strong>ESCUELA PARTICULAR N.239 LOS VOLCANES</strong><br><br><strong>Dirección:</strong> AVENIDA PRESIDENTE EDUARDO FREI MONTALVA 901", "etiqueta": "" }, "geometry": { "type": "Point", "coordinates": [ -72.995537, -41.271839 ] } },
{ "type": "Feature", "properties": { "capa": "colegios", "popup": "<strong>LICEO POLITECNICO HOLANDA</strong><br><br><strong>Dirección:</strong> AVENIDA LOS VOLCANES 650", "etiqueta": "" }, "geometry": { "type": "Point", "coordinates": [ -72.997993, -41.2691 ] } },
{ "type": "Feature", "properties": { "capa": "colegios", "popup": "<strong>ESCUELA BASICA GABRIELA MISTRAL</strong><br><br><strong>Dirección:</strong> AVENIDA LOS VOLCANES 187", "etiqueta": "" }, "geometry": { "type": "Point", "coordinates": [ -72.996933, -41.268581 ] } },
{ "type": "Feature", "properties": { "capa": "colegios", "popup": "<strong>CENTRO DE INTEGRACION LABORAL LAGOS DEL SUR</strong><br><br><strong>Dirección:</strong> RAMON CARNICER 436", "etiqueta": "" }, "geometry": { "type": "Point", "coordinates": [ -72.99949437, -41.26595187 ] } },
{ "type": "Feature", "properties": { "capa": "colegios", "popup": "<strong>ESCUELA PARTICULAR LA COLONIA</strong><br><br><strong>Dirección:</strong> LA COLONIA 0", "etiqueta": "" }, "geometry": { "type": "Point", "coordinates": [ -73.197441, -41.262058 ] } },
{ "type": "Feature", "properties": { "capa": "colegios", "popup": "<strong>ESCUELA ESPECIAL DE LENGUAJE LOS CISNES</strong><br><br><strong>Dirección:</strong> SALOMON NEGRIN 840", "etiqueta": "" }, "geometry": { "type": "Point", "coordinates": [ -73.00266, -41.25464 ] } },
{ "type": "Feature", "properties": { "capa": "colegios", "popup": "<strong>SAINT PAUL COLLEGE</strong><br><br><strong>Dirección:</strong> SALOMON NEGRIN 936", "etiqueta": "" }, "geometry": { "type": "Point", "coordinates": [ -73.004997, -41.253281 ] } },
{ "type": "Feature", "properties": { "capa": "colegios", "popup": "<strong>ESCUELA INES GALLARDO ALVARADO</strong><br><br><strong>Dirección:</strong> BAQUEDANO 1009", "etiqueta": "" }, "geometry": { "type": "Point", "coordinates": [ -73.007477, -41.252258 ] } },
{ "type": "Feature", "properties": { "capa": "colegios", "popup": "<strong>ESCUELA ESPECIAL DE LENGUAJE GIRASOLES</strong><br><br><strong>Dirección:</strong> NUEVA 2 0", "etiqueta": "" }, "geometry": { "type": "Point", "coordinates": [ -73.010056, -41.246246 ] } },
{ "type": "Feature", "properties": { "capa": "colegios", "popup": "<strong>ESCUELA RURAL COLEGUAL</strong><br><br><strong>Dirección:</strong> RUTA V-30 7", "etiqueta": "" }, "geometry": { "type": "Point", "coordinates": [ -73.135674, -41.221062 ] } },
{ "type": "Feature", "properties": { "capa": "colegios", "popup": "<strong>ESCUELA RURAL JOSE WERNER MEIXNER</strong><br><br><strong>Dirección:</strong> CAMINO LAS LOMAS 12", "etiqueta": "" }, "geometry": { "type": "Point", "coordinates": [ -73.031693, -41.220112 ] } },
{ "type": "Feature", "properties": { "capa": "colegios", "popup": "<strong>ESCUELA RURAL LOS PELLINES</strong><br><br><strong>Dirección:</strong> LOS CARRERA 14", "etiqueta": "" }, "geometry": { "type": "Point", "coordinates": [ -73.065666, -41.19112 ] } },
{ "type": "Feature", "properties": { "capa": "colegios", "popup": "<strong>ESCUELA RURAL COLIGUAL SAN JUAN</strong><br><br><strong>Dirección:</strong> COLIGUAL SAN JUAN 0", "etiqueta": "" }, "geometry": { "type": "Point", "coordinates": [ -73.217667, -41.186901 ] } },
{ "type": "Feature", "properties": { "capa": "jardines", "popup": "<strong>LOS VOLCANES</strong><br><br><strong>Dirección:</strong> AVDA. LOS VOLCANES S/N ", "etiqueta": "" }, "geometry": { "type": "MultiPoint", "coordinates": [ [ -72.996257, -41.268838 ] ] } },
{ "type": "Feature", "properties": { "capa": "jardines", "popup": "<strong>MAPU ALIWEN</strong><br><br><strong>Dirección:</strong> SARGENTO ALDEA S/N PELLINES ", "etiqueta": "" }, "geometry": { "type": "MultiPoint", "coordinates": [ [ -73.068433, -41.188608 ] ] } },
{ "type": "Feature", "properties": { "capa": "jardines", "popup": "<strong>GOTITAS DE LAGUNA</strong><br><br><strong>Dirección:</strong> ERARDO WERNER 642 ", "etiqueta": "" }, "geometry": { "type": "MultiPoint", "coordinates": [ [ -73.009369, -41.256052 ] ] } },
{ "type": "Feature", "properties": { "capa": "jardines", "popup": "<strong>MI PEQUENO PARAISO</strong><br><br><strong>Dirección:</strong> MANUEL MATTA ESQ.OTTO SCHOEBITZ S/N ", "etiqueta": "" }, "geometry": { "type": "MultiPoint", "coordinates": [ [ -73.008517, -41.259714 ] ] } },
{ "type": "Feature", "properties": { "capa": "jardines", "popup": "<strong>CECI COLIGUAL SAN JUAN</strong><br><br><strong>Dirección:</strong> ESCUELA RURAL COLIGUAL SAN JUAN ", "etiqueta": "" }, "geometry": { "type": "MultiPoint", "coordinates": [ [ -73.218038, -41.18691 ] ] } },
{ "type": "Feature", "properties": { "capa": "jardines", "popup": "<strong>NA</strong><br><br><strong>Dirección:</strong> NA ", "etiqueta": "" }, "geometry": { "type": "MultiPoint", "coordinates": [ [ -73.01201799949051, -41.253301999877699 ] ] } },
{ "type": "Feature", "properties": { "capa": "bomberos", "popup": "<strong>Cuerpo de Bomberos</strong><br><br><strong>Dirección:</strong> Baquedano 1001", "etiqueta": "" }, "geometry": { "type": "Point", "coordinates": [ -73.007387037607486, -41.253148347411638 ] } },
{ "type": "Feature", "properties": { "capa": "comisarias", "popup": "<strong>RETEN LONCOTORO</strong><br><br><strong>Dirección:</strong> LENIA BALMACEDA S/N", "etiqueta": "" }, "geometry": { "type": "Point", "coordinates": [ -73.21328618469839, -41.29456692141882 ] } },
{ "type": "Feature", "properties": { "capa": "comisarias", "popup": "<strong>RETEN LOS PELLINES</strong><br><br><strong>Dirección:</strong> RUTA 5 SUR KM 989", "etiqueta": "" }, "geometry": { "type": "Point", "coordinates": [ -73.069736224999914, -41.190419894999927 ] } },
{ "type": "Feature", "properties": { "capa": "comisarias", "popup": "<strong>SCOM. LLANQUIHUE</strong><br><br><strong>Dirección:</strong> LOS VOLCANES S/N", "etiqueta": "" }, "geometry": { "type": "Point", "coordinates": [ -72.99975399060807, -41.268983694829551 ] } },
{ "type": "Feature", "properties": { "capa": "salud", "popup": "<strong>Posta de Salud Rural Loncotoro</strong><br><br><strong>Tipo de atención:</strong> Posta de Salud Rural (PSR)<br><strong>Dirección:</strong>  NA", "etiqueta": "" }, "geometry": { "type": "Point", "coordinates": [ -73.21391, -41.292503 ] } },
{ "type": "Feature", "properties": { "capa": "salud", "popup": "<strong>Centro de Salud Familiar Los Volcanes</strong><br><br><strong>Tipo de atención:</strong> Centro de Salud Familiar (CESFAM)<br><strong>Dirección:</strong>  NA", "etiqueta": "" }, "geometry": { "type": "Point", "coordinates": [ -72.99869, -41.26876 ] } },
{ "type": "Feature", "properties": { "capa": "salud", "popup": "<strong>Hospital de Llanquihue</strong><br><br><strong>Tipo de atención:</strong> Hospital<br><strong>Dirección:</strong>  645", "etiqueta": "" }, "geometry": { "type": "Point", "coordinates": [ -73.01059, -41.25647 ] } },
{ "type": "Feature", "properties": { "capa": "salud", "popup": "<strong>Posta de Salud Rural Colegual</strong><br><br><strong>Tipo de atención:</strong> Posta de Salud Rural (PSR)<br><strong>Dirección:</strong>  NA", "etiqueta": "" }, "geometry": { "type": "Point", "coordinates": [ -73.214913, -41.234864 ] } },
{ "type": "Feature", "properties": { "capa": "salud", "popup": "<strong>Posta de Salud Rural Pellines (Llanquihue)</strong><br><br><strong>Tipo de atención:</strong> Posta de Salud Rural (PSR)<br><strong>Dirección:</strong>  NA", "etiqueta": "" }, "geometry": { "type": "Point", "coordinates": [ -73.068386, -41.189503 ] } },
{ "type": "Feature", "properties": { "capa": "salud", "popup": "<strong>Posta de Salud Rural Macal</strong><br><br><strong>Tipo de atención:</strong> Posta de Salud Rural (PSR)<br><strong>Dirección:</strong>  NA", "etiqueta": "" }, "geometry": { "type": "Point", "coordinates": [ -73.233283, -41.169974 ] } },
{ "type": "Feature", "properties": { "capa": "salud", "popup": "<strong>Centro Médico Andes Salud Llanquihue</strong><br><br><strong>Tipo de atención:</strong> Centro de Salud Privado<br><strong>Dirección:</strong>  637", "etiqueta": "" }, "geometry": { "type": "Point", "coordinates": [ -73.004274959999975, -41.255897809999965 ] } },
{ "type": "Feature", "properties": { "capa": "municipios", "popup": "<strong>Municipalidad de Llanquihue</strong><br><br><strong>Dirección:</strong> Erardo Werner Nº 450<br><strong>Región:</strong> Los Lagos", "etiqueta": "" }, "geometry": { "type": "Point", "coordinates": [ -73.00556389999997, -41.256451900999934 ] } }
]
}
