{
"type": "FeatureCollection",
"name": "10206",
"crs": { "type": "name", "properties": { "name": "urn:ogc:def:crs:OGC:1.3:CRS84" } },
"features": [
{ "type": "Feature", "properties": { "capa": "comuna", "popup": "", "etiqueta": "" }, "geometry": { "type": "Polygon", "coordinates": [ [ [ -73.593628998121702, -42.570182203893893 ], [ -73.593058584085952, -42.571035232077463 ], [ -73.593110029703965, -42.571490594300521 ], [ -73.593406930990213, -42.57189951405239 ], [ -73.593766466411324, -42.572268595753982 ], [ -73.594003713274475, -42.572586756703977 ], [ -73.594110014515309, -42.573312955935975 ], [ -73.593789696844553, -42.573943966752971 ], [ -73.593167521882151, -42.574386637005396 ], [ -73.592543285286169, -42.574878729800254 ], [ -73.591735575878218, -42.575413663285111 ], [ -73.59129871886735, -42.575768487956836 ], [ -73.59061166308355, -42.576349901273872 ], [ -73.590349275070523, -42.577116647053408 ], [ -73.589969017312441, -42.577697319507202 ], [ -73.589650985854092, -42.578193255166617 ], [ -73.588654778458505, -42.578905959930069 ], [ -73.587098882911675, -42.580016894678437 ], [ -73.58548553381425, -42.580902061159065 ], [ -73.584735459416621, -42.581572702931801 ], [ -73.5838067936523, -42.582015958642032 ], [ -73.582259401557977, -42.582717294035895 ], [ -73.581760640742544, -42.583075891597687 ], [ -73.58143509936842, -42.583931810417567 ], [ -73.581361834570473, -42.58447581290816 ], [ -73.580983917822039, -42.584921390021847 ], [ -73.580606814048906, -42.585326441788652 ], [ -73.579984334557608, -42.585769053726857 ], [ -73.579415583303472, -42.586531967331609 ], [ -73.578966325948414, -42.587431407828142 ], [ -73.578708709786184, -42.587973057032023 ], [ -73.578187227882282, -42.589371462983905 ], [ -73.578054332017444, -42.589820053292101 ], [ -73.577305069696834, -42.590445698206359 ], [ -73.576813622066169, -42.590484547797949 ], [ -73.576441398839975, -42.590705076622854 ], [ -73.576129125582597, -42.590971366318115 ], [ -73.576057090578274, -42.591425262271677 ], [ -73.576041642250331, -42.592105018397397 ], [ -73.575662257654727, -42.592640617526222 ], [ -73.575524208155102, -42.593318789104863 ], [ -73.575432642878198, -42.594632492387618 ], [ -73.57517268750297, -42.595309124614893 ], [ -73.57455036252189, -42.595706636935404 ], [ -73.573743021423226, -42.596196365993471 ], [ -73.573051506402351, -42.596957742788575 ], [ -73.572479391855779, -42.597855655415998 ], [ -73.57203305133045, -42.598620054403881 ], [ -73.571711467035158, -42.599291473645344 ], [ -73.571570283313534, -42.600104737660651 ], [ -73.571305383610976, -42.6009613735174 ], [ -73.570680529872376, -42.601498510597942 ], [ -73.570355758354452, -42.60230945070235 ], [ -73.569901094938018, -42.603433951676621 ], [ -73.569945448356862, -42.604159478215941 ], [ -73.569962566652904, -42.606109321156389 ], [ -73.570125461756632, -42.607016413862915 ], [ -73.57034992559332, -42.607924291384819 ], [ -73.570445993226429, -42.60905568863609 ], [ -73.570807627112046, -42.609334850489823 ], [ -73.570859332343161, -42.609740722751901 ], [ -73.570845827969492, -42.610330417989616 ], [ -73.571086999572145, -42.610513497967503 ], [ -73.57132827807429, -42.610696646826277 ], [ -73.571626075879195, -42.611065094244701 ], [ -73.57173636923315, -42.611606766132148 ], [ -73.571474528294132, -42.61232845622952 ], [ -73.570912621304146, -42.612776269094653 ], [ -73.570038359310061, -42.613485709265333 ], [ -73.569471252871196, -42.614158601873896 ], [ -73.568472159188616, -42.614961083163685 ], [ -73.567537803495298, -42.615629316395946 ], [ -73.567349610036544, -42.615897116579397 ], [ -73.56728417944619, -42.615990891820601 ], [ -73.566910774037069, -42.616256354211146 ], [ -73.566285034559627, -42.616793430150238 ], [ -73.566274749747933, -42.617243525296146 ], [ -73.565895973311768, -42.617738578470721 ], [ -73.565642501077932, -42.61809564449009 ], [ -73.56582082205172, -42.618322990871434 ], [ -73.566060948015362, -42.618555612265482 ], [ -73.566419595002657, -42.618965305440319 ], [ -73.566655740531303, -42.619333056781507 ], [ -73.566954821130395, -42.619651974382329 ], [ -73.567376450798918, -42.619972412713949 ], [ -73.567859894440403, -42.620298198466109 ], [ -73.56846525743228, -42.620620953681716 ], [ -73.568890986113416, -42.620761333476935 ], [ -73.5694364117129, -42.621042815278038 ], [ -73.56986015691389, -42.62127325307263 ], [ -73.570399386832861, -42.621820274349425 ], [ -73.571430261113562, -42.622332957959514 ], [ -73.572088222261954, -42.623021111391125 ], [ -73.572505828376279, -42.623521579793639 ], [ -73.573047121725452, -42.623983097835101 ], [ -73.57370998677699, -42.624491157214884 ], [ -73.574182377547217, -42.625267041076569 ], [ -73.574482322325665, -42.625585905148633 ], [ -73.574963924420842, -42.625952150028617 ], [ -73.575385674463561, -42.626277126531782 ], [ -73.575684835911062, -42.626596017817413 ], [ -73.575984987301993, -42.626869878786096 ], [ -73.576640679305967, -42.62769306652833 ], [ -73.577362510671065, -42.628291821239252 ], [ -73.577836770835418, -42.629022698021011 ], [ -73.578134869575948, -42.62938661601676 ], [ -73.578855754116702, -42.630030464144134 ], [ -73.579154881428224, -42.630353846354673 ], [ -73.579799384017022, -42.63167206457716 ], [ -73.580157152451974, -42.63213131080164 ], [ -73.580321186619486, -42.632993424542931 ], [ -73.58022016028599, -42.634757189603675 ], [ -73.580188291652973, -42.636157153960568 ], [ -73.580339043330696, -42.637608953500347 ], [ -73.580561720418274, -42.638606710991652 ], [ -73.580668051303519, -42.639332992831008 ], [ -73.58088484981586, -42.640560436847728 ], [ -73.580866327453009, -42.641375211177241 ], [ -73.580692180950351, -42.643633408184435 ], [ -73.580486834161249, -42.644585403004022 ], [ -73.580399119961953, -42.645759554772845 ], [ -73.580189976892441, -42.646842099882086 ], [ -73.580050537699108, -42.647610384766466 ], [ -73.580034075173202, -42.648335021995216 ], [ -73.580203302501374, -42.648972047653004 ], [ -73.580316832485295, -42.649378755697327 ], [ -73.580304425852916, -42.649923415023167 ], [ -73.580284813833615, -42.650783150164123 ], [ -73.580335584816865, -42.651238543517181 ], [ -73.58044595542593, -42.651780200865673 ], [ -73.580672959698219, -42.652598043827929 ], [ -73.580784258266974, -42.653099246932754 ], [ -73.580773011359625, -42.653594371062674 ], [ -73.58087848345545, -42.654320612056679 ], [ -73.581048536335359, -42.654957602838593 ], [ -73.581100272109197, -42.655363467060745 ], [ -73.581207645040152, -42.656044788168799 ], [ -73.581197218294662, -42.656499388536474 ], [ -73.581185975878881, -42.656994512022194 ], [ -73.581174670581021, -42.657494211099987 ], [ -73.581033340434004, -42.658307415962909 ], [ -73.580897239380263, -42.658895606746476 ], [ -73.58076327362194, -42.659389231371634 ], [ -73.580691835098975, -42.659843104398639 ], [ -73.580616452971896, -42.660477023610959 ], [ -73.580600085667442, -42.661197304249974 ], [ -73.581011762900886, -42.661972343377194 ], [ -73.581299636118516, -42.662790915682692 ], [ -73.581631227646085, -42.664380021519079 ], [ -73.581791867080128, -42.665494138610669 ], [ -73.581887867339617, -42.666675012985287 ], [ -73.581866324840789, -42.667624804338217 ], [ -73.581530000089984, -42.668930909707427 ], [ -73.581324522146843, -42.669882983643639 ], [ -73.580991234600006, -42.671054069366484 ], [ -73.580663159078469, -42.672000066044689 ], [ -73.580214482035089, -42.672809506693817 ], [ -73.57919782449207, -42.674381829145609 ], [ -73.577197872835683, -42.675986956842777 ], [ -73.575763310039349, -42.677009250541019 ], [ -73.575497965670706, -42.677198801417958 ], [ -73.573892182184593, -42.678345712825497 ], [ -73.572702339336274, -42.67937100954174 ], [ -73.571265742754107, -42.680483309979344 ], [ -73.56965035448097, -42.68136820121444 ], [ -73.568408395871415, -42.682032590590495 ], [ -73.567660275309549, -42.682523085585132 ], [ -73.566919070877049, -42.682738858730147 ], [ -73.566177970649122, -42.682954770463077 ], [ -73.564941412711065, -42.683348964260901 ], [ -73.563767752114259, -42.683694536032306 ], [ -73.562471224444465, -42.684042935501303 ], [ -73.560804429180891, -42.684472253029398 ], [ -73.559511971777653, -42.684640641413502 ], [ -73.558096994949452, -42.684802911890827 ], [ -73.552995993355268, -42.685143832703666 ], [ -73.546922870893226, -42.685066950907427 ], [ -73.541350568185223, -42.684590894054502 ], [ -73.540559121877209, -42.684306147025282 ], [ -73.539885216530834, -42.684252521148728 ], [ -73.539336000939173, -42.68415543936117 ], [ -73.538725266021913, -42.684012562481634 ], [ -73.538054517355448, -42.68382397604055 ], [ -73.537443470722764, -42.683726095210481 ], [ -73.536589007597556, -42.683535056643336 ], [ -73.535919451893804, -42.683296846486662 ], [ -73.535311566432611, -42.683063930223867 ], [ -73.53470582435169, -42.682741018135154 ], [ -73.534283866798134, -42.682415902027699 ], [ -73.534109945772613, -42.681963454465688 ], [ -73.533996812844038, -42.681552258291823 ], [ -73.533702962236489, -42.681008169220583 ], [ -73.533349172439941, -42.680413795046022 ], [ -73.532755571090092, -42.679546151819835 ], [ -73.532279136104435, -42.678950220944543 ], [ -73.531367102647607, -42.678578291474011 ], [ -73.530764762486669, -42.678115825829238 ], [ -73.530157972071805, -42.677837921460593 ], [ -73.529673345349082, -42.677561515010566 ], [ -73.529251548593933, -42.677236373781611 ], [ -73.528706829968584, -42.676914256283219 ], [ -73.52779367182103, -42.676627824308007 ], [ -73.526883948831113, -42.676165859288872 ], [ -73.526038188584394, -42.675610119045963 ], [ -73.525492469235786, -42.675332942511716 ], [ -73.524886852919025, -42.675009973072129 ], [ -73.5241000032903, -42.674545039166368 ], [ -73.523680338237341, -42.674134383029063 ], [ -73.523453748088386, -42.673361470987246 ], [ -73.523216831805243, -42.672993809721028 ], [ -73.522733300128834, -42.672672339953508 ], [ -73.522247192084194, -42.672485942259421 ], [ -73.521758402568409, -42.672385056223561 ], [ -73.521387684918665, -42.672519867015573 ], [ -73.521013982167204, -42.672740203113769 ], [ -73.520821670831182, -42.673097924471904 ], [ -73.52062393636578, -42.673685164937822 ], [ -73.52055032302151, -42.674184079979646 ], [ -73.520474385735611, -42.674813411417588 ], [ -73.520467844203694, -42.675088039611857 ], [ -73.520584227236967, -42.675359650331387 ], [ -73.520511640667067, -42.675813533570107 ], [ -73.520317256917679, -42.676261243688316 ], [ -73.520309759578311, -42.676576400955881 ], [ -73.520232950028259, -42.677210266436518 ], [ -73.520162184343448, -42.677619086085265 ], [ -73.520090463749483, -42.678068436221835 ], [ -73.519959090529071, -42.678431417489428 ], [ -73.519824505831522, -42.678924997946829 ], [ -73.519695291262721, -42.679197986013321 ], [ -73.519311974741115, -42.679823391451094 ], [ -73.519242334645341, -42.680187249378278 ], [ -73.519234828322823, -42.680502333902815 ], [ -73.51964909450092, -42.681142597434373 ], [ -73.519941620991744, -42.68173619199343 ], [ -73.52017441939762, -42.682279486863862 ], [ -73.520523685278391, -42.683053969936893 ], [ -73.520821351030946, -42.683467617336539 ], [ -73.521358504044969, -42.684104932206544 ], [ -73.521891609250332, -42.684881728826909 ], [ -73.522669038246661, -42.685751743430366 ], [ -73.524139342313219, -42.688445290016382 ], [ -73.52455174179218, -42.689171090889005 ], [ -73.524963969692891, -42.689901248473866 ], [ -73.525443710478797, -42.690362254978375 ], [ -73.525800238340338, -42.690866637290803 ], [ -73.52615806786072, -42.69132147690356 ], [ -73.526573507238595, -42.691916677704967 ], [ -73.526808682586719, -42.692324965471208 ], [ -73.527103262626284, -42.692873542262362 ], [ -73.527522064398241, -42.693329208344196 ], [ -73.527817901180867, -42.693787752418508 ], [ -73.528113848456286, -42.694246365734308 ], [ -73.528472635580755, -42.694656169286148 ], [ -73.528589425550848, -42.694882838475543 ], [ -73.528887200897842, -42.695296385981699 ], [ -73.52912352519121, -42.695659633024071 ], [ -73.529364841422634, -42.695842866047549 ], [ -73.529661828947141, -42.696256442812825 ], [ -73.529779418417831, -42.696483004486979 ], [ -73.53025882682708, -42.696988994237209 ], [ -73.530798666702111, -42.697491257591103 ], [ -73.531521558079248, -42.698090404068957 ], [ -73.532243755058644, -42.698689425929935 ], [ -73.532787580758622, -42.699056623537871 ], [ -73.533390256889462, -42.699519137297877 ], [ -73.53441821883203, -42.700162661550607 ], [ -73.535212900871699, -42.700312423287734 ], [ -73.535884850585688, -42.700456134112756 ], [ -73.536435001323568, -42.700553120444646 ], [ -73.536980900335209, -42.700830309238142 ], [ -73.537767485859248, -42.701295086716826 ], [ -73.538192715975384, -42.701480662556428 ], [ -73.53867979779379, -42.701666950161872 ], [ -73.539288895082294, -42.701854808401805 ], [ -73.540143553141931, -42.702050390643542 ], [ -73.5412482581592, -42.702064477204559 ], [ -73.542655289388733, -42.702262430744149 ], [ -73.545218441609123, -42.702884883488167 ], [ -73.547231716179482, -42.703405762220918 ], [ -73.549007237236864, -42.70360837476003 ], [ -73.550652645410167, -42.704129008451631 ], [ -73.55222366948469, -42.705188997884242 ], [ -73.553563451933712, -42.705660690547887 ], [ -73.555273281889313, -42.706042464643531 ], [ -73.556682544533999, -42.706150323001495 ], [ -73.558221223868415, -42.705944559415506 ], [ -73.560251968874411, -42.705745032658783 ], [ -73.561542591019517, -42.705671111277454 ], [ -73.563892917976062, -42.70488569124727 ], [ -73.565375519978858, -42.704494438389517 ], [ -73.566111709117138, -42.704503678989681 ], [ -73.566662040416375, -42.704600658338776 ], [ -73.567454649144395, -42.704840184297744 ], [ -73.568245742414518, -42.705120256545733 ], [ -73.568913731456405, -42.705443743446551 ], [ -73.570191775390924, -42.7059145364085 ], [ -73.571227436793777, -42.706242631419478 ], [ -73.57201929812345, -42.706527219132354 ], [ -73.572507504632583, -42.706668401197454 ], [ -73.57311574492833, -42.706901027613249 ], [ -73.573479249106356, -42.707085694227978 ], [ -73.573721920895522, -42.707223788357041 ], [ -73.573962353184697, -42.707456450317572 ], [ -73.574202749541243, -42.707684540850948 ], [ -73.574563394381727, -42.708004216174601 ], [ -73.574865945172775, -42.708188072207697 ], [ -73.575107476101536, -42.708375771435065 ], [ -73.575534922361499, -42.70847106281331 ], [ -73.576392003177446, -42.708571794539139 ], [ -73.576637549575537, -42.708574869256303 ], [ -73.577250956082452, -42.708582462975286 ], [ -73.577745500205921, -42.708453499664842 ], [ -73.577998412789327, -42.708136994467694 ], [ -73.57824739524338, -42.707959967022042 ], [ -73.578375438409026, -42.707736377421327 ], [ -73.578322637233242, -42.70737112037196 ], [ -73.577834413656106, -42.707229964989168 ], [ -73.577469807245237, -42.707090272748474 ], [ -73.577169513022156, -42.706771362409874 ], [ -73.576871177126407, -42.706402956865617 ], [ -73.576451931586689, -42.705947493656865 ], [ -73.575908956591292, -42.70553098248601 ], [ -73.575491797837984, -42.70498545179597 ], [ -73.575133313445747, -42.704571287556718 ], [ -73.574783526542106, -42.703752009301077 ], [ -73.574486133877414, -42.70334299392097 ], [ -73.574311627150308, -42.702931052024844 ], [ -73.574013448459738, -42.702522140822403 ], [ -73.573775923118845, -42.702199528595806 ], [ -73.573665376439976, -42.701657799582392 ], [ -73.573615069885747, -42.70115739596833 ], [ -73.573507580173796, -42.700521211338256 ], [ -73.573391896029818, -42.700204565350063 ], [ -73.57309569273454, -42.699746083180692 ], [ -73.572920337099518, -42.699338598142589 ], [ -73.572868761225791, -42.698928225372043 ], [ -73.572552726722321, -42.698465077378366 ], [ -73.572436226908067, -42.698188880876145 ], [ -73.572258518585301, -42.697916532813458 ], [ -73.572210019441428, -42.697371139881 ], [ -73.572344501731038, -42.696832514021793 ], [ -73.572785402957322, -42.696338199718362 ], [ -73.573423413421565, -42.696129982562653 ], [ -73.573860082684547, -42.695820294127138 ], [ -73.574169890964782, -42.695689078006403 ], [ -73.574482440903282, -42.695463270723209 ], [ -73.574553874036354, -42.695013901804138 ], [ -73.574440446460372, -42.694602760320876 ], [ -73.574206134393236, -42.694104557236344 ], [ -73.574404200336957, -42.693517214617017 ], [ -73.574474610288945, -42.693108303481594 ], [ -73.574545552941871, -42.692703944145357 ], [ -73.574558085338396, -42.692159280587468 ], [ -73.574749142626288, -42.691846511331406 ], [ -73.574759494811616, -42.691391841292969 ], [ -73.574891675617479, -42.690988203032774 ], [ -73.5751433844584, -42.690721239697282 ], [ -73.575278880945959, -42.690133006704691 ], [ -73.575288242289545, -42.689723367433189 ], [ -73.575234423322541, -42.689407565709118 ], [ -73.575120830456555, -42.689000856035257 ], [ -73.575068271825913, -42.688635588468095 ], [ -73.575137419644904, -42.688276217299432 ], [ -73.575330605041714, -42.687868881503611 ], [ -73.5754006466844, -42.687509473543592 ], [ -73.575344121093465, -42.687279187942892 ], [ -73.575099256516694, -42.687276081796341 ], [ -73.574907448237227, -42.687593380730604 ], [ -73.574594716839044, -42.687859687291024 ], [ -73.574284846575054, -42.68799090740788 ], [ -73.574038294063854, -42.688032856398387 ], [ -73.573859617357243, -42.687805467557503 ], [ -73.573805805576754, -42.687489663346014 ], [ -73.573875127668913, -42.6871257867748 ], [ -73.574127021562788, -42.686858746088596 ], [ -73.574503929503166, -42.68645372139391 ], [ -73.574699825117193, -42.685960870323619 ], [ -73.575014794218731, -42.685600068576164 ], [ -73.575390629570677, -42.685244499923847 ], [ -73.575398836579112, -42.684884395302937 ], [ -73.575655923633647, -42.684387766460894 ], [ -73.575877833559971, -42.682715567528319 ], [ -73.576198723457537, -42.682129720600805 ], [ -73.576460035288861, -42.681408042773405 ], [ -73.576595153585686, -42.680869386115134 ], [ -73.57679632410705, -42.68014694343848 ], [ -73.577174263313395, -42.679696878589795 ], [ -73.577550754435478, -42.679341350116687 ], [ -73.577618994057715, -42.679027003984558 ], [ -73.577253547722052, -42.678927909029852 ], [ -73.57738281798639, -42.678614289901361 ], [ -73.577633480290004, -42.678392281325905 ], [ -73.577884139000361, -42.678170271957278 ], [ -73.578256926368539, -42.677945287926669 ], [ -73.578758330027512, -42.677501188592906 ], [ -73.57903419995634, -42.677246968350602 ], [ -73.57919698456729, -42.677096920502152 ], [ -73.579697582437447, -42.676652923416327 ], [ -73.58001721379533, -42.6761119595689 ], [ -73.580466207045689, -42.675257590060639 ], [ -73.580656099218658, -42.674989773845901 ], [ -73.580915076328552, -42.674403076714903 ], [ -73.58117227297754, -42.673861514716812 ], [ -73.581366995391789, -42.673413615588501 ], [ -73.581621025479407, -42.673007002649527 ], [ -73.581874804038733, -42.67264996237904 ], [ -73.582068988362138, -42.672197585047464 ], [ -73.582140952399556, -42.67174818981691 ], [ -73.582214251333468, -42.671204261261749 ], [ -73.58249690174604, -42.669577776017199 ], [ -73.58263409065961, -42.668944623323775 ], [ -73.582950736915791, -42.668498324868857 ], [ -73.583203566854195, -42.668181662916496 ], [ -73.583456235994163, -42.667869654742134 ], [ -73.583769816300261, -42.667558300247322 ], [ -73.584020863981152, -42.667286772347829 ], [ -73.584394195728379, -42.667066245838448 ], [ -73.584644886778094, -42.666844220447842 ], [ -73.584772740399231, -42.666620705407574 ], [ -73.584530378528825, -42.66647812178141 ], [ -73.584346620950953, -42.666475830363517 ], [ -73.584095855341062, -42.666702282680959 ], [ -73.583970074133305, -42.666835881822749 ], [ -73.583784245938674, -42.666923578025042 ], [ -73.58347883581007, -42.666874829745012 ], [ -73.583299395535448, -42.666647484346178 ], [ -73.583243657766999, -42.666417096980709 ], [ -73.58318902582468, -42.666101256713226 ], [ -73.583194142628543, -42.665876173503428 ], [ -73.583198282963679, -42.665696193805566 ], [ -73.58339205406206, -42.665288821604207 ], [ -73.583580924850523, -42.665066032207235 ], [ -73.584014273041902, -42.664891188646251 ], [ -73.584261881073544, -42.664799760059914 ], [ -73.584814919895081, -42.664761575104961 ], [ -73.584998667591506, -42.66476379260336 ], [ -73.585364811019844, -42.664858411079862 ], [ -73.586038904114091, -42.66486677044756 ], [ -73.586349133704203, -42.664735505455774 ], [ -73.586536395610025, -42.66448563366167 ], [ -73.587221288250618, -42.664043797691946 ], [ -73.587531892438193, -42.663867523105665 ], [ -73.587841484224469, -42.663731780639019 ], [ -73.588152084818773, -42.663555505168063 ], [ -73.588530477674325, -42.663109884747485 ], [ -73.588720468661975, -42.662837552648668 ], [ -73.589289824482307, -42.662074640154692 ], [ -73.589485820707623, -42.661536770472132 ], [ -73.589615764708427, -42.661218612477178 ], [ -73.589624876320357, -42.660813480762293 ], [ -73.589632094283672, -42.660493832705129 ], [ -73.58964023481677, -42.660133804630142 ], [ -73.589646307428097, -42.65986369236267 ], [ -73.58977216858591, -42.659730158171627 ], [ -73.590016641497215, -42.659778240211217 ], [ -73.590133287736862, -42.660049767215163 ], [ -73.590437795058619, -42.660143598153866 ], [ -73.591114486080684, -42.660061843157976 ], [ -73.591483916444645, -42.659976348339157 ], [ -73.591978924098811, -42.659802317550778 ], [ -73.592108957931131, -42.65948422599066 ], [ -73.592236770229746, -42.659260703646368 ], [ -73.592487577162132, -42.658993592750285 ], [ -73.592799190157777, -42.658767848287575 ], [ -73.593295258722293, -42.658548778627093 ], [ -73.594037040771525, -42.658287675069744 ], [ -73.594228949662295, -42.657925350415098 ], [ -73.594608340546131, -42.657434678448951 ], [ -73.595047731704412, -42.656985331739087 ], [ -73.595424088079227, -42.656629750637414 ], [ -73.596286506684592, -42.656460179764764 ], [ -73.59659915992934, -42.656189318877338 ], [ -73.596911645189124, -42.655922963788271 ], [ -73.597046620653828, -42.655379864625232 ], [ -73.597124851338663, -42.65461085053353 ], [ -73.597131965995715, -42.654295705434819 ], [ -73.596653101067204, -42.653790051087057 ], [ -73.596414698970591, -42.653471944627569 ], [ -73.595994800355641, -42.653057067564518 ], [ -73.595938767041474, -42.652831197822785 ], [ -73.595886141037198, -42.652425376536648 ], [ -73.596075893971289, -42.652198032476704 ], [ -73.596509021177084, -42.652023224084125 ], [ -73.596814469933278, -42.652072011097687 ], [ -73.59711689496018, -42.652255814681176 ], [ -73.598217489286725, -42.65240891608822 ], [ -73.598525955483922, -42.65232260602486 ], [ -73.599262746493451, -42.652282048129152 ], [ -73.599690743420666, -42.652336885553311 ], [ -73.600184755741481, -42.652203277057843 ], [ -73.600993470364244, -42.651672886324249 ], [ -73.601366714974901, -42.651447809021732 ], [ -73.60167721046632, -42.651271427369103 ], [ -73.602297137843905, -42.650963842987785 ], [ -73.602728394757293, -42.650878993724497 ], [ -73.60303648096712, -42.650837750394444 ], [ -73.603404000614489, -42.65084227425848 ], [ -73.604200263689066, -42.650896941168291 ], [ -73.604573761624636, -42.650626854187855 ], [ -73.604703652624835, -42.650313326808799 ], [ -73.604950993856846, -42.650226216355577 ], [ -73.605438106217974, -42.650367230399887 ], [ -73.605619611719447, -42.650504550089224 ], [ -73.605984017806023, -42.650644014799347 ], [ -73.606289035370864, -42.650742356713025 ], [ -73.606319809855862, -42.650801816485746 ], [ -73.606405999614111, -42.650968863693649 ], [ -73.606275951408747, -42.651327462876885 ], [ -73.606207111711882, -42.651646348697838 ], [ -73.606387820407704, -42.651783625260606 ], [ -73.606754010548443, -42.651878172314277 ], [ -73.60699545434062, -42.652061163155686 ], [ -73.607417517895399, -42.65238150534222 ], [ -73.60790565074268, -42.652481975894766 ], [ -73.608332748456306, -42.652577234770284 ], [ -73.608577198909757, -42.652625202756177 ], [ -73.609312755634065, -42.652634193404694 ], [ -73.610230891346603, -42.652735383698193 ], [ -73.610595327975901, -42.652874906171284 ], [ -73.61102243197773, -42.652970154534714 ], [ -73.612126314138223, -42.652983518205488 ], [ -73.613843903741227, -42.65295926909036 ], [ -73.614152351972137, -42.652872991503678 ], [ -73.614522500090018, -42.652787392322608 ], [ -73.614889761920864, -42.652836807049347 ], [ -73.615069437554112, -42.653019175348376 ], [ -73.614819006117528, -42.65324118206081 ], [ -73.614571497798863, -42.653332747227545 ], [ -73.614506455280718, -42.653512162158279 ], [ -73.614933662588797, -42.653607317711469 ], [ -73.615115354939846, -42.653699550944374 ], [ -73.615357794963685, -42.653837566235424 ], [ -73.615600334700503, -42.653975577256134 ], [ -73.615900735823089, -42.654253892229193 ], [ -73.616323816270764, -42.654529170186073 ], [ -73.616623329857845, -42.654848010521917 ], [ -73.617048368632851, -42.655037725440977 ], [ -73.61753634068171, -42.655178651279037 ], [ -73.618148254188611, -42.655231152695187 ], [ -73.618450752877393, -42.655414896732204 ], [ -73.61856549648526, -42.655776451816934 ], [ -73.618866883059724, -42.656009802662325 ], [ -73.619175333087256, -42.655923436816138 ], [ -73.61955159963054, -42.655563207864496 ], [ -73.619985732949459, -42.655343280609067 ], [ -73.620723433054039, -42.6552622030853 ], [ -73.62158182181706, -42.655272490889608 ], [ -73.622072678356275, -42.655278457973871 ], [ -73.622692688378862, -42.654966113508131 ], [ -73.622885306938713, -42.65456322035908 ], [ -73.62307983801179, -42.654110762273397 ], [ -73.623205515015002, -42.653977198550471 ], [ -73.623521893573212, -42.653530799912332 ], [ -73.623961134712872, -42.653081275018479 ], [ -73.624580000281767, -42.652818529161394 ], [ -73.624893465603535, -42.65250264161461 ], [ -73.625153782101506, -42.65183031078513 ], [ -73.62540823799057, -42.651423584414424 ], [ -73.625786607489928, -42.650928353807444 ], [ -73.625918388545486, -42.650524673361829 ], [ -73.625992097111165, -42.649980775821476 ], [ -73.626308426262071, -42.649534223622439 ], [ -73.626381327242314, -42.648990284384816 ], [ -73.626514912114956, -42.648496624125663 ], [ -73.626707652845667, -42.648089221165158 ], [ -73.626898064244884, -42.647821308379967 ], [ -73.627280411484321, -42.647146024947538 ], [ -73.627658581557682, -42.646695712544222 ], [ -73.628038594974001, -42.646159990109695 ], [ -73.628663453204169, -42.645622686481417 ], [ -73.629227095739296, -42.645084539697045 ], [ -73.629974557836078, -42.644553180356262 ], [ -73.631087192282351, -42.644156743619526 ], [ -73.631951321280027, -42.643896928952451 ], [ -73.632996175143177, -42.643774267353542 ], [ -73.633677717067783, -42.643462688452807 ], [ -73.634361083470722, -42.643065623624487 ], [ -73.635041498907952, -42.642803570920947 ], [ -73.636149478284423, -42.642587087544761 ], [ -73.637010623078723, -42.642462251986245 ], [ -73.637934406499454, -42.6422931968957 ], [ -73.638790716560891, -42.642393348058597 ], [ -73.639526133148024, -42.642402075206427 ], [ -73.640446133763092, -42.642413041133238 ], [ -73.641363350499105, -42.642514018758945 ], [ -73.64221862929459, -42.642659248974127 ], [ -73.642707496065483, -42.642755114963919 ], [ -73.643807143567713, -42.642952656177243 ], [ -73.644720514615983, -42.643233723759522 ], [ -73.646245346420287, -42.643611921466913 ], [ -73.647164559212868, -42.643622790705962 ], [ -73.647839096074861, -42.643630767691469 ], [ -73.648759104774783, -42.643641591993934 ], [ -73.649684132362182, -42.643382336844184 ], [ -73.650059050534225, -42.643071626901751 ], [ -73.650865381028211, -42.6426263149744 ], [ -73.651668496451776, -42.642365587962637 ], [ -73.652165449856838, -42.642051822685978 ], [ -73.652675834872028, -42.641152784789369 ], [ -73.653310049055889, -42.640165065683959 ], [ -73.654608011335171, -42.639685036296228 ], [ -73.656826889612816, -42.639166300301135 ], [ -73.658422467339022, -42.63909487098767 ], [ -73.661180351855123, -42.639172142050953 ], [ -73.663141282492205, -42.639240115792205 ], [ -73.664729052061915, -42.639528836670287 ], [ -73.667230966129395, -42.640102740994884 ], [ -73.66783700555267, -42.640425007613835 ], [ -73.668445854007857, -42.640616686196644 ], [ -73.668788907140126, -42.640951384002932 ], [ -73.668866386833372, -42.641026841475849 ], [ -73.668978359138592, -42.641527926361739 ], [ -73.669583277464412, -42.641940209363653 ], [ -73.669949703862059, -42.641989479401978 ], [ -73.670373937746561, -42.642219518508007 ], [ -73.671221538641319, -42.642729188731671 ], [ -73.672127060210642, -42.643419543087958 ], [ -73.672666385351036, -42.644015704923476 ], [ -73.673385686161964, -42.644789480046413 ], [ -73.674169396178769, -42.645433465508198 ], [ -73.674652766158417, -42.64575872023115 ], [ -73.675140079742178, -42.645899499922294 ], [ -73.675994229355354, -42.646134501396304 ], [ -73.676480528741152, -42.646320233430679 ], [ -73.676969674888085, -42.646370876352854 ], [ -73.677580486162142, -42.646513009203197 ], [ -73.67818932653249, -42.646704708014333 ], [ -73.6786764326054, -42.646890397379757 ], [ -73.679206255366722, -42.646856024524652 ], [ -73.679284468085243, -42.646870450012287 ], [ -73.680253054082456, -42.647039150397553 ], [ -73.680598713227383, -42.647169184776025 ], [ -73.68105914921783, -42.647390693685544 ], [ -73.681519637310558, -42.64760755348788 ], [ -73.681923142569886, -42.647742811813224 ], [ -73.682385342851575, -42.647878688296025 ], [ -73.682731866175786, -42.647968265268133 ], [ -73.683077635813461, -42.648098287793282 ], [ -73.683185271052508, -42.648486765337346 ], [ -73.683236824468338, -42.64882960062851 ], [ -73.683284793606191, -42.649302831311559 ], [ -73.683389724916225, -42.64981739162527 ], [ -73.683667433696428, -42.650423996808925 ], [ -73.68412257771152, -42.650897505411976 ], [ -73.68492606593594, -42.651379452857583 ], [ -73.685386652843363, -42.65155587384583 ], [ -73.685734049330051, -42.651604914934516 ], [ -73.686255199755593, -42.651696466653533 ], [ -73.686891401911168, -42.651829837065428 ], [ -73.687527298639552, -42.652008206487302 ], [ -73.688103587657238, -42.652230909875129 ], [ -73.688449236022365, -42.652365494152228 ], [ -73.68896778582517, -42.652582964925813 ], [ -73.689891656382514, -42.652850255316629 ], [ -73.6919157062447, -42.653305665907986 ], [ -73.692435929608891, -42.653437644120075 ], [ -73.693303764157122, -42.653618628519006 ], [ -73.693822396604915, -42.653795729598109 ], [ -73.694224016300481, -42.654061492585626 ], [ -73.69462130431971, -42.654493745803634 ], [ -73.695079150467194, -42.654841202369838 ], [ -73.695772496254634, -42.655020115469576 ], [ -73.696523355779789, -42.655244823087365 ], [ -73.697046389074188, -42.655250767051179 ], [ -73.697799291368327, -42.65534483778378 ], [ -73.698145875777982, -42.655434363703328 ], [ -73.698495001521579, -42.655438377865231 ], [ -73.69925158870501, -42.655361399857398 ], [ -73.699833422124627, -42.65532294814502 ], [ -73.700357298038767, -42.655288425355259 ], [ -73.700647612877347, -42.655291679106718 ], [ -73.701227708955216, -42.655338771606921 ], [ -73.701984095814339, -42.655306847862526 ], [ -73.702393987197013, -42.655140339513942 ], [ -73.702690705226928, -42.654842040753671 ], [ -73.702809343031575, -42.654712810590567 ], [ -73.703451549526491, -42.654594045795044 ], [ -73.703801593348317, -42.654512377317545 ], [ -73.704211578155792, -42.654345931587493 ], [ -73.704506553454053, -42.654133181537489 ], [ -73.705147113337063, -42.654054891798872 ], [ -73.705667409464795, -42.654191379488672 ], [ -73.706132423269921, -42.654196572369358 ], [ -73.706831880296235, -42.654073956845849 ], [ -73.707358352341529, -42.653908751350471 ], [ -73.707826920780249, -42.653742903899271 ], [ -73.708648481311556, -42.653324436520855 ], [ -73.709705011476785, -42.652818471681698 ], [ -73.710175293901045, -42.652567136798574 ], [ -73.710703764697868, -42.652271436751626 ], [ -73.711174032749099, -42.652020025660043 ], [ -73.711589248446472, -42.651596970024414 ], [ -73.71194361136817, -42.651344285676295 ], [ -73.712475602662565, -42.650877470794711 ], [ -73.712772251522225, -42.650579148944807 ], [ -73.713186326359164, -42.650241616275295 ], [ -73.713540072138287, -42.649988877527832 ], [ -73.715017763051421, -42.648762696513423 ], [ -73.715492517289192, -42.648295279488565 ], [ -73.715790855879874, -42.647911400150065 ], [ -73.7161505574893, -42.647361549577681 ], [ -73.716333100544929, -42.646976399143476 ], [ -73.716689420895634, -42.646593149292038 ], [ -73.717043037317353, -42.646340478975198 ], [ -73.717457245104939, -42.64595786085642 ], [ -73.717637898105224, -42.645662693018274 ], [ -73.717997735360271, -42.645108405993597 ], [ -73.718467198520997, -42.644897561724655 ], [ -73.718876873409712, -42.644731003702574 ], [ -73.71917355910027, -42.644432590261012 ], [ -73.719181340307259, -42.644050004019157 ], [ -73.719134913576752, -42.643491171619431 ], [ -73.719261429606419, -42.642974760962083 ], [ -73.719438540549518, -42.642850623317337 ], [ -73.719676246451797, -42.642596683610897 ], [ -73.719680650891632, -42.642380551058977 ], [ -73.719626188730913, -42.642208888893862 ], [ -73.719110323992481, -42.641860903161216 ], [ -73.718883200244235, -42.641601669666564 ], [ -73.718715742597183, -42.641253089774196 ], [ -73.718664808120579, -42.640910319778953 ], [ -73.718670877138635, -42.640613210964922 ], [ -73.718854267305588, -42.64018295806676 ], [ -73.718918327965113, -42.639886552860986 ], [ -73.719098192244573, -42.639627405638421 ], [ -73.719162244819273, -42.639330925755694 ], [ -73.719168470144197, -42.639029311110455 ], [ -73.719116709217516, -42.638727066548014 ], [ -73.719063360967752, -42.63846980449555 ], [ -73.718950028613193, -42.63834246402179 ], [ -73.718778992976354, -42.638169418146617 ], [ -73.71878522099621, -42.637867803818843 ], [ -73.718966733684212, -42.637527607023628 ], [ -73.719029958910539, -42.637271653124223 ], [ -73.719213343687571, -42.636841472944155 ], [ -73.719390631598785, -42.636672411833501 ], [ -73.719625709030552, -42.636548903308785 ], [ -73.71979591013249, -42.636762399473049 ], [ -73.719792388736565, -42.636933506346857 ], [ -73.719436964006192, -42.637276238112342 ], [ -73.719603674254941, -42.637620348501365 ], [ -73.719888764491827, -42.637880137172523 ], [ -73.720118514913963, -42.638013290052207 ], [ -73.720579983966971, -42.638189532853573 ], [ -73.720868610871136, -42.63827835984516 ], [ -73.721386347698612, -42.638495789995638 ], [ -73.721438917109026, -42.638797999335516 ], [ -73.721664354719479, -42.639102214154867 ], [ -73.721949460227719, -42.639361997960947 ], [ -73.72217767003913, -42.639576190897934 ], [ -73.722699580439411, -42.639627054739506 ], [ -73.722933843099213, -42.639544137470871 ], [ -73.72305484077809, -42.639288818333107 ], [ -73.722942580113667, -42.63911644847753 ], [ -73.722830306872837, -42.638899087900903 ], [ -73.722949675007769, -42.638769881444944 ], [ -73.723353192843518, -42.63890491910248 ], [ -73.723466251211917, -42.639077255841563 ], [ -73.72340487471844, -42.639207164122666 ], [ -73.723688288699009, -42.639552567646042 ], [ -73.723861140729355, -42.639639976540835 ], [ -73.724267257391205, -42.639644505845048 ], [ -73.724560385753236, -42.63951718693928 ], [ -73.724739190020657, -42.639307638112321 ], [ -73.724917259466167, -42.639138461447999 ], [ -73.725150719930411, -42.639055573926584 ], [ -73.725446325846008, -42.638797679491176 ], [ -73.725627017473826, -42.638502422832097 ], [ -73.725744602452949, -42.638418276225217 ], [ -73.725917353871964, -42.638505686713422 ], [ -73.726027198068294, -42.638804124618254 ], [ -73.726593061238788, -42.639539799138539 ], [ -73.727054564427803, -42.639716087178257 ], [ -73.727514979757018, -42.639937260494555 ], [ -73.727863310491585, -42.639941144152829 ], [ -73.728503788627918, -42.639862802187906 ], [ -73.728913495855949, -42.639696132223762 ], [ -73.729381901699611, -42.639530277935307 ], [ -73.729904692448855, -42.639536081983778 ], [ -73.73025301959018, -42.639539957737149 ], [ -73.730836467282359, -42.639415801344256 ], [ -73.731364546413729, -42.639165012340605 ], [ -73.731777641188685, -42.638827379408326 ], [ -73.732073260579043, -42.638573966489759 ], [ -73.732601325337328, -42.638323172771422 ], [ -73.733016264353594, -42.637895553365539 ], [ -73.733368769559277, -42.63772835936728 ], [ -73.734019661864693, -42.637136672720743 ], [ -73.734608979148959, -42.636715469357156 ], [ -73.735080279364453, -42.636373938592122 ], [ -73.735491464321143, -42.636166767539926 ], [ -73.736021289777412, -42.635830478403307 ], [ -73.736436997751539, -42.635362249809695 ], [ -73.737085235535289, -42.634896626834802 ], [ -73.737672818172754, -42.634560886634844 ], [ -73.738204298325755, -42.634138963977193 ], [ -73.738619170866684, -42.63371132771411 ], [ -73.739096126875211, -42.633117677022824 ], [ -73.739626772493324, -42.632736273609936 ], [ -73.740275870863115, -42.632230106281803 ], [ -73.740806302682188, -42.631848706682455 ], [ -73.741335187602346, -42.631557348158623 ], [ -73.741862410639214, -42.631301973118973 ], [ -73.742445702922879, -42.631182337479792 ], [ -73.742852656814563, -42.63118676694031 ], [ -73.743322697592035, -42.63089017017586 ], [ -73.743561170655582, -42.630595659191286 ], [ -73.743626836604534, -42.630209120125159 ], [ -73.74363463038793, -42.629822034051685 ], [ -73.743645008624426, -42.629308794800593 ], [ -73.743711377055931, -42.628922300618072 ], [ -73.743719165449434, -42.628535140447575 ], [ -73.743669192170174, -42.62810686289518 ], [ -73.74367947159196, -42.627593628008427 ], [ -73.743513437774638, -42.627204608890153 ], [ -73.743403808275673, -42.626861189778531 ], [ -73.743410726201674, -42.626518981644558 ], [ -73.743185143064153, -42.6262148903837 ], [ -73.74296222073653, -42.625739653187225 ], [ -73.742741082463027, -42.625178861120361 ], [ -73.742747035598413, -42.624881682485189 ], [ -73.742524126745494, -42.624406518395489 ], [ -73.742476545679835, -42.62389265942803 ], [ -73.742484349344721, -42.623505572413016 ], [ -73.742434985123225, -42.623077194817952 ], [ -73.742568215161327, -42.622218707528546 ], [ -73.743026314633724, -42.621494246696109 ], [ -73.743108289496661, -42.620450478194662 ], [ -73.74324820030553, -42.619592008230548 ], [ -73.743075433615132, -42.619049785734532 ], [ -73.742959241923032, -42.618728764237424 ], [ -73.742595800627058, -42.61849971977572 ], [ -73.742663849806476, -42.618185214098908 ], [ -73.742792931424603, -42.617866994995218 ], [ -73.742682974938873, -42.617235359169079 ], [ -73.742321335663377, -42.616911687352136 ], [ -73.741835978610311, -42.616681281012774 ], [ -73.741349917278058, -42.616450754827817 ], [ -73.740560141836454, -42.616122339678029 ], [ -73.740199433215579, -42.615758130612775 ], [ -73.739778801575369, -42.615343820478202 ], [ -73.73935519291831, -42.615068950892301 ], [ -73.738930821591552, -42.614839175025459 ], [ -73.73850383616734, -42.614744475828331 ], [ -73.738013038018622, -42.614739080005258 ], [ -73.737640417737069, -42.615005064702856 ], [ -73.737328765215551, -42.615271841566575 ], [ -73.736767894881396, -42.615720347895703 ], [ -73.73639719789287, -42.615851427442102 ], [ -73.734542374460531, -42.616645964649095 ], [ -73.732941984459359, -42.616988446526818 ], [ -73.732447498726387, -42.617167564341429 ], [ -73.732134835600178, -42.617479358194423 ], [ -73.731763931999154, -42.617655347783867 ], [ -73.731394085715223, -42.617741312610583 ], [ -73.731210487139137, -42.617739249445599 ], [ -73.730906019343237, -42.617645866862539 ], [ -73.730235416203854, -42.617458333122386 ], [ -73.729688324229542, -42.617227110407889 ], [ -73.729199562561547, -42.617131613630697 ], [ -73.728771588092201, -42.617081834062127 ], [ -73.727487525445284, -42.616927992586291 ], [ -73.726814012662715, -42.616920517894634 ], [ -73.726138816437285, -42.616958023557451 ], [ -73.723676945671912, -42.617430469354645 ], [ -73.722567089714801, -42.617778275711025 ], [ -73.721947280016522, -42.618091077259621 ], [ -73.721207358378251, -42.618307942003142 ], [ -73.720954652407357, -42.618669889249631 ], [ -73.720647327968877, -42.618711418984176 ], [ -73.720401079088248, -42.618753744593043 ], [ -73.720093958567332, -42.618795337732251 ], [ -73.719851161014034, -42.618702551015808 ], [ -73.719732230358616, -42.618516586487218 ], [ -73.719613341924031, -42.618335119866636 ], [ -73.71968524667264, -42.617795592137632 ], [ -73.719691816950629, -42.617476040325478 ], [ -73.719576578371019, -42.61711453764736 ], [ -73.719825736894862, -42.616932625347786 ], [ -73.720011113236893, -42.616844727101551 ], [ -73.720321875527958, -42.616668013993376 ], [ -73.720755364754837, -42.616447805782627 ], [ -73.721128160207869, -42.616181720814005 ], [ -73.722240626669176, -42.615739416757158 ], [ -73.722675180399676, -42.615474093634752 ], [ -73.72329338031696, -42.615206344519031 ], [ -73.724341053991793, -42.614947835610479 ], [ -73.725139915892484, -42.6148215920186 ], [ -73.726007878001482, -42.614376524842129 ], [ -73.726505028137581, -42.614021792329979 ], [ -73.727182938173485, -42.613849275809052 ], [ -73.72773635249078, -42.613765321306985 ], [ -73.728471491498496, -42.613773487227981 ], [ -73.729451096230989, -42.613829357515819 ], [ -73.730308957682936, -42.613838851579118 ], [ -73.731474010622662, -42.613806785558005 ], [ -73.733317977016483, -42.613552552145791 ], [ -73.734430133559044, -42.613114494223787 ], [ -73.734923728163267, -42.612939903932229 ], [ -73.736400384217191, -42.612681511888304 ], [ -73.736713880979991, -42.612324755960827 ], [ -73.737022902336051, -42.61219305944082 ], [ -73.737274714483235, -42.611876104192028 ], [ -73.737467332144774, -42.611427959580588 ], [ -73.73753818586448, -42.610973945531427 ], [ -73.737546356042003, -42.610568846899682 ], [ -73.737244091813508, -42.61033584857379 ], [ -73.736942374659037, -42.610107398680782 ], [ -73.736761427011345, -42.609970339582176 ], [ -73.736096496732983, -42.609508166279738 ], [ -73.736045564053001, -42.609012291981621 ], [ -73.736063825904409, -42.608107463063611 ], [ -73.735887694124983, -42.607695765208142 ], [ -73.735711532701117, -42.607333631201293 ], [ -73.735288161199307, -42.607054311614974 ], [ -73.734802026205202, -42.606868823390293 ], [ -73.734561288488848, -42.606641012701836 ], [ -73.733413799409533, -42.605813297841117 ], [ -73.732810780122236, -42.605306871276376 ], [ -73.732386394422448, -42.605076996580927 ], [ -73.732146374459987, -42.604849224962322 ], [ -73.732030276192688, -42.604528260519778 ], [ -73.731789558239257, -42.604300442594386 ], [ -73.731486036369375, -42.604162032443504 ], [ -73.731183487374949, -42.60397851789962 ], [ -73.730819294189089, -42.603794381280558 ], [ -73.730456917396737, -42.603515689843356 ], [ -73.730095288002701, -42.60324153969205 ], [ -73.729642131959309, -42.602858331938002 ], [ -73.729532813277444, -42.602803040953823 ], [ -73.729187826072362, -42.602641631598118 ], [ -73.729072563238262, -42.602280065294984 ], [ -73.728713652146268, -42.601866403432673 ], [ -73.728538426766946, -42.601459155417388 ], [ -73.728545830681512, -42.601094505522624 ], [ -73.728554063741086, -42.600689404136773 ], [ -73.728132473598478, -42.60032450309307 ], [ -73.727403225742407, -42.599996735571722 ], [ -73.726550262803713, -42.59976206705975 ], [ -73.725700014573817, -42.599387885179397 ], [ -73.725093139717316, -42.599110950166782 ], [ -73.724057527721811, -42.59878424485813 ], [ -73.722964693941009, -42.598317327305601 ], [ -73.722601436799678, -42.598088062298814 ], [ -73.721639678896935, -42.597172309116921 ], [ -73.721462602089829, -42.59685060681295 ], [ -73.721225701078041, -42.596442722922141 ], [ -73.720680708466517, -42.59612146322138 ], [ -73.72025481988527, -42.595977160001027 ], [ -73.719458845169896, -42.595968278876335 ], [ -73.718412287202653, -42.596186202663091 ], [ -73.716814187007145, -42.596438454988537 ], [ -73.71539772526377, -42.596782760700201 ], [ -73.71459543269701, -42.597048470937892 ], [ -73.714163841610315, -42.597178744005717 ], [ -73.713120873310942, -42.597257003468528 ], [ -73.71158823694347, -42.597284853116768 ], [ -73.709444226956549, -42.597260723148011 ], [ -73.708712953399484, -42.597072313994026 ], [ -73.707737409950397, -42.596836283471646 ], [ -73.706580274761578, -42.596458442987512 ], [ -73.706217891680993, -42.596229235947668 ], [ -73.704880137627882, -42.595714255689572 ], [ -73.703105941585562, -42.595604129850287 ], [ -73.701632466466037, -42.595722488122398 ], [ -73.700960078374194, -42.59566989549522 ], [ -73.699794623887513, -42.595701662690573 ], [ -73.698679317851571, -42.596323896504664 ], [ -73.697199229334942, -42.596761899252208 ], [ -73.695472779648284, -42.597282575681909 ], [ -73.692945701074763, -42.597978735499495 ], [ -73.690666774013607, -42.598542521396858 ], [ -73.688083442937, -42.599008262206908 ], [ -73.685866295712913, -42.599527748127691 ], [ -73.684321919262956, -42.600144860080512 ], [ -73.683148852452575, -42.60053668926124 ], [ -73.682720002125819, -42.600531762350137 ], [ -73.68204481578185, -42.600613994965038 ], [ -73.68179752126224, -42.600705694442013 ], [ -73.681793760016149, -42.600885735225297 ], [ -73.681601790938259, -42.60124378193639 ], [ -73.681109236583126, -42.601373182002206 ], [ -73.68085716572115, -42.601690025387583 ], [ -73.68048629176451, -42.60186584734037 ], [ -73.6802990882492, -42.601998745983842 ], [ -73.679928117274528, -42.602174643767462 ], [ -73.679558267397312, -42.602260366134288 ], [ -73.679310152715857, -42.602397158532902 ], [ -73.679001143037894, -42.602528697896311 ], [ -73.67844386416823, -42.602792387416308 ], [ -73.678198436347785, -42.602834587633538 ], [ -73.678130709663563, -42.60276618600102 ], [ -73.678017952230775, -42.602652424678652 ], [ -73.678147176681051, -42.602338696577945 ], [ -73.678335465361215, -42.602156267683419 ], [ -73.678581806768321, -42.602069039563339 ], [ -73.678888982984773, -42.602027555596258 ], [ -73.679135204017626, -42.601985321109851 ], [ -73.679386212172645, -42.601718087953934 ], [ -73.679392995351336, -42.601398528368577 ], [ -73.679460554948918, -42.601084004438434 ], [ -73.679343654486047, -42.600812505733764 ], [ -73.679230366148943, -42.600401464552533 ], [ -73.679240852183256, -42.599906292084334 ], [ -73.679185886965954, -42.599586015005976 ], [ -73.679010885267147, -42.599178678686123 ], [ -73.67889599164063, -42.598812692263991 ], [ -73.678844612497954, -42.598361797369108 ], [ -73.678854241539469, -42.59790707707409 ], [ -73.678860865716388, -42.597592023033009 ], [ -73.678929508682202, -42.597228039556661 ], [ -73.678819245870955, -42.596641486364412 ], [ -73.678827859816224, -42.596231797774514 ], [ -73.678587366441604, -42.596003930335215 ], [ -73.678405659717527, -42.595911724664383 ], [ -73.678039722901701, -42.59581746885307 ], [ -73.677734509504134, -42.595768889026999 ], [ -73.676934939730984, -42.595939744865447 ], [ -73.676319845289655, -42.596022730136418 ], [ -73.675648576498645, -42.595924877734021 ], [ -73.674793796268133, -42.595779947814883 ], [ -73.674245244531463, -42.595638495301571 ], [ -73.67375862804036, -42.595448264663943 ], [ -73.6732718309879, -42.595307602309084 ], [ -73.67260059812952, -42.595164739496354 ], [ -73.669172306306749, -42.595034868917693 ], [ -73.667396423228325, -42.594969244120932 ], [ -73.666175848115813, -42.594729878616697 ], [ -73.664645942626791, -42.594666930456846 ], [ -73.662438467563348, -42.594731312321976 ], [ -73.660302390598716, -42.594341585303368 ], [ -73.659386013787483, -42.594195803904171 ], [ -73.658400104678321, -42.594454441922835 ], [ -73.657230490991878, -42.594715466173277 ], [ -73.655206285721135, -42.594826746893979 ], [ -73.654287007351556, -42.594816013297653 ], [ -73.653239173776598, -42.5951187990674 ], [ -73.652008810620728, -42.595334007233774 ], [ -73.650658679579649, -42.595453177428546 ], [ -73.649060481467771, -42.595659494013375 ], [ -73.647590565473408, -42.595642185319463 ], [ -73.646553429036871, -42.595449730094941 ], [ -73.645516347397546, -42.595212345701356 ], [ -73.644662832893275, -42.595017648003221 ], [ -73.643380343196441, -42.594822445123242 ], [ -73.643062026073821, -42.594700623217989 ], [ -73.642651351360229, -42.594543609730088 ], [ -73.642168704524366, -42.594173194411539 ], [ -73.641874299656308, -42.593629260676273 ], [ -73.641394558870402, -42.593168890581751 ], [ -73.641099128126285, -42.59267005972427 ], [ -73.640800133765438, -42.592301771346683 ], [ -73.640564467937168, -42.591893738643115 ], [ -73.640447917817255, -42.591617685614771 ], [ -73.640331105389279, -42.591346142357942 ], [ -73.640031809194497, -42.59102735295204 ], [ -73.639666018804078, -42.590928542355513 ], [ -73.639177421527762, -42.590877639384878 ], [ -73.638257246639526, -42.590911802425914 ], [ -73.636109404439594, -42.591070830914035 ], [ -73.63409236323325, -42.590862160625079 ], [ -73.630618392976615, -42.590010181404246 ], [ -73.62836597699615, -42.589348353075479 ], [ -73.62654143397539, -42.588736651325881 ], [ -73.624657893200052, -42.588034080078643 ], [ -73.622284086976919, -42.587325707208784 ], [ -73.620701924691204, -42.586811350481611 ], [ -73.619605026932049, -42.586572974831718 ], [ -73.618628055161651, -42.586421568647317 ], [ -73.617465751066675, -42.586317540299945 ], [ -73.616856559455059, -42.586175160861984 ], [ -73.616369839657722, -42.586034175981858 ], [ -73.61594416397719, -42.585893970569913 ], [ -73.615149697533184, -42.585794316490009 ], [ -73.614601346120793, -42.585652566832152 ], [ -73.614173809131003, -42.585597837321927 ], [ -73.613627400774604, -42.585366171590643 ], [ -73.612786088985146, -42.584631002455659 ], [ -73.612432192289091, -42.583996311182794 ], [ -73.611897790814766, -42.583264831857136 ], [ -73.611541080595231, -42.582760722895522 ], [ -73.611311983248314, -42.582033078641651 ], [ -73.61114258434192, -42.581396104733095 ], [ -73.611042061065007, -42.580399747464874 ], [ -73.61087567510809, -42.57962775365462 ], [ -73.610832131071319, -42.578812306138573 ], [ -73.610612862191928, -42.577679422396244 ], [ -73.610627944007234, -42.576999679625445 ], [ -73.610588374117285, -42.576004108088298 ], [ -73.610488744664067, -42.574962724135204 ], [ -73.61043999668685, -42.574417281204859 ], [ -73.610096343479967, -42.573327985905003 ], [ -73.609985978260809, -42.572781781803016 ], [ -73.609890176529021, -42.57160541805947 ], [ -73.609592438012925, -42.571192003112238 ], [ -73.609605433041807, -42.570606824407918 ], [ -73.609242637634537, -42.570417812052803 ], [ -73.608816115741007, -42.570322603412286 ], [ -73.608078331194804, -42.570448738704172 ], [ -73.606969925118563, -42.57070994881834 ], [ -73.605311432983129, -42.57091490510912 ], [ -73.604026604073297, -42.570854172268525 ], [ -73.601951520919783, -42.570513692693098 ], [ -73.60000414226711, -42.569945003116899 ], [ -73.598855153899592, -42.569296155528981 ], [ -73.598368703596819, -42.56915508154043 ], [ -73.597573492449428, -42.569100323655945 ], [ -73.596651527218825, -42.569224128048909 ], [ -73.595295752062782, -42.569617234609225 ], [ -73.594308830552322, -42.569920347865498 ], [ -73.593628998121702, -42.570182203893893 ] ] ] } },
{ "type": "Feature", "properties": { "capa": "colegios", "popup": "<strong>ESCUELA RURAL DETIF</strong><br><br><strong>Dirección:</strong> DETIF 0", "etiqueta": "" }, "geometry": { "type": "Point", "coordinates": [ -73.557068, -42.684879 ] } },
{ "type": "Feature", "properties": { "capa": "colegios", "popup": "<strong>ESCUELA RURAL SANTA ROSA</strong><br><br><strong>Dirección:</strong> LOS CARRERAS 0", "etiqueta": "" }, "geometry": { "type": "Point", "coordinates": [ -73.607117, -42.649971 ] } },
{ "type": "Feature", "properties": { "capa": "colegios", "popup": "<strong>ESCUELA RURAL SAN JUAN DE LINCAY</strong><br><br><strong>Dirección:</strong> LOS CARRERAS 0", "etiqueta": "" }, "geometry": { "type": "Point", "coordinates": [ -73.668953, -42.639961 ] } },
{ "type": "Feature", "properties": { "capa": "colegios", "popup": "<strong>ESCUELA RURAL SAN AGUSTIN</strong><br><br><strong>Dirección:</strong> SECTOR SAN AGUSTIN 0", "etiqueta": "" }, "geometry": { "type": "Point", "coordinates": [ -73.624107, -42.619251 ] } },
{ "type": "Feature", "properties": { "capa": "colegios", "popup": "<strong>ESCUELA RURAL ICHUAC</strong><br><br><strong>Dirección:</strong> LOS CARRERAS 0", "etiqueta": "" }, "geometry": { "type": "Point", "coordinates": [ -73.718231, -42.616039 ] } },
{ "type": "Feature", "properties": { "capa": "colegios", "popup": "<strong>ESCUELA RURAL LAS LAGUNAS</strong><br><br><strong>Dirección:</strong> LOS CARRERAS 0", "etiqueta": "" }, "geometry": { "type": "Point", "coordinates": [ -73.57653, -42.607319 ] } },
{ "type": "Feature", "properties": { "capa": "colegios", "popup": "<strong>ESCUELA PUQUELDON</strong><br><br><strong>Dirección:</strong> TENIENTE MERINO 0", "etiqueta": "" }, "geometry": { "type": "Point", "coordinates": [ -73.671967, -42.602039 ] } },
{ "type": "Feature", "properties": { "capa": "colegios", "popup": "<strong>COLEGIO RAICES DE LEMUY</strong><br><br><strong>Dirección:</strong> ACHEUQUE RURAL 0", "etiqueta": "" }, "geometry": { "type": "Point", "coordinates": [ -73.656433, -42.601589 ] } },
{ "type": "Feature", "properties": { "capa": "colegios", "popup": "<strong>ESCUELA RURAL LAS CAMPANAS</strong><br><br><strong>Dirección:</strong> LOS CARRERAS 0", "etiqueta": "" }, "geometry": { "type": "Point", "coordinates": [ -73.61248, -42.588089 ] } },
{ "type": "Feature", "properties": { "capa": "jardines", "popup": "<strong>GOTITAS DE MIEL</strong><br><br><strong>Dirección:</strong> TENIENTE MERINO S/N ", "etiqueta": "" }, "geometry": { "type": "MultiPoint", "coordinates": [ [ -73.673237, -42.601428 ] ] } },
{ "type": "Feature", "properties": { "capa": "jardines", "popup": "<strong>NA</strong><br><br><strong>Dirección:</strong> NA ", "etiqueta": "" }, "geometry": { "type": "MultiPoint", "coordinates": [ [ -73.676196999690205, -42.59955499972115 ] ] } },
{ "type": "Feature", "properties": { "capa": "jardines", "popup": "<strong>NA</strong><br><br><strong>Dirección:</strong> NA ", "etiqueta": "" }, "geometry": { "type": "MultiPoint", "coordinates": [ [ -73.626324000451305, -42.618700000063171 ] ] } },
{ "type": "Feature", "properties": { "capa": "jardines", "popup": "<strong>NA</strong><br><br><strong>Dirección:</strong> NA ", "etiqueta": "" }, "geometry": { "type": "MultiPoint", "coordinates": [ [ -73.607388000783359, -42.649814000125943 ] ] } },
{ "type": "Feature", "properties": { "capa": "bomberos", "popup": "<strong>Cuerpo de Bomberos</strong><br><br><strong>Dirección:</strong> Manuel Rodríguez S/n", "etiqueta": "" }, "geometry": { "type": "Point", "coordinates": [ -73.677237639606005, -42.599764996943954 ] } },
{ "type": "Feature", "properties": { "capa": "comisarias", "popup": "<strong>RETEN PUQUELDON</strong><br><br><strong>Dirección:</strong> BALMACEDA 83", "etiqueta": "" }, "geometry": { "type": "Point", "coordinates": [ -73.676693233698401, -42.60032679141878 ] } },
{ "type": "Feature", "properties": { "capa": "salud", "popup": "<strong>Posta de Salud Rural Liucura (Puqueldón)</strong><br><br><strong>Tipo de atención:</strong> Posta de Salud Rural (PSR)<br><strong>Dirección:</strong>  NA", "etiqueta": "" }, "geometry": { "type": "Point", "coordinates": [ -73.60856, -42.6512 ] } },
{ "type": "Feature", "properties": { "capa": "salud", "popup": "<strong>Posta de Salud Rural Ichuac</strong><br><br><strong>Tipo de atención:</strong> Posta de Salud Rural (PSR)<br><strong>Dirección:</strong>  NA", "etiqueta": "" }, "geometry": { "type": "Point", "coordinates": [ -73.71893, -42.61617 ] } },
{ "type": "Feature", "properties": { "capa": "salud", "popup": "<strong>SUR Puqueldón</strong><br><br><strong>Tipo de atención:</strong> Servicio de Urgencia Rural (SUR)<br><strong>Dirección:</strong>  NA", "etiqueta": "" }, "geometry": { "type": "Point", "coordinates": [ -73.676567, -42.598831 ] } },
{ "type": "Feature", "properties": { "capa": "salud", "popup": "<strong>Centro de Salud Familiar Puqueldón</strong><br><br><strong>Tipo de atención:</strong> Centro de Salud Familiar (CESFAM)<br><strong>Dirección:</strong>  NA", "etiqueta": "" }, "geometry": { "type": "Point", "coordinates": [ -73.6765, -42.5988 ] } },
{ "type": "Feature", "properties": { "capa": "salud", "popup": "<strong>Posta de Salud Rural Aldachildo</strong><br><br><strong>Tipo de atención:</strong> Posta de Salud Rural (PSR)<br><strong>Dirección:</strong>  NA", "etiqueta": "" }, "geometry": { "type": "Point", "coordinates": [ -73.61163, -42.58297 ] } }
]
}
