{
"type": "FeatureCollection",
"name": "10307",
"crs": { "type": "name", "properties": { "name": "urn:ogc:def:crs:OGC:1.3:CRS84" } },
"features": [
{ "type": "Feature", "properties": { "capa": "comuna", "popup": "", "etiqueta": "" }, "geometry": { "type": "Polygon", "coordinates": [ [ [ -73.431138350966378, -40.305625469298953 ], [ -73.429276681473254, -40.306816333470721 ], [ -73.427366193934333, -40.308047030625382 ], [ -73.426186767051703, -40.308954379429736 ], [ -73.424756659899188, -40.310268197507945 ], [ -73.423761329259321, -40.311547267412259 ], [ -73.422277317799853, -40.31311710500303 ], [ -73.420700707102583, -40.314496385502927 ], [ -73.419018623411162, -40.316230007584771 ], [ -73.417741019651146, -40.317207938674088 ], [ -73.416063342196196, -40.318775003595228 ], [ -73.414728369327193, -40.320126003559729 ], [ -73.41403355120103, -40.320927212167312 ], [ -73.413480044357243, -40.321919533342374 ], [ -73.413016949353562, -40.323129332783537 ], [ -73.412603200605048, -40.32430832701165 ], [ -73.412283121886148, -40.32559660596516 ], [ -73.412061006245636, -40.326850157227106 ], [ -73.411928027735811, -40.328379736129904 ], [ -73.411950607788796, -40.329488128510818 ], [ -73.411986117293651, -40.330042690755356 ], [ -73.411673767679488, -40.331002255334859 ], [ -73.411252194604856, -40.332509886540592 ], [ -73.410544282635101, -40.333864912686373 ], [ -73.40974152833428, -40.335151043287752 ], [ -73.408850507370275, -40.336098179596384 ], [ -73.407865567543283, -40.336931456822853 ], [ -73.406835651764993, -40.337583865539884 ], [ -73.405861876200376, -40.337939786608196 ], [ -73.404895297039502, -40.337962508057345 ], [ -73.403112937107878, -40.337793779733985 ], [ -73.401144862169346, -40.337320653445772 ], [ -73.399228955094301, -40.336668090855056 ], [ -73.397030323944847, -40.33571429851753 ], [ -73.394547074174028, -40.334571825573342 ], [ -73.392349969262241, -40.333559310778291 ], [ -73.390864400124059, -40.333097300977151 ], [ -73.389568344069801, -40.332782022333646 ], [ -73.388461987050718, -40.332617972522968 ], [ -73.387256044595873, -40.332565104304258 ], [ -73.386334482708818, -40.332736889569986 ], [ -73.384973781191775, -40.33312326854761 ], [ -73.383705105787371, -40.333659577002187 ], [ -73.382286148524145, -40.334454970854559 ], [ -73.381354853390988, -40.33503200312942 ], [ -73.3801186502875, -40.336271385623142 ], [ -73.379474428871376, -40.336965056417867 ], [ -73.378741131409996, -40.337324020302461 ], [ -73.377284748535388, -40.33767299748046 ], [ -73.37587667615847, -40.338004560144562 ], [ -73.374319690056893, -40.338500646667534 ], [ -73.372567418297379, -40.339066073942149 ], [ -73.370911521394817, -40.339668769589679 ], [ -73.369491336134601, -40.340500130049016 ], [ -73.367973853447637, -40.341365989683823 ], [ -73.36679834052471, -40.342052029267066 ], [ -73.365286390561579, -40.34265679748043 ], [ -73.36407827598039, -40.342716268409283 ], [ -73.362250912249621, -40.34239310261745 ], [ -73.360046451932305, -40.341695313053137 ], [ -73.358230686350211, -40.340930799002201 ], [ -73.355807827620993, -40.339288441286001 ], [ -73.35488158101974, -40.338743780120424 ], [ -73.354331703369709, -40.338420608993474 ], [ -73.353410496317196, -40.337941842172825 ], [ -73.352425159434887, -40.337429560254115 ], [ -73.350515119256968, -40.336555608444741 ], [ -73.347785262177723, -40.335629288954799 ], [ -73.345384810126632, -40.335076984395471 ], [ -73.342788145356252, -40.334634475462046 ], [ -73.341051872591947, -40.334573553237718 ], [ -73.338490826920903, -40.334662887736805 ], [ -73.335635080836042, -40.33495510576801 ], [ -73.333599842456991, -40.335259170918569 ], [ -73.331077862721003, -40.335704656491338 ], [ -73.329657589425892, -40.336044522532198 ], [ -73.329065785604925, -40.336121231030546 ], [ -73.328781543377673, -40.336158003475006 ], [ -73.328220443973109, -40.336203900185069 ], [ -73.321564973356786, -40.336090784976207 ], [ -73.311075971909872, -40.334623036457167 ], [ -73.30799961576092, -40.334523194850533 ], [ -73.302972880586225, -40.335107087842268 ], [ -73.298946752755356, -40.335760255787726 ], [ -73.294283259450623, -40.336129959540621 ], [ -73.292381805370212, -40.336792820398912 ], [ -73.290070037698911, -40.338429689840382 ], [ -73.287631317416725, -40.341511002865936 ], [ -73.286429188310265, -40.343739683406532 ], [ -73.284778393838508, -40.346247110129177 ], [ -73.281793801494146, -40.349143925322977 ], [ -73.280464773675703, -40.349871895578048 ], [ -73.276492909477895, -40.351482326988645 ], [ -73.272103831729538, -40.352373162408817 ], [ -73.265806666740673, -40.352715784807572 ], [ -73.263289144445139, -40.352490239388452 ], [ -73.259767523952561, -40.352066656475252 ], [ -73.255293483544619, -40.351493205190771 ], [ -73.252268006176749, -40.351606671785461 ], [ -73.248678761407902, -40.352489063957677 ], [ -73.245806807918697, -40.352657424188088 ], [ -73.240643784840657, -40.353047398815164 ], [ -73.234880887477161, -40.354063037134217 ], [ -73.234240608766811, -40.354093824891727 ], [ -73.2327847002027, -40.354071596972837 ], [ -73.231420599460591, -40.353920133397416 ], [ -73.230119335872644, -40.353589372551987 ], [ -73.229049472911981, -40.353302720055147 ], [ -73.227515159389853, -40.352959442757843 ], [ -73.22612422776686, -40.352712994452297 ], [ -73.224673659687099, -40.352515039809937 ], [ -73.22375774371163, -40.352382861611638 ], [ -73.221907872691432, -40.351916050979689 ], [ -73.220562041885586, -40.351347423444771 ], [ -73.219778961587807, -40.351171036462425 ], [ -73.218971705829091, -40.351265310255144 ], [ -73.217831608986245, -40.351688953653742 ], [ -73.216174906294867, -40.352046985511009 ], [ -73.213735408969967, -40.352197940538076 ], [ -73.213652507943976, -40.352215351637206 ], [ -73.213403419488728, -40.352267597914732 ], [ -73.209904568593672, -40.35353905916466 ], [ -73.207371214389568, -40.35454086258747 ], [ -73.205274671382256, -40.35527550924548 ], [ -73.203763958399279, -40.35552594666126 ], [ -73.203025186604563, -40.355460555367593 ], [ -73.202263433209936, -40.355393045314109 ], [ -73.200420973290846, -40.354652073214112 ], [ -73.197887449305142, -40.35296883313115 ], [ -73.195999729567092, -40.351240819496404 ], [ -73.194733023269805, -40.350399154601533 ], [ -73.193171348860758, -40.34988156981003 ], [ -73.190031722569714, -40.349448976725967 ], [ -73.185177012975274, -40.34887973824631 ], [ -73.182611708391477, -40.348401112745471 ], [ -73.180905502239725, -40.347935882748459 ], [ -73.179551167083105, -40.347695436060313 ], [ -73.177830253713537, -40.347777858257693 ], [ -73.176747731693865, -40.348089610139297 ], [ -73.176157289718887, -40.34873780869674 ], [ -73.175915999538617, -40.349720252101342 ], [ -73.175037731058381, -40.350418691179222 ], [ -73.173076848032025, -40.351428845093714 ], [ -73.169499336159106, -40.353947496320309 ], [ -73.166780344203218, -40.356249594941794 ], [ -73.166640583412999, -40.356367952819724 ], [ -73.164743494246537, -40.357652828191213 ], [ -73.162707621656892, -40.358771156720415 ], [ -73.160968520996079, -40.359510632387781 ], [ -73.158877331049538, -40.360025219741217 ], [ -73.156723391085464, -40.360210126194382 ], [ -73.155433225284526, -40.360244324088733 ], [ -73.153850632705769, -40.360493007834293 ], [ -73.151370880076357, -40.360809564305868 ], [ -73.148785942811998, -40.361042206145036 ], [ -73.147355408959712, -40.360964427366021 ], [ -73.146145804073441, -40.360671101535509 ], [ -73.14559547277419, -40.3598404161418 ], [ -73.145346661898373, -40.358466634867263 ], [ -73.144562580877349, -40.355714376517859 ], [ -73.143447226332384, -40.354600534568043 ], [ -73.141750070707147, -40.353806257214579 ], [ -73.140490094587946, -40.352744934976791 ], [ -73.139522500330784, -40.351469134855712 ], [ -73.138829187781042, -40.350636015970004 ], [ -73.137982200435616, -40.350184122482446 ], [ -73.136055567476106, -40.349933865818329 ], [ -73.136047316450217, -40.349934530574615 ], [ -73.133327630994927, -40.350163826606916 ], [ -73.131354423082854, -40.350358089226646 ], [ -73.130025733929273, -40.350439189621099 ], [ -73.12902504304212, -40.350368230974489 ], [ -73.127897840616868, -40.34969249654948 ], [ -73.127265776101495, -40.349243905493807 ], [ -73.126557476059531, -40.348958416864171 ], [ -73.12561082871818, -40.348909915635048 ], [ -73.124669158941813, -40.348977714242338 ], [ -73.123219357124995, -40.349120088288878 ], [ -73.122348419795799, -40.349244213571467 ], [ -73.121588047111757, -40.349287219143335 ], [ -73.11992454327536, -40.34931545546263 ], [ -73.117717438317825, -40.349390202510051 ], [ -73.115575684000589, -40.349714808065229 ], [ -73.114072751326276, -40.349948078320253 ], [ -73.112065216092262, -40.350439653783205 ], [ -73.111182686004327, -40.350806598934362 ], [ -73.110683100535468, -40.350846148330177 ], [ -73.109937174557828, -40.350786240262856 ], [ -73.109016210050456, -40.350294492751559 ], [ -73.108337932603604, -40.350045003943514 ], [ -73.107836731963872, -40.349837386401667 ], [ -73.106898127239262, -40.349794345580861 ], [ -73.105879534725119, -40.350026585224136 ], [ -73.104487999434255, -40.350667497425341 ], [ -73.103755243656991, -40.351014971343588 ], [ -73.103261280743524, -40.351105930530586 ], [ -73.101908688318531, -40.351123004404862 ], [ -73.101261448563065, -40.351001769534847 ], [ -73.098981415675794, -40.35041597124323 ], [ -73.096746188958306, -40.350140818993466 ], [ -73.093642926469968, -40.349919122740552 ], [ -73.093588206492754, -40.349915160901567 ], [ -73.091903901267642, -40.349547861746942 ], [ -73.090182837879411, -40.349049269970486 ], [ -73.088203076757353, -40.348188436906128 ], [ -73.085315189849965, -40.346758226927449 ], [ -73.084451439043022, -40.346457910000147 ], [ -73.083089484376146, -40.34614938348642 ], [ -73.081049392399606, -40.345591110649593 ], [ -73.079751082472299, -40.345235883110213 ], [ -73.078570641391735, -40.345120889277773 ], [ -73.077817855878578, -40.345299079722992 ], [ -73.077490272633824, -40.345865718677466 ], [ -73.077539030492503, -40.346343156507999 ], [ -73.078266035255297, -40.347070338849633 ], [ -73.079374781793049, -40.347517783906746 ], [ -73.079921789325738, -40.348003584432881 ], [ -73.080155965747267, -40.348531789836152 ], [ -73.080145132064942, -40.34891299026512 ], [ -73.079181320613444, -40.349945713677791 ], [ -73.075695104522865, -40.35203288983147 ], [ -73.074960583556077, -40.352664125564289 ], [ -73.074175391319059, -40.353985819180423 ], [ -73.072978206539901, -40.356635429905843 ], [ -73.072362086222512, -40.358579624252975 ], [ -73.071944886146696, -40.360098062256398 ], [ -73.070957655615743, -40.3619406924226 ], [ -73.070108453923154, -40.363308953807064 ], [ -73.068758206999377, -40.364764141885296 ], [ -73.067806185037682, -40.365367954910994 ], [ -73.065921157550534, -40.36590849425582 ], [ -73.065023692970996, -40.36609413404021 ], [ -73.062578734787465, -40.36728258724245 ], [ -73.061935419771473, -40.367986815347287 ], [ -73.061524743261245, -40.369267068500406 ], [ -73.060996294922319, -40.37030690458257 ], [ -73.059461549310541, -40.37166356889535 ], [ -73.058136960067898, -40.372213343469966 ], [ -73.056564427722037, -40.372711320482168 ], [ -73.055481909295636, -40.372946326143442 ], [ -73.054358371098417, -40.373038017453446 ], [ -73.053676368338088, -40.37286056209993 ], [ -73.052820131040193, -40.372459045695038 ], [ -73.051996799929483, -40.372168578596614 ], [ -73.051313307762385, -40.372046417953669 ], [ -73.050375242026959, -40.371975309581202 ], [ -73.048821948899516, -40.371921416199974 ], [ -73.04817061282634, -40.371938133028443 ], [ -73.046981787769241, -40.372168449247987 ], [ -73.045401012482301, -40.372952141973293 ], [ -73.041822781957151, -40.375990123110647 ], [ -73.041615303465875, -40.37620631432528 ], [ -73.040574929501048, -40.377008869639461 ], [ -73.039027608373601, -40.37780178212342 ], [ -73.037075591719088, -40.378483704387762 ], [ -73.035684196565413, -40.379175140598534 ], [ -73.034724670976146, -40.380016869841242 ], [ -73.033113078085094, -40.381848546799112 ], [ -73.032584194961558, -40.382888272902207 ], [ -73.03181424982985, -40.383637926593707 ], [ -73.030551467373712, -40.38418840200135 ], [ -73.029240292673208, -40.384261392889201 ], [ -73.025950505795919, -40.383776228594101 ], [ -73.022968180799325, -40.383439241636069 ], [ -73.020410932306973, -40.383490843767156 ], [ -73.017223534507437, -40.383769851915822 ], [ -73.015027488709364, -40.384256575004457 ], [ -73.01216443572801, -40.385184221185007 ], [ -73.011298550523961, -40.385620878623868 ], [ -73.010668878222191, -40.385835821661949 ], [ -73.009978833743432, -40.385874176343286 ], [ -73.009097895470163, -40.385708457469264 ], [ -73.006925919131817, -40.385237414232542 ], [ -73.004133388391821, -40.384807845935825 ], [ -73.002400524734014, -40.384530266713128 ], [ -73.001465380319885, -40.384380458373933 ], [ -73.000224961422759, -40.384168258005019 ], [ -72.998668640074484, -40.384093655576706 ], [ -72.997483505296557, -40.384120825606466 ], [ -72.995224979873839, -40.384606016842689 ], [ -72.993280732748218, -40.385001354581732 ], [ -72.992276835773808, -40.385222279272163 ], [ -72.991520569288951, -40.385495055637499 ], [ -72.990518039550395, -40.385829088002538 ], [ -72.990048983326474, -40.386023686451438 ], [ -72.989282479640636, -40.386028853173919 ], [ -72.988384542547266, -40.385819592727344 ], [ -72.98763206964783, -40.385585308003293 ], [ -72.986773572188653, -40.385266076152853 ], [ -72.985953445368565, -40.385088414884628 ], [ -72.984524647061392, -40.384920468196853 ], [ -72.983403207328706, -40.384900956671018 ], [ -72.981525462483575, -40.385154221516579 ], [ -72.979630309186533, -40.385888180784669 ], [ -72.978078165902645, -40.386994952152072 ], [ -72.976668979614772, -40.388159413308962 ], [ -72.975859056757983, -40.389106908105695 ], [ -72.975463693828388, -40.389815036620512 ], [ -72.975256848649394, -40.390478827131759 ], [ -72.97523678926909, -40.391145777538554 ], [ -72.974964855757861, -40.39190373152605 ], [ -72.974317394118515, -40.392702795267319 ], [ -72.972365621805778, -40.394168217192217 ], [ -72.971546950256425, -40.394928228616514 ], [ -72.970877076549058, -40.395552533839492 ], [ -72.970284433701607, -40.396207157104001 ], [ -72.969356664455958, -40.396797976482844 ], [ -72.968631261389291, -40.397274489888943 ], [ -72.966986614089038, -40.398055998287717 ], [ -72.965905753952654, -40.398752016234091 ], [ -72.964408984619524, -40.399798202033026 ], [ -72.963829414056093, -40.400407637028195 ], [ -72.963560023675427, -40.401070308616738 ], [ -72.963445994228195, -40.402784322375012 ], [ -72.963153721960623, -40.404209281036465 ], [ -72.962687241206638, -40.405202072086524 ], [ -72.961843886648211, -40.406283635954416 ], [ -72.960696182871544, -40.40712140789865 ], [ -72.956851150012071, -40.408483530052912 ], [ -72.954265542604531, -40.409438830651673 ], [ -72.952555195219318, -40.410314237869464 ], [ -72.950723177317101, -40.411092122963069 ], [ -72.946696480852665, -40.412260050336513 ], [ -72.94502227897955, -40.41296922463254 ], [ -72.94298851743082, -40.414220066361736 ], [ -72.94195493742447, -40.415393343297119 ], [ -72.941109752099521, -40.416522332871679 ], [ -72.941024222602991, -40.417283584939497 ], [ -72.9413922273406, -40.419530526268524 ], [ -72.941631222325327, -40.4219182067513 ], [ -72.941504947942462, -40.424013447236035 ], [ -72.94122251043062, -40.425173020085893 ], [ -72.940906009701507, -40.425913533302513 ], [ -72.940388439960657, -40.4268774379237 ], [ -72.939167639371007, -40.428047419004919 ], [ -72.937986043057009, -40.42897532070441 ], [ -72.93667500220549, -40.430004935350162 ], [ -72.933858887096022, -40.431512405982339 ], [ -72.932045057383348, -40.432496320245292 ], [ -72.930712361743602, -40.433235121370622 ], [ -72.929330343204853, -40.433544076537601 ], [ -72.927142421770213, -40.433695556673207 ], [ -72.92601571162173, -40.433818282409703 ], [ -72.92488615022053, -40.434036337867759 ], [ -72.923936229418288, -40.434496012823175 ], [ -72.923356099204454, -40.43510526967026 ], [ -72.923145578119303, -40.43586419254494 ], [ -72.923125024665595, -40.436531154100038 ], [ -72.923533590134923, -40.437444177209287 ], [ -72.924016305242731, -40.437977244220185 ], [ -72.924188686555866, -40.438456970764705 ], [ -72.924108753563573, -40.43902760890434 ], [ -72.923802454102812, -40.439856260803595 ], [ -72.923154039350962, -40.440655005493859 ], [ -72.922514361613537, -40.441167865411103 ], [ -72.921947251581443, -40.441348335601305 ], [ -72.92057397005712, -40.441371232763096 ], [ -72.919268851798279, -40.441204780864197 ], [ -72.918283050486949, -40.440805705931169 ], [ -72.917368779326779, -40.440480847319584 ], [ -72.916652032426185, -40.440246661898883 ], [ -72.916220555425554, -40.440155950902422 ], [ -72.915702876090251, -40.440115453002207 ], [ -72.914516000377304, -40.440263496453824 ], [ -72.912999233647625, -40.440153062298236 ], [ -72.911231758800255, -40.439955270215123 ], [ -72.909676327682419, -40.439927108115036 ], [ -72.908441190879159, -40.440070673784888 ], [ -72.907691593486945, -40.44032837129086 ], [ -72.907182528995222, -40.440652878539822 ], [ -72.906789130681162, -40.441265396821493 ], [ -72.906623014218823, -40.442597129168881 ], [ -72.906562244088164, -40.443465897982023 ], [ -72.906370256145649, -40.443821942868183 ], [ -72.906073058415359, -40.44406549966272 ], [ -72.905524503085431, -40.4442490973003 ], [ -72.905006411423415, -40.444426865638107 ], [ -72.903811263125021, -40.444738860827847 ], [ -72.903052553222579, -40.445058808761139 ], [ -72.902845618212027, -40.44541727076372 ], [ -72.902714193787659, -40.445910697581837 ], [ -72.902747571590353, -40.44624517257396 ], [ -72.902847522640442, -40.446523615047695 ], [ -72.90312661033461, -40.446860478310342 ], [ -72.904046110588055, -40.447221866174765 ], [ -72.904536096659783, -40.447516770921169 ], [ -72.905143448521699, -40.448052119944478 ], [ -72.90555334349763, -40.448917578652306 ], [ -72.905836963192399, -40.449828473670657 ], [ -72.905914386291784, -40.451355214281165 ], [ -72.905921600661813, -40.452442195816616 ], [ -72.905726190138083, -40.45407031346884 ], [ -72.905653102308264, -40.455258132730535 ], [ -72.905563591478384, -40.45580968067933 ], [ -72.905416782506464, -40.456327532974818 ], [ -72.904965389855974, -40.456796006939008 ], [ -72.904689268398883, -40.457648968424543 ], [ -72.904727934583647, -40.45841241382292 ], [ -72.904855696576618, -40.458783533492628 ], [ -72.905127161167272, -40.459369198012077 ], [ -72.904898772591125, -40.459724553755287 ], [ -72.904562903286191, -40.460050346643079 ], [ -72.904086444046001, -40.46023526212268 ], [ -72.903419776425892, -40.460343095418047 ], [ -72.902913326929934, -40.460572252129872 ], [ -72.902329809169174, -40.461276617948705 ], [ -72.901991279054343, -40.462128511013198 ], [ -72.901955640192071, -40.463271902473295 ], [ -72.902127948741665, -40.463751738950457 ], [ -72.902858590783055, -40.464337006814837 ], [ -72.903278560364896, -40.464545014363118 ], [ -72.903509551360429, -40.464815555595735 ], [ -72.903647419400343, -40.465039299923866 ], [ -72.90352687986227, -40.465424278611295 ], [ -72.902895295047259, -40.465938235050139 ], [ -72.902764393442368, -40.46636118866828 ], [ -72.902874348131448, -40.466839885681935 ], [ -72.903111584214841, -40.467131389749198 ], [ -72.903358860768151, -40.467329450396541 ], [ -72.903973498865341, -40.467622499588003 ], [ -72.904578118950468, -40.46771108500262 ], [ -72.904899550532164, -40.467855211176357 ], [ -72.905072877771289, -40.468107190676236 ], [ -72.90502629563224, -40.468438173011627 ], [ -72.904881692024304, -40.468549818153612 ], [ -72.904509264880559, -40.468760652191833 ], [ -72.904028500015229, -40.469083895230511 ], [ -72.903854796381992, -40.469431718452661 ], [ -72.903841410585954, -40.469860509466372 ], [ -72.904062264991808, -40.470328961496747 ], [ -72.904806954887633, -40.470926651256562 ], [ -72.905427220031726, -40.471847106891246 ], [ -72.905837452774222, -40.472628813711033 ], [ -72.906164783592402, -40.473430071780768 ], [ -72.906307294125696, -40.473826510682038 ], [ -72.906252124092518, -40.474433924056171 ], [ -72.905968812519902, -40.47539668676729 ], [ -72.905456506008321, -40.476134291338056 ], [ -72.904618822514294, -40.476977113497462 ], [ -72.903436277579345, -40.477646124245446 ], [ -72.901848869132351, -40.478612846413142 ], [ -72.900731466428525, -40.479528249647203 ], [ -72.899344847617215, -40.480956917504805 ], [ -72.898343050005622, -40.481867728639507 ], [ -72.896636496205872, -40.483164122512264 ], [ -72.89441865907564, -40.484776093300916 ], [ -72.89307116728483, -40.485943237607195 ], [ -72.892296992884781, -40.486739417601846 ], [ -72.89196860025794, -40.487257771355821 ], [ -72.892017630306142, -40.487687702220818 ], [ -72.892259712800481, -40.487930446855145 ], [ -72.892377112726649, -40.488170903925287 ], [ -72.892445636216522, -40.488618694627753 ], [ -72.892292186898004, -40.488892486540053 ], [ -72.89185085268376, -40.489105679313226 ], [ -72.891279082191915, -40.489342523548302 ], [ -72.890895724347814, -40.489530740170188 ], [ -72.890744906194755, -40.489721516856434 ], [ -72.890699159488918, -40.490024873243343 ], [ -72.890762960535326, -40.490302624613307 ], [ -72.891118107686282, -40.490530345528526 ], [ -72.891855244547173, -40.490878421101357 ], [ -72.892293731101987, -40.491160207181977 ], [ -72.892784044160464, -40.491694620885426 ], [ -72.892915020325503, -40.492139419043838 ], [ -72.892808409165923, -40.492349364679626 ], [ -72.892676725128425, -40.492561853063414 ], [ -72.892165606189636, -40.49293380397809 ], [ -72.890525772960984, -40.494453096211856 ], [ -72.889093175678482, -40.496333666246521 ], [ -72.888627937294515, -40.497230811401622 ], [ -72.888538680687887, -40.498087175572969 ], [ -72.888623075612202, -40.498477036794498 ], [ -72.88882682429842, -40.498855203197984 ], [ -72.889373555150016, -40.499341840359456 ], [ -72.88985330941064, -40.499970315975673 ], [ -72.890211353628388, -40.500501155997704 ], [ -72.890199483290232, -40.500882310375069 ], [ -72.889746106261271, -40.501398305534167 ], [ -72.889316401636691, -40.501780632420157 ], [ -72.889272550376106, -40.502071825628455 ], [ -72.889270741169113, -40.502083984835444 ], [ -72.889466666427523, -40.502346660327163 ], [ -72.889952518452304, -40.502784441875548 ], [ -72.890840707926543, -40.503495788278087 ], [ -72.891170789386123, -40.503760059984202 ], [ -72.891842020447896, -40.504426260140313 ], [ -72.892116138661876, -40.504929086463505 ], [ -72.892487531844736, -40.505793153879772 ], [ -72.892464240326063, -40.506539361709351 ], [ -72.892197826063921, -40.506949390330746 ], [ -72.892177154032609, -40.506959604114364 ], [ -72.891608887868713, -40.507242812303296 ], [ -72.89099159255494, -40.507286869201096 ], [ -72.890341935433028, -40.507296158820786 ], [ -72.88990498050579, -40.507288167603264 ], [ -72.889152995391555, -40.507369806382954 ], [ -72.888831974339936, -40.507649978925357 ], [ -72.888060512852036, -40.508350870966261 ], [ -72.887675671889383, -40.508677530276643 ], [ -72.887407959561671, -40.509244584571334 ], [ -72.887131943207478, -40.510202999373547 ], [ -72.886810128943452, -40.511220353112087 ], [ -72.886443396220287, -40.51188229601599 ], [ -72.886014080566227, -40.512339627168345 ], [ -72.88529389671136, -40.512923980423871 ], [ -72.884164333513553, -40.513550219160713 ], [ -72.883517710900691, -40.513797146822036 ], [ -72.88306487375921, -40.513944960964849 ], [ -72.882590629764536, -40.514046868169672 ], [ -72.88208356761757, -40.51403751870329 ], [ -72.881688751761999, -40.51391970302253 ], [ -72.881262991639829, -40.513994152596823 ], [ -72.880944912570769, -40.514179034244734 ], [ -72.880590083423428, -40.514286655243019 ], [ -72.880333997092109, -40.514364985546699 ], [ -72.879940159501885, -40.514351154001773 ], [ -72.879578716059115, -40.51418514041012 ], [ -72.879332451907132, -40.513815692158182 ], [ -72.879024642378383, -40.513372986847166 ], [ -72.878610456150355, -40.512944481294468 ], [ -72.87824701395607, -40.512750347673972 ], [ -72.877740981278421, -40.512713425780078 ], [ -72.877372742978849, -40.512900205470743 ], [ -72.877229732982244, -40.513157469930604 ], [ -72.877206074052609, -40.513588522193459 ], [ -72.877476546004857, -40.514201874482971 ], [ -72.877824823738848, -40.514650747371967 ], [ -72.878282595326141, -40.515073955453595 ], [ -72.878914280752468, -40.515721639787223 ], [ -72.879543607202862, -40.51645217620473 ], [ -72.879852969020419, -40.516983357675414 ], [ -72.879941600399604, -40.517621040178831 ], [ -72.879672408546625, -40.518113908548642 ], [ -72.87930057249433, -40.518411257496233 ], [ -72.878239848095035, -40.518723572788907 ], [ -72.876928228728488, -40.518948401476266 ], [ -72.875506999625898, -40.519198808379279 ], [ -72.873690097674952, -40.519358975652224 ], [ -72.872783749655582, -40.51936992438084 ], [ -72.871761835171526, -40.519599946287471 ], [ -72.870927444901326, -40.519881729183595 ], [ -72.869906068508129, -40.520577902410807 ], [ -72.868812050747778, -40.521204940999318 ], [ -72.867820946681334, -40.521601439132077 ], [ -72.867055119426894, -40.521753264276647 ], [ -72.866218645963542, -40.521848432742154 ], [ -72.864932032999562, -40.521820713328104 ], [ -72.864555887728855, -40.521861421454844 ], [ -72.864109848139137, -40.522139221972523 ], [ -72.864093293086768, -40.522663285387758 ], [ -72.864332383292904, -40.523001284717203 ], [ -72.864508964229998, -40.523338277192074 ], [ -72.864682712778972, -40.52377053545294 ], [ -72.864725458213456, -40.52439095549407 ], [ -72.864456082205848, -40.525005672945213 ], [ -72.864019502774383, -40.525138999392503 ], [ -72.863393427327011, -40.525225256251233 ], [ -72.86204810137437, -40.525366351455794 ], [ -72.859790964747091, -40.525684088050433 ], [ -72.858253991313404, -40.526153357678311 ], [ -72.85675133981178, -40.526678562781306 ], [ -72.856270856119139, -40.526973863547532 ], [ -72.856147075459518, -40.527441678647072 ], [ -72.856150801671305, -40.528464965808134 ], [ -72.856197664084732, -40.529267846613763 ], [ -72.855933525255224, -40.529594793888862 ], [ -72.855557968381021, -40.529798201423041 ], [ -72.855150818656583, -40.530271648144577 ], [ -72.855087417360465, -40.530838147701353 ], [ -72.855448423323693, -40.531273901830367 ], [ -72.856183920759193, -40.531716466400653 ], [ -72.856678919430209, -40.531868718571808 ], [ -72.857239862527905, -40.531914888814768 ], [ -72.857530145925452, -40.531809127961886 ], [ -72.857752410686317, -40.531507332890726 ], [ -72.858181163096688, -40.530714961506661 ], [ -72.858413534802807, -40.530249193004799 ], [ -72.858893104010491, -40.529981506648568 ], [ -72.859551284347802, -40.529800210164126 ], [ -72.860683845223733, -40.529516941575956 ], [ -72.861856201466736, -40.529123806566112 ], [ -72.862623882843934, -40.528916841698724 ], [ -72.863136215406655, -40.528760326299548 ], [ -72.863677840234175, -40.528825704223721 ], [ -72.863994047214192, -40.529135741010606 ], [ -72.864190550089319, -40.529433852215675 ], [ -72.864102989501959, -40.530271551873184 ], [ -72.863846446826486, -40.530842532451388 ], [ -72.863563576326669, -40.53147193774516 ], [ -72.862461941751022, -40.532868427659864 ], [ -72.861232283772665, -40.533924219085939 ], [ -72.860373659651088, -40.534535112501551 ], [ -72.859484405673228, -40.534995268547775 ], [ -72.858841753613902, -40.535555398654317 ], [ -72.858518855981671, -40.535883062146667 ], [ -72.858110945384183, -40.536924172222506 ], [ -72.857735638241635, -40.537157752910069 ], [ -72.858102213759636, -40.538909756535524 ], [ -72.857611436272137, -40.54028127214201 ], [ -72.870957861856851, -40.538161011613148 ], [ -72.871024097337695, -40.538144181799652 ], [ -72.87135008966608, -40.538070682052194 ], [ -72.871520672552009, -40.538032201170289 ], [ -72.878846335777652, -40.536378508658757 ], [ -72.879779170623195, -40.536165950176844 ], [ -72.881380904504027, -40.536312447196316 ], [ -72.889979938628045, -40.537100382386136 ], [ -72.890466881207573, -40.533267515407324 ], [ -72.890609693574817, -40.533279151436858 ], [ -72.892946369732314, -40.533447916992678 ], [ -72.89611618301015, -40.533613732678461 ], [ -72.898389055426264, -40.533817297333059 ], [ -72.899406958932587, -40.533925872679163 ], [ -72.901525567258219, -40.534108472953015 ], [ -72.902364884787744, -40.534168762688275 ], [ -72.903643907885893, -40.53426131230345 ], [ -72.903592165823852, -40.534943190730814 ], [ -72.903493255921191, -40.536247553794226 ], [ -72.903297977449768, -40.536757452628855 ], [ -72.902554635925213, -40.537500648531342 ], [ -72.901920198959175, -40.538534075717557 ], [ -72.901124982421905, -40.539069054752034 ], [ -72.900470583991918, -40.539228402425707 ], [ -72.899363196605208, -40.539217220732077 ], [ -72.898333147876244, -40.540105088777018 ], [ -72.898104388295891, -40.540302271190114 ], [ -72.896264868562724, -40.54050303568399 ], [ -72.896010467470902, -40.541088398177862 ], [ -72.896521717563715, -40.541989552544379 ], [ -72.896756246124824, -40.544040978511582 ], [ -72.92181342506197, -40.536231839056768 ], [ -72.923369546085937, -40.535587922163231 ], [ -72.923716956945654, -40.535261680709397 ], [ -72.924281606492215, -40.534731365727026 ], [ -72.924734956571712, -40.534194505936703 ], [ -72.925290562778301, -40.533911785729408 ], [ -72.925950767918266, -40.533797471930654 ], [ -72.926887657758996, -40.533566615959629 ], [ -72.927009679517298, -40.533149842078728 ], [ -72.926870993112161, -40.532525857900872 ], [ -72.927014247450529, -40.531924884409051 ], [ -72.927611793302788, -40.531404131761271 ], [ -72.928141507367954, -40.531188455007111 ], [ -72.928655738969198, -40.531215653010157 ], [ -72.929070783986674, -40.531205059206641 ], [ -72.929712814411801, -40.531131032943719 ], [ -72.929674664758323, -40.530738452254305 ], [ -72.930199216205537, -40.530428142261897 ], [ -72.930607066615877, -40.529714792186901 ], [ -72.931679977560322, -40.529499773661506 ], [ -72.932314587002878, -40.529713853362139 ], [ -72.932306350350046, -40.529979426221161 ], [ -72.93258481191846, -40.530380784331882 ], [ -72.932869763814779, -40.530565982658878 ], [ -72.933215864032491, -40.530657762303974 ], [ -72.933570172156976, -40.530488469447242 ], [ -72.933638550119767, -40.530133865861067 ], [ -72.933463550217581, -40.529635290411058 ], [ -72.933785059054401, -40.529163606929927 ], [ -72.933900290447454, -40.529206229910884 ], [ -72.93419480041841, -40.529080877643707 ], [ -72.934597155834197, -40.52921868872086 ], [ -72.935229700948227, -40.529455176937901 ], [ -72.935623742456031, -40.529858633640863 ], [ -72.936187053512811, -40.530017285620183 ], [ -72.936668886475033, -40.529922349290977 ], [ -72.937318452867075, -40.529578083458958 ], [ -72.937721446086684, -40.529355549077543 ], [ -72.93826177374693, -40.529153554935199 ], [ -72.938890981619693, -40.529232332846 ], [ -72.939603302520879, -40.529200043861977 ], [ -72.940313379430478, -40.528613633876439 ], [ -72.940891264754441, -40.528223105948292 ], [ -72.941877698479715, -40.528155027654876 ], [ -72.942359888971396, -40.528501446136076 ], [ -72.942984504656451, -40.528706291534704 ], [ -72.943232557354165, -40.528219756829706 ], [ -72.942898521510699, -40.527727369029037 ], [ -72.943559641135622, -40.527027452469298 ], [ -72.944040484154385, -40.526504555281612 ], [ -72.944272172242577, -40.525319641365172 ], [ -72.944621554904344, -40.524609718682264 ], [ -72.945518836227578, -40.523783455508983 ], [ -72.946816470621798, -40.52318495337154 ], [ -72.948566926886116, -40.522950286042736 ], [ -72.949851107212311, -40.522792937287043 ], [ -72.950518086547831, -40.522840850957436 ], [ -72.951425760480589, -40.522492095167266 ], [ -72.95183789315989, -40.522211138576218 ], [ -72.952093349772184, -40.521648123133545 ], [ -72.952261809040806, -40.521083660741517 ], [ -72.952359421776194, -40.520761096962779 ], [ -72.952430327598194, -40.52017681132719 ], [ -72.95340500507136, -40.519640055507523 ], [ -72.95392326112507, -40.518874521471965 ], [ -72.953888702936098, -40.518022729750882 ], [ -72.953693196292605, -40.516735579227877 ], [ -72.953862904219449, -40.516324153776857 ], [ -72.954346762882622, -40.515963488758246 ], [ -72.955679094704678, -40.515523125723618 ], [ -72.956184525511077, -40.515230323202104 ], [ -72.95713812940599, -40.515039965296715 ], [ -72.958118232703484, -40.514129467131163 ], [ -72.959598295168959, -40.513826817308576 ], [ -72.960142970675179, -40.514138188279603 ], [ -72.960799708318149, -40.514469612251062 ], [ -72.961759766608367, -40.51465317588913 ], [ -72.962579653578302, -40.51466766162342 ], [ -72.963403318862305, -40.514556078158826 ], [ -72.96455133165945, -40.514576319697731 ], [ -72.965105311017055, -40.51433382034633 ], [ -72.965467725538645, -40.51388536056492 ], [ -72.966227702065638, -40.513394240189065 ], [ -72.966289799906292, -40.513147618371711 ], [ -72.965855704316596, -40.512838230878579 ], [ -72.9662643048202, -40.512525621816998 ], [ -72.967384351265906, -40.511833622570165 ], [ -72.967921368634336, -40.511536880292773 ], [ -72.967823170197363, -40.510954123350238 ], [ -72.968357946269165, -40.510567156020812 ], [ -72.968731963430955, -40.509731491269754 ], [ -72.969861050521672, -40.508909020421385 ], [ -72.970465968847492, -40.508392740173953 ], [ -72.971285218013549, -40.507690987983082 ], [ -72.972247501430743, -40.507604302856834 ], [ -72.972923012066531, -40.507584658893492 ], [ -72.973499823903722, -40.507729901554612 ], [ -72.973652643503215, -40.508439655347523 ], [ -72.973933727253922, -40.508755391085039 ], [ -72.974103067769832, -40.508938492953739 ], [ -72.974427089194492, -40.509223460365369 ], [ -72.975013280341571, -40.509576045706758 ], [ -72.975955716380867, -40.509975370498921 ], [ -72.976683178386153, -40.510091724016711 ], [ -72.977181595146831, -40.509929283492326 ], [ -72.977765690524336, -40.509759386428527 ], [ -72.978501726949006, -40.509547065888256 ], [ -72.97906439481207, -40.508935332060759 ], [ -72.979576716594991, -40.508701062214449 ], [ -72.980280495416139, -40.508380067129352 ], [ -72.980998410126588, -40.507681005849896 ], [ -72.981759313714946, -40.507518635983082 ], [ -72.982452052241257, -40.507665882727487 ], [ -72.982868329747276, -40.507362319918101 ], [ -72.983122388580995, -40.507105521578886 ], [ -72.983350018979053, -40.506794232015679 ], [ -72.984047407185244, -40.506806376023306 ], [ -72.984433744741168, -40.507475220582222 ], [ -72.984791612889111, -40.508112070094221 ], [ -72.985040722005621, -40.508710919890625 ], [ -72.985361876906197, -40.509491270601565 ], [ -72.985989161485946, -40.509898521239535 ], [ -72.986426708402959, -40.510189933957221 ], [ -72.98697100661677, -40.510095804148257 ], [ -72.987388667528336, -40.50974724910246 ], [ -72.987701727709904, -40.508996036478642 ], [ -72.987911453786026, -40.507801621200805 ], [ -72.988037971612329, -40.506853461694227 ], [ -72.988184753634798, -40.506432599126086 ], [ -72.988544050104039, -40.506083107059183 ], [ -72.989013786352629, -40.505915558050738 ], [ -72.989601305209689, -40.505705128935276 ], [ -72.990011329543037, -40.505288809510319 ], [ -72.990609014634188, -40.505056039844021 ], [ -72.991547844835935, -40.5051354054781 ], [ -72.991668189439594, -40.505700479575736 ], [ -72.991493210198655, -40.506075770032595 ], [ -72.991429150437412, -40.506367473935178 ], [ -72.991806905489128, -40.506540683348618 ], [ -72.992518929946272, -40.506508005724982 ], [ -72.993247661271042, -40.506209897745421 ], [ -72.994048628822767, -40.505840970415541 ], [ -72.994522874614091, -40.505619461001764 ], [ -72.995007977443919, -40.50555139253769 ], [ -72.995410487369895, -40.505806065105958 ], [ -72.995445054542046, -40.506603908900956 ], [ -72.99533596403225, -40.507394704114631 ], [ -72.995824059150294, -40.507524757098125 ], [ -72.9960874972939, -40.507867164363724 ], [ -72.996975597834918, -40.508215819337238 ], [ -72.997480345023391, -40.508503828476513 ], [ -72.998061351992959, -40.508513869908015 ], [ -72.998198946945038, -40.507804711797696 ], [ -72.997861528944526, -40.507096153386392 ], [ -72.998223969517255, -40.50696282657163 ], [ -72.998916753857642, -40.507105471035977 ], [ -72.999328391565228, -40.507378329654863 ], [ -72.999428750450463, -40.507672895152162 ], [ -73.000134523531528, -40.507851748274419 ], [ -73.000204007320448, -40.507352990693029 ], [ -73.000847694238956, -40.507782977214667 ], [ -73.001205026092663, -40.508343215910081 ], [ -73.001840234711537, -40.508489314090745 ], [ -73.002311139668308, -40.5082767422834 ], [ -73.002538151127126, -40.507933788657127 ], [ -73.003313646948982, -40.507803082831174 ], [ -73.00345294600514, -40.507008283829904 ], [ -73.00358791248668, -40.506389066908916 ], [ -73.003887598550307, -40.506083499797029 ], [ -73.00451553530695, -40.506450124020112 ], [ -73.004790271561873, -40.50698636389221 ], [ -73.00489095294229, -40.507519571020666 ], [ -73.005649733811637, -40.507402119542938 ], [ -73.006069929768927, -40.506963407133036 ], [ -73.006315177926339, -40.506526267575538 ], [ -73.006329713565961, -40.506035537950289 ], [ -73.006452770183458, -40.505816953892463 ], [ -73.006745752120125, -40.505736473000546 ], [ -73.007089849094754, -40.505873028860933 ], [ -73.00791059305746, -40.50635104936422 ], [ -73.008297935828182, -40.506551462733022 ], [ -73.008831899822951, -40.506826380846377 ], [ -73.009378210263009, -40.507110532837331 ], [ -73.010076877670173, -40.507077619852112 ], [ -73.010837101233861, -40.506914935021129 ], [ -73.011254516007057, -40.5065663033375 ], [ -73.011388945296048, -40.506334482038056 ], [ -73.011772843027671, -40.506300477205819 ], [ -73.012008092037632, -40.50662435091521 ], [ -73.01259172657943, -40.506544297878158 ], [ -73.013176519947905, -40.506423773839622 ], [ -73.013301333670114, -40.506115190660644 ], [ -73.013841853569829, -40.505547883140906 ], [ -73.014695583669763, -40.505310359800433 ], [ -73.015881014891733, -40.505357706072921 ], [ -73.016903471958244, -40.504974419421956 ], [ -73.017543299714291, -40.505314221653229 ], [ -73.017939822368902, -40.505226418065263 ], [ -73.018277209826678, -40.504912493513828 ], [ -73.018864709819127, -40.504701842679729 ], [ -73.019446946582335, -40.504666731866273 ], [ -73.019725585118834, -40.505072440825977 ], [ -73.021089735268276, -40.506113725578359 ], [ -73.02161237599887, -40.506122656774068 ], [ -73.021848555663496, -40.505996092686601 ], [ -73.021800735645968, -40.50563944227293 ], [ -73.021528013413942, -40.505058246722982 ], [ -73.021689190040519, -40.504317773614886 ], [ -73.022720441613643, -40.504011221680393 ], [ -73.023202526104129, -40.503442884085956 ], [ -73.023519264886787, -40.502979903514692 ], [ -73.023969089977101, -40.503059605618382 ], [ -73.024025066697405, -40.503411911893934 ], [ -73.024243960979319, -40.503595792681288 ], [ -73.025458123019007, -40.503337354944037 ], [ -73.025820468370327, -40.503357024741142 ], [ -73.025870076933586, -40.503578605150167 ], [ -73.025774626443066, -40.505247955397849 ], [ -73.025732147808228, -40.505787760711719 ], [ -73.026001221083604, -40.505918467050144 ], [ -73.026330544365067, -40.505883588418833 ], [ -73.026556735662041, -40.505716271140869 ], [ -73.027049495731347, -40.505287787013742 ], [ -73.027757098680652, -40.504673786952814 ], [ -73.02810964790379, -40.504549196160248 ], [ -73.029040911595899, -40.504484071189637 ], [ -73.02979673610966, -40.50448792079532 ], [ -73.030777524821687, -40.504270407483162 ], [ -73.030979299909234, -40.503800948472183 ], [ -73.030488532303224, -40.503130454585467 ], [ -73.030373466200174, -40.502678113887143 ], [ -73.030962654127023, -40.502377340661333 ], [ -73.031462175815477, -40.502421857038989 ], [ -73.031782948033765, -40.502170589664459 ], [ -73.032088968118458, -40.501644369460777 ], [ -73.032625894757032, -40.501167029907499 ], [ -73.034381581012951, -40.500751025219934 ], [ -73.035821384580657, -40.501176433081746 ], [ -73.036497015590669, -40.5014806447982 ], [ -73.036841649757861, -40.502081051079465 ], [ -73.03636618135944, -40.502424279168423 ], [ -73.037166353902137, -40.502883774530154 ], [ -73.037504680997714, -40.503245375325228 ], [ -73.037909092657159, -40.503337824199619 ], [ -73.038435562007507, -40.503216189221824 ], [ -73.038973807372926, -40.502693772967746 ], [ -73.039104491585505, -40.50220510000706 ], [ -73.039288648015372, -40.501856862561354 ], [ -73.039650343884759, -40.501417053755574 ], [ -73.040189732805516, -40.500849737237587 ], [ -73.041109965185939, -40.500608585143326 ], [ -73.041949222528345, -40.50091109106431 ], [ -73.043087634131709, -40.501281676001071 ], [ -73.04367742033655, -40.501670077386443 ], [ -73.044614938997981, -40.501618330237385 ], [ -73.045253311483293, -40.501728224147826 ], [ -73.045588026453089, -40.501783473975344 ], [ -73.046232028680294, -40.502213265327896 ], [ -73.046374086462677, -40.502805622071023 ], [ -73.046863273033807, -40.503057145943949 ], [ -73.047608276441636, -40.502749937295448 ], [ -73.048045492778627, -40.502424014141297 ], [ -73.048874797685983, -40.501802960483367 ], [ -73.049896229774745, -40.501040963992857 ], [ -73.050930267921885, -40.500454907421606 ], [ -73.051856687897981, -40.500556126773638 ], [ -73.052554969927897, -40.50122543530609 ], [ -73.05334022414867, -40.501972907074538 ], [ -73.053332822030725, -40.502459255909976 ], [ -73.054249704593445, -40.502889005364651 ], [ -73.054348804938968, -40.503287068760812 ], [ -73.054373264267511, -40.503386540013281 ], [ -73.054937412554168, -40.50369780577558 ], [ -73.054665700926805, -40.504445452173826 ], [ -73.054463987823027, -40.504942023128258 ], [ -73.054755810034635, -40.505104542669727 ], [ -73.055379689999455, -40.505412379166494 ], [ -73.056200748372518, -40.505385581877029 ], [ -73.057211233591218, -40.505411577290211 ], [ -73.057142313944297, -40.504987078083353 ], [ -73.057095508124746, -40.504693559496545 ], [ -73.057386756312894, -40.50456786221946 ], [ -73.057922633719215, -40.504455251051063 ], [ -73.058410558157362, -40.504260738356685 ], [ -73.059409362582414, -40.504106382544066 ], [ -73.060009695907027, -40.504156965919364 ], [ -73.060214709421174, -40.50461983044633 ], [ -73.060144547404221, -40.505159143568299 ], [ -73.059748671536596, -40.505611948386495 ], [ -73.060245486601119, -40.505931015566517 ], [ -73.060996711740614, -40.505997676617483 ], [ -73.061918977008517, -40.506193387758195 ], [ -73.062229003579375, -40.506824663747196 ], [ -73.06155557523843, -40.507439439823159 ], [ -73.06116441462774, -40.507725578812106 ], [ -73.061156115991139, -40.508013730755266 ], [ -73.061463002051752, -40.50873054713216 ], [ -73.061858928225021, -40.508633541226025 ], [ -73.062506637799402, -40.508581372575989 ], [ -73.063213682894911, -40.508719290001089 ], [ -73.063476896459676, -40.509057045456039 ], [ -73.063352288451668, -40.509595473946007 ], [ -73.063234742998432, -40.50988622138857 ], [ -73.06324631779087, -40.50990661732547 ], [ -73.063397839324793, -40.509632674166092 ], [ -73.065076912761683, -40.506594512634699 ], [ -73.066336285213012, -40.505342253206251 ], [ -73.067022692413175, -40.504674687195205 ], [ -73.06749898097344, -40.503579119485202 ], [ -73.068628238744083, -40.499099003117784 ], [ -73.07014931738712, -40.492588111680497 ], [ -73.070207641405247, -40.490551774171429 ], [ -73.070273368439643, -40.488260953664984 ], [ -73.070534545523657, -40.486907085559423 ], [ -73.070706399525704, -40.484787805387839 ], [ -73.070182381677768, -40.483675503977238 ], [ -73.068363864555948, -40.481183413586145 ], [ -73.068066969557933, -40.479905146014666 ], [ -73.066553699969631, -40.474531910127453 ], [ -73.06594070578943, -40.472654156903772 ], [ -73.065592003152346, -40.471792751549231 ], [ -73.068898659492362, -40.468532152830001 ], [ -73.068778705655831, -40.468395033704383 ], [ -73.068673316205022, -40.468267138931331 ], [ -73.068569373041811, -40.468166341744244 ], [ -73.06849382113316, -40.468075019192632 ], [ -73.068374995580626, -40.467946934505434 ], [ -73.068241216671908, -40.467809564056196 ], [ -73.068120941238504, -40.467681455626689 ], [ -73.068046933533822, -40.467590078426056 ], [ -73.067940766141973, -40.467489211197858 ], [ -73.067806577601459, -40.467333854334612 ], [ -73.067686162030881, -40.467241752238209 ], [ -73.067598807157708, -40.467177255340765 ], [ -73.067462368337402, -40.467102906894908 ], [ -73.067328287594734, -40.467019621283896 ], [ -73.066955588261436, -40.46677912603608 ], [ -73.0667756530151, -40.466677095770052 ], [ -73.066639121668331, -40.46645409704778 ], [ -73.066545899898017, -40.466258859109438 ], [ -73.066496188028523, -40.46601480046612 ], [ -73.066514238775838, -40.465875470767031 ], [ -73.067462653103348, -40.465716926738935 ], [ -73.069379934600775, -40.46539643677994 ], [ -73.067297966758957, -40.461163937547774 ], [ -73.067447314369886, -40.461148419141907 ], [ -73.067583089335173, -40.46114164243987 ], [ -73.067715740858247, -40.461143900657149 ], [ -73.067941204519812, -40.461147683034227 ], [ -73.068120259417199, -40.461150666423293 ], [ -73.068255816091892, -40.46112589506307 ], [ -73.068389477321332, -40.46109211610721 ], [ -73.068553756728917, -40.461040806536552 ], [ -73.068644350028691, -40.460943257346102 ], [ -73.06877826368472, -40.460819392553049 ], [ -73.068929296535131, -40.460668734939595 ], [ -73.070805280682293, -40.464528392290674 ], [ -73.071332573787785, -40.464748960931878 ], [ -73.072131576723976, -40.465370263889717 ], [ -73.072797439453609, -40.466498357052402 ], [ -73.073386913044715, -40.467201777755442 ], [ -73.074954408536826, -40.467142377073486 ], [ -73.076063599740607, -40.467300470098564 ], [ -73.075260137567341, -40.465571066886703 ], [ -73.077723089904339, -40.464558211688392 ], [ -73.078324288306533, -40.464541096855214 ], [ -73.079946710388356, -40.463942031888358 ], [ -73.080639154267232, -40.464219278129427 ], [ -73.081328918471613, -40.463604703389237 ], [ -73.082258171734125, -40.462962472238289 ], [ -73.083571893158464, -40.464412099178467 ], [ -73.083409679876027, -40.465112039103964 ], [ -73.082915346856652, -40.465698317532038 ], [ -73.082152472364541, -40.466784607767366 ], [ -73.082351521065192, -40.467688731927403 ], [ -73.082203511045719, -40.468307830357233 ], [ -73.090228336650227, -40.473976064558137 ], [ -73.090302571628698, -40.473878266280359 ], [ -73.090407844298539, -40.473780916821923 ], [ -73.090527135178348, -40.473656734709742 ], [ -73.090662254373498, -40.47354187604553 ], [ -73.090796922614373, -40.473472033850861 ], [ -73.094164238592271, -40.470591008891454 ], [ -73.094239015254843, -40.470502263946599 ], [ -73.094359517962005, -40.470360107504959 ], [ -73.094493261836462, -40.470218071038602 ], [ -73.09467306862372, -40.469986906631561 ], [ -73.094853544655862, -40.469755643703735 ], [ -73.094973368236666, -40.469559509865626 ], [ -73.09512190377059, -40.469336756485639 ], [ -73.095272108374303, -40.469131945680559 ], [ -73.095437530438915, -40.468864477321297 ], [ -73.09561700484953, -40.468615249312712 ], [ -73.095752066552507, -40.468428310785043 ], [ -73.095917070002216, -40.468223859415644 ], [ -73.10551931478777, -40.47213344893121 ], [ -73.105458228450118, -40.472181951638674 ], [ -73.105412879697951, -40.472325354783507 ], [ -73.10548750005367, -40.472479687353903 ], [ -73.105517742736012, -40.472633385408862 ], [ -73.105546398993582, -40.472768992485456 ], [ -73.10554754524388, -40.472859026669596 ], [ -73.105546798743873, -40.472967130126925 ], [ -73.105412203266553, -40.473136062529306 ], [ -73.10529258270499, -40.473251197963734 ], [ -73.105143279111516, -40.473365913620491 ], [ -73.10505337032798, -40.473445540197631 ], [ -73.104918636510092, -40.473596402860046 ], [ -73.104799150695854, -40.473729607377237 ], [ -73.104708145967663, -40.473845125836952 ], [ -73.104619379841196, -40.473987861214631 ], [ -73.10455941999092, -40.474103971692678 ], [ -73.104500586628006, -40.474202116098596 ], [ -73.104455778661631, -40.474327499890485 ], [ -73.104425124550886, -40.474471117806772 ], [ -73.104424065437172, -40.474642233804545 ], [ -73.104424667308407, -40.47475028929054 ], [ -73.104439838056919, -40.474840636521357 ], [ -73.104439901837296, -40.474966784460726 ], [ -73.104439614376417, -40.475110946313109 ], [ -73.104438998132139, -40.475237044544428 ], [ -73.104529539329619, -40.475373622848558 ], [ -73.104633313609554, -40.475456317948577 ], [ -73.104739647189746, -40.475557217626999 ], [ -73.104783319685581, -40.475684028418648 ], [ -73.104782928020128, -40.475801118593104 ], [ -73.104783398737325, -40.475891177411427 ], [ -73.10478246269281, -40.47602628796237 ], [ -73.10487254485119, -40.476099880335475 ], [ -73.104977411482508, -40.476146609677301 ], [ -73.10518790651652, -40.476186039690937 ], [ -73.105307478569046, -40.476233131135714 ], [ -73.105471011476624, -40.476289797990724 ], [ -73.105591575269216, -40.476327779954019 ], [ -73.105710372973974, -40.47637482414995 ], [ -73.105935671345549, -40.476441538484089 ], [ -73.106100209467911, -40.476489315806596 ], [ -73.106234566891715, -40.476509543549916 ], [ -73.106354126367819, -40.47652948565802 ], [ -73.106593346829655, -40.476569440238713 ], [ -73.106757652288394, -40.476599151108495 ], [ -73.106952457347646, -40.476647399127756 ], [ -73.107087277403792, -40.476703682973117 ], [ -73.107158776113891, -40.476781401860741 ], [ -73.107742789744734, -40.476754932746175 ], [ -73.109500856536144, -40.476369356867977 ], [ -73.111588780208294, -40.475682887937793 ], [ -73.11403913277509, -40.475349000234196 ], [ -73.113909653203294, -40.476761114750389 ], [ -73.113688370301034, -40.477820477191322 ], [ -73.113754157522564, -40.479078159131106 ], [ -73.12521021064417, -40.476607293579157 ], [ -73.125105164349804, -40.477123542379807 ], [ -73.125080509188521, -40.477375321740539 ], [ -73.125094523805259, -40.478141237897837 ], [ -73.125148779353481, -40.478682627912974 ], [ -73.125322686904269, -40.479216937350614 ], [ -73.125530738520709, -40.480003947463103 ], [ -73.125610489154994, -40.480239453829434 ], [ -73.12577918557885, -40.480485425898848 ], [ -73.12601230019169, -40.480984640827465 ], [ -73.126140778141945, -40.481482137028863 ], [ -73.126235154247382, -40.481744931441014 ], [ -73.12641821563092, -40.48213520328212 ], [ -73.136241355246526, -40.479425062119404 ], [ -73.141832748950932, -40.488491527725586 ], [ -73.136591265219351, -40.490307787427291 ], [ -73.136886247704169, -40.492253708923812 ], [ -73.138930845630156, -40.491998456816539 ], [ -73.141050901141739, -40.494406123435489 ], [ -73.149925718057972, -40.494071224211893 ], [ -73.150537981009535, -40.494598943877016 ], [ -73.157280999636839, -40.494558070957495 ], [ -73.160270989059427, -40.490817862883134 ], [ -73.159530408057719, -40.488720689504618 ], [ -73.163285852832232, -40.488591281215079 ], [ -73.163300789120456, -40.488339330078063 ], [ -73.163465109850549, -40.487909583754174 ], [ -73.163510153175523, -40.487802170484692 ], [ -73.163509353674925, -40.487694050604624 ], [ -73.163464394791575, -40.48753123746269 ], [ -73.163434719844489, -40.487404609604333 ], [ -73.163360748970732, -40.487277294193902 ], [ -73.163300344454385, -40.487141226555636 ], [ -73.163378830260768, -40.486885727490609 ], [ -73.164436350369414, -40.485740548324145 ], [ -73.1648042706654, -40.486016672898963 ], [ -73.165324897373154, -40.486335676136399 ], [ -73.165867486991274, -40.486695639627243 ], [ -73.166214976004412, -40.486903814996722 ], [ -73.166420651576928, -40.487042159592811 ], [ -73.166454868406092, -40.48705486673019 ], [ -73.166467047764726, -40.487165673358071 ], [ -73.166467725094449, -40.487171920675451 ], [ -73.166547828766653, -40.487483956494927 ], [ -73.167229222469217, -40.487724481436068 ], [ -73.168089773477107, -40.487670598748146 ], [ -73.168475209124495, -40.487708239499888 ], [ -73.168476476647356, -40.487906417087807 ], [ -73.16845995303602, -40.488266501962968 ], [ -73.169103154864288, -40.488344253238857 ], [ -73.16956680053525, -40.488644345373487 ], [ -73.170037855510671, -40.489169833363206 ], [ -73.170396798942008, -40.489743044819974 ], [ -73.170346205825211, -40.490035015819885 ], [ -73.17090143114612, -40.490142863437036 ], [ -73.171320462886825, -40.490545848946702 ], [ -73.172399017047866, -40.491972754065891 ], [ -73.172600970900149, -40.492435298914188 ], [ -73.172849204159235, -40.49279960189817 ], [ -73.173403707234669, -40.492938963857036 ], [ -73.174275578811773, -40.493018224958163 ], [ -73.174233279839981, -40.493055976797422 ], [ -73.173979343177152, -40.493283305803722 ], [ -73.173664228548532, -40.493814055275642 ], [ -73.171138477684991, -40.494539316720406 ], [ -73.167047114198198, -40.495406143242462 ], [ -73.169731636898305, -40.500882630054321 ], [ -73.170957488714805, -40.503288548931955 ], [ -73.171805390545174, -40.504598900815438 ], [ -73.17472424956695, -40.507238992908199 ], [ -73.174574336017386, -40.507755429566508 ], [ -73.174291328075327, -40.50816595207619 ], [ -73.174207906924778, -40.50873531102485 ], [ -73.174324075260699, -40.50946343201926 ], [ -73.174384996308333, -40.509723778317429 ], [ -73.174242074346623, -40.509980951833477 ], [ -73.174161487380786, -40.510446559986249 ], [ -73.174286170847282, -40.510863575444986 ], [ -73.17454385528147, -40.511386434828296 ], [ -73.175005400691305, -40.511912538306895 ], [ -73.175464117306305, -40.512542316009558 ], [ -73.175244766680223, -40.513109513825789 ], [ -73.175101835735362, -40.513366615623887 ], [ -73.174619205967502, -40.513618379216474 ], [ -73.174139408587735, -40.513766463516312 ], [ -73.173929970870816, -40.513970641638764 ], [ -73.173854961544606, -40.514228898400262 ], [ -73.173710603176758, -40.514537836251158 ], [ -73.173294461316345, -40.514842517322265 ], [ -73.173215284705506, -40.515256286799236 ], [ -73.172940658943375, -40.51535570547054 ], [ -73.172462267427022, -40.515451944969591 ], [ -73.17211687418343, -40.515653955136507 ], [ -73.171573297316797, -40.515645359843404 ], [ -73.171229322513042, -40.515795529412323 ], [ -73.171290244458987, -40.516055950833056 ], [ -73.17168519685849, -40.516529073269638 ], [ -73.171671187631631, -40.517047600480176 ], [ -73.171448954311813, -40.517718543212844 ], [ -73.171231073329537, -40.518233892574486 ], [ -73.171483088495975, -40.518964186507368 ], [ -73.171871058290762, -40.51969656962077 ], [ -73.171924985055583, -40.520216253712782 ], [ -73.171902367273375, -40.521045963599072 ], [ -73.172027062417939, -40.521462980058359 ], [ -73.172136308336277, -40.521930057209779 ], [ -73.173159384342, -40.52349874595204 ], [ -73.174028269020781, -40.524736906571739 ], [ -73.175408813424156, -40.52560052005861 ], [ -73.178564814206197, -40.527563473159852 ], [ -73.179653211207793, -40.528116345797898 ], [ -73.181441043676145, -40.528756722526644 ], [ -73.182940633719284, -40.528933400714223 ], [ -73.185043974278344, -40.529042933049887 ], [ -73.187280648181769, -40.529380480295373 ], [ -73.1891250385804, -40.528655254185118 ], [ -73.191340035237701, -40.527593564305967 ], [ -73.192233469974894, -40.526892438457274 ], [ -73.192937082607713, -40.526283779872145 ], [ -73.193752629816487, -40.526153507898279 ], [ -73.194439513123768, -40.526164311442606 ], [ -73.195309906073902, -40.526320918939369 ], [ -73.196361272722854, -40.526718732633036 ], [ -73.197540030360599, -40.527023079760205 ], [ -73.199166212790189, -40.52695304536342 ], [ -73.200918406396269, -40.526837381383984 ], [ -73.202517681588162, -40.526600156733068 ], [ -73.204328649268334, -40.52662829136942 ], [ -73.205446290025705, -40.526883957951583 ], [ -73.206125554721041, -40.527180533297205 ], [ -73.206553689090526, -40.527520862790176 ], [ -73.207284064332271, -40.52824727148964 ], [ -73.208252716804822, -40.52940635101583 ], [ -73.209222764361002, -40.530517716054796 ], [ -73.21035731949685, -40.532489719774858 ], [ -73.211236996535462, -40.534648509499092 ], [ -73.212201926389483, -40.535950508584804 ], [ -73.213129943570152, -40.536298521868915 ], [ -73.215185821641185, -40.536520993596127 ], [ -73.219058079741984, -40.536580803262375 ], [ -73.223436118992126, -40.536409871838025 ], [ -73.226135488148941, -40.535927020347053 ], [ -73.228118467934664, -40.535361559224079 ], [ -73.23178212105681, -40.533844670415874 ], [ -73.233924208649029, -40.533162322686159 ], [ -73.23851317322621, -40.532088322405791 ], [ -73.240893806645474, -40.531838592476262 ], [ -73.244703317423671, -40.531896527368424 ], [ -73.24727117681617, -40.53164958648938 ], [ -73.25246210246523, -40.53144215763259 ], [ -73.255844307120654, -40.53111195779065 ], [ -73.258600754332321, -40.530819887009962 ], [ -73.262350304361917, -40.530780968404152 ], [ -73.266154808829043, -40.531028850607711 ], [ -73.267347486760386, -40.530808419197676 ], [ -73.268110471745288, -40.530295447662255 ], [ -73.269319775695934, -40.529129466875595 ], [ -73.269327613496785, -40.529121948018073 ], [ -73.270293724635394, -40.527992327730153 ], [ -73.270828924712006, -40.526618029370752 ], [ -73.270850941521289, -40.525760233664158 ], [ -73.270438321056773, -40.524800648259045 ], [ -73.269835937776705, -40.523933658744966 ], [ -73.269098844933268, -40.523445884170727 ], [ -73.268666572923593, -40.523248762770947 ], [ -73.268176885092558, -40.522860045915181 ], [ -73.267873307527111, -40.522521760440213 ], [ -73.267636956284292, -40.52199390467824 ], [ -73.267518261885797, -40.521753751157789 ], [ -73.267335839204421, -40.521560363466264 ], [ -73.266908586980577, -40.521172650196498 ], [ -73.266922076981174, -40.520648461087447 ], [ -73.267247804306564, -40.52012895038294 ], [ -73.267953075229414, -40.519424469960143 ], [ -73.268589708576314, -40.518957408812213 ], [ -73.269046353676259, -40.518201485613538 ], [ -73.269245922501469, -40.517727800656822 ], [ -73.269517786842428, -40.516873813826692 ], [ -73.270219329756827, -40.516312277147961 ], [ -73.270849791677719, -40.516083339365601 ], [ -73.271793594054571, -40.515811441526537 ], [ -73.272301689264111, -40.5154854466251 ], [ -73.273325181189804, -40.514547323600844 ], [ -73.274358421632968, -40.51322803163638 ], [ -73.275385422378179, -40.512147016164768 ], [ -73.277160355937355, -40.511124718115447 ], [ -73.278167874020681, -40.510806070403135 ], [ -73.27911035048416, -40.510581744401321 ], [ -73.279799567614546, -40.510496642055315 ], [ -73.280743352923395, -40.510224746831888 ], [ -73.281312537165505, -40.509947199504865 ], [ -73.281887891935312, -40.509431365728254 ], [ -73.282281832831814, -40.508674473869775 ], [ -73.282612256549498, -40.507964421357535 ], [ -73.283190015211005, -40.507353255700707 ], [ -73.283829971426158, -40.506743098069627 ], [ -73.284027069884331, -40.506364644868505 ], [ -73.284197077848475, -40.505819002284611 ], [ -73.284208007650534, -40.505390069380432 ], [ -73.284003189969141, -40.503623301738131 ], [ -73.283682114120282, -40.501521140544952 ], [ -73.283571911496182, -40.500947397175075 ], [ -73.283095597783074, -40.50003463040948 ], [ -73.282267880198816, -40.498210869841728 ], [ -73.281675256216005, -40.496962706288578 ], [ -73.281513556769909, -40.495959245552307 ], [ -73.281371236679448, -40.494193248084429 ], [ -73.281207118968609, -40.493285114108851 ], [ -73.280969665492918, -40.492804907983142 ], [ -73.280519212480229, -40.492107017917959 ], [ -73.277450816303002, -40.490011509443406 ], [ -73.27457116425181, -40.487871077491093 ], [ -73.273168711735309, -40.486563017660266 ], [ -73.271576543115614, -40.485347463392515 ], [ -73.27079344574986, -40.48423937047869 ], [ -73.270447093105531, -40.483137826044945 ], [ -73.270607377705062, -40.481757784434528 ], [ -73.271397796340381, -40.480148890428801 ], [ -73.271927575982559, -40.478965039852689 ], [ -73.27197534749105, -40.478322285947087 ], [ -73.271873773185263, -40.477414916394622 ], [ -73.271704850385973, -40.476697416915066 ], [ -73.271407516111765, -40.476120922722352 ], [ -73.270016331163859, -40.474384021434631 ], [ -73.267839876723812, -40.471634226956624 ], [ -73.267433649569185, -40.470436402726513 ], [ -73.267516889260051, -40.469627241710249 ], [ -73.267846088574018, -40.468964857269839 ], [ -73.268293855624009, -40.468542484540215 ], [ -73.269172206749246, -40.468365028073308 ], [ -73.269924597901976, -40.468233243970261 ], [ -73.270866618021302, -40.46800900865896 ], [ -73.271626257680083, -40.467591307888171 ], [ -73.271759555990144, -40.467259646162688 ], [ -73.271648216997193, -40.466733585481961 ], [ -73.271288677982824, -40.466156220484848 ], [ -73.270495828506341, -40.465429281364408 ], [ -73.269978427648752, -40.46492105100365 ], [ -73.269310418843929, -40.464195975265234 ], [ -73.269018072016181, -40.463885598605472 ], [ -73.268951290359638, -40.463814889318449 ], [ -73.268399140870258, -40.463228929345448 ], [ -73.266782070052571, -40.460582861192648 ], [ -73.265950351372041, -40.458949587803367 ], [ -73.264692917485121, -40.456880939530443 ], [ -73.263981169709083, -40.455440107149947 ], [ -73.263761141753292, -40.454292778437456 ], [ -73.26411844216598, -40.45253439749888 ], [ -73.264659155203489, -40.450921645143922 ], [ -73.265381966630528, -40.449502519106261 ], [ -73.266432629898631, -40.447468418572917 ], [ -73.267485791381546, -40.445339052757028 ], [ -73.268012771873288, -40.444250560998512 ], [ -73.269373935124392, -40.442268834875847 ], [ -73.269569637600625, -40.441938112616427 ], [ -73.271383091817512, -40.439343345072217 ], [ -73.272622887283845, -40.4372167637448 ], [ -73.273538704444647, -40.435561977407716 ], [ -73.273955467939231, -40.433899775342162 ], [ -73.275039853963094, -40.430531401214296 ], [ -73.275761024168133, -40.429159709003358 ], [ -73.277166879502943, -40.427845922623604 ], [ -73.277685194845461, -40.427569622471403 ], [ -73.277862597741048, -40.427474964445359 ], [ -73.279118173911968, -40.427159964415083 ], [ -73.280812714541426, -40.426756078804303 ], [ -73.281343472448953, -40.426481513844365 ], [ -73.281927923559337, -40.426221036133363 ], [ -73.282468045505382, -40.426449450306251 ], [ -73.282677804819158, -40.426718302682119 ], [ -73.283179196800035, -40.426964528189202 ], [ -73.28369317597469, -40.427179373429631 ], [ -73.28407178352758, -40.42738758763511 ], [ -73.284426956729689, -40.42782085656939 ], [ -73.284212135409263, -40.428363885077168 ], [ -73.285090709316705, -40.428109216833384 ], [ -73.287729423327221, -40.427423183354463 ], [ -73.289586770127201, -40.426608418645323 ], [ -73.2901966130174, -40.425770739547836 ], [ -73.29042326245515, -40.425197531160613 ], [ -73.290752029679481, -40.425247422450113 ], [ -73.291365484695433, -40.42522948040957 ], [ -73.291484727066219, -40.425204168563646 ], [ -73.291618201446084, -40.425143140128 ], [ -73.291723369013027, -40.425063541097209 ], [ -73.291901021640243, -40.424967156931778 ], [ -73.292140002251912, -40.424898588168766 ], [ -73.292258574479533, -40.424873375356377 ], [ -73.292407189065187, -40.424848519503676 ], [ -73.292645759146765, -40.424825038862508 ], [ -73.292766730774503, -40.424817809892467 ], [ -73.293003847381954, -40.424794234869339 ], [ -73.29316879333949, -40.424769655946562 ], [ -73.293467174150976, -40.42473804703652 ], [ -73.293751923028069, -40.424724279765719 ], [ -73.293843225996909, -40.424725604383539 ], [ -73.295600605577121, -40.424098444505724 ], [ -73.300035420149868, -40.421118967296316 ], [ -73.300959251181311, -40.420501981581467 ], [ -73.30168456082319, -40.42001263307035 ], [ -73.301793313566421, -40.420086332624763 ], [ -73.302003266916316, -40.420260569610896 ], [ -73.302093764994666, -40.420324989807995 ], [ -73.302213711644669, -40.420416787593219 ], [ -73.302363806653901, -40.420509084495109 ], [ -73.302573409660837, -40.420611259407337 ], [ -73.302783783422271, -40.420713406808744 ], [ -73.302888686884529, -40.420760026956479 ], [ -73.302993292106109, -40.420815585513978 ], [ -73.303127269542529, -40.420880670603871 ], [ -73.30329359531234, -40.420973172719698 ], [ -73.30341306765186, -40.421055986074954 ], [ -73.303533215524467, -40.421138774708318 ], [ -73.30368369321603, -40.421249129987267 ], [ -73.303758539048857, -40.421322320744551 ], [ -73.303893750770484, -40.421423358490735 ], [ -73.304014069323017, -40.421560213749729 ], [ -73.304149165161959, -40.421724402079619 ], [ -73.304269490901007, -40.421861330585159 ], [ -73.304360351000412, -40.421970661597008 ], [ -73.304420124899437, -40.422052676323275 ], [ -73.3045561154604, -40.422153758792199 ], [ -73.30475025486804, -40.42228269602851 ], [ -73.304930398523524, -40.422384416890125 ], [ -73.305050763788444, -40.422431269764594 ], [ -73.305215852578101, -40.422487668105553 ], [ -73.305306552777395, -40.422543078887507 ], [ -73.305425373838332, -40.42258991523854 ], [ -73.305516166564104, -40.422645248658853 ], [ -73.30565033354506, -40.422728323245856 ], [ -73.305785560538027, -40.42280228516659 ], [ -73.305859747007446, -40.422839426121868 ], [ -73.305950524461849, -40.422714688918475 ], [ -73.306082879540867, -40.422491391109709 ], [ -73.306201473328045, -40.422376017549297 ], [ -73.306350874837904, -40.422288115053988 ], [ -73.306499984395273, -40.422218297538521 ], [ -73.306709272991867, -40.42215825801447 ], [ -73.30703730719091, -40.422090983702716 ], [ -73.307261556330218, -40.422076269404222 ], [ -73.307411117740173, -40.42207850636624 ], [ -73.30759004777174, -40.422081122196083 ], [ -73.307740075407338, -40.422119341339226 ], [ -73.307860241246274, -40.422175125137095 ], [ -73.30807005356067, -40.4222682833609 ], [ -73.308235237571736, -40.422351820712457 ], [ -73.308385828451009, -40.422426016248032 ], [ -73.308639205463422, -40.422546834030641 ], [ -73.308774832206709, -40.422602851358143 ], [ -73.308998854072257, -40.422687214410296 ], [ -73.309209551227198, -40.422744338123103 ], [ -73.309344329960865, -40.422746312456724 ], [ -73.309538815219867, -40.422749155989401 ], [ -73.309673019930045, -40.422742152473511 ], [ -73.309807033299094, -40.422717082465638 ], [ -73.309955842819178, -40.422656197438045 ], [ -73.310060977148439, -40.422603656959083 ], [ -73.310224288172151, -40.422525041751236 ], [ -73.310329317398526, -40.422481430500184 ], [ -73.310478618297054, -40.422402601096984 ], [ -73.310642120661939, -40.422314904482697 ], [ -73.310761268709641, -40.422262650964782 ], [ -73.310925821205075, -40.422192914804107 ], [ -73.311059749234147, -40.422140846521948 ], [ -73.311238219328288, -40.422071401566683 ], [ -73.311373112147962, -40.422010297113822 ], [ -73.311477087650516, -40.421948725516479 ], [ -73.311567057519483, -40.421887012299798 ], [ -73.311715862547999, -40.421826125153174 ], [ -73.311794719358574, -40.421768736682871 ], [ -73.315064077648017, -40.4212624158301 ], [ -73.316606370006483, -40.420654341854814 ], [ -73.316804639867783, -40.420179817908085 ], [ -73.316819323729419, -40.420180005979603 ], [ -73.320781351374876, -40.420165545672575 ], [ -73.320795360601736, -40.420165759048324 ], [ -73.323714092062716, -40.420667469152342 ], [ -73.324129951852143, -40.422493242353653 ], [ -73.324910232999514, -40.423017934252954 ], [ -73.326677346724139, -40.422759818210082 ], [ -73.327801570335907, -40.422523868909785 ], [ -73.330820589715216, -40.421711716775349 ], [ -73.332577248846576, -40.421976630485609 ], [ -73.332603958454925, -40.421980718708944 ], [ -73.332658064882807, -40.421792346276469 ], [ -73.332779118257221, -40.421604853472523 ], [ -73.332945002055908, -40.421476611130082 ], [ -73.33322662569411, -40.421377070486493 ], [ -73.333293285179764, -40.421320937245611 ], [ -73.333297377904202, -40.421157901647454 ], [ -73.334349661733071, -40.420844182365585 ], [ -73.335028546441052, -40.420709871776182 ], [ -73.335829539145593, -40.420581739202092 ], [ -73.336166777483058, -40.419780403443667 ], [ -73.336481510327673, -40.419352518392309 ], [ -73.336780215431006, -40.41915864067402 ], [ -73.337497674695598, -40.419970651288509 ], [ -73.338370491300395, -40.420546288266877 ], [ -73.339288724030993, -40.421072998458065 ], [ -73.340172278198352, -40.421540589058488 ], [ -73.342114298400375, -40.421775663705503 ], [ -73.343085194864514, -40.422077873779919 ], [ -73.34411641319997, -40.421993468930907 ], [ -73.344972710684985, -40.422136357556688 ], [ -73.345298706606641, -40.422271694530146 ], [ -73.345564894493336, -40.422383609918803 ], [ -73.346686373751908, -40.423336588420469 ], [ -73.347455834691672, -40.423473729061222 ], [ -73.348255778163974, -40.423836407940954 ], [ -73.349196970934912, -40.423732775833976 ], [ -73.350838716676819, -40.423296804602636 ], [ -73.352262456570628, -40.423132388963744 ], [ -73.353426883384614, -40.423594960749938 ], [ -73.353982977376418, -40.424174900993606 ], [ -73.354530310099236, -40.424511509697375 ], [ -73.355506172450262, -40.424674003080263 ], [ -73.356329455950259, -40.425023571610453 ], [ -73.357106630723393, -40.425295869423245 ], [ -73.357766917610036, -40.425593526395367 ], [ -73.357970256664501, -40.426019755159722 ], [ -73.358552465579919, -40.426253300143927 ], [ -73.359030955910953, -40.426602446064734 ], [ -73.359732553622564, -40.426747526147679 ], [ -73.360473743682036, -40.427775961804223 ], [ -73.361407855931915, -40.427996413803186 ], [ -73.362225269839854, -40.42825122128837 ], [ -73.362838507463508, -40.428881479755866 ], [ -73.36341948568699, -40.429502331412976 ], [ -73.36350705705415, -40.429990023114229 ], [ -73.363895881146775, -40.430031530242537 ], [ -73.364337238717226, -40.430001780312992 ], [ -73.365255060917747, -40.430221933035803 ], [ -73.365795015777152, -40.430472825586946 ], [ -73.366578629674208, -40.430483894806926 ], [ -73.367129066974655, -40.430635755185534 ], [ -73.367780319504504, -40.431032322868624 ], [ -73.368622512541251, -40.431431617871006 ], [ -73.369148381816998, -40.431682289151006 ], [ -73.37037611829895, -40.431397817150533 ], [ -73.371506802594254, -40.431224563575213 ], [ -73.372190078267337, -40.431310803055474 ], [ -73.373020600391925, -40.431394483027702 ], [ -73.373650564646155, -40.43166914759238 ], [ -73.37433188109361, -40.431863372168706 ], [ -73.375212810383715, -40.431875782047442 ], [ -73.375699874235821, -40.431995259749137 ], [ -73.376436102899973, -40.431928977863542 ], [ -73.377087199122954, -40.431848069907758 ], [ -73.377831582693261, -40.431561197854641 ], [ -73.378357802311953, -40.431433456560782 ], [ -73.378877080648465, -40.431472248869113 ], [ -73.379332103391022, -40.431636376763862 ], [ -73.379965001542985, -40.431793898276013 ], [ -73.380352401805879, -40.431983972653271 ], [ -73.380934993403599, -40.43218131569909 ], [ -73.381526229489324, -40.432040983169095 ], [ -73.381731086696604, -40.431669968811647 ], [ -73.382267789654662, -40.43174954292936 ], [ -73.383444327555338, -40.431693935281629 ], [ -73.384331711240762, -40.431440612338861 ], [ -73.385164865429104, -40.4314161808067 ], [ -73.385943154113178, -40.431652239772397 ], [ -73.386635225191213, -40.431364643441789 ], [ -73.387418166250129, -40.431375595588143 ], [ -73.387756240020778, -40.431601011657065 ], [ -73.388151758358916, -40.431421836368735 ], [ -73.388691756337465, -40.431393331538189 ], [ -73.389229398034999, -40.431436838546404 ], [ -73.389765084100176, -40.431556988500617 ], [ -73.390260436707408, -40.431302599707543 ], [ -73.390852664533185, -40.431121610909706 ], [ -73.391302020702923, -40.430754037092221 ], [ -73.391946482867539, -40.43042521520178 ], [ -73.392338283078701, -40.430430661606721 ], [ -73.393061069352939, -40.430927194098189 ], [ -73.393890001459468, -40.431051355367231 ], [ -73.394384244647327, -40.430873489435406 ], [ -73.395471533127861, -40.430474225992448 ], [ -73.396555538266057, -40.430192000617332 ], [ -73.397689795161241, -40.429833860186619 ], [ -73.399222657005851, -40.429544238866022 ], [ -73.400053528575071, -40.429303499386826 ], [ -73.400948587466289, -40.428716915021276 ], [ -73.401037644646919, -40.428568489879687 ], [ -73.401076502172842, -40.428573721034532 ], [ -73.401256669184548, -40.428648214686525 ], [ -73.401436228935111, -40.428686806877586 ], [ -73.40161603841733, -40.428689316459938 ], [ -73.401839588667357, -40.428674296574108 ], [ -73.402049017401126, -40.428632225832096 ], [ -73.402182998430817, -40.428607049977423 ], [ -73.402302295598858, -40.428581694954829 ], [ -73.402421803870993, -40.42857433236162 ], [ -73.402541673265887, -40.428548882960747 ], [ -73.402674980559084, -40.428523731692117 ], [ -73.40289967795772, -40.428490814362696 ], [ -73.403049302249769, -40.428456851468233 ], [ -73.403183594096546, -40.428449735033773 ], [ -73.403303718612975, -40.428478420954569 ], [ -73.403438809062024, -40.428498272698718 ], [ -73.403647338582175, -40.42852815732045 ], [ -73.403767463996928, -40.428556842523967 ], [ -73.403947427091055, -40.428613414203525 ], [ -73.404066874277746, -40.428642050820152 ], [ -73.404246429536741, -40.428680564376627 ], [ -73.404382601557401, -40.428718446754779 ], [ -73.40453155121466, -40.428774579293012 ], [ -73.404725118395447, -40.428813295180909 ], [ -73.404891127059955, -40.428833587882657 ], [ -73.405115430098192, -40.428881751911426 ], [ -73.40526520979877, -40.428901852442529 ], [ -73.405384533017951, -40.428903493581011 ], [ -73.405580012711994, -40.428924208848578 ], [ -73.405804256461437, -40.428918302119136 ], [ -73.40593816832083, -40.42892012378244 ], [ -73.406117202556942, -40.428922582070527 ], [ -73.406266922968726, -40.428978682299416 ], [ -73.406431770111567, -40.429080088057582 ], [ -73.4065968975288, -40.429172483165274 ], [ -73.406732323947764, -40.429237316734991 ], [ -73.406942717472134, -40.429375342494268 ], [ -73.406991536416257, -40.429398558282884 ], [ -73.407016632650354, -40.42911514267476 ], [ -73.407017539050472, -40.428889894695772 ], [ -73.407061830485546, -40.428575278756121 ], [ -73.40719533630643, -40.428036616756188 ], [ -73.40722509210191, -40.427775743665933 ], [ -73.407366479741114, -40.427462434769403 ], [ -73.408206552753782, -40.426519162906793 ], [ -73.409452088454785, -40.424905774047659 ], [ -73.409617443145763, -40.424016305076137 ], [ -73.409745275207328, -40.42200021196728 ], [ -73.409487438059529, -40.420649858261484 ], [ -73.408453164553791, -40.418122399708558 ], [ -73.408721771603524, -40.418256722302907 ], [ -73.40934126509481, -40.418508353659675 ], [ -73.409973726665541, -40.418679301014159 ], [ -73.410949502778308, -40.418845825772671 ], [ -73.41181980410029, -40.419019915511818 ], [ -73.412180288142324, -40.419069940641734 ], [ -73.412496444816682, -40.419128374372654 ], [ -73.413127920037226, -40.419281120060099 ], [ -73.413520067896414, -40.419394551852676 ], [ -73.41419839744556, -40.419620079203369 ], [ -73.414528499566387, -40.419705709845644 ], [ -73.414845150314136, -40.419773116483867 ], [ -73.415565057487868, -40.419864115543497 ], [ -73.415878948611095, -40.41988640587973 ], [ -73.416253539796372, -40.419936543208699 ], [ -73.416942173920134, -40.419972961497734 ], [ -73.417241798, -40.420013202757467 ], [ -73.417630634669038, -40.420018529639499 ], [ -73.41798860522492, -40.419987341829994 ], [ -73.418301753441384, -40.419955581582826 ], [ -73.418628957597107, -40.419887948072862 ], [ -73.418938129870128, -40.419766120181023 ], [ -73.419465216363093, -40.419404020508182 ], [ -73.419700650426009, -40.41926310598587 ], [ -73.420694418895593, -40.418537965051229 ], [ -73.421087995076064, -40.418183037842105 ], [ -73.421307277430188, -40.418032927534256 ], [ -73.421617129727878, -40.417856921632946 ], [ -73.421909834983424, -40.41771675960338 ], [ -73.422191303213083, -40.417621582976984 ], [ -73.423110781906985, -40.417363857951528 ], [ -73.423420167080735, -40.417205863562017 ], [ -73.423636243347602, -40.416974654243788 ], [ -73.423876692704738, -40.416482479366294 ], [ -73.423929591796878, -40.416239968249108 ], [ -73.423998166490719, -40.416015740678283 ], [ -73.424170218122129, -40.415810856944915 ], [ -73.424405304537046, -40.415642947214295 ], [ -73.424684264670447, -40.415493567846966 ], [ -73.424903903655718, -40.41533443781946 ], [ -73.425121232174106, -40.415112177684911 ], [ -73.425172810742751, -40.414824644683748 ], [ -73.425083147199302, -40.414309938933073 ], [ -73.425118239885876, -40.41397708062992 ], [ -73.425169768148891, -40.413725548599857 ], [ -73.425381147125137, -40.41325100929761 ], [ -73.425851725993468, -40.4125277419488 ], [ -73.426106706498643, -40.412017742874362 ], [ -73.426239958994643, -40.411704281924266 ], [ -73.426024534006359, -40.41140404916495 ], [ -73.425295708358462, -40.410155523776453 ], [ -73.425086399100636, -40.40908514069779 ], [ -73.425339759045059, -40.408453488094764 ], [ -73.425356129942784, -40.408413247445417 ], [ -73.425445301209464, -40.40828833232726 ], [ -73.425504277404499, -40.408190024609198 ], [ -73.425577903325177, -40.408064968168688 ], [ -73.42569693099864, -40.407949456321546 ], [ -73.425846189676378, -40.40783433485268 ], [ -73.425933487955689, -40.407754415740207 ], [ -73.426038288111656, -40.407683857393884 ], [ -73.426187586315251, -40.407595805738225 ], [ -73.426320920557927, -40.407561553896223 ], [ -73.426470942803647, -40.40750954679735 ], [ -73.426634693103523, -40.407466750747986 ], [ -73.426753624657266, -40.407423312370923 ], [ -73.426918013659304, -40.407353492426424 ], [ -73.427066765687201, -40.407292460109964 ], [ -73.427199519618185, -40.407186156697023 ], [ -73.42727425855152, -40.407106054863057 ], [ -73.427393797366378, -40.407008668859 ], [ -73.427512231253445, -40.406884178653641 ], [ -73.427570067486386, -40.406803839785091 ], [ -73.427629315870945, -40.406696520494762 ], [ -73.427689921609897, -40.406589297482192 ], [ -73.427748039015526, -40.406500022023209 ], [ -73.427791555204507, -40.406401495537516 ], [ -73.427895906202863, -40.406222735371294 ], [ -73.427999304986997, -40.406053012267215 ], [ -73.428073050383631, -40.405954873662452 ], [ -73.428161384420463, -40.405856988010186 ], [ -73.428295954744968, -40.405741688531272 ], [ -73.428415067758394, -40.405689316798977 ], [ -73.428562868470394, -40.405574173679085 ], [ -73.428741671839489, -40.405387465428994 ], [ -73.428830556543602, -40.405271558395235 ], [ -73.428844432819773, -40.405181619713225 ], [ -73.428843399757213, -40.405064515921495 ], [ -73.428843280281271, -40.404974523606832 ], [ -73.428826344343221, -40.404884144682569 ], [ -73.428796760125977, -40.404793660976871 ], [ -73.428779913121133, -40.4046943521721 ], [ -73.428780245497791, -40.404586269533254 ], [ -73.428794301437051, -40.404487323656156 ], [ -73.428808175916615, -40.404397385294395 ], [ -73.428852157432914, -40.404280988138325 ], [ -73.428865936691068, -40.404191052921135 ], [ -73.428970370334412, -40.404075359990181 ], [ -73.429044833484951, -40.404004340834462 ], [ -73.429192945912362, -40.403907258170392 ], [ -73.429342951988389, -40.403855175053231 ], [ -73.42947633114683, -40.403784991590243 ], [ -73.429609891764954, -40.403714654823801 ], [ -73.429729992026864, -40.403680316182758 ], [ -73.429880183155845, -40.40361929832131 ], [ -73.430266300624538, -40.403480398836187 ], [ -73.430306002566837, -40.403485439035265 ], [ -73.430376880541061, -40.403477406730872 ], [ -73.43044852926981, -40.403469345010627 ], [ -73.43079051250858, -40.403528212305673 ], [ -73.430791737810623, -40.403518944583645 ], [ -73.431640656533915, -40.403115959564857 ], [ -73.431873880741222, -40.402367038477536 ], [ -73.432934399426316, -40.401381415211816 ], [ -73.433060878625056, -40.400630912353947 ], [ -73.433832232315126, -40.399920624988681 ], [ -73.434180819967878, -40.399434379730884 ], [ -73.434460743095229, -40.399145372530491 ], [ -73.435771801913049, -40.398883862694916 ], [ -73.436010884932656, -40.398733998032341 ], [ -73.436174610978043, -40.39850197408844 ], [ -73.43651633370537, -40.397515621738265 ], [ -73.436546289825145, -40.396696239517368 ], [ -73.436394822190138, -40.395892462211869 ], [ -73.436394322726855, -40.395369911578662 ], [ -73.436570608118217, -40.394246292888454 ], [ -73.436704775099159, -40.393698500196571 ], [ -73.437032741026229, -40.393207507697966 ], [ -73.437116702962584, -40.392920347719716 ], [ -73.437952676064299, -40.392179370127963 ], [ -73.439284695272647, -40.391643338207608 ], [ -73.44000065884228, -40.390995409875458 ], [ -73.440344589628609, -40.390612674648203 ], [ -73.441714468334595, -40.388523088532793 ], [ -73.442203974705947, -40.387218921291321 ], [ -73.442263162005077, -40.386665747387021 ], [ -73.442397099915638, -40.386127029721045 ], [ -73.442455425730387, -40.385830453072238 ], [ -73.44252983318539, -40.385255003599035 ], [ -73.442589213622298, -40.38494953327789 ], [ -73.442663303073658, -40.384671159532125 ], [ -73.442885762768938, -40.384124682111661 ], [ -73.44304922291299, -40.383640375587881 ], [ -73.443196821504046, -40.382894656506664 ], [ -73.443256600792949, -40.382661241590199 ], [ -73.443361005690221, -40.382383322329943 ], [ -73.443508700401011, -40.381880885459388 ], [ -73.443688113726211, -40.381414848411971 ], [ -73.443985425542522, -40.380779252614495 ], [ -73.444298605200032, -40.380287998273751 ], [ -73.444803980310894, -40.379727229803265 ], [ -73.445235847180356, -40.379327595797527 ], [ -73.446041879433636, -40.378725955317996 ], [ -73.446816674569575, -40.378105743760038 ], [ -73.447519242461709, -40.377484547900451 ], [ -73.447712288619641, -40.377288927711078 ], [ -73.44793648026679, -40.377012658802641 ], [ -73.448069721982989, -40.376789245626718 ], [ -73.448173339057746, -40.376574424961468 ], [ -73.448232453593334, -40.376304887051127 ], [ -73.448260961628861, -40.375737768895938 ], [ -73.44821515563423, -40.375007465041783 ], [ -73.448214847512077, -40.374764191998196 ], [ -73.448304502970686, -40.374513173169845 ], [ -73.448438196539499, -40.37427181592647 ], [ -73.44864662904159, -40.373815127400682 ], [ -73.448704258662019, -40.373581645439195 ], [ -73.448734663939433, -40.373347810216977 ], [ -73.448897662349424, -40.372854514258336 ], [ -73.448972832474084, -40.372369102878181 ], [ -73.449076318394816, -40.371965072531729 ], [ -73.449106577246852, -40.371704170281937 ], [ -73.449074911633076, -40.371640770513118 ], [ -73.449074615189048, -40.37146064166933 ], [ -73.448968811614876, -40.37093661823036 ], [ -73.448788959911838, -40.370402686733705 ], [ -73.448788333786084, -40.370141425966658 ], [ -73.448862671172478, -40.369854186811779 ], [ -73.449338921105195, -40.369374117561875 ], [ -73.449564457530315, -40.369169939176025 ], [ -73.449712033663502, -40.368928709260224 ], [ -73.449816126845377, -40.368659870358179 ], [ -73.449948406465907, -40.367355281606905 ], [ -73.449828026827944, -40.367173512353617 ], [ -73.449783261082388, -40.367010809647894 ], [ -73.449722649055218, -40.366667619253548 ], [ -73.449722521494451, -40.366415412873231 ], [ -73.44969241355939, -40.366189738062779 ], [ -73.449632268656174, -40.365891675317854 ], [ -73.449497852841873, -40.365394352215965 ], [ -73.449316294339823, -40.364869413715866 ], [ -73.449166873067028, -40.364516072115364 ], [ -73.448912268057626, -40.363999185692656 ], [ -73.448732269929209, -40.363537330974928 ], [ -73.448671722580741, -40.363284281245555 ], [ -73.448701314882825, -40.363023478179045 ], [ -73.449028881957929, -40.362604392767565 ], [ -73.449221971234991, -40.362399842733844 ], [ -73.449491248427918, -40.362277336515973 ], [ -73.449834668072825, -40.36222780307979 ], [ -73.450117534979384, -40.362150580786775 ], [ -73.450236427905551, -40.361908907526036 ], [ -73.450220952628158, -40.361656481415437 ], [ -73.450160045055256, -40.361421445969341 ], [ -73.450130473414418, -40.361168751764552 ], [ -73.450189773901286, -40.360899352793716 ], [ -73.450368119129593, -40.360658486181208 ], [ -73.450502590639417, -40.36044402274316 ], [ -73.450621757551744, -40.360193411933011 ], [ -73.450754873503783, -40.359974501135838 ], [ -73.451023500316467, -40.359874514285302 ], [ -73.451307477540723, -40.359720675487473 ], [ -73.451457210528901, -40.359515434244642 ], [ -73.451530619955605, -40.359264153264796 ], [ -73.451545705364168, -40.358994098444505 ], [ -73.451619215402175, -40.358742888765242 ], [ -73.451813099688266, -40.358565301993067 ], [ -73.452006794429849, -40.358333651697237 ], [ -73.452169881773031, -40.358092632851879 ], [ -73.452210061619056, -40.357940007764704 ], [ -73.452704507826184, -40.356469188686397 ], [ -73.452748800159583, -40.356010342311222 ], [ -73.452718694021129, -40.3557847421947 ], [ -73.452613498606425, -40.355558054937951 ], [ -73.452299242767211, -40.355139521421201 ], [ -73.452149849342206, -40.354912252173428 ], [ -73.452089218450425, -40.35466820697161 ], [ -73.451879025250349, -40.354494255453467 ], [ -73.451137284523611, -40.35402227383139 ], [ -73.449922881735418, -40.351866617411702 ], [ -73.448712076699934, -40.350273949766269 ], [ -73.447743542805, -40.349342113045616 ], [ -73.446089880012536, -40.34931537947022 ], [ -73.44302579395206, -40.350557800047483 ], [ -73.441902939372781, -40.350772450336677 ], [ -73.440518127073503, -40.350771733558936 ], [ -73.438970621791427, -40.350381565036088 ], [ -73.438128067631936, -40.349329723548792 ], [ -73.437387806430493, -40.346265906436656 ], [ -73.437264432707678, -40.343895027969381 ], [ -73.440230863811934, -40.335863605606988 ], [ -73.440783056420457, -40.333546856067905 ], [ -73.441245134531272, -40.329710411001159 ], [ -73.441160997423424, -40.329020820445713 ], [ -73.440676089528012, -40.328847897815557 ], [ -73.439809025734306, -40.328753037984086 ], [ -73.43948687909365, -40.328582408837278 ], [ -73.439277382087923, -40.328246927161302 ], [ -73.439180251747828, -40.327746679526456 ], [ -73.43881053032969, -40.327284354625775 ], [ -73.437897873442068, -40.326814573394707 ], [ -73.437520493886154, -40.326684790420003 ], [ -73.437254736292516, -40.326431726358791 ], [ -73.43682894562761, -40.326051735725216 ], [ -73.436622180398672, -40.325591550350744 ], [ -73.436468894573537, -40.325173717097506 ], [ -73.436208857451618, -40.324671243470398 ], [ -73.435617145258789, -40.324413660628259 ], [ -73.435404685609257, -40.324202954193055 ], [ -73.435248500920707, -40.323909750641384 ], [ -73.435309465985782, -40.323619565439159 ], [ -73.435369585736169, -40.323370871060725 ], [ -73.435759406060455, -40.32296034957831 ], [ -73.436208215156199, -40.322342780932416 ], [ -73.437254401220912, -40.321733161021527 ], [ -73.437808992331242, -40.321241647599592 ], [ -73.437762363479791, -40.320908458798591 ], [ -73.437554675681042, -40.320489841788358 ], [ -73.437563382152774, -40.32011572439243 ], [ -73.437790153761398, -40.319702980422754 ], [ -73.438499975549476, -40.319546231557688 ], [ -73.44013487792553, -40.319318863619863 ], [ -73.440853281319477, -40.318787987739725 ], [ -73.441039076276439, -40.317792571884603 ], [ -73.441173556769428, -40.316671731003396 ], [ -73.441210815294141, -40.315050575000932 ], [ -73.441004159659656, -40.314590393404075 ], [ -73.440851709267747, -40.314130927893096 ], [ -73.440858436750901, -40.313839949923981 ], [ -73.441081440825243, -40.313593544337962 ], [ -73.441089004639935, -40.313261002090798 ], [ -73.441233006376592, -40.311724482031849 ], [ -73.441510298338514, -40.311478716736957 ], [ -73.441684588571604, -40.310982117850443 ], [ -73.441924759451027, -40.309987485660713 ], [ -73.442047728033657, -40.309365316939648 ], [ -73.44237818498901, -40.309161911788671 ], [ -73.442760230394512, -40.309083845072642 ], [ -73.442982185236602, -40.308879008053474 ], [ -73.443267013165411, -40.308300697242323 ], [ -73.443328959190765, -40.307968866030684 ], [ -73.443449029808278, -40.307471548759658 ], [ -73.443803742174623, -40.306227594926725 ], [ -73.443587116138801, -40.306280118640224 ], [ -73.441288169223256, -40.306442858247657 ], [ -73.439588208159378, -40.306618149626189 ], [ -73.437569620952416, -40.306261993507405 ], [ -73.436582067926281, -40.306032535262844 ], [ -73.434901867103704, -40.305640459770729 ], [ -73.433896519350114, -40.305293558493112 ], [ -73.432888531447915, -40.305059172709477 ], [ -73.432356910259401, -40.305087991345736 ], [ -73.431138350966378, -40.305625469298953 ] ] ] } },
{ "type": "Feature", "properties": { "capa": "colegios", "popup": "<strong>ESCUELA RURAL LA POZA</strong><br><br><strong>Dirección:</strong> LA POZA 0", "etiqueta": "" }, "geometry": { "type": "Point", "coordinates": [ -72.90184, -40.5103 ] } },
{ "type": "Feature", "properties": { "capa": "colegios", "popup": "<strong>ESCUELA RURAL JULIO MOHR SCHULER</strong><br><br><strong>Dirección:</strong> CHIFCA 0", "etiqueta": "" }, "geometry": { "type": "Point", "coordinates": [ -73.038742, -40.483601 ] } },
{ "type": "Feature", "properties": { "capa": "colegios", "popup": "<strong>ESCUEAL RURAL QUILEN</strong><br><br><strong>Dirección:</strong> CAMINO A TRAFUN 27", "etiqueta": "" }, "geometry": { "type": "Point", "coordinates": [ -72.932129, -40.454418 ] } },
{ "type": "Feature", "properties": { "capa": "colegios", "popup": "<strong>ESCUELA PARTICULAR LA PRADERA</strong><br><br><strong>Dirección:</strong> SECTOR HUELECO 0", "etiqueta": "" }, "geometry": { "type": "Point", "coordinates": [ -72.952164, -40.45256 ] } },
{ "type": "Feature", "properties": { "capa": "colegios", "popup": "<strong>ESCUELA RURAL VILLA CARACOL</strong><br><br><strong>Dirección:</strong> CARACOL 0", "etiqueta": "" }, "geometry": { "type": "Point", "coordinates": [ -73.122543, -40.44342 ] } },
{ "type": "Feature", "properties": { "capa": "colegios", "popup": "<strong>ESCUELA PARTICULAR N.146 ROSARIO DE LAS ANIMAS</strong><br><br><strong>Dirección:</strong> CAMINO A QUILACAHUÍN 20", "etiqueta": "" }, "geometry": { "type": "Point", "coordinates": [ -73.218178, -40.4356 ] } },
{ "type": "Feature", "properties": { "capa": "colegios", "popup": "<strong>ESCUELA PARTICULAR N.153 EL ROBLE</strong><br><br><strong>Dirección:</strong> KM.20 OSORNO- TRUMAO 0", "etiqueta": "" }, "geometry": { "type": "Point", "coordinates": [ -73.189903, -40.427238 ] } },
{ "type": "Feature", "properties": { "capa": "colegios", "popup": "<strong>ESCUELA PARTICULAR EVANGELICA MONTE SINAI</strong><br><br><strong>Dirección:</strong> QUILMAHUE 26", "etiqueta": "" }, "geometry": { "type": "Point", "coordinates": [ -73.217216, -40.419041 ] } },
{ "type": "Feature", "properties": { "capa": "colegios", "popup": "<strong>ESCUELA PARTICULAR SAN BENITO</strong><br><br><strong>Dirección:</strong> PAGLIETA 351", "etiqueta": "" }, "geometry": { "type": "Point", "coordinates": [ -73.026207, -40.41806 ] } },
{ "type": "Feature", "properties": { "capa": "colegios", "popup": "<strong>ESCUELA DELICIO CARDENAS BUSTAMANTE</strong><br><br><strong>Dirección:</strong> COVARRUBIAS 199", "etiqueta": "" }, "geometry": { "type": "Point", "coordinates": [ -73.006447, -40.41494 ] } },
{ "type": "Feature", "properties": { "capa": "colegios", "popup": "<strong>ESCUELA PARTICULAR N.143 SANTA CRUZ</strong><br><br><strong>Dirección:</strong> BOLIVIA 355", "etiqueta": "" }, "geometry": { "type": "Point", "coordinates": [ -73.013206, -40.413212 ] } },
{ "type": "Feature", "properties": { "capa": "colegios", "popup": "<strong>LICEO FRAY PABLO DE ROYO</strong><br><br><strong>Dirección:</strong> COLON 510", "etiqueta": "" }, "geometry": { "type": "Point", "coordinates": [ -73.010597, -40.41259 ] } },
{ "type": "Feature", "properties": { "capa": "colegios", "popup": "<strong>ESCUELA ESPECIAL DE LENGUAJE EL TRENCITO DE DORA</strong><br><br><strong>Dirección:</strong> CRUZ 93", "etiqueta": "" }, "geometry": { "type": "Point", "coordinates": [ -73.012765, -40.412438 ] } },
{ "type": "Feature", "properties": { "capa": "colegios", "popup": "<strong>COLEGIO SAN FRANCISCO DE ASIS</strong><br><br><strong>Dirección:</strong> SAN JOAQUÍN 391", "etiqueta": "" }, "geometry": { "type": "Point", "coordinates": [ -73.011740729999985, -40.41085398 ] } },
{ "type": "Feature", "properties": { "capa": "colegios", "popup": "<strong>ESCUELA BASICA SAN PABLO</strong><br><br><strong>Dirección:</strong> SAN FRANCISCO 505", "etiqueta": "" }, "geometry": { "type": "Point", "coordinates": [ -73.011742, -40.410851 ] } },
{ "type": "Feature", "properties": { "capa": "colegios", "popup": "<strong>ESCUELA PARTICULAR N.157 PURRUCALHUE</strong><br><br><strong>Dirección:</strong> CAMINO CANCHA LARGA 0", "etiqueta": "" }, "geometry": { "type": "Point", "coordinates": [ -73.375954, -40.40942 ] } },
{ "type": "Feature", "properties": { "capa": "colegios", "popup": "<strong>ESCUELA PARTICULAR N.148 LOLOLHUE</strong><br><br><strong>Dirección:</strong> LOLOLHUE KM.35 0", "etiqueta": "" }, "geometry": { "type": "Point", "coordinates": [ -73.294357, -40.399281 ] } },
{ "type": "Feature", "properties": { "capa": "colegios", "popup": "<strong>ESCUELA PARTICULAR N.151 PUCOPIO</strong><br><br><strong>Dirección:</strong> CAMINO MISION SAN JUAN 55", "etiqueta": "" }, "geometry": { "type": "Point", "coordinates": [ -73.433884, -40.390751 ] } },
{ "type": "Feature", "properties": { "capa": "colegios", "popup": "<strong>ESCUELA RURAL SAN PEDRO</strong><br><br><strong>Dirección:</strong> CANTIAMO 0", "etiqueta": "" }, "geometry": { "type": "Point", "coordinates": [ -73.433243, -40.390572 ] } },
{ "type": "Feature", "properties": { "capa": "colegios", "popup": "<strong>ESCUELA RURAL QUITRA QUITRA</strong><br><br><strong>Dirección:</strong> SECTOR, QUITRA QUITRA 0", "etiqueta": "" }, "geometry": { "type": "Point", "coordinates": [ -73.34993, -40.387459 ] } },
{ "type": "Feature", "properties": { "capa": "colegios", "popup": "<strong>COLEGIO QUILACAHUIN</strong><br><br><strong>Dirección:</strong> MISION QUILACAHUIN 0", "etiqueta": "" }, "geometry": { "type": "Point", "coordinates": [ -73.261208, -40.37595 ] } },
{ "type": "Feature", "properties": { "capa": "colegios", "popup": "<strong>ESCUELA PARTICULAR N.145 QUITRA QUITRA</strong><br><br><strong>Dirección:</strong> PAILLAIMO 0", "etiqueta": "" }, "geometry": { "type": "Point", "coordinates": [ -73.3592, -40.3759 ] } },
{ "type": "Feature", "properties": { "capa": "colegios", "popup": "<strong>ESCUELA RURAL TRUMAO</strong><br><br><strong>Dirección:</strong> TRUMAO 0", "etiqueta": "" }, "geometry": { "type": "Point", "coordinates": [ -73.162552, -40.36274 ] } },
{ "type": "Feature", "properties": { "capa": "colegios", "popup": "<strong>ESCUELA PARTICULAR N.150 SANTA ROSA</strong><br><br><strong>Dirección:</strong> KM 57 OSORNO - TRINIDAD 0", "etiqueta": "" }, "geometry": { "type": "Point", "coordinates": [ -73.4151, -40.337711 ] } },
{ "type": "Feature", "properties": { "capa": "colegios", "popup": "<strong>ESCUELA RURAL ALEJANDRO VASQUEZ BALDEVELLANO</strong><br><br><strong>Dirección:</strong> CURRIMAHUIDA 0", "etiqueta": "" }, "geometry": { "type": "Point", "coordinates": [ -73.435089, -40.315689 ] } },
{ "type": "Feature", "properties": { "capa": "jardines", "popup": "<strong>LOS CEREZOS</strong><br><br><strong>Dirección:</strong> PAGLIETA S/N SAN PABLO ", "etiqueta": "" }, "geometry": { "type": "MultiPoint", "coordinates": [ [ -73.007161, -40.412021 ] ] } },
{ "type": "Feature", "properties": { "capa": "jardines", "popup": "<strong>MI FAMILIA Y MI ENTORNO</strong><br><br><strong>Dirección:</strong> CARACOL CAMINO TRUMAO ", "etiqueta": "" }, "geometry": { "type": "MultiPoint", "coordinates": [ [ -73.122794, -40.443704 ] ] } },
{ "type": "Feature", "properties": { "capa": "jardines", "popup": "<strong>PMI GIRASOLES</strong><br><br><strong>Dirección:</strong> COLEGIO QUILACAHUIN ", "etiqueta": "" }, "geometry": { "type": "MultiPoint", "coordinates": [ [ -73.264319, -40.375989 ] ] } },
{ "type": "Feature", "properties": { "capa": "jardines", "popup": "<strong>NA</strong><br><br><strong>Dirección:</strong> NA ", "etiqueta": "" }, "geometry": { "type": "MultiPoint", "coordinates": [ [ -73.013461999720647, -40.414761000263482 ] ] } },
{ "type": "Feature", "properties": { "capa": "jardines", "popup": "<strong>NA</strong><br><br><strong>Dirección:</strong> NA ", "etiqueta": "" }, "geometry": { "type": "MultiPoint", "coordinates": [ [ -73.005623000195556, -40.415879999559202 ] ] } },
{ "type": "Feature", "properties": { "capa": "bomberos", "popup": "<strong>Cuerpo de Bomberos</strong><br><br><strong>Dirección:</strong> Cruz 516", "etiqueta": "" }, "geometry": { "type": "Point", "coordinates": [ -73.012276130056961, -40.413428560056339 ] } },
{ "type": "Feature", "properties": { "capa": "comisarias", "popup": "<strong>RETEN QUILACAHUIN</strong><br><br><strong>Dirección:</strong> RUTA U-166 / QUILACAHUIN KM", "etiqueta": "" }, "geometry": { "type": "Point", "coordinates": [ -73.26580520999994, -40.376504444999902 ] } },
{ "type": "Feature", "properties": { "capa": "comisarias", "popup": "<strong>RETEN TRUMAO</strong><br><br><strong>Dirección:</strong> RUTA U-16 KM 28", "etiqueta": "" }, "geometry": { "type": "Point", "coordinates": [ -73.165311130720639, -40.361200467572935 ] } },
{ "type": "Feature", "properties": { "capa": "comisarias", "popup": "<strong>TCIA. SAN PABLO</strong><br><br><strong>Dirección:</strong> TRALMAHUE 504", "etiqueta": "" }, "geometry": { "type": "Point", "coordinates": [ -73.00821346226769, -40.411176039035809 ] } },
{ "type": "Feature", "properties": { "capa": "salud", "popup": "<strong>Posta de Salud Rural La Poza</strong><br><br><strong>Tipo de atención:</strong> Posta de Salud Rural (PSR)<br><strong>Dirección:</strong>  NA", "etiqueta": "" }, "geometry": { "type": "Point", "coordinates": [ -72.902238, -40.509684 ] } },
{ "type": "Feature", "properties": { "capa": "salud", "popup": "<strong>SUR San Pablo</strong><br><br><strong>Tipo de atención:</strong> Servicio de Urgencia Rural (SUR)<br><strong>Dirección:</strong>  788", "etiqueta": "" }, "geometry": { "type": "Point", "coordinates": [ -73.007752, -40.406617 ] } },
{ "type": "Feature", "properties": { "capa": "salud", "popup": "<strong>Centro de Salud Familiar San Pablo</strong><br><br><strong>Tipo de atención:</strong> Centro de Salud Familiar (CESFAM)<br><strong>Dirección:</strong>  788", "etiqueta": "" }, "geometry": { "type": "Point", "coordinates": [ -73.00791, -40.40656 ] } },
{ "type": "Feature", "properties": { "capa": "salud", "popup": "<strong>Posta de Salud Rural Pucopio</strong><br><br><strong>Tipo de atención:</strong> Posta de Salud Rural (PSR)<br><strong>Dirección:</strong>  NA", "etiqueta": "" }, "geometry": { "type": "Point", "coordinates": [ -73.43427, -40.39061 ] } },
{ "type": "Feature", "properties": { "capa": "salud", "popup": "<strong>Hospital Pu Mulen Quilacahuín</strong><br><br><strong>Tipo de atención:</strong> Hospital<br><strong>Dirección:</strong>  NA", "etiqueta": "" }, "geometry": { "type": "Point", "coordinates": [ -73.262, -40.36766 ] } },
{ "type": "Feature", "properties": { "capa": "salud", "popup": "<strong>Posta de Salud Rural Currimáhuida</strong><br><br><strong>Tipo de atención:</strong> Posta de Salud Rural (PSR)<br><strong>Dirección:</strong>  NA", "etiqueta": "" }, "geometry": { "type": "Point", "coordinates": [ -73.43202, -40.31564 ] } },
{ "type": "Feature", "properties": { "capa": "municipios", "popup": "<strong>Municipalidad de San Pablo</strong><br><br><strong>Dirección:</strong> Bolivia Nº 498<br><strong>Región:</strong> Los Lagos", "etiqueta": "" }, "geometry": { "type": "Point", "coordinates": [ -73.012278699999968, -40.412225600999925 ] } }
]
}
