{
"type": "FeatureCollection",
"name": "1107",
"crs": { "type": "name", "properties": { "name": "urn:ogc:def:crs:OGC:1.3:CRS84" } },
"features": [
{ "type": "Feature", "properties": { "capa": "comuna", "popup": "", "etiqueta": "" }, "geometry": { "type": "Polygon", "coordinates": [ [ [ -69.891858800796129, -20.069416085706742 ], [ -69.896293272212418, -20.101091086923589 ], [ -69.90063562498959, -20.135630570648548 ], [ -69.906754829229087, -20.18504675764569 ], [ -69.906754838212237, -20.185046830999191 ], [ -69.911246250241135, -20.228376327154695 ], [ -69.911246254732703, -20.228376401330678 ], [ -69.913831301591529, -20.232862677075584 ], [ -69.924544904317344, -20.251464943281807 ], [ -69.936840151000979, -20.271612077618855 ], [ -69.94272683082076, -20.28125750946889 ], [ -69.94861425714052, -20.290902704461949 ], [ -69.957753229954292, -20.306997687207836 ], [ -69.965918673341804, -20.321374764146068 ], [ -69.965918718257555, -20.321374844174422 ], [ -69.976759986856621, -20.319304379081689 ], [ -69.978539073327369, -20.318964540951381 ], [ -69.988676422069773, -20.316427277116425 ], [ -70.009712472300635, -20.31116151204786 ], [ -70.011956417167966, -20.310534130540812 ], [ -70.028018516331898, -20.306049363935831 ], [ -70.032064626287934, -20.308492156101128 ], [ -70.041801073987031, -20.314379688040397 ], [ -70.054370661666866, -20.321189150501699 ], [ -70.0595866170747, -20.324012724439424 ], [ -70.065677722910408, -20.327544612590867 ], [ -70.0817833759926, -20.336896465186896 ], [ -70.092087332575801, -20.342277296261763 ], [ -70.099377584212931, -20.346083732048069 ], [ -70.107930090096801, -20.350556240473132 ], [ -70.107980181953693, -20.350515436241732 ], [ -70.109437135258503, -20.351210515778867 ], [ -70.110486109693852, -20.34847702262222 ], [ -70.110486151016346, -20.348476913971215 ], [ -70.110460640658914, -20.348497730326223 ], [ -70.123386289974647, -20.31526491652928 ], [ -70.123393526802587, -20.315289221674426 ], [ -70.124381483172272, -20.312323160408205 ], [ -70.118999838001855, -20.298163181012974 ], [ -70.114539473545818, -20.286474781247481 ], [ -70.112219784530367, -20.280548600801424 ], [ -70.112221273038784, -20.28051528421944 ], [ -70.111865325488921, -20.279704261408554 ], [ -70.110471926193824, -20.27607412372809 ], [ -70.110107927044083, -20.27488922011397 ], [ -70.109829647833692, -20.274219958147686 ], [ -70.111169794998716, -20.274211464133543 ], [ -70.111222809973512, -20.27397886700458 ], [ -70.111247426507262, -20.273591608826305 ], [ -70.11124522114325, -20.273281941470007 ], [ -70.1111874271311, -20.272843543435048 ], [ -70.111102549811491, -20.272456980152825 ], [ -70.110992110032143, -20.272302839779872 ], [ -70.110989720513487, -20.271967341945459 ], [ -70.110823247419987, -20.271632884930678 ], [ -70.110739552283263, -20.271401154418836 ], [ -70.110681865170676, -20.270988585882421 ], [ -70.110780809209345, -20.26951689798031 ], [ -70.110602401098959, -20.267504951019529 ], [ -70.110590831696413, -20.26587912292521 ], [ -70.110528925196931, -20.264872974904868 ], [ -70.110279871775973, -20.264461620213297 ], [ -70.109729490171077, -20.263974751218989 ], [ -70.109097728387951, -20.263591647107248 ], [ -70.10887670959039, -20.26328336376223 ], [ -70.108792287716625, -20.262948384923618 ], [ -70.108927602744501, -20.262741024774879 ], [ -70.109529052674986, -20.262711387908737 ], [ -70.110019809501225, -20.262501850687901 ], [ -70.110371475680438, -20.261957681095367 ], [ -70.110395727498172, -20.261518761437763 ], [ -70.1104467212636, -20.2610022527609 ], [ -70.110469136924877, -20.260305327087515 ], [ -70.110572223095318, -20.259427143460851 ], [ -70.110838541237698, -20.258418990015446 ], [ -70.11102429038057, -20.257617703440509 ], [ -70.111046703346901, -20.256920776898607 ], [ -70.111042663623067, -20.256353027623923 ], [ -70.110956958056761, -20.255837384971326 ], [ -70.111090349791624, -20.255372017294413 ], [ -70.111086493324109, -20.254830024011142 ], [ -70.111082087087638, -20.254210687965649 ], [ -70.111079700263915, -20.253875189785763 ], [ -70.111048552079765, -20.25333336994558 ], [ -70.111317351368967, -20.252686470809351 ], [ -70.111532482608155, -20.252168995575772 ], [ -70.111666238160709, -20.251755213718166 ], [ -70.111962479185209, -20.251108065285369 ], [ -70.111986542356732, -20.250643390533895 ], [ -70.111984888558283, -20.250411139865474 ], [ -70.111628477477737, -20.250284315181407 ], [ -70.111080817768141, -20.250184608026945 ], [ -70.110778151094394, -20.24992843233764 ], [ -70.11080331829541, -20.249618589661495 ], [ -70.11134877264098, -20.249408631070864 ], [ -70.112112945198675, -20.2491973565919 ], [ -70.112794902144913, -20.248960695931455 ], [ -70.113450118041783, -20.248801696248105 ], [ -70.114096702925423, -20.24864230534326 ], [ -70.114423651959612, -20.248575167961672 ], [ -70.114982487609652, -20.248406413313699 ], [ -70.115295269313478, -20.248090598034906 ], [ -70.115694901935598, -20.247691628551156 ], [ -70.115971878588837, -20.247260427440448 ], [ -70.116318334539415, -20.246762687047593 ], [ -70.116595426177, -20.246347989820915 ], [ -70.116749001259677, -20.245801960832324 ], [ -70.116762711347533, -20.245273326516532 ], [ -70.116848575915654, -20.24504155496744 ], [ -70.116899976617887, -20.244892530253534 ], [ -70.11737230181113, -20.244856510679686 ], [ -70.117704332614863, -20.244788299594944 ], [ -70.118052550161721, -20.24453835019737 ], [ -70.1183321157596, -20.244470471887453 ], [ -70.118609356517524, -20.244088856117532 ], [ -70.118747090708482, -20.243774151332889 ], [ -70.118972694507235, -20.243508401515388 ], [ -70.119407121575264, -20.243076191726001 ], [ -70.119458242901445, -20.242877651385413 ], [ -70.119683371491448, -20.24254588269887 ], [ -70.119733703198492, -20.242248239643125 ], [ -70.119748783217176, -20.241901306158805 ], [ -70.119746061321877, -20.24152140093857 ], [ -70.119681988984226, -20.241181855847877 ], [ -70.119460355739008, -20.24050136347805 ], [ -70.119165036385994, -20.239616686660913 ], [ -70.118864855350637, -20.238676824913721 ], [ -70.118873027324781, -20.238668039856194 ], [ -70.118869232841021, -20.238663844133431 ], [ -70.118574818989799, -20.237915645834629 ], [ -70.118570914911587, -20.237370101356372 ], [ -70.118567499516871, -20.236892795672635 ], [ -70.118704212323337, -20.23580078310767 ], [ -70.11877106494677, -20.235050207610499 ], [ -70.119119146848007, -20.233206771679836 ], [ -70.11932661006793, -20.231909801570342 ], [ -70.109934642025777, -20.231969447808691 ], [ -70.110615227244594, -20.205710388797414 ], [ -70.110538589272764, -20.205097130918237 ], [ -70.109588701708176, -20.193373705009609 ], [ -70.108556199680166, -20.180150535180474 ], [ -70.107850325089473, -20.172244473147824 ], [ -70.107698639163871, -20.171222520351598 ], [ -70.114841309277907, -20.160446138498919 ], [ -70.114821653241179, -20.16041562031717 ], [ -70.118667036443611, -20.154725047281172 ], [ -70.118372394420305, -20.153908593644157 ], [ -70.115428555945442, -20.146125851276071 ], [ -70.111605092534262, -20.136439111696255 ], [ -70.107900017196044, -20.12707881721273 ], [ -70.103724072833685, -20.116412077760625 ], [ -70.103018005105199, -20.114561554275916 ], [ -70.102601153575705, -20.112763844501711 ], [ -70.102414918444254, -20.110910140725046 ], [ -70.102176976285065, -20.109929568458575 ], [ -70.10205155170847, -20.108511889023923 ], [ -70.101924221805149, -20.106821466204583 ], [ -70.10191773057889, -20.105894072348427 ], [ -70.101563242791372, -20.104750574839063 ], [ -70.101380850652717, -20.103442423365699 ], [ -70.101314633138188, -20.102242574661151 ], [ -70.10107602892063, -20.101152902313512 ], [ -70.100833996731936, -20.099572294799657 ], [ -70.100828658044207, -20.09880854356415 ], [ -70.100820650461756, -20.097662956124609 ], [ -70.100343010835289, -20.095429132896069 ], [ -70.100215335080591, -20.09368408338446 ], [ -70.099853657177547, -20.091504160638866 ], [ -70.099610055632056, -20.089705280823615 ], [ -70.099419709809865, -20.087251459868963 ], [ -70.099175439917815, -20.085343481186683 ], [ -70.091310628519906, -20.083701038676423 ], [ -70.091291133281615, -20.083668888159028 ], [ -70.091255907644367, -20.083684353008376 ], [ -70.08410166543284, -20.082580895473743 ], [ -70.073849664710693, -20.080999109194224 ], [ -70.02510106856343, -20.072352658979732 ], [ -69.976782933422228, -20.063690235600767 ], [ -69.94276974513852, -20.058092111046214 ], [ -69.906708877707359, -20.051079251793578 ], [ -69.890697080606074, -20.04942571972197 ], [ -69.890697081504385, -20.049425793139111 ], [ -69.891259406210992, -20.059109301414615 ], [ -69.891858800796129, -20.069416085706742 ] ] ] } },
{ "type": "Feature", "properties": { "capa": "ds19", "popup": "<strong>EDIFICIO SANTA ROSA 2</strong><br><br><strong>Programa:</strong> DS19<br><strong>Comuna:</strong> Alto Hospicio<br><strong>Región:</strong> Tarapacá<br><strong>Año de inicio:</strong> 2020", "etiqueta": "EDIFICIO SANTA ROSA 2" }, "geometry": { "type": "Polygon", "coordinates": [ [ [ -70.093935637832445, -20.280796177522664 ], [ -70.094314713407613, -20.281591808380774 ], [ -70.094459175081724, -20.281535668809656 ], [ -70.094121512739463, -20.280732534933119 ], [ -70.093935637832445, -20.280796177522664 ] ] ] } },
{ "type": "Feature", "properties": { "capa": "ds19", "popup": "<strong>CONDOMINIO ARUNTA II</strong><br><br><strong>Programa:</strong> DS19<br><strong>Comuna:</strong> Alto Hospicio<br><strong>Región:</strong> Tarapacá<br><strong>Año de inicio:</strong> 2020", "etiqueta": "CONDOMINIO ARUNTA II" }, "geometry": { "type": "Polygon", "coordinates": [ [ [ -70.108842640084916, -20.302048204737499 ], [ -70.109877882872865, -20.301702678846063 ], [ -70.109764867623582, -20.301656192468563 ], [ -70.109614822021683, -20.30154693308176 ], [ -70.109542152806767, -20.301380939682204 ], [ -70.109341919228271, -20.300887970538721 ], [ -70.108540134209633, -20.301177468578608 ], [ -70.108842640084916, -20.302048204737499 ] ] ] } },
{ "type": "Feature", "properties": { "capa": "ds19", "popup": "<strong>CONDOMINIO ARUNTA I</strong><br><br><strong>Programa:</strong> DS19<br><strong>Comuna:</strong> Alto Hospicio<br><strong>Región:</strong> Tarapacá<br><strong>Año de inicio:</strong> 2020", "etiqueta": "CONDOMINIO ARUNTA I" }, "geometry": { "type": "Polygon", "coordinates": [ [ [ -70.110687786865029, -20.302151204776926 ], [ -70.11090032376967, -20.302076780106617 ], [ -70.11077254740367, -20.30178987952176 ], [ -70.110694513449886, -20.301612349877232 ], [ -70.110594698943714, -20.301495795149769 ], [ -70.110428465700394, -20.301530332233302 ], [ -70.110158185089276, -20.301636862738512 ], [ -70.109877882872865, -20.301702678846063 ], [ -70.108836724678781, -20.30203713332866 ], [ -70.109101380937901, -20.302682938631509 ], [ -70.109455327939628, -20.302554474201894 ], [ -70.110687786865029, -20.302151204776926 ] ] ] } },
{ "type": "Feature", "properties": { "capa": "ds19", "popup": "<strong>KURUMI II</strong><br><br><strong>Programa:</strong> DS19<br><strong>Comuna:</strong> Alto Hospicio<br><strong>Región:</strong> Tarapacá<br><strong>Año de inicio:</strong> 0", "etiqueta": "KURUMI II" }, "geometry": { "type": "Polygon", "coordinates": [ [ [ -70.110218913897427, -20.305904176388598 ], [ -70.112238962663355, -20.30507739536489 ], [ -70.11179107254415, -20.304087804066473 ], [ -70.109866414081623, -20.304859945410946 ], [ -70.110218913897427, -20.305904176388598 ] ] ] } },
{ "type": "Feature", "properties": { "capa": "ds19", "popup": "<strong>KURUMI I</strong><br><br><strong>Programa:</strong> DS19<br><strong>Comuna:</strong> Alto Hospicio<br><strong>Región:</strong> Tarapacá<br><strong>Año de inicio:</strong> 2021", "etiqueta": "KURUMI I" }, "geometry": { "type": "Polygon", "coordinates": [ [ [ -70.11137342151406, -20.303258437815469 ], [ -70.109515177297112, -20.303887019035454 ], [ -70.109866414081623, -20.304859945410946 ], [ -70.11179107254415, -20.304087804066473 ], [ -70.11137342151406, -20.303258437815469 ] ] ] } },
{ "type": "Feature", "properties": { "capa": "ds19", "popup": "<strong>PORTAL SUR</strong><br><br><strong>Programa:</strong> DS19<br><strong>Comuna:</strong> Alto Hospicio<br><strong>Región:</strong> Tarapacá<br><strong>Año de inicio:</strong> 2017", "etiqueta": "PORTAL SUR" }, "geometry": { "type": "Polygon", "coordinates": [ [ [ -70.109672218080149, -20.304577271724995 ], [ -70.109503227008886, -20.304158465177228 ], [ -70.107943009667238, -20.304738328052668 ], [ -70.108071981690898, -20.305168782167364 ], [ -70.109672218080149, -20.304577271724995 ] ] ] } },
{ "type": "Feature", "properties": { "capa": "ds19", "popup": "<strong>PORTAL SUR II</strong><br><br><strong>Programa:</strong> DS19<br><strong>Comuna:</strong> Alto Hospicio<br><strong>Región:</strong> Tarapacá<br><strong>Año de inicio:</strong> 2018", "etiqueta": "PORTAL SUR II" }, "geometry": { "type": "Polygon", "coordinates": [ [ [ -70.109554600761669, -20.304126470494825 ], [ -70.109204855180536, -20.303150491335913 ], [ -70.107601257295485, -20.303630487199911 ], [ -70.107950988503589, -20.304678469671551 ], [ -70.109554600761669, -20.304126470494825 ] ] ] } },
{ "type": "Feature", "properties": { "capa": "ds19", "popup": "<strong>SANTA ROSA 1</strong><br><br><strong>Programa:</strong> DS19<br><strong>Comuna:</strong> Alto Hospicio<br><strong>Región:</strong> Tarapacá<br><strong>Año de inicio:</strong> 2019", "etiqueta": "SANTA ROSA 1" }, "geometry": { "type": "Polygon", "coordinates": [ [ [ -70.094625298730577, -20.279682925165012 ], [ -70.094208917019984, -20.279861936839794 ], [ -70.093794887997106, -20.280032918058289 ], [ -70.094086608699087, -20.280702516424487 ], [ -70.09434139247324, -20.280620229026926 ], [ -70.09468749987748, -20.280532681915467 ], [ -70.094971525610745, -20.280461228915794 ], [ -70.094625298730577, -20.279682925165012 ] ] ] } },
{ "type": "Feature", "properties": { "capa": "ds19", "popup": "<strong>VISTA SUR LOTE 1</strong><br><br><strong>Programa:</strong> DS19<br><strong>Comuna:</strong> Alto Hospicio<br><strong>Región:</strong> Tarapacá<br><strong>Año de inicio:</strong> 2019", "etiqueta": "VISTA SUR LOTE 1" }, "geometry": { "type": "Polygon", "coordinates": [ [ [ -70.097706058421053, -20.293960650310034 ], [ -70.098476222741695, -20.295925729666802 ], [ -70.099201176650709, -20.295701979805958 ], [ -70.099195283702443, -20.295554256611513 ], [ -70.099321777274227, -20.295466064120589 ], [ -70.099174343074836, -20.294926361953507 ], [ -70.098823249122461, -20.294753206537663 ], [ -70.098864236553936, -20.294657105425848 ], [ -70.098092416638238, -20.294271840137785 ], [ -70.098125153942135, -20.294080401452216 ], [ -70.097731175316397, -20.293895589210862 ], [ -70.097706058421053, -20.293960650310034 ] ] ] } },
{ "type": "Feature", "properties": { "capa": "ds19", "popup": "<strong>VISTA SUR LOTE 2</strong><br><br><strong>Programa:</strong> DS19<br><strong>Comuna:</strong> Alto Hospicio<br><strong>Región:</strong> Tarapacá<br><strong>Año de inicio:</strong> 2019", "etiqueta": "VISTA SUR LOTE 2" }, "geometry": { "type": "Polygon", "coordinates": [ [ [ -70.100666972971155, -20.295223425402078 ], [ -70.100672503898366, -20.295164828005706 ], [ -70.098145011201495, -20.294089329977176 ], [ -70.098109101047996, -20.294286979095563 ], [ -70.098900233844006, -20.294650386939768 ], [ -70.098839390051495, -20.29473755788354 ], [ -70.099196830601358, -20.294898296691759 ], [ -70.099299199916189, -20.295303201001666 ], [ -70.099345352660549, -20.295499571274132 ], [ -70.099211424631463, -20.295538606353222 ], [ -70.099240349485299, -20.295689052662912 ], [ -70.100666972971155, -20.295223425402078 ] ] ] } },
{ "type": "Feature", "properties": { "capa": "ds19", "popup": "<strong>GRAN VISTA I</strong><br><br><strong>Programa:</strong> DS19<br><strong>Comuna:</strong> Alto Hospicio<br><strong>Región:</strong> Tarapacá<br><strong>Año de inicio:</strong> 2021", "etiqueta": "GRAN VISTA I" }, "geometry": { "type": "Polygon", "coordinates": [ [ [ -70.106409228846061, -20.304612539406847 ], [ -70.107748029436493, -20.304148753710063 ], [ -70.107518863817617, -20.30343611132577 ], [ -70.106107703032734, -20.303809405497258 ], [ -70.106409228846061, -20.304612539406847 ] ] ] } },
{ "type": "Feature", "properties": { "capa": "ds19", "popup": "<strong>ALTO MOLLE II</strong><br><br><strong>Programa:</strong> DS19<br><strong>Comuna:</strong> Alto Hospicio<br><strong>Región:</strong> Tarapacá<br><strong>Año de inicio:</strong> 2022", "etiqueta": "ALTO MOLLE II" }, "geometry": { "type": "Polygon", "coordinates": [ [ [ -70.097367117776159, -20.279661729637851 ], [ -70.096806030948002, -20.279870198821364 ], [ -70.096995063433226, -20.280254082609169 ], [ -70.097782432288199, -20.279966422014102 ], [ -70.097367117776159, -20.279661729637851 ] ] ] } },
{ "type": "Feature", "properties": { "capa": "ds19", "popup": "<strong>ALTO MOLLE I</strong><br><br><strong>Programa:</strong> DS19<br><strong>Comuna:</strong> Alto Hospicio<br><strong>Región:</strong> Tarapacá<br><strong>Año de inicio:</strong> 2022", "etiqueta": "ALTO MOLLE I" }, "geometry": { "type": "Polygon", "coordinates": [ [ [ -70.097190330226553, -20.280716636289064 ], [ -70.098216014939865, -20.280287686583094 ], [ -70.097782432288199, -20.279966422014102 ], [ -70.096995063433226, -20.280254082609169 ], [ -70.097190330226553, -20.280716636289064 ] ] ] } },
{ "type": "Feature", "properties": { "capa": "ds19", "popup": "<strong>CONDOMINIO MUNAY</strong><br><br><strong>Programa:</strong> DS19<br><strong>Comuna:</strong> Alto Hospicio<br><strong>Región:</strong> Tarapacá<br><strong>Año de inicio:</strong> 2022", "etiqueta": "CONDOMINIO MUNAY" }, "geometry": { "type": "Polygon", "coordinates": [ [ [ -70.111390283790257, -20.303660479362161 ], [ -70.112022651936201, -20.305095332025843 ], [ -70.112437601732239, -20.304907279217485 ], [ -70.111795595561603, -20.303475238764936 ], [ -70.111390283790257, -20.303660479362161 ] ] ] } },
{ "type": "Feature", "properties": { "capa": "ds19", "popup": "<strong>VISTA SUR III</strong><br><br><strong>Programa:</strong> DS19<br><strong>Comuna:</strong> Alto Hospicio<br><strong>Región:</strong> Tarapacá<br><strong>Año de inicio:</strong> 2022", "etiqueta": "VISTA SUR III" }, "geometry": { "type": "Polygon", "coordinates": [ [ [ -70.089340905172833, -20.281484380185301 ], [ -70.090195204804658, -20.281137702917473 ], [ -70.089843764102568, -20.280257270268294 ], [ -70.088965849558562, -20.280591639589399 ], [ -70.089340905172833, -20.281484380185301 ] ] ] } },
{ "type": "Feature", "properties": { "capa": "ds19", "popup": "<strong>SANTA ROSA DE ALTO HOSPICIO</strong><br><br><strong>Programa:</strong> DS19<br><strong>Comuna:</strong> Alto Hospicio<br><strong>Región:</strong> Tarapacá<br><strong>Año de inicio:</strong> 2023", "etiqueta": "SANTA ROSA DE ALTO HOSPICIO" }, "geometry": { "type": "Polygon", "coordinates": [ [ [ -70.095557538891399, -20.279293899904783 ], [ -70.09510492093888, -20.279473827969184 ], [ -70.095457576163227, -20.280308872755803 ], [ -70.09590070341477, -20.280172777477574 ], [ -70.095557538891399, -20.279293899904783 ] ] ] } },
{ "type": "Feature", "properties": { "capa": "colegios", "popup": "<strong>ESC ESP DE LENG RAMONA HENRIQUEZ ORTEGA</strong><br><br><strong>Dirección:</strong> CALLE 8 4442", "etiqueta": "" }, "geometry": { "type": "Point", "coordinates": [ -70.10329, -20.306137 ] } },
{ "type": "Feature", "properties": { "capa": "colegios", "popup": "<strong>COLEGIO NIRVANA</strong><br><br><strong>Dirección:</strong> UNION EUROPEA 4292", "etiqueta": "" }, "geometry": { "type": "Point", "coordinates": [ -70.094711, -20.29335 ] } },
{ "type": "Feature", "properties": { "capa": "colegios", "popup": "<strong>ESCUELA ESPECIAL LENGUAJE AMAUTA</strong><br><br><strong>Dirección:</strong> PORTUGAL 3130", "etiqueta": "" }, "geometry": { "type": "Point", "coordinates": [ -70.103607, -20.293342 ] } },
{ "type": "Feature", "properties": { "capa": "colegios", "popup": "<strong>ESCUELA DE LENGUAJE YATIÑA</strong><br><br><strong>Dirección:</strong> PASAJE ESPAÑA 2", "etiqueta": "" }, "geometry": { "type": "Point", "coordinates": [ -70.101884, -20.291924 ] } },
{ "type": "Feature", "properties": { "capa": "colegios", "popup": "<strong>COLEGIO RUPANIC SCHOOL</strong><br><br><strong>Dirección:</strong> PASAJE BULGARIA 4286", "etiqueta": "" }, "geometry": { "type": "Point", "coordinates": [ -70.10318, -20.291349 ] } },
{ "type": "Feature", "properties": { "capa": "colegios", "popup": "<strong>COLEGIO ALTURAS</strong><br><br><strong>Dirección:</strong> CALLE ARGENTINA 3081", "etiqueta": "" }, "geometry": { "type": "Point", "coordinates": [ -70.104263, -20.28816 ] } },
{ "type": "Feature", "properties": { "capa": "colegios", "popup": "<strong>ESC ESPECIAL DE LENGUAJE PUCARA</strong><br><br><strong>Dirección:</strong> AVENIDA MEXICO 4212", "etiqueta": "" }, "geometry": { "type": "Point", "coordinates": [ -70.10509, -20.288055 ] } },
{ "type": "Feature", "properties": { "capa": "colegios", "popup": "<strong>COLEGIO SIMON BOLIVAR</strong><br><br><strong>Dirección:</strong> ALFONSINA STORNI 4004", "etiqueta": "" }, "geometry": { "type": "Point", "coordinates": [ -70.098053, -20.28355 ] } },
{ "type": "Feature", "properties": { "capa": "colegios", "popup": "<strong>LICEO ACADEMIA SINAI</strong><br><br><strong>Dirección:</strong> JUANITA FERNANDEZ 3180", "etiqueta": "" }, "geometry": { "type": "Point", "coordinates": [ -70.09639, -20.282459 ] } },
{ "type": "Feature", "properties": { "capa": "colegios", "popup": "<strong>COLEGIO MARISTA HERMANO FERNANDO</strong><br><br><strong>Dirección:</strong> AVENIDA RICARDO LAGOS 4201", "etiqueta": "" }, "geometry": { "type": "Point", "coordinates": [ -70.08577, -20.282419 ] } },
{ "type": "Feature", "properties": { "capa": "colegios", "popup": "<strong>ESC ESP DE LENGUAJE MI RAYITO DE SOLAZ</strong><br><br><strong>Dirección:</strong> AVENIDA SANTA DE ROSA DE MOLLE 3960", "etiqueta": "" }, "geometry": { "type": "Point", "coordinates": [ -70.09637, -20.281614 ] } },
{ "type": "Feature", "properties": { "capa": "colegios", "popup": "<strong>COLEGIO SAGRADO CORAZON DE JESUS</strong><br><br><strong>Dirección:</strong> AVENIDA SANTA ROSA 3120", "etiqueta": "" }, "geometry": { "type": "Point", "coordinates": [ -70.098343, -20.279989 ] } },
{ "type": "Feature", "properties": { "capa": "colegios", "popup": "<strong>ESCUELA AUDIMED LOS AROMOS</strong><br><br><strong>Dirección:</strong> AVENIDA LAS PARCELAS 327", "etiqueta": "" }, "geometry": { "type": "Point", "coordinates": [ -70.089851, -20.278879 ] } },
{ "type": "Feature", "properties": { "capa": "colegios", "popup": "<strong>ESCUELA ESPECIAL DE LENGUAJE FLOR DEL VALLE</strong><br><br><strong>Dirección:</strong> PASAJE PADRE HURTADO 4335", "etiqueta": "" }, "geometry": { "type": "Point", "coordinates": [ -70.0867, -20.27865 ] } },
{ "type": "Feature", "properties": { "capa": "colegios", "popup": "<strong>COLEGIO MACAYA</strong><br><br><strong>Dirección:</strong> AVENIDA LA PAMPA 3755", "etiqueta": "" }, "geometry": { "type": "Point", "coordinates": [ -70.09877, -20.278419 ] } },
{ "type": "Feature", "properties": { "capa": "colegios", "popup": "<strong>ESCUELA ESPECIAL DE LENGUAJE VICTORIA</strong><br><br><strong>Dirección:</strong> SALITRERA MARIA ENCARNACION 3533", "etiqueta": "" }, "geometry": { "type": "Point", "coordinates": [ -70.10528, -20.276107 ] } },
{ "type": "Feature", "properties": { "capa": "colegios", "popup": "<strong>LICEO ACADEMIA NACIONAL</strong><br><br><strong>Dirección:</strong> AVENIDA LOS CONDORES 3881", "etiqueta": "" }, "geometry": { "type": "Point", "coordinates": [ -70.096107, -20.27496 ] } },
{ "type": "Feature", "properties": { "capa": "colegios", "popup": "<strong>LICEO SUPERIOR DIEGO PORTALES</strong><br><br><strong>Dirección:</strong> AVENIDA LOS CONDORES 3881", "etiqueta": "" }, "geometry": { "type": "Point", "coordinates": [ -70.096832, -20.274799 ] } },
{ "type": "Feature", "properties": { "capa": "colegios", "popup": "<strong>COLEGIO SAN PEDRO</strong><br><br><strong>Dirección:</strong> AVENIDA TENIENTE HERNAN MERINO CORREA 4085", "etiqueta": "" }, "geometry": { "type": "Point", "coordinates": [ -70.09288, -20.27458 ] } },
{ "type": "Feature", "properties": { "capa": "colegios", "popup": "<strong>ESCUELA ESPECIAL COANIL</strong><br><br><strong>Dirección:</strong> AVENIDA PAMPA UNION 2706", "etiqueta": "" }, "geometry": { "type": "Point", "coordinates": [ -70.108827, -20.274285 ] } },
{ "type": "Feature", "properties": { "capa": "colegios", "popup": "<strong>ESCUELA ESPECIAL DE LENGUAJE VILENKA</strong><br><br><strong>Dirección:</strong> CALLE 2 3402", "etiqueta": "" }, "geometry": { "type": "Point", "coordinates": [ -70.1065, -20.274087 ] } },
{ "type": "Feature", "properties": { "capa": "colegios", "popup": "<strong>ESC.ESP. DE LENGUAJE SANTA LUCIA</strong><br><br><strong>Dirección:</strong> AVENIDA LAS PARCELAS 3921", "etiqueta": "" }, "geometry": { "type": "Point", "coordinates": [ -70.091324, -20.273405 ] } },
{ "type": "Feature", "properties": { "capa": "colegios", "popup": "<strong>LICEO PABLO NERUDA</strong><br><br><strong>Dirección:</strong> TILIVICHE 3300", "etiqueta": "" }, "geometry": { "type": "Point", "coordinates": [ -70.106049, -20.27306 ] } },
{ "type": "Feature", "properties": { "capa": "colegios", "popup": "<strong>ESC ESP DE LENGUAJE OASIS DEL SABER</strong><br><br><strong>Dirección:</strong> AVENIDA LOS AROMOS 3895", "etiqueta": "" }, "geometry": { "type": "Point", "coordinates": [ -70.09429, -20.271652 ] } },
{ "type": "Feature", "properties": { "capa": "colegios", "popup": "<strong>LICEO S.S JUAN PABLO SEGUNDO</strong><br><br><strong>Dirección:</strong> PASAJE EL SALITRE 3397", "etiqueta": "" }, "geometry": { "type": "Point", "coordinates": [ -70.095253, -20.27158 ] } },
{ "type": "Feature", "properties": { "capa": "colegios", "popup": "<strong>ESC. ESP. DE LENGUAJE MILLARAY</strong><br><br><strong>Dirección:</strong> AVENIDA CERRO ESMERALDA 3589", "etiqueta": "" }, "geometry": { "type": "Point", "coordinates": [ -70.10156, -20.271536 ] } },
{ "type": "Feature", "properties": { "capa": "colegios", "popup": "<strong>COLEGIO SAN ANTONIO DE MATILLA</strong><br><br><strong>Dirección:</strong> LOS KIWIS 3443", "etiqueta": "" }, "geometry": { "type": "Point", "coordinates": [ -70.103088, -20.268749 ] } },
{ "type": "Feature", "properties": { "capa": "colegios", "popup": "<strong>ESC.TRANS.DE LA COMUN. IKI ARU</strong><br><br><strong>Dirección:</strong> LAS AVELLANAS 2952", "etiqueta": "" }, "geometry": { "type": "Point", "coordinates": [ -70.10703, -20.26869 ] } },
{ "type": "Feature", "properties": { "capa": "colegios", "popup": "<strong>COLEGIO METODISTA WILLIAM TAYLOR</strong><br><br><strong>Dirección:</strong> AVENIDA LOS ALAMOS 3025", "etiqueta": "" }, "geometry": { "type": "Point", "coordinates": [ -70.103897, -20.26844 ] } },
{ "type": "Feature", "properties": { "capa": "colegios", "popup": "<strong>JARDIN INFANTIL AMANECER</strong><br><br><strong>Dirección:</strong> LOS NARANJOS 3057", "etiqueta": "" }, "geometry": { "type": "Point", "coordinates": [ -70.101463319999979, -20.26616669 ] } },
{ "type": "Feature", "properties": { "capa": "colegios", "popup": "<strong>COLEGIO REINA DEL DESIERTO</strong><br><br><strong>Dirección:</strong> AVENIDA LOS AROMOS 29", "etiqueta": "" }, "geometry": { "type": "Point", "coordinates": [ -70.097763, -20.26536 ] } },
{ "type": "Feature", "properties": { "capa": "colegios", "popup": "<strong>COLEGIO SANTO DOMINGO SAVIO</strong><br><br><strong>Dirección:</strong> LOS ALAMOS 0", "etiqueta": "" }, "geometry": { "type": "Point", "coordinates": [ -70.099022, -20.26432 ] } },
{ "type": "Feature", "properties": { "capa": "colegios", "popup": "<strong>COLEGIO SAN LORENZO DE TARAPACA</strong><br><br><strong>Dirección:</strong> LOS ALAMOS 1601", "etiqueta": "" }, "geometry": { "type": "Point", "coordinates": [ -70.096916, -20.262819 ] } },
{ "type": "Feature", "properties": { "capa": "colegios", "popup": "<strong>ESC.ESP. DE TRASTORNO DE LA COMUN ISLUGA</strong><br><br><strong>Dirección:</strong> AVENIDA LAS PARCELAS 2951", "etiqueta": "" }, "geometry": { "type": "Point", "coordinates": [ -70.09804, -20.262766 ] } },
{ "type": "Feature", "properties": { "capa": "colegios", "popup": "<strong>COLEGIO MARAN-ATHA</strong><br><br><strong>Dirección:</strong> LOS ALAMOS 3750", "etiqueta": "" }, "geometry": { "type": "Point", "coordinates": [ -70.097313, -20.262621 ] } },
{ "type": "Feature", "properties": { "capa": "colegios", "popup": "<strong>ESC ESP DE LENGUAJE COLINA CAMPESTRE</strong><br><br><strong>Dirección:</strong> AVENIDA LOS AROMOS 2950", "etiqueta": "" }, "geometry": { "type": "Point", "coordinates": [ -70.10009, -20.262327 ] } },
{ "type": "Feature", "properties": { "capa": "colegios", "popup": "<strong>COLEGIO MONTE CARMELO</strong><br><br><strong>Dirección:</strong> AVENIDA LAS PARCELAS 2947", "etiqueta": "" }, "geometry": { "type": "Point", "coordinates": [ -70.099426, -20.26189 ] } },
{ "type": "Feature", "properties": { "capa": "colegios", "popup": "<strong>COLEGIO JESUS DE NAZARETH</strong><br><br><strong>Dirección:</strong> LOS LIMONEROS 2893", "etiqueta": "" }, "geometry": { "type": "Point", "coordinates": [ -70.102768, -20.26173 ] } },
{ "type": "Feature", "properties": { "capa": "colegios", "popup": "<strong>LICEO COLEGIO METODISTA ROBERT JOHNSON</strong><br><br><strong>Dirección:</strong> AVENIDA LAS PARCELAS 32", "etiqueta": "" }, "geometry": { "type": "Point", "coordinates": [ -70.099419, -20.261311 ] } },
{ "type": "Feature", "properties": { "capa": "colegios", "popup": "<strong>ACADEMIA HOSPICIO</strong><br><br><strong>Dirección:</strong> AVENIDA LOS AROMOS 36", "etiqueta": "" }, "geometry": { "type": "Point", "coordinates": [ -70.104156, -20.25905 ] } },
{ "type": "Feature", "properties": { "capa": "colegios", "popup": "<strong>LICEO LOS CONDORES</strong><br><br><strong>Dirección:</strong> AVENIDA TENIENTE HERNAN MERINO CORREA 2510", "etiqueta": "" }, "geometry": { "type": "Point", "coordinates": [ -70.10701, -20.255581 ] } },
{ "type": "Feature", "properties": { "capa": "colegios", "popup": "<strong>ESC. BASICA Y PARV. KRONOS SCHOOL</strong><br><br><strong>Dirección:</strong> LOS AROMOS 2490", "etiqueta": "" }, "geometry": { "type": "Point", "coordinates": [ -70.105927, -20.25457 ] } },
{ "type": "Feature", "properties": { "capa": "colegios", "popup": "<strong>COLEGIO MONTE SION</strong><br><br><strong>Dirección:</strong> AVENIDA JERUSALEN 3521", "etiqueta": "" }, "geometry": { "type": "Point", "coordinates": [ -70.103653, -20.248711 ] } },
{ "type": "Feature", "properties": { "capa": "colegios", "popup": "<strong>ESC ESP DE LENGUAJE ESPISANT</strong><br><br><strong>Dirección:</strong> AVENIDA JERUSALEN 3522", "etiqueta": "" }, "geometry": { "type": "Point", "coordinates": [ -70.1024, -20.247984 ] } },
{ "type": "Feature", "properties": { "capa": "colegios", "popup": "<strong>COLEGIO NAZARET</strong><br><br><strong>Dirección:</strong> PASAJE EL BORO 3965", "etiqueta": "" }, "geometry": { "type": "Point", "coordinates": [ -70.095833, -20.24708 ] } },
{ "type": "Feature", "properties": { "capa": "colegios", "popup": "<strong>ESCUELA SANTA LAURA</strong><br><br><strong>Dirección:</strong> AVENIDA JERUSALEN 3901", "etiqueta": "" }, "geometry": { "type": "Point", "coordinates": [ -70.098137, -20.24691 ] } },
{ "type": "Feature", "properties": { "capa": "colegios", "popup": "<strong>LICEO TEC. PROF. DE ADULTOS CORESOL</strong><br><br><strong>Dirección:</strong> HUANTAJAYA 0", "etiqueta": "" }, "geometry": { "type": "Point", "coordinates": [ -70.05437, -20.239878 ] } },
{ "type": "Feature", "properties": { "capa": "jardines", "popup": "<strong>QURI MAYIRI</strong><br><br><strong>Dirección:</strong> AVDA.PAMPA UNION 3387 CON AVDA. LA PAMPA ", "etiqueta": "" }, "geometry": { "type": "MultiPoint", "coordinates": [ [ -70.107464, -20.275231 ] ] } },
{ "type": "Feature", "properties": { "capa": "jardines", "popup": "<strong>BRUMITA</strong><br><br><strong>Dirección:</strong> LOS MANZANOS 3023 ", "etiqueta": "" }, "geometry": { "type": "MultiPoint", "coordinates": [ [ -70.101189, -20.265406 ] ] } },
{ "type": "Feature", "properties": { "capa": "jardines", "popup": "<strong>CARITA DE SOL</strong><br><br><strong>Dirección:</strong> AVDA. LOS ALAMOS 2810 ", "etiqueta": "" }, "geometry": { "type": "MultiPoint", "coordinates": [ [ -70.10881, -20.271746 ] ] } },
{ "type": "Feature", "properties": { "capa": "jardines", "popup": "<strong>PURUM NAIRA</strong><br><br><strong>Dirección:</strong> SANTA ROSA 3435 LA PAMPA POBL.RAUL RETTING ", "etiqueta": "" }, "geometry": { "type": "MultiPoint", "coordinates": [ [ -70.104518, -20.272975 ] ] } },
{ "type": "Feature", "properties": { "capa": "jardines", "popup": "<strong>CAMINO AL SOL</strong><br><br><strong>Dirección:</strong> AVDA.CHIJO S/N CON LOS ALAMOS ", "etiqueta": "" }, "geometry": { "type": "MultiPoint", "coordinates": [ [ -70.102435, -20.268241 ] ] } },
{ "type": "Feature", "properties": { "capa": "jardines", "popup": "<strong>SANTA CATALINA</strong><br><br><strong>Dirección:</strong> AVDA.CERRO ESMERALDA 2815 ", "etiqueta": "" }, "geometry": { "type": "MultiPoint", "coordinates": [ [ -70.1089, -20.26596 ] ] } },
{ "type": "Feature", "properties": { "capa": "jardines", "popup": "<strong>OASIS DEL SABER</strong><br><br><strong>Dirección:</strong> AVDA. LOS AROMOS 3895 ", "etiqueta": "" }, "geometry": { "type": "MultiPoint", "coordinates": [ [ -70.094493, -20.27134 ] ] } },
{ "type": "Feature", "properties": { "capa": "jardines", "popup": "<strong>INTINA WAWAPA</strong><br><br><strong>Dirección:</strong> LOS GUINDALES C/LAS FRUTILLAS S/N POBL.ZAPIGA I ", "etiqueta": "" }, "geometry": { "type": "MultiPoint", "coordinates": [ [ -70.105472, -20.265032 ] ] } },
{ "type": "Feature", "properties": { "capa": "jardines", "popup": "<strong>TORTUGUITAS</strong><br><br><strong>Dirección:</strong> AV.LA PAMPA 3624 ", "etiqueta": "" }, "geometry": { "type": "MultiPoint", "coordinates": [ [ -70.103671, -20.277849 ] ] } },
{ "type": "Feature", "properties": { "capa": "jardines", "popup": "<strong>SUMA INTI</strong><br><br><strong>Dirección:</strong> LA SERENA CON PASAJE VALLENAR S/N ", "etiqueta": "" }, "geometry": { "type": "MultiPoint", "coordinates": [ [ -70.080475, -20.279219 ] ] } },
{ "type": "Feature", "properties": { "capa": "jardines", "popup": "<strong>ARUMANTI</strong><br><br><strong>Dirección:</strong> LOS NOGALES 3017 CON LOS ALAMOS ", "etiqueta": "" }, "geometry": { "type": "MultiPoint", "coordinates": [ [ -70.10042, -20.26541 ] ] } },
{ "type": "Feature", "properties": { "capa": "jardines", "popup": "<strong>LUCERITO DORADO</strong><br><br><strong>Dirección:</strong> LENCA FRANULIC 4406 C/JAVIERA CARREA ", "etiqueta": "" }, "geometry": { "type": "MultiPoint", "coordinates": [ [ -70.096006, -20.284088 ] ] } },
{ "type": "Feature", "properties": { "capa": "jardines", "popup": "<strong>AVENTURAS DE APRENDER</strong><br><br><strong>Dirección:</strong> PJE.BELGICA 3111 ", "etiqueta": "" }, "geometry": { "type": "MultiPoint", "coordinates": [ [ -70.103861, -20.294644 ] ] } },
{ "type": "Feature", "properties": { "capa": "jardines", "popup": "<strong>ARCOIRIS DEL DESIERTO</strong><br><br><strong>Dirección:</strong> PASAJE NICARAGUA # 4135 ", "etiqueta": "" }, "geometry": { "type": "MultiPoint", "coordinates": [ [ -70.103357, -20.286039 ] ] } },
{ "type": "Feature", "properties": { "capa": "jardines", "popup": "<strong>MAGIA DE APRENDER</strong><br><br><strong>Dirección:</strong> AVENIDA JERICO # 2326 ", "etiqueta": "" }, "geometry": { "type": "MultiPoint", "coordinates": [ [ -70.100487, -20.248701 ] ] } },
{ "type": "Feature", "properties": { "capa": "jardines", "popup": "<strong>ROCIO DE AMOR</strong><br><br><strong>Dirección:</strong> CALLE IQUIQUE 4505 ", "etiqueta": "" }, "geometry": { "type": "MultiPoint", "coordinates": [ [ -70.084856, -20.281895 ] ] } },
{ "type": "Feature", "properties": { "capa": "jardines", "popup": "<strong>MI PEQUEÑO MUNDO</strong><br><br><strong>Dirección:</strong> EL MIRADOR CON AVDA. PAMPA UNION S/N ", "etiqueta": "" }, "geometry": { "type": "MultiPoint", "coordinates": [ [ -70.100259, -20.277313 ] ] } },
{ "type": "Feature", "properties": { "capa": "jardines", "popup": "<strong>PAN DE AZÚCAR</strong><br><br><strong>Dirección:</strong> PASAJE SALITRERA AGUADA 2964 ", "etiqueta": "" }, "geometry": { "type": "MultiPoint", "coordinates": [ [ -70.103299, -20.270982 ] ] } },
{ "type": "Feature", "properties": { "capa": "jardines", "popup": "<strong>NUEVO SOL</strong><br><br><strong>Dirección:</strong> AVENIDA UNION EUROPEA 3210 LA PAMPA ", "etiqueta": "" }, "geometry": { "type": "MultiPoint", "coordinates": [ [ -70.099439, -20.294263 ] ] } },
{ "type": "Feature", "properties": { "capa": "jardines", "popup": "<strong>NA</strong><br><br><strong>Dirección:</strong> NA ", "etiqueta": "" }, "geometry": { "type": "MultiPoint", "coordinates": [ [ -70.096394771117929, -20.262035285920369 ] ] } },
{ "type": "Feature", "properties": { "capa": "jardines", "popup": "<strong>NA</strong><br><br><strong>Dirección:</strong> NA ", "etiqueta": "" }, "geometry": { "type": "MultiPoint", "coordinates": [ [ -70.105604715592591, -20.270063881096512 ] ] } },
{ "type": "Feature", "properties": { "capa": "jardines", "popup": "<strong>NA</strong><br><br><strong>Dirección:</strong> NA ", "etiqueta": "" }, "geometry": { "type": "MultiPoint", "coordinates": [ [ -70.104745769473311, -20.28803111112461 ] ] } },
{ "type": "Feature", "properties": { "capa": "jardines", "popup": "<strong>NA</strong><br><br><strong>Dirección:</strong> NA ", "etiqueta": "" }, "geometry": { "type": "MultiPoint", "coordinates": [ [ -70.081743845475657, -20.27968166131777 ] ] } },
{ "type": "Feature", "properties": { "capa": "jardines", "popup": "<strong>NA</strong><br><br><strong>Dirección:</strong> NA ", "etiqueta": "" }, "geometry": { "type": "MultiPoint", "coordinates": [ [ -70.103165426278608, -20.293398895106911 ] ] } },
{ "type": "Feature", "properties": { "capa": "jardines", "popup": "<strong>NA</strong><br><br><strong>Dirección:</strong> NA ", "etiqueta": "" }, "geometry": { "type": "MultiPoint", "coordinates": [ [ -70.098415000290714, -20.247132999727043 ] ] } },
{ "type": "Feature", "properties": { "capa": "bomberos", "popup": "<strong>Cuerpo de Bomberos</strong><br><br><strong>Dirección:</strong> Noruega S/n", "etiqueta": "" }, "geometry": { "type": "Point", "coordinates": [ -70.104476796586567, -20.294161614064819 ] } },
{ "type": "Feature", "properties": { "capa": "bomberos", "popup": "<strong>Cuerpo de Bomberos</strong><br><br><strong>Dirección:</strong> Los Alamos 3007", "etiqueta": "" }, "geometry": { "type": "Point", "coordinates": [ -70.104428389827916, -20.268843911870757 ] } },
{ "type": "Feature", "properties": { "capa": "comisarias", "popup": "<strong>3RA. COM. ALTO HOSPICIO</strong><br><br><strong>Dirección:</strong> LOS AROMOS 3961", "etiqueta": "" }, "geometry": { "type": "Point", "coordinates": [ -70.093505, -20.273272 ] } },
{ "type": "Feature", "properties": { "capa": "salud", "popup": "<strong>Centro de Salud Familiar Dr. Héctor Reyno Gutiérrez</strong><br><br><strong>Tipo de atención:</strong> Centro de Salud Familiar (CESFAM)<br><strong>Dirección:</strong>  3080", "etiqueta": "" }, "geometry": { "type": "Point", "coordinates": [ -70.10386, -20.28711 ] } },
{ "type": "Feature", "properties": { "capa": "salud", "popup": "<strong>Centro de Salud Familiar Dr. Yandry Añazco Montero</strong><br><br><strong>Tipo de atención:</strong> Centro de Salud Familiar (CESFAM)<br><strong>Dirección:</strong>  4320", "etiqueta": "" }, "geometry": { "type": "Point", "coordinates": [ -70.08402, -20.27781 ] } },
{ "type": "Feature", "properties": { "capa": "salud", "popup": "<strong>SAR La Tortuga</strong><br><br><strong>Tipo de atención:</strong> Servicio de Atención Primaria de Urgencia de Alta Resolutividad (SAR)<br><strong>Dirección:</strong>  3355", "etiqueta": "" }, "geometry": { "type": "Point", "coordinates": [ -70.105171, -20.272626 ] } },
{ "type": "Feature", "properties": { "capa": "salud", "popup": "<strong>Centro Comunitario de Salud Familiar La Tortuga</strong><br><br><strong>Tipo de atención:</strong> Centro Comunitario de Salud Familiar (CECOSF)<br><strong>Dirección:</strong>  3355", "etiqueta": "" }, "geometry": { "type": "Point", "coordinates": [ -70.1056, -20.27262 ] } },
{ "type": "Feature", "properties": { "capa": "salud", "popup": "<strong>Centro de Salud Familiar Pedro Pulgar Melgarejo</strong><br><br><strong>Tipo de atención:</strong> Centro de Salud Familiar (CESFAM)<br><strong>Dirección:</strong>  NA", "etiqueta": "" }, "geometry": { "type": "Point", "coordinates": [ -70.10063, -20.26501 ] } },
{ "type": "Feature", "properties": { "capa": "salud", "popup": "<strong>Centro Comunitario de Salud Familiar El Boro</strong><br><br><strong>Tipo de atención:</strong> Centro Comunitario de Salud Familiar (CECOSF)<br><strong>Dirección:</strong>  NA", "etiqueta": "" }, "geometry": { "type": "Point", "coordinates": [ -70.09662, -20.24617 ] } },
{ "type": "Feature", "properties": { "capa": "salud", "popup": "<strong>SAPU El Boro</strong><br><br><strong>Tipo de atención:</strong> Servicio de Atención Primaria de Urgencia (SAPU)<br><strong>Dirección:</strong>  2765", "etiqueta": "" }, "geometry": { "type": "Point", "coordinates": [ -70.096632, -20.246059 ] } },
{ "type": "Feature", "properties": { "capa": "salud", "popup": "<strong>Clínica Establecimiento Penitenciario Alto Hospicio</strong><br><br><strong>Tipo de atención:</strong> Clínica<br><strong>Dirección:</strong>  NA", "etiqueta": "" }, "geometry": { "type": "Point", "coordinates": [ -70.054424, -20.240813 ] } },
{ "type": "Feature", "properties": { "capa": "salud", "popup": "<strong>SAPU Dr. Héctor Reyno Gutiérrez</strong><br><br><strong>Tipo de atención:</strong> Servicio de Atención Primaria de Urgencia (SAPU)<br><strong>Dirección:</strong>  3080", "etiqueta": "" }, "geometry": { "type": "Point", "coordinates": [ -70.10386, -20.287114 ] } },
{ "type": "Feature", "properties": { "capa": "salud", "popup": "<strong>Hospital de Alto Hospicio</strong><br><br><strong>Tipo de atención:</strong> Hospital<br><strong>Dirección:</strong>  3240", "etiqueta": "" }, "geometry": { "type": "Point", "coordinates": [ -70.09706, -20.294599 ] } }
]
}
