{
"type": "FeatureCollection",
"name": "12102",
"crs": { "type": "name", "properties": { "name": "urn:ogc:def:crs:OGC:1.3:CRS84" } },
"features": [
{ "type": "Feature", "properties": { "capa": "comuna", "popup": "", "etiqueta": "" }, "geometry": { "type": "Polygon", "coordinates": [ [ [ -70.874018849507067, -52.075588657408161 ], [ -70.876338970612196, -52.075129060060441 ], [ -70.878750455771595, -52.07484784364533 ], [ -70.881527686405661, -52.074165170258397 ], [ -70.886076262727642, -52.073489964748589 ], [ -70.89098284194489, -52.072862833132902 ], [ -70.902108959134026, -52.071038197613106 ], [ -70.909526414910331, -52.069623375684756 ], [ -70.912494576169834, -52.068990720164287 ], [ -70.919996427768766, -52.074533703210541 ], [ -70.919751330528328, -52.15699002953653 ], [ -70.919109408799343, -52.246870043572578 ], [ -70.918870069759876, -52.306925260001826 ], [ -70.918868594726192, -52.306926697410439 ], [ -70.918872144868175, -52.307008790007501 ], [ -70.91888338818228, -52.307268751548676 ], [ -70.918902445042718, -52.307291644445797 ], [ -70.918868638743632, -52.307285341759993 ], [ -70.918749492492552, -52.337319667864769 ], [ -70.919236110780275, -52.426511229929645 ], [ -70.918418864857287, -52.517192820800382 ], [ -70.918067206762899, -52.606730543402733 ], [ -70.91930254299217, -52.710118822802663 ], [ -70.920005666941464, -52.710143012195118 ], [ -70.920704328060438, -52.710214703519419 ], [ -70.921325019005991, -52.710283750806269 ], [ -70.921932316070652, -52.710495020598827 ], [ -70.92262205871549, -52.710661567369989 ], [ -70.92323395515443, -52.710825468530118 ], [ -70.923756479104043, -52.711105279361142 ], [ -70.923877231542846, -52.711490233945895 ], [ -70.924076212869863, -52.711877970998863 ], [ -70.924522885771836, -52.712131388166526 ], [ -70.924969559572148, -52.712384730393353 ], [ -70.925416238762338, -52.712638070604832 ], [ -70.925537013659024, -52.71302309710574 ], [ -70.925657792148982, -52.713408124018088 ], [ -70.925622356305965, -52.713787659853537 ], [ -70.925508942204715, -52.714164632508187 ], [ -70.925317176146066, -52.714538900015562 ], [ -70.925438075010277, -52.714923850969193 ], [ -70.925636962912463, -52.715311512884149 ], [ -70.925835978375474, -52.715699245905853 ], [ -70.925956763153636, -52.716084198591993 ], [ -70.926316581544043, -52.716429764594537 ], [ -70.926680745085505, -52.716727971818038 ], [ -70.927040456576407, -52.717073611079137 ], [ -70.927317478145412, -52.717463903360525 ], [ -70.92759908741057, -52.717806834014567 ], [ -70.927798132517978, -52.718194562813693 ], [ -70.92807974627469, -52.718537418617984 ], [ -70.928278795873652, -52.71892507290643 ], [ -70.928399615686118, -52.719310096156612 ], [ -70.928755023348486, -52.719703087953121 ], [ -70.92911910963484, -52.720001289122557 ], [ -70.929400751239342, -52.720344213974883 ], [ -70.929365344142411, -52.720723750950221 ], [ -70.929408059034188, -52.721106067177821 ], [ -70.929524560645049, -52.721538519984051 ], [ -70.929567274638515, -52.721920762145821 ], [ -70.929688234588141, -52.722305781803684 ], [ -70.929809195436093, -52.722690727331411 ], [ -70.929925583859259, -52.723123182379609 ], [ -70.930124674780728, -52.723510906358435 ], [ -70.930488921865503, -52.723809027630473 ], [ -70.930679110482515, -52.724291617603441 ], [ -70.930802192252841, -52.724652884391013 ], [ -70.931083872484905, -52.724995731321386 ], [ -70.931282983169325, -52.725383453885577 ], [ -70.93132572051897, -52.72576576898161 ], [ -70.93144670651975, -52.726150711715107 ], [ -70.931976147497068, -52.72635929708651 ], [ -70.932418439315413, -52.726660117434911 ], [ -70.932700149191874, -52.727003033997391 ], [ -70.932981859966659, -52.727345876051508 ], [ -70.933346163645297, -52.727644060870908 ], [ -70.933627886098179, -52.727986974591701 ], [ -70.934061546004955, -52.728382651798796 ], [ -70.934421289835214, -52.72872826888235 ], [ -70.934776712768951, -52.729121316168751 ], [ -70.935141038905456, -52.729419421934615 ], [ -70.935505369533558, -52.729717526206315 ], [ -70.936025977376687, -52.730021032478078 ], [ -70.936472906298533, -52.730274401912538 ], [ -70.936919839711948, -52.730527768242631 ], [ -70.937362326464722, -52.730828494555539 ], [ -70.937974315430111, -52.730992319947447 ], [ -70.938581987092277, -52.731203648294169 ], [ -70.939028942065249, -52.731457007592276 ], [ -70.939475902428114, -52.731710364874147 ], [ -70.939987665458958, -52.732108646537981 ], [ -70.940108748477797, -52.732493654036787 ], [ -70.940229709325749, -52.732878588508854 ], [ -70.940511521610162, -52.733221485540341 ], [ -70.940710753567132, -52.733609190447616 ], [ -70.941075163246978, -52.733907350384335 ], [ -70.941439447162679, -52.734205364137189 ], [ -70.941803865825662, -52.734503521084314 ], [ -70.94216828538697, -52.734801604192803 ], [ -70.942697885366101, -52.735010212365324 ], [ -70.94322736317433, -52.735218673222562 ], [ -70.943756973933233, -52.735427276679594 ], [ -70.944277828813085, -52.735730744291814 ], [ -70.944720421567027, -52.7360315141282 ], [ -70.945084752195143, -52.736329590051916 ], [ -70.945531797897956, -52.736582923912358 ], [ -70.945974408618227, -52.736883688956659 ], [ -70.946582201552957, -52.737094974604481 ], [ -70.94702914035625, -52.737348304560626 ], [ -70.947554476032721, -52.737604248113463 ], [ -70.948079694928197, -52.73786019233907 ], [ -70.948591615164219, -52.738258582074515 ], [ -70.948873525365002, -52.738601384575539 ], [ -70.949316182797673, -52.7389022102045 ], [ -70.949676258106251, -52.739247775987842 ], [ -70.950123360402941, -52.739501091800541 ], [ -70.950566028615384, -52.739801766549917 ], [ -70.951091295121586, -52.740057769662478 ], [ -70.951529549911044, -52.740406021133062 ], [ -70.952132979728404, -52.740664637213399 ], [ -70.952580107177923, -52.740917869738922 ], [ -70.953022813119617, -52.741218682099046 ], [ -70.953548232339415, -52.741474671994339 ], [ -70.953995258279306, -52.741727974864347 ], [ -70.954359819774425, -52.742025944940956 ], [ -70.954885134789635, -52.742281931726154 ], [ -70.955406026500398, -52.742585348897656 ], [ -70.955935662412145, -52.742793898610387 ], [ -70.956382835675726, -52.743047190006017 ], [ -70.956912722217439, -52.743255657565783 ], [ -70.957529261149745, -52.743371873669744 ], [ -70.95805915936954, -52.743580409285926 ], [ -70.958684679658077, -52.743601750603418 ], [ -70.959479675209806, -52.743486085464525 ], [ -70.960109740973664, -52.743459982346209 ], [ -70.960735260363876, -52.743481312846129 ], [ -70.96136066027816, -52.74350264170414 ], [ -70.961986301839246, -52.743523962394335 ], [ -70.962603103977955, -52.743640222376385 ], [ -70.96321978394576, -52.743756407000717 ], [ -70.963832170864848, -52.743920094080714 ], [ -70.96444456586876, -52.744083851786144 ], [ -70.964891681640168, -52.74433711230035 ], [ -70.965256336560103, -52.7446350482235 ], [ -70.965621004954727, -52.744933128937895 ], [ -70.966224706063329, -52.745191744257241 ], [ -70.966837002252547, -52.745355417245015 ], [ -70.967453843018816, -52.745471651132782 ], [ -70.968079393850061, -52.745492942038176 ], [ -70.968704941088049, -52.745514156257244 ], [ -70.969334911630511, -52.745488079912377 ], [ -70.969973704527348, -52.745366983929117 ], [ -70.970612369863417, -52.745245887065536 ], [ -70.971177282616367, -52.745074673792558 ], [ -70.971894226247997, -52.744956246212979 ], [ -70.972311384103008, -52.744684808061876 ], [ -70.972728660535623, -52.744413441091126 ], [ -70.972998304241216, -52.744041777602774 ], [ -70.973493849087902, -52.743773008818721 ], [ -70.974156487763977, -52.743390897297374 ], [ -70.974652018237634, -52.743122123411354 ], [ -70.975216886973129, -52.742950892005119 ], [ -70.975855502901865, -52.74282976721787 ], [ -70.976476737328184, -52.742898520330158 ], [ -70.977080351300202, -52.743157080833051 ], [ -70.977527648531293, -52.743410291262961 ], [ -70.977892264823652, -52.743708262889108 ], [ -70.978513510928053, -52.743776931410629 ], [ -70.979130357084202, -52.743893104794061 ], [ -70.979738279376335, -52.744104146006642 ], [ -70.98026829078384, -52.744312581863326 ], [ -70.980628650858378, -52.74465797641033 ], [ -70.98107158317552, -52.744958607426319 ], [ -70.981436238095441, -52.745256641335516 ], [ -70.982053113895986, -52.745372799354378 ], [ -70.98273947797702, -52.745586490951311 ], [ -70.983264875637261, -52.74584227791302 ], [ -70.983712236648728, -52.746095464583881 ], [ -70.984333529465545, -52.746164175566079 ], [ -70.984945904706507, -52.746327754088355 ], [ -70.985632297533641, -52.746541429038928 ], [ -70.986318697547304, -52.746755100222806 ], [ -70.986944153157125, -52.746776292619785 ], [ -70.987648018216518, -52.746800146289253 ], [ -70.988334428111656, -52.747013731374452 ], [ -70.988955618520507, -52.747082419701229 ], [ -70.989563753713341, -52.747293407403745 ], [ -70.990176406533735, -52.747456955041791 ], [ -70.990797483754875, -52.747525636144559 ], [ -70.991423194486245, -52.747546801521807 ], [ -70.992053174011843, -52.747520530634041 ], [ -70.992691807008569, -52.747399314686419 ], [ -70.99326104604792, -52.747180562862376 ], [ -70.993891140557892, -52.747154279790614 ], [ -70.994516604252553, -52.747175433385102 ], [ -70.995129152868373, -52.747338956995961 ], [ -70.995659272073723, -52.747547248505235 ], [ -70.99618915592049, -52.747755615690785 ], [ -71.002631556032895, -52.74559822452062 ], [ -71.006866077738309, -52.743881212513649 ], [ -71.009772842741413, -52.741941578828659 ], [ -71.014282125854564, -52.738738327514412 ], [ -71.020484658718132, -52.735488080570448 ], [ -71.025093088889193, -52.732287206965395 ], [ -71.031852712874525, -52.728224337825516 ], [ -71.034286872410021, -52.725880880520783 ], [ -71.034565442674563, -52.725525645998765 ], [ -71.03450708092717, -52.725512266169289 ], [ -71.035977110109272, -52.723877763412474 ], [ -71.036216446453778, -52.723503375810587 ], [ -71.038696087692102, -52.721767980487627 ], [ -71.040481710304846, -52.719831079612767 ], [ -71.042732272162553, -52.718567175306639 ], [ -71.046485876289054, -52.716964979513449 ], [ -71.049774639985245, -52.715768452117999 ], [ -71.053444627128471, -52.715588035885247 ], [ -71.056458429990911, -52.716104496598618 ], [ -71.059846191624672, -52.717643895561295 ], [ -71.064187452050476, -52.720211873609593 ], [ -71.066354507417685, -52.721405893780556 ], [ -71.069460455868736, -52.723008418302136 ], [ -71.07304619271639, -52.72534199601467 ], [ -71.075885123237441, -52.728882095677299 ], [ -71.077960745380096, -52.731561194691537 ], [ -71.079944467174229, -52.732299665414033 ], [ -71.082767444514147, -52.732297244222558 ], [ -71.086056070768109, -52.732524919947998 ], [ -71.089542547370144, -52.732578131455043 ], [ -71.092556726626697, -52.73349157701039 ], [ -71.093884413260412, -52.73668263434017 ], [ -71.092488404359443, -52.739651898525828 ], [ -71.092496365229493, -52.742454803260088 ], [ -71.09298458880663, -52.744846910801478 ], [ -71.094419805576493, -52.750385005435234 ], [ -71.094427540071095, -52.753008111640028 ], [ -71.096411553817703, -52.75449717434055 ], [ -71.098387670474651, -52.753801363579399 ], [ -71.099791122816086, -52.751978166147786 ], [ -71.1002565408631, -52.750380757737872 ], [ -71.101934986377628, -52.74820197750558 ], [ -71.102491704698551, -52.745984803539685 ], [ -71.102949664932069, -52.743870363279328 ], [ -71.103971776147191, -52.741127845806467 ], [ -71.105749374109493, -52.737580668974694 ], [ -71.107701999821757, -52.733014237403459 ], [ -71.109479638208256, -52.730438028110562 ], [ -71.113416522907215, -52.728607847688927 ], [ -71.114775024450154, -52.72905834695721 ], [ -71.116505842644031, -52.730281046217932 ], [ -71.118116622559782, -52.730917925445553 ], [ -71.120680579670676, -52.731625094292014 ], [ -71.122169665713187, -52.731493042738926 ], [ -71.124091233072818, -52.730563238410426 ], [ -71.126191808617435, -52.729271992340919 ], [ -71.12909837149958, -52.728384097245559 ], [ -71.133452794040934, -52.728473751298893 ], [ -71.13628315193921, -52.728750926904546 ], [ -71.139762380035208, -52.72823186211798 ], [ -71.144179859817925, -52.727999126898204 ], [ -71.147560499608119, -52.72800989467239 ], [ -71.149826251977302, -52.728730897539933 ], [ -71.152283322145792, -52.730154180826545 ], [ -71.153985083433483, -52.731867654947813 ], [ -71.154747829466501, -52.733688040190337 ], [ -71.157189654326302, -52.732375819460124 ], [ -71.159532115634235, -52.730649480996938 ], [ -71.16140087103831, -52.728884590499533 ], [ -71.164109463198159, -52.725503807272801 ], [ -71.167840175556265, -52.720476775392719 ], [ -71.169709203149878, -52.718414967938322 ], [ -71.170632159222237, -52.71533422358867 ], [ -71.170227228336572, -52.710935725223756 ], [ -71.171432304815468, -52.707795811263587 ], [ -71.174224819385799, -52.70350729863307 ], [ -71.176933810397614, -52.700591562478856 ], [ -71.182930382024409, -52.697046448690138 ], [ -71.187920217102189, -52.698743762544673 ], [ -71.188873968320792, -52.700461565549233 ], [ -71.189126084098532, -52.702293457369628 ], [ -71.188973410924433, -52.703613528950967 ], [ -71.187752556435868, -52.705220779634494 ], [ -71.18805827288999, -52.707067446490548 ], [ -71.190423488524047, -52.707702600875429 ], [ -71.193910360384791, -52.708386705314268 ], [ -71.196360058079762, -52.709804723581144 ], [ -71.197130134365494, -52.711809086236016 ], [ -71.197137985641092, -52.713685854687249 ], [ -71.19715353727527, -52.715744714242348 ], [ -71.197184459083985, -52.719682410190707 ], [ -71.198062357458326, -52.725330826614872 ], [ -71.198757135160307, -52.729840765500413 ], [ -71.20029882474924, -52.735261099143095 ], [ -71.201741103175564, -52.739601942040707 ], [ -71.202328864577737, -52.743425940428118 ], [ -71.202741448211327, -52.749015555601964 ], [ -71.202283761065644, -52.750388517995731 ], [ -71.201642527446168, -52.752245954024602 ], [ -71.199475673301578, -52.752852607269212 ], [ -71.197362062303867, -52.753642675418192 ], [ -71.194310757473232, -52.753775567848692 ], [ -71.191289101538572, -52.752356799254869 ], [ -71.187512222063077, -52.750817095011946 ], [ -71.184772826672145, -52.750256236185898 ], [ -71.181087482829142, -52.747979454315903 ], [ -71.181575885171029, -52.750312817904536 ], [ -71.18140039299206, -52.752091886700455 ], [ -71.182270573041478, -52.755112749576043 ], [ -71.183133079681753, -52.758477661033545 ], [ -71.184193910082229, -52.761850254503521 ], [ -71.184690157411481, -52.765786124520119 ], [ -71.18575141002016, -52.770120676973242 ], [ -71.185873497355473, -52.773831925285272 ], [ -71.186171256532802, -52.776971288497641 ], [ -71.187422969049692, -52.780625684382194 ], [ -71.188102466408708, -52.78404792101108 ], [ -71.189254398555406, -52.787077082195395 ], [ -71.189284807426091, -52.791183348425484 ], [ -71.189208722816474, -52.79403282945308 ], [ -71.189927030989011, -52.802828963026471 ], [ -71.190224419162135, -52.805057823539748 ], [ -71.190705319673086, -52.806710159591674 ], [ -71.192854481498173, -52.808186487649998 ], [ -71.19415987553981, -52.809227229657466 ], [ -71.19464954720118, -52.81123302138522 ], [ -71.195263848430116, -52.811395563329789 ], [ -71.195882200162686, -52.811510590415971 ], [ -71.196500556386823, -52.811625615025953 ], [ -71.197112783405771, -52.8118118296793 ], [ -71.197739366401294, -52.811831971261874 ], [ -71.19836619284024, -52.811852104147562 ], [ -71.199001230779217, -52.81177721024347 ], [ -71.199627813774711, -52.811797341525597 ], [ -71.200324597414735, -52.811914869019908 ], [ -71.200938928288082, -52.81207738126654 ], [ -71.201548975994157, -52.812287331972591 ], [ -71.201994110980394, -52.812587183468565 ], [ -71.202521830785614, -52.812842042691457 ], [ -71.202888566203725, -52.813139442170218 ], [ -71.202933794581654, -52.813521699797271 ], [ -71.203465574771968, -52.813729116642321 ], [ -71.204249019785763, -52.81375419111297 ], [ -71.20485910522109, -52.81396412503333 ], [ -71.205308565595374, -52.81421652208067 ], [ -71.205918785777996, -52.814426446709888 ], [ -71.206553727597239, -52.814351588188707 ], [ -71.207176312191407, -52.814419116470347 ], [ -71.207794859756689, -52.814534078004513 ], [ -71.208417324874944, -52.814601602202075 ], [ -71.209035878728457, -52.814716558367159 ], [ -71.209658471407479, -52.814784073051342 ], [ -71.210223424584612, -52.814611722027067 ], [ -71.210565706064045, -52.81428949791114 ], [ -71.210833838803325, -52.813917240516076 ], [ -71.211184424309238, -52.813500134291509 ], [ -71.21160094795367, -52.81322778870765 ], [ -71.212235862823434, -52.813152899888451 ], [ -71.212858438434466, -52.813220398540864 ], [ -71.213547096812746, -52.813432798959333 ], [ -71.213996355964426, -52.813685167057805 ], [ -71.214363293503482, -52.813982455436744 ], [ -71.215068450340254, -52.814004942082057 ], [ -71.215559107453501, -52.81378268560178 ], [ -71.215975485570837, -52.81351032821442 ], [ -71.21624356980108, -52.813138132016114 ], [ -71.21666835884443, -52.812770889866286 ], [ -71.217159112975722, -52.812548551061248 ], [ -71.217728034011458, -52.812328726683532 ], [ -71.218367070351746, -52.812206291333077 ], [ -71.218993908468818, -52.812226315994771 ], [ -71.21968647901015, -52.812391172146718 ], [ -71.220292597485169, -52.812648536662635 ], [ -71.220927609372993, -52.812573598521709 ], [ -71.221348086502971, -52.81225378201863 ], [ -71.221698553431281, -52.811836572413569 ], [ -71.22173157729776, -52.811456832958193 ], [ -71.221921182908133, -52.811082042183777 ], [ -71.222110790315156, -52.810707324739255 ], [ -71.222382948405212, -52.810287676918385 ], [ -71.222650955380331, -52.809915392854421 ], [ -71.223067373921879, -52.809643009064487 ], [ -71.223483672089174, -52.809370772350988 ], [ -71.223904222880989, -52.80905094477388 ], [ -71.224469043107462, -52.808878527577043 ], [ -71.224967869499892, -52.808561205102123 ], [ -71.225235725558051, -52.80818899259372 ], [ -71.22550369749888, -52.807816703590639 ], [ -71.225849948633567, -52.80744692181645 ], [ -71.226340477287721, -52.807224623117165 ], [ -71.22683939171506, -52.806907291286016 ], [ -71.227255634186804, -52.806634895165963 ], [ -71.227288488271668, -52.80625522974276 ], [ -71.227003950498698, -52.805912976400428 ], [ -71.227634714253526, -52.805885443920026 ], [ -71.228257326695484, -52.805952860452834 ], [ -71.228673675168437, -52.805680530035865 ], [ -71.229242446185509, -52.805460578609903 ], [ -71.229813400108753, -52.805216938541115 ], [ -71.230081317252342, -52.804844713151034 ], [ -71.230497643267398, -52.804572376879634 ], [ -71.230843705755873, -52.804202584347841 ], [ -71.231185754571669, -52.803880302080941 ], [ -71.231676333531468, -52.803657905857449 ], [ -71.232166906203076, -52.803435506324199 ], [ -71.23273149735914, -52.803262979422449 ], [ -71.233147796424745, -52.802990707646941 ], [ -71.233489814697805, -52.80266834525365 ], [ -71.233980366708153, -52.802445939573175 ], [ -71.234701616863262, -52.802278481226445 ], [ -71.235196162783367, -52.802008558149076 ], [ -71.23530734457114, -52.801631391323447 ], [ -71.235496914248913, -52.801256578845177 ], [ -71.235913170195374, -52.800984150040321 ], [ -71.23632918449502, -52.800711872143246 ], [ -71.236819699674456, -52.800489455370368 ], [ -71.237235939451239, -52.800217022303009 ], [ -71.237726446545835, -52.799994600283718 ], [ -71.238299224947397, -52.799727240153949 ], [ -71.238789598193009, -52.799504817259091 ], [ -71.239284210588451, -52.799234875336275 ], [ -71.239630277568509, -52.798865055337572 ], [ -71.239972218586459, -52.798542748720166 ], [ -71.240314152417881, -52.798220367476205 ], [ -71.24065608355437, -52.797898059340071 ], [ -71.24107227482213, -52.797625613841554 ], [ -71.241418319344305, -52.797255862175284 ], [ -71.241838620404494, -52.796935973725589 ], [ -71.242254676924958, -52.796663599329563 ], [ -71.242674971696943, -52.796343781480928 ], [ -71.243020987473031, -52.795973952650684 ], [ -71.243511412820922, -52.795751433973393 ], [ -71.243927447781829, -52.795479054875443 ], [ -71.244492015581713, -52.79530661753671 ], [ -71.24506069047905, -52.79508658973721 ], [ -71.245559208749356, -52.794769184531965 ], [ -71.24597522215069, -52.794496797653586 ], [ -71.246391351434696, -52.794224407983116 ], [ -71.246885732963094, -52.793954438175334 ], [ -71.247376119683452, -52.79373197760976 ], [ -71.247870370956136, -52.793462005832197 ], [ -71.248360745100058, -52.793239542205093 ], [ -71.248851120142305, -52.793017149143736 ], [ -71.249415633144935, -52.79284461567493 ], [ -71.250050177010493, -52.792769453817783 ], [ -71.250767213168601, -52.792649338853387 ], [ -71.25139764454677, -52.792621684443539 ], [ -71.252028318470082, -52.79259402241113 ], [ -71.252733143828536, -52.792616362587751 ], [ -71.253359465414306, -52.792636139876024 ], [ -71.253987963617988, -52.792632226572387 ], [ -71.254552571842055, -52.792459666589025 ], [ -71.25519120663543, -52.792337036764238 ], [ -71.255825854705549, -52.792261843066683 ], [ -71.256452295767261, -52.792281673751411 ], [ -71.257078735032309, -52.79230142891992 ], [ -71.257713381305805, -52.792226297630883 ], [ -71.25827785208763, -52.792053795791475 ], [ -71.258908269092771, -52.792026101891175 ], [ -71.259534825138829, -52.792045840879162 ], [ -71.260153065480296, -52.792160608980645 ], [ -71.26076732179348, -52.792322664887699 ], [ -71.261377492568741, -52.792532380173341 ], [ -71.261991762356658, -52.792694503140126 ], [ -71.262605919855162, -52.792856698836047 ], [ -71.263228394854877, -52.79292393295119 ], [ -71.263854847594686, -52.792943725852687 ], [ -71.264489366307401, -52.792868487030972 ], [ -71.265053812834722, -52.792695879638956 ], [ -71.265544089960585, -52.792473346364879 ], [ -71.266174507864037, -52.792445613620188 ], [ -71.266796981067145, -52.792512829358188 ], [ -71.267415363342408, -52.792627482153009 ], [ -71.268029537908902, -52.792789650938261 ], [ -71.268479134827146, -52.793041806969612 ], [ -71.268928614964395, -52.793293964255348 ], [ -71.269378216374207, -52.793546044031245 ], [ -71.269910057649952, -52.793753162904913 ], [ -71.270441907010536, -52.793960352494317 ], [ -71.271060319828564, -52.794074987350939 ], [ -71.271765051762188, -52.794097142624125 ], [ -71.272399698035713, -52.794021932957136 ], [ -71.272964247869268, -52.793849286142901 ], [ -71.273454251008985, -52.793626651215476 ], [ -71.274018795452662, -52.793454071819106 ], [ -71.274645258972242, -52.793473807443156 ], [ -71.275267635157263, -52.793540906976972 ], [ -71.275799624655065, -52.793747996542393 ], [ -71.276166808332476, -52.794045165413053 ], [ -71.276451650634357, -52.794387298147527 ], [ -71.277074043887382, -52.794454461455075 ], [ -71.277638460770291, -52.794281794629839 ], [ -71.278054381645148, -52.794009221642547 ], [ -71.278676895272412, -52.794076374669963 ], [ -71.279365435971386, -52.794288396585301 ], [ -71.279897457808531, -52.794495541256602 ], [ -71.280260592778959, -52.794840064265401 ], [ -71.28061966107613, -52.79523217530177 ], [ -71.281069353215784, -52.79548428241138 ], [ -71.281679661433301, -52.795693817873243 ], [ -71.282298126353581, -52.795808393301094 ], [ -71.282924500939941, -52.795828012161209 ], [ -71.283637538696709, -52.795755211202987 ], [ -71.284338230906542, -52.795824807442024 ], [ -71.284952629153537, -52.795986810047232 ], [ -71.285573141334353, -52.796077610719202 ], [ -71.286199646176442, -52.796097283774827 ], [ -71.286822201126213, -52.796164393384203 ], [ -71.287440562740244, -52.796278944216319 ], [ -71.2879684541237, -52.796533496014554 ], [ -71.288414135285606, -52.796833090619643 ], [ -71.288946221801439, -52.797040046646472 ], [ -71.289572863187431, -52.797059699169957 ], [ -71.290207395374892, -52.796984396856821 ], [ -71.290771790698244, -52.796811668377089 ], [ -71.291402493367642, -52.796783796633228 ], [ -71.292016812562878, -52.796945838033089 ], [ -71.292631253929031, -52.797107800071494 ], [ -71.293163367394328, -52.797314810736097 ], [ -71.29368724241013, -52.797616851740393 ], [ -71.294054697378783, -52.797913887180272 ], [ -71.294257248610734, -52.798301029002943 ], [ -71.294459925606802, -52.798688167922705 ], [ -71.294823335461743, -52.799032715838699 ], [ -71.295351301405375, -52.799287234140458 ], [ -71.29587939131649, -52.79954167328566 ], [ -71.296325153326777, -52.799841164072305 ], [ -71.2968573215893, -52.800048230703503 ], [ -71.297475764950022, -52.800162727314238 ], [ -71.298094336769822, -52.800277292599453 ], [ -71.298712907691325, -52.80039178100354 ], [ -71.299335296452782, -52.800458828589051 ], [ -71.30002821284549, -52.800623210148274 ], [ -71.300560404464207, -52.800830186158322 ], [ -71.301010024738645, -52.801082220088027 ], [ -71.301542229832094, -52.801289265060184 ], [ -71.302070385320221, -52.801543750604381 ], [ -71.302676815510665, -52.801800543369616 ], [ -71.303291367369567, -52.801962522631129 ], [ -71.303737209329924, -52.802262057573039 ], [ -71.304104655315413, -52.802559136234137 ], [ -71.304632713785495, -52.802813538315164 ], [ -71.305082623317475, -52.80306555151796 ], [ -71.305697202125842, -52.803227519007528 ], [ -71.306315711961886, -52.803341968689303 ], [ -71.306938397167372, -52.803408970995598 ], [ -71.307565135571437, -52.803428528861097 ], [ -71.30819162783709, -52.803448012859228 ], [ -71.308818367139466, -52.803467563647132 ], [ -71.30944510195026, -52.803487036766263 ], [ -71.310075643821236, -52.803459070460114 ], [ -71.310862991116622, -52.803435999981858 ], [ -71.311571934352315, -52.803410475321755 ], [ -71.312206760288888, -52.803335049320637 ], [ -71.312265715822662, -52.803328036541266 ], [ -71.312333404777632, -52.80178633157518 ], [ -71.32134634036376, -52.80561439522311 ], [ -71.321454559507728, -52.80575472902283 ], [ -71.32166701736061, -52.805750570898304 ], [ -71.329530421996793, -52.80559640938656 ], [ -71.334093242904274, -52.805506716319805 ], [ -71.336901909183382, -52.5837498945722 ], [ -71.338139622354902, -52.546382481517412 ], [ -71.339335158725504, -52.534742846407418 ], [ -71.3830463135765, -52.532266259755588 ], [ -71.439654744454998, -52.531326600514539 ], [ -71.439688125850964, -52.526937035022122 ], [ -71.441222058487398, -52.440226784686018 ], [ -71.635662332564777, -52.437642404358535 ], [ -71.634909142809747, -52.363430688965906 ], [ -71.635379200655223, -52.323626819421179 ], [ -71.635960004605536, -52.233356463750596 ], [ -71.635808927737671, -52.143658827778033 ], [ -71.635612112248822, -52.056479327349443 ], [ -71.662865495985869, -52.057467035071518 ], [ -71.667039349070251, -52.057498497345598 ], [ -71.673616124572746, -52.057403380804352 ], [ -71.67852993971961, -52.057489464806856 ], [ -71.682589047399475, -52.056776604329578 ], [ -71.685350881807892, -52.055733371026527 ], [ -71.689120067212983, -52.05376782171053 ], [ -71.690119239049011, -52.052566824049009 ], [ -71.691935054038439, -52.050726750710993 ], [ -71.692934465724647, -52.049579723695103 ], [ -71.693926176153909, -52.048091093457295 ], [ -71.694152641437029, -52.00783625643534 ], [ -71.694011122643801, -52.000128526111396 ], [ -71.499999942336601, -51.999999969596693 ], [ -71.000000024053065, -51.999999914290896 ], [ -70.876413047487134, -52.00019746842559 ], [ -70.874018849507067, -52.075588657408161 ] ], [ [ -71.124066508741265, -52.726328699731454 ], [ -71.123627971880808, -52.726601800536272 ], [ -71.123189307459569, -52.726874900718769 ], [ -71.122921470266022, -52.727225523396072 ], [ -71.12242709143257, -52.727460875158329 ], [ -71.121873648369174, -52.727694261726697 ], [ -71.121372910361814, -52.728001244765601 ], [ -71.120934339365377, -52.728274335639298 ], [ -71.120495640808187, -52.728547426978658 ], [ -71.119948650343474, -52.728709241030714 ], [ -71.119454116999776, -52.728944582608641 ], [ -71.11959929912274, -52.729308657616997 ], [ -71.120202249239753, -52.729184662828516 ], [ -71.12085467317273, -52.729170119407542 ], [ -71.121556451445727, -52.729264955111127 ], [ -71.121822890860685, -52.729597099041058 ], [ -71.122338154626192, -52.729793603163209 ], [ -71.122832682579983, -52.729558323287876 ], [ -71.122808705646747, -52.729162250921917 ], [ -71.122961670773321, -52.728771994774561 ], [ -71.123285465822534, -52.728459188600318 ], [ -71.123609134209289, -52.728146308915697 ], [ -71.123991865029353, -52.727835538877144 ], [ -71.124433640316411, -52.727526507504585 ], [ -71.124701595189251, -52.727176026519039 ], [ -71.125084300856471, -52.726865104852202 ], [ -71.125634483933709, -52.726667485314941 ], [ -71.126237382846753, -52.726543534155098 ], [ -71.126840270979997, -52.726419431944102 ], [ -71.127446269979103, -52.726259621258379 ], [ -71.128098647199693, -52.726245038234836 ], [ -71.128613896592142, -52.726441515573029 ], [ -71.128880371939701, -52.726773643472384 ], [ -71.128671512737839, -52.727126092185486 ], [ -71.128403719561746, -52.727476726443648 ], [ -71.128194857664937, -52.727829248357068 ], [ -71.127808933334023, -52.728175961669599 ], [ -71.127153420094785, -52.728226396928143 ], [ -71.12649790326229, -52.728276828320283 ], [ -71.125835928441219, -52.728398968425367 ], [ -71.125341548709443, -52.728634258364849 ], [ -71.125132652676641, -52.728986701287106 ], [ -71.124694099646533, -52.729259879557432 ], [ -71.124199709134956, -52.72949523883532 ], [ -71.12370531233519, -52.729730595754766 ], [ -71.123158068545578, -52.729892281384849 ], [ -71.122775322454146, -52.730203197242091 ], [ -71.122566406658422, -52.730555783606675 ], [ -71.1222394728956, -52.730904368844158 ], [ -71.121636624288215, -52.731028298360094 ], [ -71.121127700831991, -52.730760155958684 ], [ -71.120677843402305, -52.7304939011794 ], [ -71.120041334022915, -52.730329242697444 ], [ -71.119463897856591, -52.730166618669003 ], [ -71.11888310827932, -52.730039849231616 ], [ -71.118237143233245, -52.729982669993824 ], [ -71.117591060507863, -52.729925563576437 ], [ -71.11701052245887, -52.729798780926217 ], [ -71.116498395610321, -52.72956632607 ], [ -71.116110879464756, -52.72926616388709 ], [ -71.115605127061485, -52.728962143713765 ], [ -71.115279677315513, -52.728628019097094 ], [ -71.115078834679238, -52.728226187481773 ], [ -71.114874511969546, -52.727860143326801 ], [ -71.114729370270794, -52.727495988220191 ], [ -71.11452529998769, -52.727130012467448 ], [ -71.114619394920439, -52.726737798101624 ], [ -71.114772545099967, -52.726347550720838 ], [ -71.114919212138091, -52.726028940702655 ], [ -71.114836255416549, -52.725630972364982 ], [ -71.114871411883499, -52.725236862633672 ], [ -71.114906442586317, -52.724842681877277 ], [ -71.115059462510132, -52.724452436034582 ], [ -71.115156793174535, -52.724024513204569 ], [ -71.115250874632565, -52.723632298109941 ], [ -71.115462943514956, -52.723244018617855 ], [ -71.115498088303809, -52.722849835082314 ], [ -71.115474065556484, -52.722453835624954 ], [ -71.11545016048845, -52.722057760207448 ], [ -71.11530503855262, -52.721693679066419 ], [ -71.115222088119282, -52.721295710884441 ], [ -71.115198187542845, -52.720899634743169 ], [ -71.115351192195277, -52.720509388438913 ], [ -71.115560121465748, -52.720156814423376 ], [ -71.115769054329476, -52.71980438773528 ], [ -71.115925290222009, -52.719378285108213 ], [ -71.116252185357268, -52.719029643092234 ], [ -71.116858243645169, -52.718869884768594 ], [ -71.117513630221936, -52.71881950779315 ], [ -71.118094144914735, -52.71894628754233 ], [ -71.118609272136325, -52.719142956106872 ], [ -71.119124394866333, -52.719339475781958 ], [ -71.11957101386939, -52.719641591686532 ], [ -71.120079675915875, -52.719909745331563 ], [ -71.120342810428895, -52.720277749203781 ], [ -71.120602954450348, -52.720681530703281 ], [ -71.12130136044776, -52.720812152435442 ], [ -71.121751123554333, -52.721078479938463 ], [ -71.122201009730091, -52.721344729640848 ], [ -71.122716174680903, -52.721541233410541 ], [ -71.123290279894135, -52.721739772307664 ], [ -71.123805456523058, -52.721936270488818 ], [ -71.124130916150492, -52.722270298389354 ], [ -71.124456384761089, -52.722604398815548 ], [ -71.124719694445588, -52.722972390289222 ], [ -71.124923950679943, -52.723338347072399 ], [ -71.125069036683172, -52.723702417748157 ], [ -71.125270193729804, -52.724104299756917 ], [ -71.125415407293787, -52.724468367302705 ], [ -71.125557513585207, -52.724868288539149 ], [ -71.125817614487531, -52.725272059638463 ], [ -71.12566456581763, -52.725662320452535 ], [ -71.125225923854288, -52.725935428695067 ], [ -71.124623155196943, -52.726059446324683 ], [ -71.124066508741265, -52.726328699731454 ] ] ] } },
{ "type": "Feature", "properties": { "capa": "colegios", "popup": "<strong>ESCUELA DIEGO PORTALES</strong><br><br><strong>Dirección:</strong> ANTONIO LATORRE 100", "etiqueta": "" }, "geometry": { "type": "Point", "coordinates": [ -71.415176, -52.427261 ] } },
{ "type": "Feature", "properties": { "capa": "comisarias", "popup": "<strong>RETEN MORRO CHICO (F)</strong><br><br><strong>Dirección:</strong> RUTA 9 NORTE KM 146", "etiqueta": "" }, "geometry": { "type": "Point", "coordinates": [ -71.428602251341417, -52.055333305213139 ] } },
{ "type": "Feature", "properties": { "capa": "comisarias", "popup": "<strong>RETEN VILLA TEHUELCHES</strong><br><br><strong>Dirección:</strong> RUTA 9 NORTE KM 100", "etiqueta": "" }, "geometry": { "type": "Point", "coordinates": [ -71.415750068466011, -52.427821469468753 ] } },
{ "type": "Feature", "properties": { "capa": "salud", "popup": "<strong>Posta de Atención Primaria Fernando Ampuero Cheuquel</strong><br><br><strong>Tipo de atención:</strong> Posta de Salud Rural (PSR)<br><strong>Dirección:</strong>  NA", "etiqueta": "" }, "geometry": { "type": "Point", "coordinates": [ -71.41302, -52.42827 ] } },
{ "type": "Feature", "properties": { "capa": "municipios", "popup": "<strong>Municipalidad de Laguna Blanca</strong><br><br><strong>Dirección:</strong> Km. 100, Ruta 9 Norte, V. Tehuelches<br><strong>Región:</strong> Magallanes y de la Antártica Chilena", "etiqueta": "" }, "geometry": { "type": "Point", "coordinates": [ -71.339, -52.455532000999952 ] } }
]
}
