{
"type": "FeatureCollection",
"name": "13101",
"crs": { "type": "name", "properties": { "name": "urn:ogc:def:crs:OGC:1.3:CRS84" } },
"features": [
{ "type": "Feature", "properties": { "capa": "comuna", "popup": "", "etiqueta": "" }, "geometry": { "type": "Polygon", "coordinates": [ [ [ -70.651752161762801, -33.432116198124689 ], [ -70.645495371554389, -33.433599627587448 ], [ -70.640599212794442, -33.434802540076291 ], [ -70.635364302934121, -33.435924306197315 ], [ -70.63535444751713, -33.436217014883788 ], [ -70.635375866946774, -33.436385326260627 ], [ -70.635380803189264, -33.436424116498543 ], [ -70.635288299172885, -33.436885299576424 ], [ -70.634764699939851, -33.438885400162121 ], [ -70.634578439655584, -33.439573100320061 ], [ -70.632851455471311, -33.445412625522188 ], [ -70.631447381495718, -33.450100457588228 ], [ -70.631453103764088, -33.450101496428353 ], [ -70.630898267413684, -33.451933668750208 ], [ -70.629841792944006, -33.455426465619453 ], [ -70.629599814654256, -33.456295345953777 ], [ -70.628553214466166, -33.459925488548883 ], [ -70.627772667417489, -33.462614176871448 ], [ -70.627127115596437, -33.464850138561751 ], [ -70.626410722632073, -33.467391254329918 ], [ -70.626071072318098, -33.46857952623634 ], [ -70.626053227284984, -33.468832274411149 ], [ -70.625762349202716, -33.469205847039312 ], [ -70.625149350530947, -33.469602114534226 ], [ -70.624578830493988, -33.469956707249494 ], [ -70.624868184135224, -33.470322409113663 ], [ -70.624865203525104, -33.470324986874502 ], [ -70.625522911348583, -33.470859214166914 ], [ -70.626196946950657, -33.471342174314032 ], [ -70.627146035014633, -33.471886974456034 ], [ -70.627890739283487, -33.472318180783347 ], [ -70.62790693860299, -33.472357999518756 ], [ -70.630003830156653, -33.473140776136638 ], [ -70.631697176925087, -33.473733824163681 ], [ -70.631909349113727, -33.473808150641247 ], [ -70.632031319668059, -33.473749806399887 ], [ -70.632341934635434, -33.473858942462336 ], [ -70.633874728208085, -33.474388348612891 ], [ -70.634628255729666, -33.474660364131203 ], [ -70.637430183745835, -33.475849421291493 ], [ -70.640615374384723, -33.476725216711017 ], [ -70.641830847964727, -33.476872978057358 ], [ -70.642113730142654, -33.476895603689194 ], [ -70.6428886501444, -33.476957362582631 ], [ -70.648287092912298, -33.476951200407321 ], [ -70.648470501045537, -33.476948760713285 ], [ -70.648678146623467, -33.476945998074378 ], [ -70.649382167091431, -33.476936628928989 ], [ -70.650986222218947, -33.476948069116936 ], [ -70.652433216800503, -33.476928780845306 ], [ -70.653879673291215, -33.476876682559137 ], [ -70.655067341318244, -33.476724743157369 ], [ -70.655596757142717, -33.476657092397112 ], [ -70.656416206633097, -33.476547736569053 ], [ -70.657235654326854, -33.476438449538243 ], [ -70.658290424692439, -33.476358736373832 ], [ -70.660321608076316, -33.476200405299039 ], [ -70.66106340988847, -33.476124935195514 ], [ -70.661689068517546, -33.476116546793726 ], [ -70.663566933736931, -33.476124151428849 ], [ -70.665132552648387, -33.476168725711858 ], [ -70.665207081375954, -33.476170605701881 ], [ -70.667676548295347, -33.476232771231601 ], [ -70.668301037317931, -33.476158836469168 ], [ -70.668887650673184, -33.476150937362689 ], [ -70.669514024361249, -33.476175300806297 ], [ -70.669944830320375, -33.476202223096621 ], [ -70.670571204008411, -33.476226581280713 ], [ -70.67119829455207, -33.476283654544325 ], [ -70.671588547864317, -33.476359885045937 ], [ -70.671728248467417, -33.476387174434279 ], [ -70.671682108299464, -33.478470113910582 ], [ -70.671688079401164, -33.478469765496037 ], [ -70.680932061678376, -33.478464088960862 ], [ -70.680755391808077, -33.476479229974714 ], [ -70.679522295977137, -33.47651748976191 ], [ -70.677364478884286, -33.476589800496278 ], [ -70.676260700928381, -33.476669361341358 ], [ -70.675257225263834, -33.476618307415997 ], [ -70.674278619457951, -33.476523828052521 ], [ -70.673608808632636, -33.476446710528506 ], [ -70.672016760387208, -33.476532827090658 ], [ -70.671982682796923, -33.47582886945299 ], [ -70.672611842160649, -33.475463218551155 ], [ -70.672777184275219, -33.475176930504539 ], [ -70.672904374939662, -33.47378189599975 ], [ -70.672900937985389, -33.472708806590319 ], [ -70.672939428100364, -33.470634119043268 ], [ -70.674094101007015, -33.470633818555406 ], [ -70.676783862681873, -33.470663278354877 ], [ -70.679127079472934, -33.470732392770643 ], [ -70.680074079852176, -33.470714834103902 ], [ -70.679691791003236, -33.470081451830126 ], [ -70.679635835842504, -33.470069161720566 ], [ -70.679048053779084, -33.469436924990454 ], [ -70.679082626341099, -33.469067737114109 ], [ -70.678744565146857, -33.463737225290416 ], [ -70.678350114007287, -33.458226471991274 ], [ -70.678242637770055, -33.456747285897329 ], [ -70.67815801467367, -33.455548299157918 ], [ -70.678092461014131, -33.45459321909803 ], [ -70.678010826612677, -33.453494147732393 ], [ -70.677940553204635, -33.452412874399236 ], [ -70.677830569769455, -33.450944431639208 ], [ -70.67793281242183, -33.450492102431689 ], [ -70.679016192332583, -33.450729945203562 ], [ -70.679152167622192, -33.449004751651799 ], [ -70.679088761834493, -33.448368220840479 ], [ -70.679453572162942, -33.446016500246955 ], [ -70.679562712080084, -33.443934052138388 ], [ -70.681926787752047, -33.444007184606235 ], [ -70.684973749228249, -33.444151464481571 ], [ -70.689638023168968, -33.444372719342809 ], [ -70.691847982074165, -33.444489546275271 ], [ -70.691647352338606, -33.441927843305237 ], [ -70.691563772186257, -33.439719546456914 ], [ -70.691551348485888, -33.439503367368623 ], [ -70.691334814976528, -33.439482516062093 ], [ -70.691050868294994, -33.43918539414468 ], [ -70.68948614859714, -33.439080470018865 ], [ -70.688457571308618, -33.439013364838218 ], [ -70.686562862677675, -33.4388768462386 ], [ -70.685446882006943, -33.438802177219564 ], [ -70.685492411320496, -33.438056850066779 ], [ -70.684922491358151, -33.437918182274629 ], [ -70.684918307903871, -33.437702641131942 ], [ -70.683734818839554, -33.437675500736198 ], [ -70.683818556197068, -33.436682637680008 ], [ -70.681339656068857, -33.436155697742116 ], [ -70.681004657231426, -33.437453902704405 ], [ -70.681843298329539, -33.437512721902316 ], [ -70.68181222650216, -33.438558918694525 ], [ -70.681219293498884, -33.438519224614794 ], [ -70.68038168636167, -33.438465385854478 ], [ -70.680381948669734, -33.438463163967576 ], [ -70.680177891861362, -33.438449500561475 ], [ -70.680071474737872, -33.438450942839133 ], [ -70.680184215102656, -33.437139104923816 ], [ -70.680437411553697, -33.434245833936117 ], [ -70.680581515698307, -33.432762506229764 ], [ -70.680594838612279, -33.431671159618396 ], [ -70.680680272887372, -33.4303532876269 ], [ -70.680717769465659, -33.42981657816209 ], [ -70.68059412355332, -33.429019788995362 ], [ -70.680368667078255, -33.4285358456521 ], [ -70.680145995380585, -33.428196219512039 ], [ -70.679875829753811, -33.427911241830081 ], [ -70.679344675689251, -33.427460545371481 ], [ -70.67925518372401, -33.427384367838648 ], [ -70.679018785768804, -33.427294366885398 ], [ -70.678166069866819, -33.426855931971517 ], [ -70.677705504518968, -33.426849455849094 ], [ -70.677059172061931, -33.426795034059779 ], [ -70.67665653816843, -33.426827591622512 ], [ -70.675472790389321, -33.427123143199161 ], [ -70.673636755221139, -33.427743092450974 ], [ -70.672001585147115, -33.428262955202428 ], [ -70.671989158751785, -33.428151708281156 ], [ -70.671825642013872, -33.428308675661981 ], [ -70.671533971617549, -33.426861883286179 ], [ -70.671514564414153, -33.426868680289822 ], [ -70.671386670368818, -33.426515008227476 ], [ -70.66799842633975, -33.427760686059514 ], [ -70.661276657360517, -33.429937259400226 ], [ -70.65641137639183, -33.431089562489582 ], [ -70.653018483581164, -33.43185776529603 ], [ -70.651752161762801, -33.432116198124689 ] ] ] } },
{ "type": "Feature", "properties": { "capa": "colegios", "popup": "<strong>INSTITUTO HERMANOS MATTE</strong><br><br><strong>Dirección:</strong> NATANIEL COX 2263", "etiqueta": "" }, "geometry": { "type": "Point", "coordinates": [ -70.64954647, -33.47534806 ] } },
{ "type": "Feature", "properties": { "capa": "colegios", "popup": "<strong>ESCUELA BASICA REPUBLICA DE HAITI</strong><br><br><strong>Dirección:</strong> WALDO SILVA 2210", "etiqueta": "" }, "geometry": { "type": "Point", "coordinates": [ -70.65160842, -33.47471332 ] } },
{ "type": "Feature", "properties": { "capa": "colegios", "popup": "<strong>ESCUELA  ESPEC. VIRGEN DE LAS PENAS</strong><br><br><strong>Dirección:</strong> BASCUNAN GUERRERO 2078", "etiqueta": "" }, "geometry": { "type": "Point", "coordinates": [ -70.67109, -33.473824 ] } },
{ "type": "Feature", "properties": { "capa": "colegios", "popup": "<strong>ESCUELA ESP. MI ESPACIO</strong><br><br><strong>Dirección:</strong> BASCUNAN GUERRERO 2042", "etiqueta": "" }, "geometry": { "type": "Point", "coordinates": [ -70.67149, -33.473682 ] } },
{ "type": "Feature", "properties": { "capa": "colegios", "popup": "<strong>LICEO DE ADULTOS HERBERT VARGAS WALLIS</strong><br><br><strong>Dirección:</strong> PEDRO MONTT 1902", "etiqueta": "" }, "geometry": { "type": "Point", "coordinates": [ -70.65968, -33.473263 ] } },
{ "type": "Feature", "properties": { "capa": "colegios", "popup": "<strong>ESCUELA DE PARV. Y ESPECIAL PELUSITA</strong><br><br><strong>Dirección:</strong> CALLE EDUARDO MATTE 2042", "etiqueta": "" }, "geometry": { "type": "Point", "coordinates": [ -70.63798, -33.47228 ] } },
{ "type": "Feature", "properties": { "capa": "colegios", "popup": "<strong>LICEO REPUBLICA DE BRASIL</strong><br><br><strong>Dirección:</strong> LUIS COUSIÑO 1984", "etiqueta": "" }, "geometry": { "type": "Point", "coordinates": [ -70.65926219, -33.47205853 ] } },
{ "type": "Feature", "properties": { "capa": "colegios", "popup": "<strong>ESCUELA BASICA PROVINCIA DE CHILOE</strong><br><br><strong>Dirección:</strong> RONDIZZONI 2738", "etiqueta": "" }, "geometry": { "type": "Point", "coordinates": [ -70.67136899, -33.47074552 ] } },
{ "type": "Feature", "properties": { "capa": "colegios", "popup": "<strong>LICEO BICENTENARIO TERESA PRATS</strong><br><br><strong>Dirección:</strong> GENERAL GANA 959", "etiqueta": "" }, "geometry": { "type": "Point", "coordinates": [ -70.645814359999989, -33.47070985 ] } },
{ "type": "Feature", "properties": { "capa": "colegios", "popup": "<strong>LICEO BICENTENARIO ITALIA</strong><br><br><strong>Dirección:</strong> NATANIEL COX 1851", "etiqueta": "" }, "geometry": { "type": "Point", "coordinates": [ -70.64999, -33.470562 ] } },
{ "type": "Feature", "properties": { "capa": "colegios", "popup": "<strong>ESCUELA DIFERENCIAL JUAN SANDOVAL C</strong><br><br><strong>Dirección:</strong> LORD COCHRANE 1819", "etiqueta": "" }, "geometry": { "type": "Point", "coordinates": [ -70.65161, -33.47032 ] } },
{ "type": "Feature", "properties": { "capa": "colegios", "popup": "<strong>LICEO MUNICIPAL METROPOLITANO DE ADULTOS</strong><br><br><strong>Dirección:</strong> VICTORIA 456", "etiqueta": "" }, "geometry": { "type": "Point", "coordinates": [ -70.64488, -33.469337 ] } },
{ "type": "Feature", "properties": { "capa": "colegios", "popup": "<strong>LICEO INDUSTRIAL DE LA CONSTRUCCION VICTOR BEZANILLA SALINAS</strong><br><br><strong>Dirección:</strong> SAN ALFONSO 1605", "etiqueta": "" }, "geometry": { "type": "Point", "coordinates": [ -70.67316809, -33.46887733 ] } },
{ "type": "Feature", "properties": { "capa": "colegios", "popup": "<strong>ESCUELA PARVULOS INST. SWEET N1</strong><br><br><strong>Dirección:</strong> SARGENTO ALDEA 1057", "etiqueta": "" }, "geometry": { "type": "Point", "coordinates": [ -70.64721, -33.468243 ] } },
{ "type": "Feature", "properties": { "capa": "colegios", "popup": "<strong>ESCUELA DE PARV. PARQUE O'HIGGINS</strong><br><br><strong>Dirección:</strong> INTERIOR PARQUE O'HIGGINS 0", "etiqueta": "" }, "geometry": { "type": "Point", "coordinates": [ -70.658462, -33.468187 ] } },
{ "type": "Feature", "properties": { "capa": "colegios", "popup": "<strong>ESCUELA BASICA REYES CATOLICOS</strong><br><br><strong>Dirección:</strong> SANTA ELENA 1829", "etiqueta": "" }, "geometry": { "type": "Point", "coordinates": [ -70.62786296, -33.46795786 ] } },
{ "type": "Feature", "properties": { "capa": "colegios", "popup": "<strong>COLEGIO SANTA ISABEL</strong><br><br><strong>Dirección:</strong> SANTIAGO CONCHA 1775", "etiqueta": "" }, "geometry": { "type": "Point", "coordinates": [ -70.63800235, -33.467833090000013 ] } },
{ "type": "Feature", "properties": { "capa": "colegios", "popup": "<strong>LICEO POLIT. SARA BLINDER DARGOLTZ</strong><br><br><strong>Dirección:</strong> SAN DIEGO 1650", "etiqueta": "" }, "geometry": { "type": "Point", "coordinates": [ -70.64853307, -33.467809339999988 ] } },
{ "type": "Feature", "properties": { "capa": "colegios", "popup": "<strong>ESCUELA BASICA IRENE FREI DE CID</strong><br><br><strong>Dirección:</strong> SAN FRANCISCO 0", "etiqueta": "" }, "geometry": { "type": "Point", "coordinates": [ -70.644024, -33.46779187 ] } },
{ "type": "Feature", "properties": { "capa": "colegios", "popup": "<strong>COLEGIO METODISTA DE SANTIAGO</strong><br><br><strong>Dirección:</strong> ARTURO PRAT 1655", "etiqueta": "" }, "geometry": { "type": "Point", "coordinates": [ -70.64697722, -33.46779045000001 ] } },
{ "type": "Feature", "properties": { "capa": "colegios", "popup": "<strong>ESCUELA DE PARVULOS N°1980  SAN ANTONIO MARIA ZACCARIA II</strong><br><br><strong>Dirección:</strong> CALLE LORD COCHRANE 1589", "etiqueta": "" }, "geometry": { "type": "Point", "coordinates": [ -70.65258, -33.46755 ] } },
{ "type": "Feature", "properties": { "capa": "colegios", "popup": "<strong>LICEO MANUEL BARROS BORGONO</strong><br><br><strong>Dirección:</strong> SAN DIEGO 1547", "etiqueta": "" }, "geometry": { "type": "Point", "coordinates": [ -70.64888825, -33.46696349 ] } },
{ "type": "Feature", "properties": { "capa": "colegios", "popup": "<strong>ESCUELA MARIA TERESA SCHOOL NUM 2</strong><br><br><strong>Dirección:</strong> BASCUÑAN GUERRERO 1351", "etiqueta": "" }, "geometry": { "type": "Point", "coordinates": [ -70.67239811, -33.4666496 ] } },
{ "type": "Feature", "properties": { "capa": "colegios", "popup": "<strong>ESCUELA BÁSICA F Nº 64</strong><br><br><strong>Dirección:</strong> LORD COCHRANE 1487", "etiqueta": "" }, "geometry": { "type": "Point", "coordinates": [ -70.65276247, -33.46615535 ] } },
{ "type": "Feature", "properties": { "capa": "colegios", "popup": "<strong>ESCUELA BASICA N°43 PATRONATO SAN ANTONIO</strong><br><br><strong>Dirección:</strong> PEDRO LAGOS 536", "etiqueta": "" }, "geometry": { "type": "Point", "coordinates": [ -70.63813021, -33.46477961 ] } },
{ "type": "Feature", "properties": { "capa": "colegios", "popup": "<strong>ESCUELA PARTICULAR SAINT HENRY SCHOOL</strong><br><br><strong>Dirección:</strong> SAN VICENTE 1224", "etiqueta": "" }, "geometry": { "type": "Point", "coordinates": [ -70.67587226, -33.46470679 ] } },
{ "type": "Feature", "properties": { "capa": "colegios", "popup": "<strong>COLEGIO SANTA CRUZ</strong><br><br><strong>Dirección:</strong> NATANIEL COX 1379", "etiqueta": "" }, "geometry": { "type": "Point", "coordinates": [ -70.65124299, -33.46341747000001 ] } },
{ "type": "Feature", "properties": { "capa": "colegios", "popup": "<strong>ESCUELA BASICA N°2047 MIRASOL DE SANTIAGO</strong><br><br><strong>Dirección:</strong> CLUB HIPICO 1298", "etiqueta": "" }, "geometry": { "type": "Point", "coordinates": [ -70.66482, -33.463335 ] } },
{ "type": "Feature", "properties": { "capa": "colegios", "popup": "<strong>ESCUELA PARTICULAR GUILLERMO MATTA</strong><br><br><strong>Dirección:</strong> SANTA ROSA 1247", "etiqueta": "" }, "geometry": { "type": "Point", "coordinates": [ -70.64299255, -33.46163014 ] } },
{ "type": "Feature", "properties": { "capa": "colegios", "popup": "<strong>COLEGIO HOSPITAL SAN BORJA ARRIARAN</strong><br><br><strong>Dirección:</strong> AVENIDA SANTA ROSA 1234", "etiqueta": "" }, "geometry": { "type": "Point", "coordinates": [ -70.64268193, -33.46096668 ] } },
{ "type": "Feature", "properties": { "capa": "colegios", "popup": "<strong>CIUDAD SANTIAGO DE CHILE</strong><br><br><strong>Dirección:</strong> SANTIAGUILLO 1053", "etiqueta": "" }, "geometry": { "type": "Point", "coordinates": [ -70.64804215, -33.460927090000013 ] } },
{ "type": "Feature", "properties": { "capa": "colegios", "popup": "<strong>LICEO DR HUMBERTO MATURANA ROMESIN</strong><br><br><strong>Dirección:</strong> MARINA DE GAETE 763", "etiqueta": "" }, "geometry": { "type": "Point", "coordinates": [ -70.644922939999987, -33.46010061 ] } },
{ "type": "Feature", "properties": { "capa": "colegios", "popup": "<strong>ESCUELA MANUEL JOSE IRARRAZAVAL</strong><br><br><strong>Dirección:</strong> CONFERENCIA 751", "etiqueta": "" }, "geometry": { "type": "Point", "coordinates": [ -70.67636398, -33.45942826 ] } },
{ "type": "Feature", "properties": { "capa": "colegios", "popup": "<strong>COLEGIO FRANCISCO ARRIARAN</strong><br><br><strong>Dirección:</strong> AVENIDA MANUEL ANTONIO MATTA 1089", "etiqueta": "" }, "geometry": { "type": "Point", "coordinates": [ -70.64887167, -33.45919087 ] } },
{ "type": "Feature", "properties": { "capa": "colegios", "popup": "<strong>ESCUELA PARTICULAR FRANCISCO ANDRES OLEA</strong><br><br><strong>Dirección:</strong> AVENIDA MATTA 919", "etiqueta": "" }, "geometry": { "type": "Point", "coordinates": [ -70.64651169, -33.45872278 ] } },
{ "type": "Feature", "properties": { "capa": "colegios", "popup": "<strong>COLEGIO PARTICULAR MARÍA AUXILIADORA DE SANTIAGO</strong><br><br><strong>Dirección:</strong> AVENIDA MATTA 726", "etiqueta": "" }, "geometry": { "type": "Point", "coordinates": [ -70.64385004, -33.45868711 ] } },
{ "type": "Feature", "properties": { "capa": "colegios", "popup": "<strong>LICEO INDUSTRIAL A-22 DE SANTIAGO</strong><br><br><strong>Dirección:</strong> SIERRA BELLA 1141", "etiqueta": "" }, "geometry": { "type": "Point", "coordinates": [ -70.63688996, -33.45769054 ] } },
{ "type": "Feature", "properties": { "capa": "colegios", "popup": "<strong>ESCUELA MANUEL MONTT</strong><br><br><strong>Dirección:</strong> NATANIEL COX 1481", "etiqueta": "" }, "geometry": { "type": "Point", "coordinates": [ -70.632887969999985, -33.45737233 ] } },
{ "type": "Feature", "properties": { "capa": "colegios", "popup": "<strong>ESCUELA FERNANDO ALESSANDRI RODRIGUEZ</strong><br><br><strong>Dirección:</strong> LORD COCHRANE 850", "etiqueta": "" }, "geometry": { "type": "Point", "coordinates": [ -70.65366284, -33.456772639999983 ] } },
{ "type": "Feature", "properties": { "capa": "colegios", "popup": "<strong>CENTRO EDUC. CASA TALLERES SAN VICENTE DE PAU</strong><br><br><strong>Dirección:</strong> TOESCA 3090", "etiqueta": "" }, "geometry": { "type": "Point", "coordinates": [ -70.6772688, -33.456697639999987 ] } },
{ "type": "Feature", "properties": { "capa": "colegios", "popup": "<strong>ESC. PART. SAN FCO. DE ASIS PARA NINOS SORDOS</strong><br><br><strong>Dirección:</strong> PADRE ORELLANA 1128", "etiqueta": "" }, "geometry": { "type": "Point", "coordinates": [ -70.63247711, -33.456654470000011 ] } },
{ "type": "Feature", "properties": { "capa": "colegios", "popup": "<strong>COLEGIO SAINT ROSE SCHOOL</strong><br><br><strong>Dirección:</strong> AVENIDA MATTA 393", "etiqueta": "" }, "geometry": { "type": "Point", "coordinates": [ -70.63635, -33.45658 ] } },
{ "type": "Feature", "properties": { "capa": "colegios", "popup": "<strong>ESCUELA ESP. PART. RALUI</strong><br><br><strong>Dirección:</strong> CALLE PORVENIR 446", "etiqueta": "" }, "geometry": { "type": "Point", "coordinates": [ -70.638266, -33.456388 ] } },
{ "type": "Feature", "properties": { "capa": "colegios", "popup": "<strong>LICEO JOSÉ DE SAN MARTIN</strong><br><br><strong>Dirección:</strong> ROBERTO ESPINOZA 801", "etiqueta": "" }, "geometry": { "type": "Point", "coordinates": [ -70.65322898, -33.45613414000001 ] } },
{ "type": "Feature", "properties": { "capa": "colegios", "popup": "<strong>CENTRO EDUCACIONAL INTEGRAL DE ADULT ACUARIO</strong><br><br><strong>Dirección:</strong> DOMEYKO 1938", "etiqueta": "" }, "geometry": { "type": "Point", "coordinates": [ -70.66192, -33.45581 ] } },
{ "type": "Feature", "properties": { "capa": "colegios", "popup": "<strong>COLEGIO HISPANO AMERICANO</strong><br><br><strong>Dirección:</strong> CARMEN 960", "etiqueta": "" }, "geometry": { "type": "Point", "coordinates": [ -70.63982, -33.455747 ] } },
{ "type": "Feature", "properties": { "capa": "colegios", "popup": "<strong>ESCUELA REPUBLICA EL LIBANO</strong><br><br><strong>Dirección:</strong> LUIS COUSIÑO 1980", "etiqueta": "" }, "geometry": { "type": "Point", "coordinates": [ -70.65809855, -33.455707180000012 ] } },
{ "type": "Feature", "properties": { "capa": "colegios", "popup": "<strong>ESC.PARVULOS PARTICULAR  LOS ANGELITOS</strong><br><br><strong>Dirección:</strong> CALLE PORVENIR 579", "etiqueta": "" }, "geometry": { "type": "Point", "coordinates": [ -70.64301, -33.4557 ] } },
{ "type": "Feature", "properties": { "capa": "colegios", "popup": "<strong>LICEO DARIO SALAS</strong><br><br><strong>Dirección:</strong> AVENIDA ESPAÑA 585", "etiqueta": "" }, "geometry": { "type": "Point", "coordinates": [ -70.66915552, -33.455643 ] } },
{ "type": "Feature", "properties": { "capa": "colegios", "popup": "<strong>LICEO COMERCIAL JOAQUIN VERA MORALES</strong><br><br><strong>Dirección:</strong> AVENIDA ESPAÑA 554", "etiqueta": "" }, "geometry": { "type": "Point", "coordinates": [ -70.66865263, -33.45549342 ] } },
{ "type": "Feature", "properties": { "capa": "colegios", "popup": "<strong>COLEGIO ORATORIO DON BOSCO</strong><br><br><strong>Dirección:</strong> SAN ISIDRO 886", "etiqueta": "" }, "geometry": { "type": "Point", "coordinates": [ -70.641554559999989, -33.455036200000016 ] } },
{ "type": "Feature", "properties": { "capa": "colegios", "popup": "<strong>ESCUELA PARTICULAR SAN LAZARO</strong><br><br><strong>Dirección:</strong> VERGARA 601", "etiqueta": "" }, "geometry": { "type": "Point", "coordinates": [ -70.66141001, -33.45481469 ] } },
{ "type": "Feature", "properties": { "capa": "colegios", "popup": "<strong>COLEGIO ADVENTISTA PORVENIR</strong><br><br><strong>Dirección:</strong> PORVENIR 56", "etiqueta": "" }, "geometry": { "type": "Point", "coordinates": [ -70.63096436, -33.454765259999981 ] } },
{ "type": "Feature", "properties": { "capa": "colegios", "popup": "<strong>ESC. CENTRO DE CAPACITACION LABORAL SANTIAGO</strong><br><br><strong>Dirección:</strong> CLAUDIO GAY 1898", "etiqueta": "" }, "geometry": { "type": "Point", "coordinates": [ -70.66036, -33.45429 ] } },
{ "type": "Feature", "properties": { "capa": "colegios", "popup": "<strong>ESCUELA BASICA REPUBLICA DE COLOMBIA</strong><br><br><strong>Dirección:</strong> BASCUÑAN GUERRERO 302", "etiqueta": "" }, "geometry": { "type": "Point", "coordinates": [ -70.67438866, -33.45423061 ] } },
{ "type": "Feature", "properties": { "capa": "colegios", "popup": "<strong>COLEGIO SANTA MARIA DE SANTIAGO</strong><br><br><strong>Dirección:</strong> SANTA ROSA 629", "etiqueta": "" }, "geometry": { "type": "Point", "coordinates": [ -70.644255339999987, -33.45235006 ] } },
{ "type": "Feature", "properties": { "capa": "colegios", "popup": "<strong>COLEGIO EXCELSIOR</strong><br><br><strong>Dirección:</strong> AVENIDA ESPAÑA 226", "etiqueta": "" }, "geometry": { "type": "Point", "coordinates": [ -70.66946583, -33.451916060000016 ] } },
{ "type": "Feature", "properties": { "capa": "colegios", "popup": "<strong>ESCUELA COLEGIO POLIVALENTE STA FAMILIA</strong><br><br><strong>Dirección:</strong> UNION LATINO AMERICANA 151", "etiqueta": "" }, "geometry": { "type": "Point", "coordinates": [ -70.67389538, -33.45190577 ] } },
{ "type": "Feature", "properties": { "capa": "colegios", "popup": "<strong>COLEGIO FILIPENSE</strong><br><br><strong>Dirección:</strong> VERGARA 357", "etiqueta": "" }, "geometry": { "type": "Point", "coordinates": [ -70.661864609999981, -33.45174348 ] } },
{ "type": "Feature", "properties": { "capa": "colegios", "popup": "<strong>COLEGIO CTRO. INTEG  ADULTOS ALTAZOL</strong><br><br><strong>Dirección:</strong> GORBEA 1777", "etiqueta": "" }, "geometry": { "type": "Point", "coordinates": [ -70.65933, -33.451523 ] } },
{ "type": "Feature", "properties": { "capa": "colegios", "popup": "<strong>LICEO CONFEDERACION SUIZA</strong><br><br><strong>Dirección:</strong> GENERAL URRIOLA 680", "etiqueta": "" }, "geometry": { "type": "Point", "coordinates": [ -70.63777581, -33.451304 ] } },
{ "type": "Feature", "properties": { "capa": "colegios", "popup": "<strong>COLEGIO SAN FRANCISCO DE ASIS DE BELEN</strong><br><br><strong>Dirección:</strong> AVENIDA VICUÑA MACKENNA 695", "etiqueta": "" }, "geometry": { "type": "Point", "coordinates": [ -70.63148132, -33.45095265 ] } },
{ "type": "Feature", "properties": { "capa": "colegios", "popup": "<strong>COLEGIO DE ADULTOS ALTAZOL DE SANTIAGO</strong><br><br><strong>Dirección:</strong> ABDÓN CIFUENTES 250", "etiqueta": "" }, "geometry": { "type": "Point", "coordinates": [ -70.665430499999985, -33.4508718 ] } },
{ "type": "Feature", "properties": { "capa": "colegios", "popup": "<strong>LICEO POLITEC. PDTE. GABRIEL GONZALEZ VIDELA</strong><br><br><strong>Dirección:</strong> ARGOMEDO 360", "etiqueta": "" }, "geometry": { "type": "Point", "coordinates": [ -70.637322449999985, -33.45007738000001 ] } },
{ "type": "Feature", "properties": { "capa": "colegios", "popup": "<strong>ESC. BAS. REPUBLICA ORIENTAL DE URUGUAY</strong><br><br><strong>Dirección:</strong> M. A. TOCORNAL 533", "etiqueta": "" }, "geometry": { "type": "Point", "coordinates": [ -70.64029999, -33.44986649 ] } },
{ "type": "Feature", "properties": { "capa": "colegios", "popup": "<strong>ESCUELA BASICA BENJAMIN VICUNA MACKENNA</strong><br><br><strong>Dirección:</strong> VICUÑA MACKENNA 635", "etiqueta": "" }, "geometry": { "type": "Point", "coordinates": [ -70.63183657, -33.44976157 ] } },
{ "type": "Feature", "properties": { "capa": "colegios", "popup": "<strong>COLEGIO LORENZO SAZIE</strong><br><br><strong>Dirección:</strong> ALMIRANTE LATORRE 160", "etiqueta": "" }, "geometry": { "type": "Point", "coordinates": [ -70.66456751, -33.44961142 ] } },
{ "type": "Feature", "properties": { "capa": "colegios", "popup": "<strong>ESCUELA BASICA REPUBLICA DE MEXICO</strong><br><br><strong>Dirección:</strong> RAULI 585", "etiqueta": "" }, "geometry": { "type": "Point", "coordinates": [ -70.63669304, -33.449571339999984 ] } },
{ "type": "Feature", "properties": { "capa": "colegios", "popup": "<strong>ESCUELA BASICA REPUBLICA DEL ECUADOR</strong><br><br><strong>Dirección:</strong> ALAMEDA 2414", "etiqueta": "" }, "geometry": { "type": "Point", "coordinates": [ -70.67072409, -33.44896938 ] } },
{ "type": "Feature", "properties": { "capa": "colegios", "popup": "<strong>ESCUELA CADETE ARTURO PRAT CHACON</strong><br><br><strong>Dirección:</strong> SAN IGNACIO 196", "etiqueta": "" }, "geometry": { "type": "Point", "coordinates": [ -70.65670874, -33.44870941 ] } },
{ "type": "Feature", "properties": { "capa": "colegios", "popup": "<strong>COLEGIO WUNMAN</strong><br><br><strong>Dirección:</strong> SANTA VICTORIA 426", "etiqueta": "" }, "geometry": { "type": "Point", "coordinates": [ -70.63706, -33.44868 ] } },
{ "type": "Feature", "properties": { "capa": "colegios", "popup": "<strong>LICEO PROFESIONAL ABDON CIFUENTES</strong><br><br><strong>Dirección:</strong> DIECIOCHO 116", "etiqueta": "" }, "geometry": { "type": "Point", "coordinates": [ -70.65796231, -33.44761407 ] } },
{ "type": "Feature", "properties": { "capa": "colegios", "popup": "<strong>COLEGIO DE LOS SAGRADOS CORAZONES ALAMEDA</strong><br><br><strong>Dirección:</strong> AVENIDA LIBERTADOR BERNARDO O'HIGGINS 2062", "etiqueta": "" }, "geometry": { "type": "Point", "coordinates": [ -70.66424, -33.447482 ] } },
{ "type": "Feature", "properties": { "capa": "colegios", "popup": "<strong>COLEGIO SAN IGNACIO</strong><br><br><strong>Dirección:</strong> P ALONSO DE OVALLE 1452", "etiqueta": "" }, "geometry": { "type": "Point", "coordinates": [ -70.65616, -33.447065 ] } },
{ "type": "Feature", "properties": { "capa": "colegios", "popup": "<strong>CENTRO EDUCATIVO SALESIANOS ALAMEDA</strong><br><br><strong>Dirección:</strong> RICARDO CUMMING 4", "etiqueta": "" }, "geometry": { "type": "Point", "coordinates": [ -70.66787974, -33.44704549 ] } },
{ "type": "Feature", "properties": { "capa": "colegios", "popup": "<strong>COLEGIO DE ADULTOS GLADYS LAZO</strong><br><br><strong>Dirección:</strong> AVENIDA JOSE MIGUEL CARRERA 8350", "etiqueta": "" }, "geometry": { "type": "Point", "coordinates": [ -70.643166, -33.44678 ] } },
{ "type": "Feature", "properties": { "capa": "colegios", "popup": "<strong>COLEGIO DE ADULT.ACADEMIA ESTUDIOS MIRAFLORES</strong><br><br><strong>Dirección:</strong> SAN IGNACIO 8", "etiqueta": "" }, "geometry": { "type": "Point", "coordinates": [ -70.65717, -33.445988 ] } },
{ "type": "Feature", "properties": { "capa": "colegios", "popup": "<strong>ESCUELA ESPECIAL N° 2430 SAN ALBERTO HURTADO</strong><br><br><strong>Dirección:</strong> JOSE TORIBIO MEDINA 27", "etiqueta": "" }, "geometry": { "type": "Point", "coordinates": [ -70.663768, -33.445794 ] } },
{ "type": "Feature", "properties": { "capa": "colegios", "popup": "<strong>COLEGIO ALTO PALENA</strong><br><br><strong>Dirección:</strong> MAIPU 85", "etiqueta": "" }, "geometry": { "type": "Point", "coordinates": [ -70.67614969, -33.445639380000017 ] } },
{ "type": "Feature", "properties": { "capa": "colegios", "popup": "<strong>LICEO N° 4 BICENTENARIO ISAURA DINATOR</strong><br><br><strong>Dirección:</strong> MATUCANA 73", "etiqueta": "" }, "geometry": { "type": "Point", "coordinates": [ -70.67929193, -33.44560481 ] } },
{ "type": "Feature", "properties": { "capa": "colegios", "popup": "<strong>ESCUELA BASICA PART.BLAS CANAS</strong><br><br><strong>Dirección:</strong> BLAS CAÑAS 450", "etiqueta": "" }, "geometry": { "type": "Point", "coordinates": [ -70.64144184, -33.44559430000001 ] } },
{ "type": "Feature", "properties": { "capa": "colegios", "popup": "<strong>ESCUELA PARTICULAR ESPECIAL CEDIN</strong><br><br><strong>Dirección:</strong> JOSE TORIBIO MEDINA 31", "etiqueta": "" }, "geometry": { "type": "Point", "coordinates": [ -70.663345, -33.445538 ] } },
{ "type": "Feature", "properties": { "capa": "colegios", "popup": "<strong>COLEGIO INSTITUTO ARTÍSTICO DE ESTUDIOS SECUNDARIOS DE LA UNIVERSIDAD DE CHILE</strong><br><br><strong>Dirección:</strong> ALAMEDA 1633", "etiqueta": "" }, "geometry": { "type": "Point", "coordinates": [ -70.65924, -33.445458 ] } },
{ "type": "Feature", "properties": { "capa": "colegios", "popup": "<strong>INSTITUTO COMERCIAL BLAS CANAS</strong><br><br><strong>Dirección:</strong> CARMEN 136", "etiqueta": "" }, "geometry": { "type": "Point", "coordinates": [ -70.64268438, -33.44523916 ] } },
{ "type": "Feature", "properties": { "capa": "colegios", "popup": "<strong>COLEGIO BICENTENARIO VICTORIA PRIETO</strong><br><br><strong>Dirección:</strong> ESPERANZA 94", "etiqueta": "" }, "geometry": { "type": "Point", "coordinates": [ -70.675349079999989, -33.44512041 ] } },
{ "type": "Feature", "properties": { "capa": "colegios", "popup": "<strong>COLEGIO DE ADULTOS INSTITUTO TABANCURA SEDE LONDRES</strong><br><br><strong>Dirección:</strong> LONDRES 98", "etiqueta": "" }, "geometry": { "type": "Point", "coordinates": [ -70.6476, -33.444935 ] } },
{ "type": "Feature", "properties": { "capa": "colegios", "popup": "<strong>LICEO INSTITUTO NACIONAL</strong><br><br><strong>Dirección:</strong> ARTURO PRAT 33", "etiqueta": "" }, "geometry": { "type": "Point", "coordinates": [ -70.650304009999985, -33.4448709 ] } },
{ "type": "Feature", "properties": { "capa": "colegios", "popup": "<strong>LICEO  DE  ADULTOS  INSIEME</strong><br><br><strong>Dirección:</strong> TUCAPEL JIMENEZ 30", "etiqueta": "" }, "geometry": { "type": "Point", "coordinates": [ -70.65878, -33.44468 ] } },
{ "type": "Feature", "properties": { "capa": "colegios", "popup": "<strong>ESC. BAS. EJERCITO DE SALVACION DE SANTIAGO</strong><br><br><strong>Dirección:</strong> HERRERA 185", "etiqueta": "" }, "geometry": { "type": "Point", "coordinates": [ -70.677284, -33.44396 ] } },
{ "type": "Feature", "properties": { "capa": "colegios", "popup": "<strong>LICEO NRO 2 MIGUEL LUIS AMUNATEGUI</strong><br><br><strong>Dirección:</strong> AGUSTINAS 2918", "etiqueta": "" }, "geometry": { "type": "Point", "coordinates": [ -70.675850319999981, -33.44366876 ] } },
{ "type": "Feature", "properties": { "capa": "colegios", "popup": "<strong>COLEGIO MARIA LUISA VILLALON</strong><br><br><strong>Dirección:</strong> AGUSTINAS 2834", "etiqueta": "" }, "geometry": { "type": "Point", "coordinates": [ -70.67464907, -33.44353793 ] } },
{ "type": "Feature", "properties": { "capa": "colegios", "popup": "<strong>LICEO MIGUEL DE CERVANTES Y SAAVEDRA</strong><br><br><strong>Dirección:</strong> ALAMEDA 2577", "etiqueta": "" }, "geometry": { "type": "Point", "coordinates": [ -70.67156763, -33.44318449 ] } },
{ "type": "Feature", "properties": { "capa": "colegios", "popup": "<strong>MIGUEL DE CERVANTES Y SAAVEDRA ANEXO A-8</strong><br><br><strong>Dirección:</strong> AGUSTINAS 2492", "etiqueta": "" }, "geometry": { "type": "Point", "coordinates": [ -70.67090523, -33.44308999 ] } },
{ "type": "Feature", "properties": { "capa": "colegios", "popup": "<strong>LICEO TECNICO A N° 27 CLELIA CLAVEL DINAT</strong><br><br><strong>Dirección:</strong> AGUSTINAS 2450", "etiqueta": "" }, "geometry": { "type": "Point", "coordinates": [ -70.67052414, -33.443046970000012 ] } },
{ "type": "Feature", "properties": { "capa": "colegios", "popup": "<strong>ESCUELA ESP. SAN JOSE OBRERO</strong><br><br><strong>Dirección:</strong> CUETO 180", "etiqueta": "" }, "geometry": { "type": "Point", "coordinates": [ -70.678, -33.44296 ] } },
{ "type": "Feature", "properties": { "capa": "colegios", "popup": "<strong>ESC. ESPECIAL HOSPITAL SAN JUAN DE DIOS</strong><br><br><strong>Dirección:</strong> HUERFANOS 3255", "etiqueta": "" }, "geometry": { "type": "Point", "coordinates": [ -70.67871, -33.4424925 ] } },
{ "type": "Feature", "properties": { "capa": "colegios", "popup": "<strong>ESCUELA BASICA REPUBLICA DE PANAMA</strong><br><br><strong>Dirección:</strong> HUERFANOS 3151", "etiqueta": "" }, "geometry": { "type": "Point", "coordinates": [ -70.678003909999987, -33.44242111 ] } },
{ "type": "Feature", "properties": { "capa": "colegios", "popup": "<strong>COLEGIO PART. ADULTOS INSTITUTO ICEL</strong><br><br><strong>Dirección:</strong> AGUSTINAS 2564", "etiqueta": "" }, "geometry": { "type": "Point", "coordinates": [ -70.664085, -33.44226 ] } },
{ "type": "Feature", "properties": { "capa": "colegios", "popup": "<strong>ESCUELA ESPECIAL N 2086 HOSPITAL CLINICO PONTIFICIA UNIVERSIDAD CATÓLICA DE CHILE</strong><br><br><strong>Dirección:</strong> MARCOLETA 367", "etiqueta": "" }, "geometry": { "type": "Point", "coordinates": [ -70.64025566, -33.44217648 ] } },
{ "type": "Feature", "properties": { "capa": "colegios", "popup": "<strong>INST.SUP.DE COMERCIO EDUARDO FREI M.</strong><br><br><strong>Dirección:</strong> AMUNATEGUI 126", "etiqueta": "" }, "geometry": { "type": "Point", "coordinates": [ -70.656301309999989, -33.44209714 ] } },
{ "type": "Feature", "properties": { "capa": "colegios", "popup": "<strong>COLEGIO  PEDRO DE VALDIVIA-AGUSTINAS</strong><br><br><strong>Dirección:</strong> AGUSTINAS 2009", "etiqueta": "" }, "geometry": { "type": "Point", "coordinates": [ -70.66454, -33.44203 ] } },
{ "type": "Feature", "properties": { "capa": "colegios", "popup": "<strong>LICEO POLIVALENTE A-28 EMILIA TORO DE BAL</strong><br><br><strong>Dirección:</strong> MATUCANA 403", "etiqueta": "" }, "geometry": { "type": "Point", "coordinates": [ -70.679651519999979, -33.44102149 ] } },
{ "type": "Feature", "properties": { "capa": "colegios", "popup": "<strong>LICEO DE APLICACION RECTOR JORGE E SCHNE</strong><br><br><strong>Dirección:</strong> RICARDO CUMMING 21", "etiqueta": "" }, "geometry": { "type": "Point", "coordinates": [ -70.66271986, -33.44093916 ] } },
{ "type": "Feature", "properties": { "capa": "colegios", "popup": "<strong>COLEGIO SANTA CECILIA</strong><br><br><strong>Dirección:</strong> MATURANA 350", "etiqueta": "" }, "geometry": { "type": "Point", "coordinates": [ -70.66682, -33.440806 ] } },
{ "type": "Feature", "properties": { "capa": "colegios", "popup": "<strong>LICEO Y COLEGIO NUEVO HISPANO CHILENO</strong><br><br><strong>Dirección:</strong> COMPANIA DE JESUS 2470", "etiqueta": "" }, "geometry": { "type": "Point", "coordinates": [ -70.67098244, -33.44066566 ] } },
{ "type": "Feature", "properties": { "capa": "colegios", "popup": "<strong>COLEGIO SANTA ELENA CARMELITAS MISIONERAS TERESIANA</strong><br><br><strong>Dirección:</strong> COMPAÑIA 2398", "etiqueta": "" }, "geometry": { "type": "Point", "coordinates": [ -70.66986, -33.440554 ] } },
{ "type": "Feature", "properties": { "capa": "colegios", "popup": "<strong>ESCUELA BAS SALVADOR SANFUENTES REP EEUU</strong><br><br><strong>Dirección:</strong> CATEDRAL 3250", "etiqueta": "" }, "geometry": { "type": "Point", "coordinates": [ -70.67931406, -33.440352350000019 ] } },
{ "type": "Feature", "properties": { "capa": "colegios", "popup": "<strong>ESCUELA DE PARVULOS N°1765 KIMN</strong><br><br><strong>Dirección:</strong> GENERAL BULNES 463", "etiqueta": "" }, "geometry": { "type": "Point", "coordinates": [ -70.66969, -33.439823 ] } },
{ "type": "Feature", "properties": { "capa": "colegios", "popup": "<strong>ESCUELA REPUBLICA DE ISRAEL</strong><br><br><strong>Dirección:</strong> CATEDRAL 2827", "etiqueta": "" }, "geometry": { "type": "Point", "coordinates": [ -70.674746819999982, -33.43965974 ] } },
{ "type": "Feature", "properties": { "capa": "colegios", "popup": "<strong>ESCUELA DE PARVULOS N°1146 HEYDDIE</strong><br><br><strong>Dirección:</strong> ARZOBISPO GONZALEZ 479", "etiqueta": "" }, "geometry": { "type": "Point", "coordinates": [ -70.6687, -33.439278 ] } },
{ "type": "Feature", "properties": { "capa": "colegios", "popup": "<strong>LICEO JAVIERA CARRERA</strong><br><br><strong>Dirección:</strong> COMPANIA 1484", "etiqueta": "" }, "geometry": { "type": "Point", "coordinates": [ -70.65729306, -33.439210519999989 ] } },
{ "type": "Feature", "properties": { "capa": "colegios", "popup": "<strong>COLEGIO DE ADULTOS PULMAHUE</strong><br><br><strong>Dirección:</strong> CALLE COMPAÑIA DE JESUS 1357", "etiqueta": "" }, "geometry": { "type": "Point", "coordinates": [ -70.65619426, -33.43893931 ] } },
{ "type": "Feature", "properties": { "capa": "colegios", "popup": "<strong>INTERNADO NACIONAL BARROS ARANA</strong><br><br><strong>Dirección:</strong> SANTO DOMINGO 3535", "etiqueta": "" }, "geometry": { "type": "Point", "coordinates": [ -70.683073019999981, -33.438873500000021 ] } },
{ "type": "Feature", "properties": { "capa": "colegios", "popup": "<strong>COLEGIO PART. GABRIELA MISTRAL SOCIEDAD EDUCA</strong><br><br><strong>Dirección:</strong> SANTO DOMINGO 3671", "etiqueta": "" }, "geometry": { "type": "Point", "coordinates": [ -70.68442128, -33.43864196 ] } },
{ "type": "Feature", "properties": { "capa": "colegios", "popup": "<strong>COLEGIO NUEVO DIEGO DE ALMAGRO</strong><br><br><strong>Dirección:</strong> SOTOMAYOR 552", "etiqueta": "" }, "geometry": { "type": "Point", "coordinates": [ -70.67364004, -33.43861917 ] } },
{ "type": "Feature", "properties": { "capa": "colegios", "popup": "<strong>INSTITUTO COMERCIAL ELIODORO DOMINGUEZ DOMINGUEZ</strong><br><br><strong>Dirección:</strong> SANTO DOMINGO 3128", "etiqueta": "" }, "geometry": { "type": "Point", "coordinates": [ -70.67837947, -33.438516580000012 ] } },
{ "type": "Feature", "properties": { "capa": "colegios", "popup": "<strong>COLEGIO SAN ANTONIO</strong><br><br><strong>Dirección:</strong> SANTO DOMINGO 2314", "etiqueta": "" }, "geometry": { "type": "Point", "coordinates": [ -70.66923128, -33.43779818 ] } },
{ "type": "Feature", "properties": { "capa": "colegios", "popup": "<strong>COLEGIO SAN SEBASTIAN</strong><br><br><strong>Dirección:</strong> SANTO DOMINGO 2078", "etiqueta": "" }, "geometry": { "type": "Point", "coordinates": [ -70.665594089999985, -33.43779254 ] } },
{ "type": "Feature", "properties": { "capa": "colegios", "popup": "<strong>COLEGIO INSTITUTO ALONSO DE ERCILLA</strong><br><br><strong>Dirección:</strong> SANTO DOMINGO 2145", "etiqueta": "" }, "geometry": { "type": "Point", "coordinates": [ -70.66662, -33.43771 ] } },
{ "type": "Feature", "properties": { "capa": "colegios", "popup": "<strong>ESCUELA ESPECIAL INTEGRAL DE CARABINEROS</strong><br><br><strong>Dirección:</strong> AMUNATEGUI 519", "etiqueta": "" }, "geometry": { "type": "Point", "coordinates": [ -70.65671, -33.437601 ] } },
{ "type": "Feature", "properties": { "capa": "colegios", "popup": "<strong>LICEO INDUSTRIAL ELIODORO GARCIA ZEGERS</strong><br><br><strong>Dirección:</strong> SANTO DOMINGO 1811", "etiqueta": "" }, "geometry": { "type": "Point", "coordinates": [ -70.66281847, -33.43735876 ] } },
{ "type": "Feature", "properties": { "capa": "colegios", "popup": "<strong>ESCUELA PARTICULAR DIVINA MARIA</strong><br><br><strong>Dirección:</strong> GARCIA REYES 734", "etiqueta": "" }, "geometry": { "type": "Point", "coordinates": [ -70.669748469999988, -33.43719846 ] } },
{ "type": "Feature", "properties": { "capa": "colegios", "popup": "<strong>ESCUELA  ESPECIAL N° 2449,  `DE LA  MERCED`</strong><br><br><strong>Dirección:</strong> ROSAS 2867", "etiqueta": "" }, "geometry": { "type": "Point", "coordinates": [ -70.67546360999998, -33.437039890000015 ] } },
{ "type": "Feature", "properties": { "capa": "colegios", "popup": "<strong>COLEGIO DE ADULTOS INSTITUTO ANDES</strong><br><br><strong>Dirección:</strong> CALLE MIRAFLORES 557", "etiqueta": "" }, "geometry": { "type": "Point", "coordinates": [ -70.64523, -33.43619 ] } },
{ "type": "Feature", "properties": { "capa": "colegios", "popup": "<strong>ESCUELA BASICA LIBERTADORES DE CHILE</strong><br><br><strong>Dirección:</strong> ROSAS 1741", "etiqueta": "" }, "geometry": { "type": "Point", "coordinates": [ -70.66203467, -33.4359531 ] } },
{ "type": "Feature", "properties": { "capa": "colegios", "popup": "<strong>ESCUELA BASICA DR LUIS CALVO MACKENNA</strong><br><br><strong>Dirección:</strong> AVENIDA RICARDO CUMMING 735", "etiqueta": "" }, "geometry": { "type": "Point", "coordinates": [ -70.66869441, -33.435776019999984 ] } },
{ "type": "Feature", "properties": { "capa": "colegios", "popup": "<strong>COLEGIO SANTA TERESITA DEL NINO JESUS</strong><br><br><strong>Dirección:</strong> MATURANA 731", "etiqueta": "" }, "geometry": { "type": "Point", "coordinates": [ -70.66578, -33.435387 ] } },
{ "type": "Feature", "properties": { "capa": "colegios", "popup": "<strong>LICEO DE ADULTOS PART.FERMIN VIVACETA</strong><br><br><strong>Dirección:</strong> RIQUELME 853", "etiqueta": "" }, "geometry": { "type": "Point", "coordinates": [ -70.66119, -33.433887 ] } },
{ "type": "Feature", "properties": { "capa": "colegios", "popup": "<strong>LICEO JOSE MIGUEL INFANTE</strong><br><br><strong>Dirección:</strong> GENERAL MACKENNA 1923", "etiqueta": "" }, "geometry": { "type": "Point", "coordinates": [ -70.66402874, -33.43322191 ] } },
{ "type": "Feature", "properties": { "capa": "colegios", "popup": "<strong>COLEGIO NUESTRA SENORA DE ANDACOLLO</strong><br><br><strong>Dirección:</strong> MAPOCHO 2341", "etiqueta": "" }, "geometry": { "type": "Point", "coordinates": [ -70.66987309000001, -33.43189241 ] } },
{ "type": "Feature", "properties": { "capa": "colegios", "popup": "<strong>ESCUELA REPUBLICA DE ALEMANIA</strong><br><br><strong>Dirección:</strong> LIBERTAD 1242", "etiqueta": "" }, "geometry": { "type": "Point", "coordinates": [ -70.67549745, -33.43146413 ] } },
{ "type": "Feature", "properties": { "capa": "colegios", "popup": "<strong>COLEGIO PARTICULAR OZANAM</strong><br><br><strong>Dirección:</strong> YUNGAY 2845", "etiqueta": "" }, "geometry": { "type": "Point", "coordinates": [ -70.6761622, -33.42900853 ] } },
{ "type": "Feature", "properties": { "capa": "jardines", "popup": "<strong>CLAUDIO ARRAU</strong><br><br><strong>Dirección:</strong> SANTO DOMINGO # 2005 ", "etiqueta": "" }, "geometry": { "type": "MultiPoint", "coordinates": [ [ -70.6648, -33.43804 ] ] } },
{ "type": "Feature", "properties": { "capa": "jardines", "popup": "<strong>MARCELA PAZ</strong><br><br><strong>Dirección:</strong> ZENTENO N 1695, SANTIAGO ", "etiqueta": "" }, "geometry": { "type": "MultiPoint", "coordinates": [ [ -70.649782, -33.469124 ] ] } },
{ "type": "Feature", "properties": { "capa": "jardines", "popup": "<strong>GABRIELA MISTRAL</strong><br><br><strong>Dirección:</strong> NATANIEL N 2029, SANTIAGO ", "etiqueta": "" }, "geometry": { "type": "MultiPoint", "coordinates": [ [ -70.649906, -33.473226 ] ] } },
{ "type": "Feature", "properties": { "capa": "jardines", "popup": "<strong>COPIAPO</strong><br><br><strong>Dirección:</strong> COPIAPO 1342 ", "etiqueta": "" }, "geometry": { "type": "MultiPoint", "coordinates": [ [ -70.653443, -33.456044 ] ] } },
{ "type": "Feature", "properties": { "capa": "jardines", "popup": "<strong>MOLINA</strong><br><br><strong>Dirección:</strong> VICTOR MANUEL ", "etiqueta": "" }, "geometry": { "type": "MultiPoint", "coordinates": [ [ -70.671734, -33.457711 ] ] } },
{ "type": "Feature", "properties": { "capa": "jardines", "popup": "<strong>SOTOMAYOR</strong><br><br><strong>Dirección:</strong> RAFAEL SOTOMAYOR  97 ", "etiqueta": "" }, "geometry": { "type": "MultiPoint", "coordinates": [ [ -70.67286, -33.44471 ] ] } },
{ "type": "Feature", "properties": { "capa": "jardines", "popup": "<strong>SANTO DOMINGO</strong><br><br><strong>Dirección:</strong> SANTO DOMINGO  2020 ", "etiqueta": "" }, "geometry": { "type": "MultiPoint", "coordinates": [ [ -70.665036, -33.438274 ] ] } },
{ "type": "Feature", "properties": { "capa": "jardines", "popup": "<strong>SAN FCO DE ASISIS</strong><br><br><strong>Dirección:</strong> SAN FRANCISCO 1315 ", "etiqueta": "" }, "geometry": { "type": "MultiPoint", "coordinates": [ [ -70.645005, -33.462379 ] ] } },
{ "type": "Feature", "properties": { "capa": "jardines", "popup": "<strong>SOR TERESITA DE LOS ANDES</strong><br><br><strong>Dirección:</strong> JUAN VICUÑA 1650 ", "etiqueta": "" }, "geometry": { "type": "MultiPoint", "coordinates": [ [ -70.643222, -33.467961 ] ] } },
{ "type": "Feature", "properties": { "capa": "jardines", "popup": "<strong>PADRE ALBERTO HURTADO</strong><br><br><strong>Dirección:</strong> ZENTENO 821 ", "etiqueta": "" }, "geometry": { "type": "MultiPoint", "coordinates": [ [ -70.651408, -33.455908 ] ] } },
{ "type": "Feature", "properties": { "capa": "jardines", "popup": "<strong>APOSTOL SANTIAGO</strong><br><br><strong>Dirección:</strong> MANUEL ANTONIO TOCORNAL 18 ", "etiqueta": "" }, "geometry": { "type": "MultiPoint", "coordinates": [ [ -70.63747, -33.460399 ] ] } },
{ "type": "Feature", "properties": { "capa": "jardines", "popup": "<strong>POETA VICENTE HUIDOBRO</strong><br><br><strong>Dirección:</strong> SANTO DOMINGO 2006 ", "etiqueta": "" }, "geometry": { "type": "MultiPoint", "coordinates": [ [ -70.664669, -33.438224 ] ] } },
{ "type": "Feature", "properties": { "capa": "jardines", "popup": "<strong>NEMESIO ANTUNEZ</strong><br><br><strong>Dirección:</strong> WALDO SILVA 2185 ", "etiqueta": "" }, "geometry": { "type": "MultiPoint", "coordinates": [ [ -70.651844, -33.474995 ] ] } },
{ "type": "Feature", "properties": { "capa": "jardines", "popup": "<strong>CARDENAL RAUL SILVA HENRIQUEZ</strong><br><br><strong>Dirección:</strong> ESPERANZA 1215 ", "etiqueta": "" }, "geometry": { "type": "MultiPoint", "coordinates": [ [ -70.676349, -33.43153 ] ] } },
{ "type": "Feature", "properties": { "capa": "jardines", "popup": "<strong>IGNACIO CARRERA PINTO</strong><br><br><strong>Dirección:</strong> AV PORTALES 3357 ", "etiqueta": "" }, "geometry": { "type": "MultiPoint", "coordinates": [ [ -70.681191, -33.443706 ] ] } },
{ "type": "Feature", "properties": { "capa": "jardines", "popup": "<strong>JAPON</strong><br><br><strong>Dirección:</strong> AV 10 DE JULIO HUAMACHUCO 760 ", "etiqueta": "" }, "geometry": { "type": "MultiPoint", "coordinates": [ [ -70.645576, -33.45375 ] ] } },
{ "type": "Feature", "properties": { "capa": "jardines", "popup": "<strong>LUIS CALVO MACKENNA</strong><br><br><strong>Dirección:</strong> Artemio Gutiérrez  1218 ", "etiqueta": "" }, "geometry": { "type": "MultiPoint", "coordinates": [ [ -70.668579, -33.436034 ] ] } },
{ "type": "Feature", "properties": { "capa": "jardines", "popup": "<strong>PABLO NERUDA</strong><br><br><strong>Dirección:</strong> AVDA GENERAL RONDIZZONI 2722 ", "etiqueta": "" }, "geometry": { "type": "MultiPoint", "coordinates": [ [ -70.670962, -33.471258 ] ] } },
{ "type": "Feature", "properties": { "capa": "jardines", "popup": "<strong>PEDRO AGUIRRE CERDA</strong><br><br><strong>Dirección:</strong> ARGOMEDO 372 ", "etiqueta": "" }, "geometry": { "type": "MultiPoint", "coordinates": [ [ -70.637685, -33.450649 ] ] } },
{ "type": "Feature", "properties": { "capa": "jardines", "popup": "<strong>PARQUE DE LOS REYES</strong><br><br><strong>Dirección:</strong> AGUSTINAS ", "etiqueta": "" }, "geometry": { "type": "MultiPoint", "coordinates": [ [ -70.674604, -33.42925 ] ] } },
{ "type": "Feature", "properties": { "capa": "jardines", "popup": "<strong>ROBERTO MATTA</strong><br><br><strong>Dirección:</strong> BRASIL 618 ", "etiqueta": "" }, "geometry": { "type": "MultiPoint", "coordinates": [ [ -70.664746, -33.437322 ] ] } },
{ "type": "Feature", "properties": { "capa": "jardines", "popup": "<strong>NIDITO ESPERANZA</strong><br><br><strong>Dirección:</strong> ESPERANZA 1115 ", "etiqueta": "" }, "geometry": { "type": "MultiPoint", "coordinates": [ [ -70.676267, -33.432449 ] ] } },
{ "type": "Feature", "properties": { "capa": "jardines", "popup": "<strong>CELESTE AMANECER</strong><br><br><strong>Dirección:</strong> SANTA ROSA 1727 CAROL URZUA ", "etiqueta": "" }, "geometry": { "type": "MultiPoint", "coordinates": [ [ -70.642576, -33.468015 ] ] } },
{ "type": "Feature", "properties": { "capa": "jardines", "popup": "<strong>PICHIKECHE POYEN</strong><br><br><strong>Dirección:</strong> HUERFANOS 3151 ", "etiqueta": "" }, "geometry": { "type": "MultiPoint", "coordinates": [ [ -70.677743, -33.442306 ] ] } },
{ "type": "Feature", "properties": { "capa": "jardines", "popup": "<strong>NIETOS DE BELLO</strong><br><br><strong>Dirección:</strong> DOMEYKO 2050 ", "etiqueta": "" }, "geometry": { "type": "MultiPoint", "coordinates": [ [ -70.663399, -33.456122 ] ] } },
{ "type": "Feature", "properties": { "capa": "jardines", "popup": "<strong>NA</strong><br><br><strong>Dirección:</strong> NA ", "etiqueta": "" }, "geometry": { "type": "MultiPoint", "coordinates": [ [ -70.64587624749214, -33.462516523563963 ] ] } },
{ "type": "Feature", "properties": { "capa": "bomberos", "popup": "<strong>Cuerpo de Bomberos</strong><br><br><strong>Dirección:</strong> Santo Domingo 978", "etiqueta": "" }, "geometry": { "type": "Point", "coordinates": [ -70.651093034280066, -33.43624300391614 ] } },
{ "type": "Feature", "properties": { "capa": "comisarias", "popup": "<strong>1RA. COM. SANTIAGO</strong><br><br><strong>Dirección:</strong> SANTO DOMINGO 714", "etiqueta": "" }, "geometry": { "type": "Point", "coordinates": [ -70.64756, -33.43587 ] } },
{ "type": "Feature", "properties": { "capa": "comisarias", "popup": "<strong>2DA. COM. SANTIAGO</strong><br><br><strong>Dirección:</strong> TOESCA 2345", "etiqueta": "" }, "geometry": { "type": "Point", "coordinates": [ -70.6681, -33.45455 ] } },
{ "type": "Feature", "properties": { "capa": "comisarias", "popup": "<strong>3RA. COM. SANTIAGO</strong><br><br><strong>Dirección:</strong> FERNANDEZ ALBANO 165", "etiqueta": "" }, "geometry": { "type": "Point", "coordinates": [ -70.65855, -33.44196 ] } },
{ "type": "Feature", "properties": { "capa": "comisarias", "popup": "<strong>4TA. COM. SANTIAGO</strong><br><br><strong>Dirección:</strong> CHILOE 1472", "etiqueta": "" }, "geometry": { "type": "Point", "coordinates": [ -70.64561, -33.46533 ] } },
{ "type": "Feature", "properties": { "capa": "salud", "popup": "<strong>Establecimiento Penitenciario Santiago 1</strong><br><br><strong>Tipo de atención:</strong> Centro de Salud Privado<br><strong>Dirección:</strong>  1978", "etiqueta": "" }, "geometry": { "type": "Point", "coordinates": [ -70.656574, -33.475857 ] } },
{ "type": "Feature", "properties": { "capa": "salud", "popup": "<strong>Hospital Penitenciario</strong><br><br><strong>Tipo de atención:</strong> Hospital<br><strong>Dirección:</strong>  1902", "etiqueta": "" }, "geometry": { "type": "Point", "coordinates": [ -70.660323, -33.473594 ] } },
{ "type": "Feature", "properties": { "capa": "salud", "popup": "<strong>Clínica Santa Inés</strong><br><br><strong>Tipo de atención:</strong> Clínica<br><strong>Dirección:</strong>  1840", "etiqueta": "" }, "geometry": { "type": "Point", "coordinates": [ -70.64665, -33.47013 ] } },
{ "type": "Feature", "properties": { "capa": "salud", "popup": "<strong>Centro de Salud Familiar Arauco</strong><br><br><strong>Tipo de atención:</strong> Centro de Salud Familiar (CESFAM)<br><strong>Dirección:</strong>  3288", "etiqueta": "" }, "geometry": { "type": "Point", "coordinates": [ -70.67045, -33.46803 ] } },
{ "type": "Feature", "properties": { "capa": "salud", "popup": "<strong>Centro de Salud Familiar Padre Orellana</strong><br><br><strong>Tipo de atención:</strong> Centro de Salud Familiar (CESFAM)<br><strong>Dirección:</strong>  1706", "etiqueta": "" }, "geometry": { "type": "Point", "coordinates": [ -70.642536, -33.468114 ] } },
{ "type": "Feature", "properties": { "capa": "salud", "popup": "<strong>Clínica Santa Rosa ( ex Madre e Hijo)</strong><br><br><strong>Tipo de atención:</strong> Clínica<br><strong>Dirección:</strong>  1503", "etiqueta": "" }, "geometry": { "type": "Point", "coordinates": [ -70.642652699999985, -33.464808299999952 ] } },
{ "type": "Feature", "properties": { "capa": "salud", "popup": "<strong>Clínica Juan Pablo II</strong><br><br><strong>Tipo de atención:</strong> Clínica<br><strong>Dirección:</strong>  1448", "etiqueta": "" }, "geometry": { "type": "Point", "coordinates": [ -70.642355399999971, -33.464034499999968 ] } },
{ "type": "Feature", "properties": { "capa": "salud", "popup": "<strong>Hospital Clínico San Borja Arriarán</strong><br><br><strong>Tipo de atención:</strong> Hospital<br><strong>Dirección:</strong>  1234", "etiqueta": "" }, "geometry": { "type": "Point", "coordinates": [ -70.64232, -33.460498 ] } },
{ "type": "Feature", "properties": { "capa": "salud", "popup": "<strong>Policlínico Institucional de Gendarmería de Chile - Santiago</strong><br><br><strong>Tipo de atención:</strong> Centro de Salud Privado<br><strong>Dirección:</strong>  1173", "etiqueta": "" }, "geometry": { "type": "Point", "coordinates": [ -70.637759, -33.458241 ] } },
{ "type": "Feature", "properties": { "capa": "salud", "popup": "<strong>SAPU Consultorio Nº1</strong><br><br><strong>Tipo de atención:</strong> Servicio de Atención Primaria de Urgencia (SAPU)<br><strong>Dirección:</strong>  1323", "etiqueta": "" }, "geometry": { "type": "Point", "coordinates": [ -70.652567, -33.455638 ] } },
{ "type": "Feature", "properties": { "capa": "salud", "popup": "<strong>Centro de Salud Familiar N° 1 Dr. Ramón Corbalán Melgarejo</strong><br><br><strong>Tipo de atención:</strong> Centro de Salud Familiar (CESFAM)<br><strong>Dirección:</strong>  1323", "etiqueta": "" }, "geometry": { "type": "Point", "coordinates": [ -70.65273, -33.45544 ] } },
{ "type": "Feature", "properties": { "capa": "salud", "popup": "<strong>Clínica Pedro Montt</strong><br><br><strong>Tipo de atención:</strong> Clínica<br><strong>Dirección:</strong>  779", "etiqueta": "" }, "geometry": { "type": "Point", "coordinates": [ -70.653990899999926, -33.455623199999948 ] } },
{ "type": "Feature", "properties": { "capa": "salud", "popup": "<strong>Centro de Salud Familiar Nº 5</strong><br><br><strong>Tipo de atención:</strong> Centro de Salud Familiar (CESFAM)<br><strong>Dirección:</strong>  98", "etiqueta": "" }, "geometry": { "type": "Point", "coordinates": [ -70.67377, -33.45118 ] } },
{ "type": "Feature", "properties": { "capa": "salud", "popup": "<strong>Centro Médico y Dental CAPREDENA</strong><br><br><strong>Tipo de atención:</strong> Centro de Salud Privado<br><strong>Dirección:</strong>  284", "etiqueta": "" }, "geometry": { "type": "Point", "coordinates": [ -70.652234, -33.449384 ] } },
{ "type": "Feature", "properties": { "capa": "salud", "popup": "<strong>Clínica San Isidoro Salud SpA</strong><br><br><strong>Tipo de atención:</strong> Clínica<br><strong>Dirección:</strong>  231", "etiqueta": "" }, "geometry": { "type": "Point", "coordinates": [ -70.64403, -33.44655 ] } },
{ "type": "Feature", "properties": { "capa": "salud", "popup": "<strong>Centro Médico Vida Integra Alameda</strong><br><br><strong>Tipo de atención:</strong> Centro de Salud Privado<br><strong>Dirección:</strong>  1620", "etiqueta": "" }, "geometry": { "type": "Point", "coordinates": [ -70.658798, -33.446412 ] } },
{ "type": "Feature", "properties": { "capa": "salud", "popup": "<strong>Centro Médico y Dental MegaSalud Alameda</strong><br><br><strong>Tipo de atención:</strong> Centro de Salud Privado<br><strong>Dirección:</strong>  1511", "etiqueta": "" }, "geometry": { "type": "Point", "coordinates": [ -70.657657, -33.444915 ] } },
{ "type": "Feature", "properties": { "capa": "salud", "popup": "<strong>Hospital de Urgencia Asistencia Pública Dr. Alejandro del Río</strong><br><br><strong>Tipo de atención:</strong> Hospital<br><strong>Dirección:</strong>  125", "etiqueta": "" }, "geometry": { "type": "Point", "coordinates": [ -70.637955, -33.444004 ] } },
{ "type": "Feature", "properties": { "capa": "salud", "popup": "<strong>Centro Médico Lira Red de Salud UC CHRISTUS</strong><br><br><strong>Tipo de atención:</strong> Centro de Salud Privado<br><strong>Dirección:</strong>  85", "etiqueta": "" }, "geometry": { "type": "Point", "coordinates": [ -70.64105, -33.443851 ] } },
{ "type": "Feature", "properties": { "capa": "salud", "popup": "<strong>Servicio Médico Dental (S) Armada de Chile</strong><br><br><strong>Tipo de atención:</strong> Centro de Salud Privado<br><strong>Dirección:</strong>  4040", "etiqueta": "" }, "geometry": { "type": "Point", "coordinates": [ -70.689673, -33.4437 ] } },
{ "type": "Feature", "properties": { "capa": "salud", "popup": "<strong>Hernández y Gutiérrez Ltda</strong><br><br><strong>Tipo de atención:</strong> Centro de Salud Privado<br><strong>Dirección:</strong>  776", "etiqueta": "" }, "geometry": { "type": "Point", "coordinates": [ -70.646988, -33.443284 ] } },
{ "type": "Feature", "properties": { "capa": "salud", "popup": "<strong>Integramédica Alameda</strong><br><br><strong>Tipo de atención:</strong> Centro de Salud Privado<br><strong>Dirección:</strong>  654", "etiqueta": "" }, "geometry": { "type": "Point", "coordinates": [ -70.645705, -33.443088 ] } },
{ "type": "Feature", "properties": { "capa": "salud", "popup": "<strong>Centro Médico y Dental Servicio de Bienestar MOP</strong><br><br><strong>Tipo de atención:</strong> Centro de Salud Privado<br><strong>Dirección:</strong>  59", "etiqueta": "" }, "geometry": { "type": "Point", "coordinates": [ -70.653049, -33.443018 ] } },
{ "type": "Feature", "properties": { "capa": "salud", "popup": "<strong>Centro Médico y Dental Fundación Asistencial Trabajadores Del Banco del Estado de Chile</strong><br><br><strong>Tipo de atención:</strong> Centro de Salud Privado<br><strong>Dirección:</strong>  70", "etiqueta": "" }, "geometry": { "type": "Point", "coordinates": [ -70.655523, -33.442973 ] } },
{ "type": "Feature", "properties": { "capa": "salud", "popup": "<strong>Centro de Cáncer Red de Salud UC CHRISTUS</strong><br><br><strong>Tipo de atención:</strong> Centro de Salud Privado<br><strong>Dirección:</strong>  319", "etiqueta": "" }, "geometry": { "type": "Point", "coordinates": [ -70.641022, -33.442892 ] } },
{ "type": "Feature", "properties": { "capa": "salud", "popup": "<strong>Centro de Especialidades Médicas Red de Salud UC CHRISTUS</strong><br><br><strong>Tipo de atención:</strong> Centro de Salud Privado<br><strong>Dirección:</strong>  352", "etiqueta": "" }, "geometry": { "type": "Point", "coordinates": [ -70.639037, -33.442651 ] } },
{ "type": "Feature", "properties": { "capa": "salud", "popup": "<strong>Hospital San Juan de Dios (Santiago)</strong><br><br><strong>Tipo de atención:</strong> Hospital<br><strong>Dirección:</strong>  3255", "etiqueta": "" }, "geometry": { "type": "Point", "coordinates": [ -70.679188, -33.442394 ] } },
{ "type": "Feature", "properties": { "capa": "salud", "popup": "<strong>Hospital Clínico Red de Salud UC CHRISTUS</strong><br><br><strong>Tipo de atención:</strong> Hospital<br><strong>Dirección:</strong>  367", "etiqueta": "" }, "geometry": { "type": "Point", "coordinates": [ -70.640349, -33.442233 ] } },
{ "type": "Feature", "properties": { "capa": "salud", "popup": "<strong>Clínica UC Red de Salud UC CHRISTUS</strong><br><br><strong>Tipo de atención:</strong> Clínica<br><strong>Dirección:</strong>  40", "etiqueta": "" }, "geometry": { "type": "Point", "coordinates": [ -70.641311, -33.442159 ] } },
{ "type": "Feature", "properties": { "capa": "salud", "popup": "<strong>Centro de Salud Vida Integra Bandera</strong><br><br><strong>Tipo de atención:</strong> Centro de Salud Privado<br><strong>Dirección:</strong>  101", "etiqueta": "" }, "geometry": { "type": "Point", "coordinates": [ -70.651903, -33.441929 ] } },
{ "type": "Feature", "properties": { "capa": "salud", "popup": "<strong>Centro de Oncología Preventiva de la Universidad de Chile</strong><br><br><strong>Tipo de atención:</strong> Centro de Salud Privado<br><strong>Dirección:</strong>  299", "etiqueta": "" }, "geometry": { "type": "Point", "coordinates": [ -70.683538, -33.441882 ] } },
{ "type": "Feature", "properties": { "capa": "salud", "popup": "<strong>Integramédica Bandera</strong><br><br><strong>Tipo de atención:</strong> Centro de Salud Privado<br><strong>Dirección:</strong>  162", "etiqueta": "" }, "geometry": { "type": "Point", "coordinates": [ -70.652402, -33.441528 ] } },
{ "type": "Feature", "properties": { "capa": "salud", "popup": "<strong>Centro Asistencial AChS Santiago</strong><br><br><strong>Tipo de atención:</strong> Centro de Salud Privado<br><strong>Dirección:</strong>  1428", "etiqueta": "" }, "geometry": { "type": "Point", "coordinates": [ -70.656611, -33.441492 ] } },
{ "type": "Feature", "properties": { "capa": "salud", "popup": "<strong>Clínica Psiquiátrica Santa Cecilia</strong><br><br><strong>Tipo de atención:</strong> Clínica<br><strong>Dirección:</strong>  2247", "etiqueta": "" }, "geometry": { "type": "Point", "coordinates": [ -70.66728, -33.44129 ] } },
{ "type": "Feature", "properties": { "capa": "salud", "popup": "<strong>Centro de Salud Mutual CChC Agustinas</strong><br><br><strong>Tipo de atención:</strong> Centro de Salud Privado<br><strong>Dirección:</strong>  1365", "etiqueta": "" }, "geometry": { "type": "Point", "coordinates": [ -70.655942, -33.441165 ] } },
{ "type": "Feature", "properties": { "capa": "salud", "popup": "<strong>Centro de Evaluación del Trabajo (CET) Santiago Centro</strong><br><br><strong>Tipo de atención:</strong> Centro de Salud Privado<br><strong>Dirección:</strong>  865", "etiqueta": "" }, "geometry": { "type": "Point", "coordinates": [ -70.648817, -33.440462 ] } },
{ "type": "Feature", "properties": { "capa": "salud", "popup": "<strong>Centro Integramédica</strong><br><br><strong>Tipo de atención:</strong> Centro de Salud Privado<br><strong>Dirección:</strong>  1147", "etiqueta": "" }, "geometry": { "type": "Point", "coordinates": [ -70.652881, -33.439526 ] } },
{ "type": "Feature", "properties": { "capa": "salud", "popup": "<strong>Hospital Digital</strong><br><br><strong>Tipo de atención:</strong> Atención Remota<br><strong>Dirección:</strong>  670", "etiqueta": "" }, "geometry": { "type": "Point", "coordinates": [ -70.646293, -33.439415 ] } },
{ "type": "Feature", "properties": { "capa": "salud", "popup": "<strong>Centro de Salud Diagnostiko Ltda</strong><br><br><strong>Tipo de atención:</strong> Centro de Salud Privado<br><strong>Dirección:</strong>  121", "etiqueta": "" }, "geometry": { "type": "Point", "coordinates": [ -70.642253, -33.439095 ] } },
{ "type": "Feature", "properties": { "capa": "salud", "popup": "<strong>Centro de Salud Familiar Ignacio Domeyko</strong><br><br><strong>Tipo de atención:</strong> Centro de Salud Familiar (CESFAM)<br><strong>Dirección:</strong>  543", "etiqueta": "" }, "geometry": { "type": "Point", "coordinates": [ -70.67247, -33.43892 ] } },
{ "type": "Feature", "properties": { "capa": "salud", "popup": "<strong>SAPU Ignacio Domeyko</strong><br><br><strong>Tipo de atención:</strong> Servicio de Atención Primaria de Urgencia (SAPU)<br><strong>Dirección:</strong>  543", "etiqueta": "" }, "geometry": { "type": "Point", "coordinates": [ -70.672467, -33.438921 ] } },
{ "type": "Feature", "properties": { "capa": "salud", "popup": "<strong>JB Medical Test SpA</strong><br><br><strong>Tipo de atención:</strong> Centro de Salud Privado<br><strong>Dirección:</strong>  370", "etiqueta": "" }, "geometry": { "type": "Point", "coordinates": [ -70.648809, -33.438854 ] } },
{ "type": "Feature", "properties": { "capa": "salud", "popup": "<strong>Centro de Atencion Integral Merced</strong><br><br><strong>Tipo de atención:</strong> Centro de Salud Privado<br><strong>Dirección:</strong>  472", "etiqueta": "" }, "geometry": { "type": "Point", "coordinates": [ -70.65123, -33.437978 ] } },
{ "type": "Feature", "properties": { "capa": "salud", "popup": "<strong>Centro de Salud La Araucana Salud</strong><br><br><strong>Tipo de atención:</strong> Centro de Salud Privado<br><strong>Dirección:</strong>  472", "etiqueta": "" }, "geometry": { "type": "Point", "coordinates": [ -70.643933, -33.437944 ] } },
{ "type": "Feature", "properties": { "capa": "salud", "popup": "<strong>Centro Metropolitano de Atención Prehospitalaria</strong><br><br><strong>Tipo de atención:</strong> Centro de Regulación Médica de las Urgencias (SAMU)<br><strong>Dirección:</strong>  176", "etiqueta": "" }, "geometry": { "type": "Point", "coordinates": [ -70.644218, -33.437666 ] } },
{ "type": "Feature", "properties": { "capa": "salud", "popup": "<strong>Centro de Salud Omega</strong><br><br><strong>Tipo de atención:</strong> Centro de Salud Privado<br><strong>Dirección:</strong>  727", "etiqueta": "" }, "geometry": { "type": "Point", "coordinates": [ -70.680018, -33.436962 ] } },
{ "type": "Feature", "properties": { "capa": "salud", "popup": "<strong>Centro de Salud Vival Ltda.</strong><br><br><strong>Tipo de atención:</strong> Centro de Salud Privado<br><strong>Dirección:</strong>  843", "etiqueta": "" }, "geometry": { "type": "Point", "coordinates": [ -70.648935, -33.436955 ] } },
{ "type": "Feature", "properties": { "capa": "salud", "popup": "<strong>Instituto Traumatológico Dr. Teodoro Gebauer</strong><br><br><strong>Tipo de atención:</strong> Hospital<br><strong>Dirección:</strong>  771", "etiqueta": "" }, "geometry": { "type": "Point", "coordinates": [ -70.658236, -33.434891 ] } },
{ "type": "Feature", "properties": { "capa": "salud", "popup": "<strong>Centro de Salud Familiar Matta Sur</strong><br><br><strong>Tipo de atención:</strong> Centro de Salud Familiar (CESFAM)<br><strong>Dirección:</strong>  945", "etiqueta": "" }, "geometry": { "type": "Point", "coordinates": [ -70.646077, -33.469381 ] } },
{ "type": "Feature", "properties": { "capa": "salud", "popup": "<strong>MEGASalud AGUSTINAS</strong><br><br><strong>Tipo de atención:</strong> Centro de Salud Privado<br><strong>Dirección:</strong>  641", "etiqueta": "" }, "geometry": { "type": "Point", "coordinates": [ -70.646068, -33.44026 ] } },
{ "type": "Feature", "properties": { "capa": "salud", "popup": "<strong>CMT Salud Santiago Centro</strong><br><br><strong>Tipo de atención:</strong> Centro de Salud Privado<br><strong>Dirección:</strong>  354", "etiqueta": "" }, "geometry": { "type": "Point", "coordinates": [ -70.637548, -33.447781 ] } },
{ "type": "Feature", "properties": { "capa": "salud", "popup": "<strong>Clínica Astra Alameda</strong><br><br><strong>Tipo de atención:</strong> Centro de Salud Privado<br><strong>Dirección:</strong>  1529", "etiqueta": "" }, "geometry": { "type": "Point", "coordinates": [ -70.65765, -33.445085 ] } },
{ "type": "Feature", "properties": { "capa": "salud", "popup": "<strong>SONORAD II - HUERFANOS</strong><br><br><strong>Tipo de atención:</strong> Centro de Salud Privado<br><strong>Dirección:</strong>  757", "etiqueta": "" }, "geometry": { "type": "Point", "coordinates": [ -70.647738, -33.439095 ] } },
{ "type": "Feature", "properties": { "capa": "salud", "popup": "<strong>MEDIES Centro Médico SpA</strong><br><br><strong>Tipo de atención:</strong> Centro de Salud Privado<br><strong>Dirección:</strong>  1373", "etiqueta": "" }, "geometry": { "type": "Point", "coordinates": [ -70.655927, -33.439958 ] } },
{ "type": "Feature", "properties": { "capa": "salud", "popup": "<strong>Centro Médico Total Salud</strong><br><br><strong>Tipo de atención:</strong> Centro de Salud Privado<br><strong>Dirección:</strong>  1610", "etiqueta": "" }, "geometry": { "type": "Point", "coordinates": [ -70.67147, -33.468513 ] } },
{ "type": "Feature", "properties": { "capa": "salud", "popup": "<strong>Centro Médico Santa Lucía</strong><br><br><strong>Tipo de atención:</strong> Centro de Salud Privado<br><strong>Dirección:</strong>  420", "etiqueta": "" }, "geometry": { "type": "Point", "coordinates": [ -70.641779499999984, -33.441936199999923 ] } },
{ "type": "Feature", "properties": { "capa": "salud", "popup": "<strong>Departamento de Asistencia Remota en Salud</strong><br><br><strong>Tipo de atención:</strong> Atención Remota<br><strong>Dirección:</strong>  689", "etiqueta": "" }, "geometry": { "type": "Point", "coordinates": [ -70.646957, -33.436768 ] } },
{ "type": "Feature", "properties": { "capa": "salud", "popup": "<strong>CENTRO MEDICO INALAB LTDA - Stgo Centro</strong><br><br><strong>Tipo de atención:</strong> Centro de Salud Privado<br><strong>Dirección:</strong>  813", "etiqueta": "" }, "geometry": { "type": "Point", "coordinates": [ -70.648035899999968, -33.442677199999927 ] } },
{ "type": "Feature", "properties": { "capa": "salud", "popup": "<strong>NACE CLÍNICA FAMILIAR</strong><br><br><strong>Tipo de atención:</strong> Centro de Salud Privado<br><strong>Dirección:</strong>  1486", "etiqueta": "" }, "geometry": { "type": "Point", "coordinates": [ -70.656839949999949, -33.44596003 ] } },
{ "type": "Feature", "properties": { "capa": "salud", "popup": "<strong>HUMANO SALUD</strong><br><br><strong>Tipo de atención:</strong> Centro de Salud Privado<br><strong>Dirección:</strong>  23", "etiqueta": "" }, "geometry": { "type": "Point", "coordinates": [ -70.630428869999946, -33.455381749999944 ] } },
{ "type": "Feature", "properties": { "capa": "salud", "popup": "<strong>CLINICA CRUZ NACIONAL</strong><br><br><strong>Tipo de atención:</strong> Centro de Salud Privado<br><strong>Dirección:</strong>  676", "etiqueta": "" }, "geometry": { "type": "Point", "coordinates": [ -70.645878659999923, -33.443149129999945 ] } },
{ "type": "Feature", "properties": { "capa": "salud", "popup": "<strong>CESFAM Erasmo Escala</strong><br><br><strong>Tipo de atención:</strong> Centro de Salud Familiar (CESFAM)<br><strong>Dirección:</strong>  2767", "etiqueta": "" }, "geometry": { "type": "Point", "coordinates": [ -70.673271899999975, -33.445718199999938 ] } },
{ "type": "Feature", "properties": { "capa": "salud", "popup": "<strong>Centro Clínico Militar Santiago Centro</strong><br><br><strong>Tipo de atención:</strong> Centro de Salud Privado<br><strong>Dirección:</strong>  1449", "etiqueta": "" }, "geometry": { "type": "Point", "coordinates": [ -70.656304, -33.44472369999994 ] } },
{ "type": "Feature", "properties": { "capa": "salud", "popup": "<strong>CENTRO DE ATENCION DE URGENCIA LORD COCHRANE</strong><br><br><strong>Tipo de atención:</strong> Centro de Salud Privado<br><strong>Dirección:</strong>  2380", "etiqueta": "" }, "geometry": { "type": "Point", "coordinates": [ -70.651776299999938, -33.476221639999963 ] } },
{ "type": "Feature", "properties": { "capa": "salud", "popup": "<strong>AIDS HEALTCARE FUNDATION</strong><br><br><strong>Tipo de atención:</strong> Centro de Salud Privado<br><strong>Dirección:</strong>  360", "etiqueta": "" }, "geometry": { "type": "Point", "coordinates": [ -70.649756189999934, -33.438798229999968 ] } },
{ "type": "Feature", "properties": { "capa": "salud", "popup": "<strong>CET ALAMEDA_SANTIAGO</strong><br><br><strong>Tipo de atención:</strong> Centro de Salud Privado<br><strong>Dirección:</strong>  194", "etiqueta": "" }, "geometry": { "type": "Point", "coordinates": [ -70.638346628999955, -33.439145804999953 ] } },
{ "type": "Feature", "properties": { "capa": "salud", "popup": "<strong>CENTRO ODONTOLOGICO UNIVERSIDAD MAYOR</strong><br><br><strong>Tipo de atención:</strong> Centro de Salud Privado<br><strong>Dirección:</strong>  2013", "etiqueta": "" }, "geometry": { "type": "Point", "coordinates": [ -70.664040588, -33.446560838 ] } }
]
}
