{
"type": "FeatureCollection",
"name": "13108",
"crs": { "type": "name", "properties": { "name": "urn:ogc:def:crs:OGC:1.3:CRS84" } },
"features": [
{ "type": "Feature", "properties": { "capa": "comuna", "popup": "", "etiqueta": "" }, "geometry": { "type": "Polygon", "coordinates": [ [ [ -70.658166591032199, -33.39914240465658 ], [ -70.658274820955953, -33.399559958108178 ], [ -70.658279661078709, -33.399559888361871 ], [ -70.658289379951754, -33.399703591903901 ], [ -70.658206847235022, -33.399714163327509 ], [ -70.65817540350514, -33.400553319218822 ], [ -70.657913731449398, -33.401815031249924 ], [ -70.657678920817276, -33.402877651302958 ], [ -70.657450824193603, -33.404062080199047 ], [ -70.657302315609144, -33.404785556488214 ], [ -70.657294483198186, -33.404824378844211 ], [ -70.657260006755891, -33.404995271545772 ], [ -70.657216577703494, -33.405210538442894 ], [ -70.657211499527179, -33.405254003309629 ], [ -70.655430000181582, -33.405819999978725 ], [ -70.655358293062335, -33.405842665895513 ], [ -70.653690000307179, -33.406369999810089 ], [ -70.653105736944696, -33.406478598994013 ], [ -70.653287394261454, -33.40734397706369 ], [ -70.653146410864139, -33.407366292382818 ], [ -70.653170984278717, -33.408319412421534 ], [ -70.65320309725351, -33.409306891087851 ], [ -70.653265073821601, -33.409306291936716 ], [ -70.653558403406265, -33.409303455154756 ], [ -70.65357511746042, -33.410497429972459 ], [ -70.653520630146886, -33.410571914128518 ], [ -70.653510000382113, -33.41135999952828 ], [ -70.653501640660096, -33.411827596554865 ], [ -70.653481904673285, -33.412931606315212 ], [ -70.652977868052218, -33.412935606738039 ], [ -70.652815512835971, -33.412936895721465 ], [ -70.652860000103786, -33.415153332541934 ], [ -70.652862568387178, -33.415268248516178 ], [ -70.652910000332497, -33.417390000311663 ], [ -70.652911435840323, -33.417470382527526 ], [ -70.652907921630927, -33.417470320293667 ], [ -70.652724938400809, -33.417467036894067 ], [ -70.651779435513149, -33.417450226246238 ], [ -70.650112706724883, -33.417699691576878 ], [ -70.650165901362726, -33.417856016530443 ], [ -70.650768214574214, -33.421285978569578 ], [ -70.651044053960305, -33.423356498036007 ], [ -70.651180046317918, -33.424968915802687 ], [ -70.651383673731573, -33.427202778677888 ], [ -70.651492379762416, -33.428653101000521 ], [ -70.651544462285941, -33.429211736019759 ], [ -70.651652898822206, -33.430391668978992 ], [ -70.651721323497398, -33.431166326025007 ], [ -70.651666287313205, -33.431726164602296 ], [ -70.651605828897956, -33.432150896274059 ], [ -70.651752161762801, -33.432116198124689 ], [ -70.653018483581164, -33.43185776529603 ], [ -70.65641137639183, -33.431089562489582 ], [ -70.661276657360517, -33.429937259400226 ], [ -70.66799842633975, -33.427760686059514 ], [ -70.671386670368818, -33.426515008227476 ], [ -70.671182731239767, -33.42595104849611 ], [ -70.671751248931955, -33.425550062866584 ], [ -70.672505455579866, -33.42465609704297 ], [ -70.673306601896329, -33.423622972532073 ], [ -70.673975288030903, -33.422742417320386 ], [ -70.674476139225987, -33.422113459910435 ], [ -70.675259576154943, -33.421414046422413 ], [ -70.677127656025931, -33.42001238860496 ], [ -70.677779615529914, -33.419345247886291 ], [ -70.678279059064948, -33.41854490004588 ], [ -70.678701991290581, -33.417330762580917 ], [ -70.678805990149357, -33.416587109078066 ], [ -70.679298433113374, -33.413854883265969 ], [ -70.679742120015362, -33.411039760602449 ], [ -70.680329843688298, -33.40703694774605 ], [ -70.680427000079547, -33.405989452404263 ], [ -70.680598789402907, -33.405419006874389 ], [ -70.680881438917154, -33.404865085718249 ], [ -70.681774836823408, -33.403261170807212 ], [ -70.681933723644349, -33.403017783438308 ], [ -70.681861554791041, -33.402997185093476 ], [ -70.681859711448084, -33.403000000333385 ], [ -70.681670746336493, -33.402940443816334 ], [ -70.680973674337267, -33.402780637826766 ], [ -70.67898382513458, -33.402185315294972 ], [ -70.678283231739442, -33.401924256328037 ], [ -70.678045236579635, -33.401846284282641 ], [ -70.676456433049012, -33.401263520689817 ], [ -70.67495067247819, -33.400724754285967 ], [ -70.673416320328514, -33.400159242642303 ], [ -70.67217675213594, -33.399716068223512 ], [ -70.671934481893715, -33.40021944977655 ], [ -70.671934126160849, -33.400219435527404 ], [ -70.671901538875616, -33.400287897365232 ], [ -70.669504804053176, -33.40015602908413 ], [ -70.6685982045055, -33.400138345137577 ], [ -70.668363867285535, -33.400146176171511 ], [ -70.667075350791464, -33.400136384754106 ], [ -70.667078204739113, -33.400055229040568 ], [ -70.667857362094054, -33.39938285253092 ], [ -70.668154478975964, -33.399126449921049 ], [ -70.667284392351334, -33.399003763201613 ], [ -70.666704432817383, -33.398954743962825 ], [ -70.665961416482958, -33.398999042920565 ], [ -70.664461485080011, -33.39911633815403 ], [ -70.664002557360917, -33.39915325063523 ], [ -70.663998311922896, -33.399156946457254 ], [ -70.663135357921604, -33.399234866918633 ], [ -70.662610422893763, -33.39925252705023 ], [ -70.661168925103425, -33.399394764175291 ], [ -70.660689637227279, -33.399408931666308 ], [ -70.660210161285519, -33.399417594510012 ], [ -70.659914246349473, -33.399372058328311 ], [ -70.658448905474856, -33.399060787536385 ], [ -70.658149936266824, -33.399078146967604 ], [ -70.658166591032199, -33.39914240465658 ] ] ] } },
{ "type": "Feature", "properties": { "capa": "ds19", "popup": "<strong>LAS ARAUCARIAS II</strong><br><br><strong>Programa:</strong> DS19<br><strong>Comuna:</strong> Independencia<br><strong>Región:</strong> Metropolitana<br><strong>Año de inicio:</strong> 2021", "etiqueta": "LAS ARAUCARIAS II" }, "geometry": { "type": "Polygon", "coordinates": [ [ [ -70.674656898227454, -33.404475944410109 ], [ -70.674960442555232, -33.403920713125437 ], [ -70.674317916260037, -33.403712182604608 ], [ -70.674004988130818, -33.404292245061718 ], [ -70.674656898227454, -33.404475944410109 ] ] ] } },
{ "type": "Feature", "properties": { "capa": "ds19", "popup": "<strong>LAS ARAUCARIAS I</strong><br><br><strong>Programa:</strong> DS19<br><strong>Comuna:</strong> Independencia<br><strong>Región:</strong> Metropolitana<br><strong>Año de inicio:</strong> 2021", "etiqueta": "LAS ARAUCARIAS I" }, "geometry": { "type": "Polygon", "coordinates": [ [ [ -70.674966993070271, -33.403911707302619 ], [ -70.675247247675983, -33.403400871865756 ], [ -70.674599001807394, -33.403186672883251 ], [ -70.674325839400851, -33.403700158313463 ], [ -70.674966993070271, -33.403911707302619 ] ] ] } },
{ "type": "Feature", "properties": { "capa": "ds19", "popup": "<strong>LOS ÁLAMOS</strong><br><br><strong>Programa:</strong> DS19<br><strong>Comuna:</strong> Independencia<br><strong>Región:</strong> Metropolitana<br><strong>Año de inicio:</strong> 2019", "etiqueta": "LOS ÁLAMOS" }, "geometry": { "type": "Polygon", "coordinates": [ [ [ -70.673392090968662, -33.404150704380989 ], [ -70.673609865949743, -33.40420203119308 ], [ -70.673392758416924, -33.404842559780469 ], [ -70.673621617710282, -33.404880649444529 ], [ -70.673817560935007, -33.404256277412905 ], [ -70.674000232449714, -33.404287432827836 ], [ -70.674579472433109, -33.403186672883251 ], [ -70.674188417823629, -33.403041183518077 ], [ -70.673740586094937, -33.402897467497482 ], [ -70.673693099352391, -33.402994299360003 ], [ -70.673936108908094, -33.403077477889475 ], [ -70.673392090968662, -33.404150704380989 ] ] ] } },
{ "type": "Feature", "properties": { "capa": "ds19", "popup": "<strong>LOS PINOS</strong><br><br><strong>Programa:</strong> DS19<br><strong>Comuna:</strong> Independencia<br><strong>Región:</strong> Metropolitana<br><strong>Año de inicio:</strong> 2019", "etiqueta": "LOS PINOS" }, "geometry": { "type": "Polygon", "coordinates": [ [ [ -70.673392090968662, -33.404150704380989 ], [ -70.673609865949743, -33.40420203119308 ], [ -70.673392758416924, -33.404842559780469 ], [ -70.673621617710282, -33.404880649444529 ], [ -70.673817560935007, -33.404256277412905 ], [ -70.674000232449714, -33.404287432827836 ], [ -70.674579472433109, -33.403186672883251 ], [ -70.674188417823629, -33.403041183518077 ], [ -70.673740586094937, -33.402897467497482 ], [ -70.673693099352391, -33.402994299360003 ], [ -70.673936108908094, -33.403077477889475 ], [ -70.673392090968662, -33.404150704380989 ] ] ] } },
{ "type": "Feature", "properties": { "capa": "colegios", "popup": "<strong>ESC. BAS. PART. TERESIANA DE SAN GABRIEL</strong><br><br><strong>Dirección:</strong> RIVERA 1150", "etiqueta": "" }, "geometry": { "type": "Point", "coordinates": [ -70.655232479999981, -33.42554021 ] } },
{ "type": "Feature", "properties": { "capa": "colegios", "popup": "<strong>COLEGIO GEORGE WASHINGTON</strong><br><br><strong>Dirección:</strong> ECHEVERRIA 935", "etiqueta": "" }, "geometry": { "type": "Point", "coordinates": [ -70.65630146, -33.42492394 ] } },
{ "type": "Feature", "properties": { "capa": "colegios", "popup": "<strong>COLEGIO INDUSTRIAL VASCO NUNEZ DE BALBOA</strong><br><br><strong>Dirección:</strong> INDEPENDENCIA 780", "etiqueta": "" }, "geometry": { "type": "Point", "coordinates": [ -70.655364829999982, -33.424681830000011 ] } },
{ "type": "Feature", "properties": { "capa": "colegios", "popup": "<strong>ESCUELA BASICA CAMILO MORI</strong><br><br><strong>Dirección:</strong> BALDOMERO FLORES 2046", "etiqueta": "" }, "geometry": { "type": "Point", "coordinates": [ -70.666933639999982, -33.424567259999989 ] } },
{ "type": "Feature", "properties": { "capa": "colegios", "popup": "<strong>ESCUELA BASICA CORNELIA OLIVARES</strong><br><br><strong>Dirección:</strong> MARURI 697", "etiqueta": "" }, "geometry": { "type": "Point", "coordinates": [ -70.65681424, -33.42314179 ] } },
{ "type": "Feature", "properties": { "capa": "colegios", "popup": "<strong>ESCUELA DE PARVULOS ANTU-HUILEN</strong><br><br><strong>Dirección:</strong> GAMERO 1985", "etiqueta": "" }, "geometry": { "type": "Point", "coordinates": [ -70.66598, -33.422047 ] } },
{ "type": "Feature", "properties": { "capa": "colegios", "popup": "<strong>ESCUELA NUEVA ZELANDIA</strong><br><br><strong>Dirección:</strong> GAMERO 2722", "etiqueta": "" }, "geometry": { "type": "Point", "coordinates": [ -70.67178326, -33.42201847 ] } },
{ "type": "Feature", "properties": { "capa": "colegios", "popup": "<strong>LICEO MIGUEL RAFAEL PRADO</strong><br><br><strong>Dirección:</strong> GAMERO 1651", "etiqueta": "" }, "geometry": { "type": "Point", "coordinates": [ -70.66238091000001, -33.421408079999985 ] } },
{ "type": "Feature", "properties": { "capa": "colegios", "popup": "<strong>ESCUELA BASICA N°728 MARYLAND COLLEGE</strong><br><br><strong>Dirección:</strong> GAMERO 1389", "etiqueta": "" }, "geometry": { "type": "Point", "coordinates": [ -70.65874714, -33.42088421 ] } },
{ "type": "Feature", "properties": { "capa": "colegios", "popup": "<strong>COLEGIO POLIVALENTE PLUS ULTRA</strong><br><br><strong>Dirección:</strong> GAMERO 1270", "etiqueta": "" }, "geometry": { "type": "Point", "coordinates": [ -70.65681068, -33.420780670000013 ] } },
{ "type": "Feature", "properties": { "capa": "colegios", "popup": "<strong>COLEGIO PRESIDENTE ALESSANDRI</strong><br><br><strong>Dirección:</strong> GAMERO 721", "etiqueta": "" }, "geometry": { "type": "Point", "coordinates": [ -70.6755671, -33.41987512 ] } },
{ "type": "Feature", "properties": { "capa": "colegios", "popup": "<strong>LICEO POLIVALENTE A80 PRESIDENTE JOSE MANUEL BALMACEDA</strong><br><br><strong>Dirección:</strong> SALOMON SACK 331", "etiqueta": "" }, "geometry": { "type": "Point", "coordinates": [ -70.66943496, -33.41894041 ] } },
{ "type": "Feature", "properties": { "capa": "colegios", "popup": "<strong>ESC. DE PARVULOS Y ESPECIAL</strong><br><br><strong>Dirección:</strong> ENRIQUE SORO 1015", "etiqueta": "" }, "geometry": { "type": "Point", "coordinates": [ -70.67199, -33.418324 ] } },
{ "type": "Feature", "properties": { "capa": "colegios", "popup": "<strong>COLEGIO ARTURO TORO AMOR</strong><br><br><strong>Dirección:</strong> ENRIQUE SORO 1059", "etiqueta": "" }, "geometry": { "type": "Point", "coordinates": [ -70.67122612, -33.417759220000015 ] } },
{ "type": "Feature", "properties": { "capa": "colegios", "popup": "<strong>ESC. ESP.PART. SAN AGUSTIN DE INDEPENDENCIA</strong><br><br><strong>Dirección:</strong> BEZANILLA 1655", "etiqueta": "" }, "geometry": { "type": "Point", "coordinates": [ -70.66254, -33.417583 ] } },
{ "type": "Feature", "properties": { "capa": "colegios", "popup": "<strong>ESC.ESP.ONCOL.HOSP.ROBERTO DEL RIO</strong><br><br><strong>Dirección:</strong> PROFESOR ZAÑARTU 1085", "etiqueta": "" }, "geometry": { "type": "Point", "coordinates": [ -70.65467158, -33.41736379 ] } },
{ "type": "Feature", "properties": { "capa": "colegios", "popup": "<strong>ESCUELA ESP. DICKENS COLLEGE</strong><br><br><strong>Dirección:</strong> AVENIDA SALOMON SACK 686", "etiqueta": "" }, "geometry": { "type": "Point", "coordinates": [ -70.67542, -33.417183 ] } },
{ "type": "Feature", "properties": { "capa": "colegios", "popup": "<strong>LICEO GABRIELA MISTRAL</strong><br><br><strong>Dirección:</strong> AVENIDA INDEPENDENCIA 1225", "etiqueta": "" }, "geometry": { "type": "Point", "coordinates": [ -70.65675624, -33.41604670000001 ] } },
{ "type": "Feature", "properties": { "capa": "colegios", "popup": "<strong>ESCUELA BASICA N°1436 COLEGIO IBEROAMERICANO</strong><br><br><strong>Dirección:</strong> DOMINGO SANTA MARIA 1675", "etiqueta": "" }, "geometry": { "type": "Point", "coordinates": [ -70.66153, -33.415546 ] } },
{ "type": "Feature", "properties": { "capa": "colegios", "popup": "<strong>ESCUELA PARTICULAR SANTA TERESITA</strong><br><br><strong>Dirección:</strong> NAMUR 1258", "etiqueta": "" }, "geometry": { "type": "Point", "coordinates": [ -70.67269637, -33.41268801 ] } },
{ "type": "Feature", "properties": { "capa": "colegios", "popup": "<strong>LICEO SANTA TERESITA</strong><br><br><strong>Dirección:</strong> PADRE FAUSTINO GAZZIERO 2348", "etiqueta": "" }, "geometry": { "type": "Point", "coordinates": [ -70.6745079, -33.41190513 ] } },
{ "type": "Feature", "properties": { "capa": "colegios", "popup": "<strong>COLEGIO SANTA MARIA CERVELLON</strong><br><br><strong>Dirección:</strong> AVENIDA INDEPENDENCIA 1783", "etiqueta": "" }, "geometry": { "type": "Point", "coordinates": [ -70.65913, -33.410869 ] } },
{ "type": "Feature", "properties": { "capa": "colegios", "popup": "<strong>LICEO SAN FRANCISCO DE QUITO</strong><br><br><strong>Dirección:</strong> HUASCO 1801", "etiqueta": "" }, "geometry": { "type": "Point", "coordinates": [ -70.66255379, -33.410369240000016 ] } },
{ "type": "Feature", "properties": { "capa": "colegios", "popup": "<strong>LICEO MULTIGENERO DOCTORA ELOISA DIAZ INZUNZA</strong><br><br><strong>Dirección:</strong> HUASCO 1889", "etiqueta": "" }, "geometry": { "type": "Point", "coordinates": [ -70.66251778, -33.40979197 ] } },
{ "type": "Feature", "properties": { "capa": "colegios", "popup": "<strong>COLEGIO POLITECNICO AVDA. INDEPENDENCIA</strong><br><br><strong>Dirección:</strong> GENERAL SAAVEDRA 1339", "etiqueta": "" }, "geometry": { "type": "Point", "coordinates": [ -70.658842639999989, -33.409112 ] } },
{ "type": "Feature", "properties": { "capa": "colegios", "popup": "<strong>LICEO LAS AMERICAS MODERNAS</strong><br><br><strong>Dirección:</strong> AVENIDA FERMIN VIVACETA 1824", "etiqueta": "" }, "geometry": { "type": "Point", "coordinates": [ -70.66716781, -33.40860646 ] } },
{ "type": "Feature", "properties": { "capa": "colegios", "popup": "<strong>LICEO ADULTOS PART.LAS AMERICAS MODERNAS</strong><br><br><strong>Dirección:</strong> FERMIN VIVACETA 1824", "etiqueta": "" }, "geometry": { "type": "Point", "coordinates": [ -70.66639, -33.40842 ] } },
{ "type": "Feature", "properties": { "capa": "colegios", "popup": "<strong>CENTRO DE LENGUAJE MARCELA PAZ</strong><br><br><strong>Dirección:</strong> VENECIA 1572", "etiqueta": "" }, "geometry": { "type": "Point", "coordinates": [ -70.66107, -33.407925 ] } },
{ "type": "Feature", "properties": { "capa": "colegios", "popup": "<strong>ESCUELA PARTICULAR ISLA DE PASCUA</strong><br><br><strong>Dirección:</strong> GRUMETE PANTALEON CORTES 1989", "etiqueta": "" }, "geometry": { "type": "Point", "coordinates": [ -70.67339545, -33.40731923 ] } },
{ "type": "Feature", "properties": { "capa": "colegios", "popup": "<strong>ESCUELA LUIS GALDAMES</strong><br><br><strong>Dirección:</strong> LUIS GALDAMES 2110", "etiqueta": "" }, "geometry": { "type": "Point", "coordinates": [ -70.67304535, -33.40638246000001 ] } },
{ "type": "Feature", "properties": { "capa": "colegios", "popup": "<strong>COLEGIO CIENTIFICO HUMANISTA ALVARO COVARRUBIAS</strong><br><br><strong>Dirección:</strong> CALLE HUANUCO 2347", "etiqueta": "" }, "geometry": { "type": "Point", "coordinates": [ -70.6596705, -33.403644 ] } },
{ "type": "Feature", "properties": { "capa": "colegios", "popup": "<strong>ESC.PART.ALVARO COVARRUBIAS ARLEGUI</strong><br><br><strong>Dirección:</strong> AVENIDA EINSTEIN 1250", "etiqueta": "" }, "geometry": { "type": "Point", "coordinates": [ -70.65849407, -33.40300903 ] } },
{ "type": "Feature", "properties": { "capa": "colegios", "popup": "<strong>COLEGIO ELENA BETTINI</strong><br><br><strong>Dirección:</strong> 3 DE DICIEMBRE 2761", "etiqueta": "" }, "geometry": { "type": "Point", "coordinates": [ -70.67279364, -33.402315129999984 ] } },
{ "type": "Feature", "properties": { "capa": "colegios", "popup": "<strong>ESCUELA SAN JORGE</strong><br><br><strong>Dirección:</strong> 14 DE LA FAMA 2660", "etiqueta": "" }, "geometry": { "type": "Point", "coordinates": [ -70.677568099999988, -33.40191142 ] } },
{ "type": "Feature", "properties": { "capa": "colegios", "popup": "<strong>COLEGIO PARTICULAR JUAN PABLO</strong><br><br><strong>Dirección:</strong> BARON DE JURAS REALES 2954", "etiqueta": "" }, "geometry": { "type": "Point", "coordinates": [ -70.67642686, -33.40173783 ] } },
{ "type": "Feature", "properties": { "capa": "colegios", "popup": "<strong>COLEGIO JEAN JACQUES</strong><br><br><strong>Dirección:</strong> INDEPENDENCIA 2713", "etiqueta": "" }, "geometry": { "type": "Point", "coordinates": [ -70.665151349999988, -33.4014743 ] } },
{ "type": "Feature", "properties": { "capa": "colegios", "popup": "<strong>ESCUELA PARTICULAR THOMAS JEFFERSON</strong><br><br><strong>Dirección:</strong> PABLO URZUA 1438", "etiqueta": "" }, "geometry": { "type": "Point", "coordinates": [ -70.660380009999983, -33.40099175 ] } },
{ "type": "Feature", "properties": { "capa": "jardines", "popup": "<strong>SONRISITAS DE INDEPENDENCIA</strong><br><br><strong>Dirección:</strong> GAMERO 1985 (ENTREDA POR SALOMON SACK) ", "etiqueta": "" }, "geometry": { "type": "MultiPoint", "coordinates": [ [ -70.666423, -33.42254 ] ] } },
{ "type": "Feature", "properties": { "capa": "jardines", "popup": "<strong>PRESIDENTE BALMACEDA</strong><br><br><strong>Dirección:</strong> SALOMON SACK 331 ", "etiqueta": "" }, "geometry": { "type": "MultiPoint", "coordinates": [ [ -70.669467, -33.419604 ] ] } },
{ "type": "Feature", "properties": { "capa": "jardines", "popup": "<strong>GABRIELA MISTRAL</strong><br><br><strong>Dirección:</strong> AVDA DOMINGO STA MARIA 1108 ", "etiqueta": "" }, "geometry": { "type": "MultiPoint", "coordinates": [ [ -70.653942, -33.41513 ] ] } },
{ "type": "Feature", "properties": { "capa": "jardines", "popup": "<strong>BURBUJITAS DE AMOR</strong><br><br><strong>Dirección:</strong> GAMERO 2722 ", "etiqueta": "" }, "geometry": { "type": "MultiPoint", "coordinates": [ [ -70.671981, -33.42184 ] ] } },
{ "type": "Feature", "properties": { "capa": "jardines", "popup": "<strong>CHACABUCO</strong><br><br><strong>Dirección:</strong> MANTAU ", "etiqueta": "" }, "geometry": { "type": "MultiPoint", "coordinates": [ [ -70.661561, -33.40416 ] ] } },
{ "type": "Feature", "properties": { "capa": "jardines", "popup": "<strong>INTERCULTURAL REGACITO</strong><br><br><strong>Dirección:</strong> Sin ", "etiqueta": "" }, "geometry": { "type": "MultiPoint", "coordinates": [ [ -70.662795, -33.408277 ] ] } },
{ "type": "Feature", "properties": { "capa": "jardines", "popup": "<strong>NA</strong><br><br><strong>Dirección:</strong> NA ", "etiqueta": "" }, "geometry": { "type": "MultiPoint", "coordinates": [ [ -70.657251000244301, -33.409996000347917 ] ] } },
{ "type": "Feature", "properties": { "capa": "jardines", "popup": "<strong>NA</strong><br><br><strong>Dirección:</strong> NA ", "etiqueta": "" }, "geometry": { "type": "MultiPoint", "coordinates": [ [ -70.671850000132082, -33.414326999802007 ] ] } },
{ "type": "Feature", "properties": { "capa": "comisarias", "popup": "<strong>9NA. COM. INDEPENDENCIA</strong><br><br><strong>Dirección:</strong> HIPODROMO CHILE 1025", "etiqueta": "" }, "geometry": { "type": "Point", "coordinates": [ -70.65722, -33.40677 ] } },
{ "type": "Feature", "properties": { "capa": "comisarias", "popup": "<strong>SCOM. V. MODERNA</strong><br><br><strong>Dirección:</strong> CORONEL ALVARADO 2450", "etiqueta": "" }, "geometry": { "type": "Point", "coordinates": [ -70.67253, -33.40488 ] } },
{ "type": "Feature", "properties": { "capa": "comisarias", "popup": "<strong>TCIA. JUAN ANTONIO RIOS</strong><br><br><strong>Dirección:</strong> SARA GAJARDO 940", "etiqueta": "" }, "geometry": { "type": "Point", "coordinates": [ -70.67091, -33.42147 ] } },
{ "type": "Feature", "properties": { "capa": "comisarias", "popup": "<strong>57A. COM. MOTORIZADA</strong><br><br><strong>Dirección:</strong> BEZANILLA 1546", "etiqueta": "" }, "geometry": { "type": "Point", "coordinates": [ -70.66117491, -33.417872629999984 ] } },
{ "type": "Feature", "properties": { "capa": "comisarias", "popup": "<strong>30A. COM. RADIOPATRULLAS</strong><br><br><strong>Dirección:</strong> CARRION 1795", "etiqueta": "" }, "geometry": { "type": "Point", "coordinates": [ -70.661236599999981, -33.41910746 ] } },
{ "type": "Feature", "properties": { "capa": "salud", "popup": "<strong>Hospital Clínico Universidad de Chile</strong><br><br><strong>Tipo de atención:</strong> Hospital<br><strong>Dirección:</strong>  999", "etiqueta": "" }, "geometry": { "type": "Point", "coordinates": [ -70.653116, -33.420057 ] } },
{ "type": "Feature", "properties": { "capa": "salud", "popup": "<strong>Clínica Ensenada</strong><br><br><strong>Tipo de atención:</strong> Clínica<br><strong>Dirección:</strong>  957", "etiqueta": "" }, "geometry": { "type": "Point", "coordinates": [ -70.662791, -33.419987 ] } },
{ "type": "Feature", "properties": { "capa": "salud", "popup": "<strong>Instituto Nacional del Cáncer Dr. Caupolicán Pardo Correa (Santiago, Recoleta)</strong><br><br><strong>Tipo de atención:</strong> Hospital<br><strong>Dirección:</strong>  1010", "etiqueta": "" }, "geometry": { "type": "Point", "coordinates": [ -70.652105, -33.418128 ] } },
{ "type": "Feature", "properties": { "capa": "salud", "popup": "<strong>SAPU Juan Antonio Ríos</strong><br><br><strong>Tipo de atención:</strong> Servicio de Atención Primaria de Urgencia (SAPU)<br><strong>Dirección:</strong>  1180", "etiqueta": "" }, "geometry": { "type": "Point", "coordinates": [ -70.668478, -33.41752 ] } },
{ "type": "Feature", "properties": { "capa": "salud", "popup": "<strong>Centro de Salud Familiar Juan Antonio Ríos</strong><br><br><strong>Tipo de atención:</strong> Centro de Salud Familiar (CESFAM)<br><strong>Dirección:</strong>  1180", "etiqueta": "" }, "geometry": { "type": "Point", "coordinates": [ -70.66865, -33.41737 ] } },
{ "type": "Feature", "properties": { "capa": "salud", "popup": "<strong>Complejo Hospitalario San José (Santiago, Independencia)</strong><br><br><strong>Tipo de atención:</strong> Hospital<br><strong>Dirección:</strong>  1196", "etiqueta": "" }, "geometry": { "type": "Point", "coordinates": [ -70.653318, -33.416586 ] } },
{ "type": "Feature", "properties": { "capa": "salud", "popup": "<strong>SAPU DR. AGUSTIN CRUZ MELO</strong><br><br><strong>Tipo de atención:</strong> Servicio de Atención Primaria de Urgencia (SAPU)<br><strong>Dirección:</strong>  1269", "etiqueta": "" }, "geometry": { "type": "Point", "coordinates": [ -70.657603, -33.415499 ] } },
{ "type": "Feature", "properties": { "capa": "salud", "popup": "<strong>Hospital Clínico de Niños Dr. Roberto del Río (Santiago, Independencia)</strong><br><br><strong>Tipo de atención:</strong> Hospital<br><strong>Dirección:</strong>  1085", "etiqueta": "" }, "geometry": { "type": "Point", "coordinates": [ -70.655086, -33.415335 ] } },
{ "type": "Feature", "properties": { "capa": "salud", "popup": "<strong>Centro de Salud Familiar Agustín Cruz Melo</strong><br><br><strong>Tipo de atención:</strong> Centro de Salud Familiar (CESFAM)<br><strong>Dirección:</strong>  1325", "etiqueta": "" }, "geometry": { "type": "Point", "coordinates": [ -70.65712, -33.41516 ] } },
{ "type": "Feature", "properties": { "capa": "salud", "popup": "<strong>Centro Comunitario de Salud Familiar Las Enredaderas</strong><br><br><strong>Tipo de atención:</strong> Centro Comunitario de Salud Familiar (CECOSF)<br><strong>Dirección:</strong>  2437", "etiqueta": "" }, "geometry": { "type": "Point", "coordinates": [ -70.67114, -33.40597 ] } },
{ "type": "Feature", "properties": { "capa": "salud", "popup": "<strong>INTEGRAMEDICA INDEPENDENCIA</strong><br><br><strong>Tipo de atención:</strong> Centro de Salud Privado<br><strong>Dirección:</strong>  1121", "etiqueta": "" }, "geometry": { "type": "Point", "coordinates": [ -70.654702, -33.417453 ] } },
{ "type": "Feature", "properties": { "capa": "salud", "popup": "<strong>Centro Médico RedSalud Barrio Independencia</strong><br><br><strong>Tipo de atención:</strong> Centro de Salud Privado<br><strong>Dirección:</strong>  565", "etiqueta": "" }, "geometry": { "type": "Point", "coordinates": [ -70.654548, -33.42481 ] } },
{ "type": "Feature", "properties": { "capa": "municipios", "popup": "<strong>Municipalidad de Independencia</strong><br><br><strong>Dirección:</strong> Av. Independencia N° 753<br><strong>Región:</strong> Metropolitana de Santiago", "etiqueta": "" }, "geometry": { "type": "Point", "coordinates": [ -70.655237299999939, -33.422302000999942 ] } }
]
}
