{
"type": "FeatureCollection",
"name": "13102",
"crs": { "type": "name", "properties": { "name": "urn:ogc:def:crs:OGC:1.3:CRS84" } },
"features": [
{ "type": "Feature", "properties": { "capa": "comuna", "popup": "", "etiqueta": "" }, "geometry": { "type": "Polygon", "coordinates": [ [ [ -70.712278054865493, -33.482044476905365 ], [ -70.712003157812134, -33.482447133683252 ], [ -70.71200157677724, -33.482446628692614 ], [ -70.712001612709841, -33.482448486069075 ], [ -70.711877887745757, -33.482664680970345 ], [ -70.708856959446479, -33.481982495365415 ], [ -70.708807173915119, -33.481933929828969 ], [ -70.708654094702496, -33.481936040462458 ], [ -70.705473425284438, -33.481211932811988 ], [ -70.703150278653439, -33.480627487275193 ], [ -70.702466140597679, -33.480481663178523 ], [ -70.701918785416964, -33.480374936094094 ], [ -70.70159251820408, -33.480324468777184 ], [ -70.701246388341971, -33.480271553588523 ], [ -70.700793398486908, -33.480222111953125 ], [ -70.700227546994498, -33.480154762130901 ], [ -70.699624582504441, -33.480035955741961 ], [ -70.699072286589654, -33.479922707995293 ], [ -70.698611362813992, -33.479783406582705 ], [ -70.697924480405035, -33.479567805404329 ], [ -70.697346888830182, -33.479389649998467 ], [ -70.696587392003551, -33.479154879198404 ], [ -70.6958127190385, -33.478928642750319 ], [ -70.695005821707582, -33.478725729940457 ], [ -70.693352280187696, -33.478348099792917 ], [ -70.69215414499098, -33.478099282381876 ], [ -70.691675684304371, -33.478122744641063 ], [ -70.69167330017558, -33.478120041232891 ], [ -70.691574617546678, -33.47812770113898 ], [ -70.690741896346296, -33.478223728266109 ], [ -70.687577795455326, -33.478194463602215 ], [ -70.685697204747385, -33.478108431112716 ], [ -70.685556092890977, -33.478616282314512 ], [ -70.685630113172081, -33.479779571083419 ], [ -70.686137366660191, -33.482058041285072 ], [ -70.68688996981534, -33.483615535481007 ], [ -70.688168802470656, -33.486827161701996 ], [ -70.688542648054224, -33.487532242173785 ], [ -70.688887285814673, -33.488272072015128 ], [ -70.689157908683896, -33.488909555720753 ], [ -70.689648882902432, -33.489879064432216 ], [ -70.689946405822852, -33.490620715693517 ], [ -70.690607575753447, -33.492331342164817 ], [ -70.690968222390552, -33.493243051557478 ], [ -70.691201871500994, -33.493745397694752 ], [ -70.691897833182537, -33.495178109792462 ], [ -70.693105537233663, -33.497599675138197 ], [ -70.693236922132172, -33.497870893376621 ], [ -70.694136281258665, -33.499770398793146 ], [ -70.694185502648011, -33.499758718913 ], [ -70.695409121252709, -33.502433902914113 ], [ -70.696599478835708, -33.505035997477123 ], [ -70.696889834098471, -33.505671049203926 ], [ -70.699911624780427, -33.511764579811206 ], [ -70.702114881355286, -33.51620714069648 ], [ -70.702341414910379, -33.516668706660838 ], [ -70.703983477757561, -33.52001575239747 ], [ -70.706002745887503, -33.524131054960748 ], [ -70.706116748385256, -33.524690054241866 ], [ -70.706233114350539, -33.52537837732492 ], [ -70.7067412221365, -33.531239733293127 ], [ -70.70729893219746, -33.531030882111018 ], [ -70.715996834901674, -33.527779008937003 ], [ -70.718247383284648, -33.526942448949967 ], [ -70.718373471716248, -33.526914117357187 ], [ -70.721796299087146, -33.525636314905903 ], [ -70.724713333630561, -33.524559649657164 ], [ -70.726397530159531, -33.523914949381229 ], [ -70.723916021323717, -33.520757137215128 ], [ -70.719855945259965, -33.516129875018642 ], [ -70.718522791479401, -33.514083481175497 ], [ -70.723336897222993, -33.51003564516413 ], [ -70.730661183331293, -33.509809846668396 ], [ -70.731296319186612, -33.509800969431311 ], [ -70.732883803990404, -33.509778768095551 ], [ -70.73392705076752, -33.509764166937302 ], [ -70.740087143623782, -33.510122776183785 ], [ -70.736833672938488, -33.503535612017231 ], [ -70.735226199721311, -33.499943239410968 ], [ -70.733924327973881, -33.497354487060576 ], [ -70.733336689640893, -33.496375527201231 ], [ -70.732236586692821, -33.495329468459985 ], [ -70.731547904958347, -33.494906627662658 ], [ -70.731456569650149, -33.482758212589538 ], [ -70.731139326014315, -33.482738488054274 ], [ -70.730593775549011, -33.482844512435832 ], [ -70.730282192197762, -33.482914392598737 ], [ -70.729817423632696, -33.483150340003426 ], [ -70.729468660808465, -33.483319140198667 ], [ -70.728999980080332, -33.483358481859426 ], [ -70.728570430864309, -33.483397202385667 ], [ -70.728099145021829, -33.483305447147714 ], [ -70.727623954202841, -33.483017014469311 ], [ -70.727305951490592, -33.482759262276936 ], [ -70.726986470151374, -33.482435854559718 ], [ -70.726631287966129, -33.482276873007294 ], [ -70.72608369563018, -33.482284503325275 ], [ -70.725810506274186, -33.482321109961291 ], [ -70.725148940186543, -33.482494253640603 ], [ -70.725145491554187, -33.482486405311121 ], [ -70.725140622685345, -33.482488738456603 ], [ -70.724673063953006, -33.48267963734498 ], [ -70.724649210987266, -33.481994110211154 ], [ -70.724522337428127, -33.481493587019919 ], [ -70.724359960652308, -33.481222949106424 ], [ -70.72416459684095, -33.480964885129538 ], [ -70.723734983844508, -33.480465920449205 ], [ -70.72354076718176, -33.479949569179858 ], [ -70.723481311286378, -33.479640560156852 ], [ -70.723299606358921, -33.479199387484755 ], [ -70.723155992694444, -33.477845832931735 ], [ -70.722961140024481, -33.476820482612432 ], [ -70.722703720593302, -33.475453069219192 ], [ -70.722495765096596, -33.474344051409552 ], [ -70.722413936659052, -33.473950985702544 ], [ -70.722312013806913, -33.473602598720589 ], [ -70.722231143871781, -33.473485930902775 ], [ -70.722321739866501, -33.473410407480991 ], [ -70.722372647393655, -33.47339477661442 ], [ -70.722406446506199, -33.473384395499508 ], [ -70.722323101712476, -33.473361091562943 ], [ -70.722006077265547, -33.473448681361731 ], [ -70.721273435574332, -33.474032065588396 ], [ -70.720149622492642, -33.474935292859165 ], [ -70.71950609727088, -33.475533016999705 ], [ -70.718730137918342, -33.476250334025352 ], [ -70.717845556078288, -33.477085140704006 ], [ -70.717750232250239, -33.477221100877941 ], [ -70.716955837671435, -33.477883237932005 ], [ -70.714866395846443, -33.47974208523172 ], [ -70.712278054865493, -33.482044476905365 ] ] ] } },
{ "type": "Feature", "properties": { "capa": "ds19", "popup": "<strong>SAN ALBERTO DE CERRILLOS PONIENTE</strong><br><br><strong>Programa:</strong> DS19<br><strong>Comuna:</strong> Cerrillos<br><strong>Región:</strong> Metropolitana<br><strong>Año de inicio:</strong> 2019", "etiqueta": "SAN ALBERTO DE CERRILLOS PONIENTE" }, "geometry": { "type": "Polygon", "coordinates": [ [ [ -70.700887125110384, -33.498696324896855 ], [ -70.700861621041156, -33.498671074856126 ], [ -70.699537984012736, -33.49946152191486 ], [ -70.699597467755893, -33.49952457189147 ], [ -70.699637824570033, -33.499602655427445 ], [ -70.699662040455152, -33.499657852535137 ], [ -70.699681409929298, -33.499754783170573 ], [ -70.699698406952791, -33.499849061905877 ], [ -70.699726188251276, -33.499984214781271 ], [ -70.699756284508226, -33.500101990771938 ], [ -70.699800273211068, -33.500219767351467 ], [ -70.699841946955416, -33.500293136987196 ], [ -70.699904460716041, -33.500389675886787 ], [ -70.700075791898598, -33.500584684510173 ], [ -70.699784049637032, -33.500760378268133 ], [ -70.700008634746268, -33.501028758064948 ], [ -70.700565255150821, -33.500693554545478 ], [ -70.700597898131619, -33.500671438516413 ], [ -70.700634054423489, -33.500641048068985 ], [ -70.700661044306202, -33.500607288966179 ], [ -70.700685037409116, -33.500558524878841 ], [ -70.700703032460893, -33.500493505553614 ], [ -70.700718028936251, -33.500435989051354 ], [ -70.700735252335178, -33.500379492021125 ], [ -70.700750680001889, -33.500337228404092 ], [ -70.700771616137885, -33.500304151603515 ], [ -70.700829719170471, -33.500240890951261 ], [ -70.701659979885292, -33.499741571389876 ], [ -70.700799295028432, -33.498746260132485 ], [ -70.700887125110384, -33.498696324896855 ] ] ] } },
{ "type": "Feature", "properties": { "capa": "ds19", "popup": "<strong>SAN ALBERTO DE CERRILLOS ORIENTE</strong><br><br><strong>Programa:</strong> DS19<br><strong>Comuna:</strong> Cerrillos<br><strong>Región:</strong> Metropolitana<br><strong>Año de inicio:</strong> 2019", "etiqueta": "SAN ALBERTO DE CERRILLOS ORIENTE" }, "geometry": { "type": "Polygon", "coordinates": [ [ [ -70.700794647145131, -33.498590325165814 ], [ -70.698008806159081, -33.500314353456183 ], [ -70.69894249440415, -33.501382705276647 ], [ -70.699850866327878, -33.500843544729968 ], [ -70.699781282825953, -33.500761844229039 ], [ -70.700082130411232, -33.500580810979542 ], [ -70.69991917422206, -33.500404402226351 ], [ -70.699839435265872, -33.500290083696939 ], [ -70.699813203561263, -33.500245305340229 ], [ -70.699773917538963, -33.500146627624524 ], [ -70.699755769773574, -33.500107369248731 ], [ -70.699743143053936, -33.500042778814326 ], [ -70.699699304369773, -33.499835445628904 ], [ -70.699676664129655, -33.499734228015029 ], [ -70.69966244290039, -33.499680559859208 ], [ -70.699646799638046, -33.499622011312098 ], [ -70.699631958571231, -33.499575909706223 ], [ -70.699597214430995, -33.499520950009838 ], [ -70.699538102590338, -33.499452717027808 ], [ -70.700860453231272, -33.498665132963943 ], [ -70.700794647145131, -33.498590325165814 ] ] ] } },
{ "type": "Feature", "properties": { "capa": "ds19", "popup": "<strong>SAN ALBERTO DE CERRILLOS SUR</strong><br><br><strong>Programa:</strong> DS19<br><strong>Comuna:</strong> Cerrillos<br><strong>Región:</strong> Metropolitana<br><strong>Año de inicio:</strong> 2019", "etiqueta": "SAN ALBERTO DE CERRILLOS SUR" }, "geometry": { "type": "Polygon", "coordinates": [ [ [ -70.702601219368646, -33.500690902779638 ], [ -70.700874781360071, -33.498691129113716 ], [ -70.700791190427921, -33.498746549286331 ], [ -70.701658656666893, -33.499740626781545 ], [ -70.700871137793271, -33.500216608436872 ], [ -70.700813439900884, -33.500257288536233 ], [ -70.700775436672799, -33.500301418174978 ], [ -70.700755270392989, -33.500339105622245 ], [ -70.700732788256374, -33.500406398548186 ], [ -70.700701954482554, -33.500512158594582 ], [ -70.700681607641371, -33.500572633941623 ], [ -70.700655476548064, -33.500623231036862 ], [ -70.700621634316377, -33.500660656163689 ], [ -70.700308874172109, -33.50085482445234 ], [ -70.700476966029754, -33.501048969832951 ], [ -70.701025933686395, -33.500717968765237 ], [ -70.700974005673089, -33.50066218205319 ], [ -70.701013028489029, -33.500637115363048 ], [ -70.701528236558985, -33.501230950440785 ], [ -70.700711020280394, -33.501726617149366 ], [ -70.700078953968401, -33.50099693174942 ], [ -70.700000210345536, -33.501039971094784 ], [ -70.700114789561724, -33.501171247857499 ], [ -70.699431707026406, -33.501597390707893 ], [ -70.700011682730022, -33.502255651472851 ], [ -70.702601219368646, -33.500690902779638 ] ] ] } },
{ "type": "Feature", "properties": { "capa": "ds19", "popup": "<strong>ALTO PARQUE</strong><br><br><strong>Programa:</strong> DS19<br><strong>Comuna:</strong> Cerrillos<br><strong>Región:</strong> Metropolitana<br><strong>Año de inicio:</strong> 2019", "etiqueta": "ALTO PARQUE" }, "geometry": { "type": "Polygon", "coordinates": [ [ [ -70.706502821836509, -33.496925367299596 ], [ -70.705766148506285, -33.495910129079796 ], [ -70.705430307049113, -33.496096962092992 ], [ -70.705375497240368, -33.496021690613574 ], [ -70.704242772871069, -33.496703423286178 ], [ -70.704293118052846, -33.496770019359914 ], [ -70.706502821836509, -33.496925367299596 ] ] ] } },
{ "type": "Feature", "properties": { "capa": "ds19", "popup": "<strong>EMBLEMA BICENTENARIO</strong><br><br><strong>Programa:</strong> DS19<br><strong>Comuna:</strong> Cerrillos<br><strong>Región:</strong> Metropolitana<br><strong>Año de inicio:</strong> 2019", "etiqueta": "EMBLEMA BICENTENARIO" }, "geometry": { "type": "Polygon", "coordinates": [ [ [ -70.702315453598658, -33.503044996133191 ], [ -70.701210853684259, -33.502559356538193 ], [ -70.700482853588127, -33.503389695408146 ], [ -70.702315453598658, -33.503044996133191 ] ] ] } },
{ "type": "Feature", "properties": { "capa": "ds19", "popup": "<strong>LOTE B8</strong><br><br><strong>Programa:</strong> DS19<br><strong>Comuna:</strong> Cerrillos<br><strong>Región:</strong> Metropolitana<br><strong>Año de inicio:</strong> 0", "etiqueta": "LOTE B8" }, "geometry": { "type": "Polygon", "coordinates": [ [ [ -70.702856491826296, -33.495189892172824 ], [ -70.703581390938069, -33.494836011784479 ], [ -70.703060893587718, -33.494074497875637 ], [ -70.702303131407916, -33.494509732013206 ], [ -70.702856491826296, -33.495189892172824 ] ] ] } },
{ "type": "Feature", "properties": { "capa": "ds19", "popup": "<strong>DS19 LOTE VI B2 GDI</strong><br><br><strong>Programa:</strong> DS19<br><strong>Comuna:</strong> Cerrillos<br><strong>Región:</strong> Metropolitana<br><strong>Año de inicio:</strong> 0", "etiqueta": "DS19 LOTE VI B2 GDI" }, "geometry": { "type": "Polygon", "coordinates": [ [ [ -70.706777060424741, -33.502670125227723 ], [ -70.708343088069668, -33.501754092556347 ], [ -70.707611006927181, -33.500906942024237 ], [ -70.706358015209318, -33.501830457197777 ], [ -70.706777060424741, -33.502670125227723 ] ] ] } },
{ "type": "Feature", "properties": { "capa": "ds19", "popup": "<strong>LOTE C</strong><br><br><strong>Programa:</strong> DS19<br><strong>Comuna:</strong> Cerrillos<br><strong>Región:</strong> Metropolitana<br><strong>Año de inicio:</strong> 2021", "etiqueta": "LOTE C" }, "geometry": { "type": "Polygon", "coordinates": [ [ [ -70.69375646816664, -33.486852469139677 ], [ -70.69548555800192, -33.485565090432786 ], [ -70.694592830238875, -33.484761706273844 ], [ -70.692756635170568, -33.486041573324009 ], [ -70.69375646816664, -33.486852469139677 ] ] ] } },
{ "type": "Feature", "properties": { "capa": "ds19", "popup": "<strong>LOTE B</strong><br><br><strong>Programa:</strong> DS19<br><strong>Comuna:</strong> Cerrillos<br><strong>Región:</strong> Metropolitana<br><strong>Año de inicio:</strong> 0", "etiqueta": "LOTE B" }, "geometry": { "type": "Polygon", "coordinates": [ [ [ -70.692713688513464, -33.486033197869801 ], [ -70.694442777450433, -33.484745833208088 ], [ -70.693937373593499, -33.484290998136579 ], [ -70.692869159041379, -33.484738418883566 ], [ -70.692210702022948, -33.484919740743287 ], [ -70.691716899907902, -33.484827896462143 ], [ -70.691713873483721, -33.485222292135951 ], [ -70.692713688513464, -33.486033197869801 ] ] ] } },
{ "type": "Feature", "properties": { "capa": "ds19", "popup": "<strong>CONDOMINIO VIENTO SUR</strong><br><br><strong>Programa:</strong> DS19<br><strong>Comuna:</strong> Cerrillos<br><strong>Región:</strong> Metropolitana de Santiago<br><strong>Año de inicio:</strong> 2023", "etiqueta": "CONDOMINIO VIENTO SUR" }, "geometry": { "type": "Polygon", "coordinates": [ [ [ -70.698267668284615, -33.500070773876359 ], [ -70.699587558440001, -33.499293476813016 ], [ -70.697748163572655, -33.497191821021225 ], [ -70.696459552755471, -33.497977529233729 ], [ -70.698267668284615, -33.500070773876359 ] ] ] } },
{ "type": "Feature", "properties": { "capa": "colegios", "popup": "<strong>ESCUELA ESPECIAL DE LENGUAJE SAN GABRIEL</strong><br><br><strong>Dirección:</strong> LOS METALES 485", "etiqueta": "" }, "geometry": { "type": "Point", "coordinates": [ -70.715385, -33.51953 ] } },
{ "type": "Feature", "properties": { "capa": "colegios", "popup": "<strong>ESCUELA DE PARVULOS OESTE</strong><br><br><strong>Dirección:</strong> NUEVA UNO 2600", "etiqueta": "" }, "geometry": { "type": "Point", "coordinates": [ -70.7081, -33.515565 ] } },
{ "type": "Feature", "properties": { "capa": "colegios", "popup": "<strong>ESCUELA  ESPECIAL  DE  LENGUAJE N° 2235,  ANTÚ KÚYEN</strong><br><br><strong>Dirección:</strong> CARRIEL SUR 3064", "etiqueta": "" }, "geometry": { "type": "Point", "coordinates": [ -70.70448861, -33.514704690000016 ] } },
{ "type": "Feature", "properties": { "capa": "colegios", "popup": "<strong>ESCUELA SANTA ADELA</strong><br><br><strong>Dirección:</strong> LOS PROFESORES 7400", "etiqueta": "" }, "geometry": { "type": "Point", "coordinates": [ -70.71648165, -33.50934752 ] } },
{ "type": "Feature", "properties": { "capa": "colegios", "popup": "<strong>ESCUELA J.PRIETO VIAL</strong><br><br><strong>Dirección:</strong> GOLFO DE MEXICO 361", "etiqueta": "" }, "geometry": { "type": "Point", "coordinates": [ -70.73827342, -33.50924638 ] } },
{ "type": "Feature", "properties": { "capa": "colegios", "popup": "<strong>COLEGIO LOS CONQUISTADORES</strong><br><br><strong>Dirección:</strong> SAN JOSE 215", "etiqueta": "" }, "geometry": { "type": "Point", "coordinates": [ -70.72668105, -33.50895698 ] } },
{ "type": "Feature", "properties": { "capa": "colegios", "popup": "<strong>ESCUELA ESPECIAL PARTICULAR SOR TERESA</strong><br><br><strong>Dirección:</strong> LOS COPIHUES 455", "etiqueta": "" }, "geometry": { "type": "Point", "coordinates": [ -70.72681, -33.507526 ] } },
{ "type": "Feature", "properties": { "capa": "colegios", "popup": "<strong>ESCUELA LOTHAR KOMMER BRUGER</strong><br><br><strong>Dirección:</strong> AVENIDA LAS TORRES 539", "etiqueta": "" }, "geometry": { "type": "Point", "coordinates": [ -70.73412556, -33.506904880000015 ] } },
{ "type": "Feature", "properties": { "capa": "colegios", "popup": "<strong>ESCUELA DE PARVULOS Y ESPECIAL MANITOS CREATI</strong><br><br><strong>Dirección:</strong> MUSICO VICTOR TEVAH TELLIAS 2950", "etiqueta": "" }, "geometry": { "type": "Point", "coordinates": [ -70.703178, -33.506466 ] } },
{ "type": "Feature", "properties": { "capa": "colegios", "popup": "<strong>ESCUELA PARTICULAR SAINT RODRIC COLLEGE</strong><br><br><strong>Dirección:</strong> EL ALMENDRO 830", "etiqueta": "" }, "geometry": { "type": "Point", "coordinates": [ -70.725239500000015, -33.50602268 ] } },
{ "type": "Feature", "properties": { "capa": "colegios", "popup": "<strong>COLEGIO INDUSTRIAL PART. DON ORIONE</strong><br><br><strong>Dirección:</strong> AVENIDA PEDRO AGUIRRE CERDA 7335", "etiqueta": "" }, "geometry": { "type": "Point", "coordinates": [ -70.71201881, -33.50360544 ] } },
{ "type": "Feature", "properties": { "capa": "colegios", "popup": "<strong>ESCUELA DE PARV. ICHUAC</strong><br><br><strong>Dirección:</strong> EL MIRADOR 1460", "etiqueta": "" }, "geometry": { "type": "Point", "coordinates": [ -70.72668, -33.502647 ] } },
{ "type": "Feature", "properties": { "capa": "colegios", "popup": "<strong>COLEGIO PETER COLLEGE</strong><br><br><strong>Dirección:</strong> SANTA TERESITA 7558", "etiqueta": "" }, "geometry": { "type": "Point", "coordinates": [ -70.72587956, -33.502623159999985 ] } },
{ "type": "Feature", "properties": { "capa": "colegios", "popup": "<strong>ESC. BASICA PARTIC.SAINT MAURICES</strong><br><br><strong>Dirección:</strong> AVENIDA EL MIRADOR 1543", "etiqueta": "" }, "geometry": { "type": "Point", "coordinates": [ -70.72849209, -33.5023516 ] } },
{ "type": "Feature", "properties": { "capa": "colegios", "popup": "<strong>COLEGIO SAN JOSE DE CERRILLOS</strong><br><br><strong>Dirección:</strong> DON ORIONE 7357", "etiqueta": "" }, "geometry": { "type": "Point", "coordinates": [ -70.71721005000002, -33.50147309 ] } },
{ "type": "Feature", "properties": { "capa": "colegios", "popup": "<strong>ESCUELA PARTICULAR ESPECIAL DON ORIONE</strong><br><br><strong>Dirección:</strong> AVENIDA DON ORIONE 7306", "etiqueta": "" }, "geometry": { "type": "Point", "coordinates": [ -70.71658, -33.501175 ] } },
{ "type": "Feature", "properties": { "capa": "colegios", "popup": "<strong>ESC. BAS.SAN AGUSTIN DE CERRILLOS</strong><br><br><strong>Dirección:</strong> 14 DE OCTUBRE 735", "etiqueta": "" }, "geometry": { "type": "Point", "coordinates": [ -70.7221557, -33.50110781 ] } },
{ "type": "Feature", "properties": { "capa": "colegios", "popup": "<strong>COLEGIO PARTICULAR ESPECIAL JUAN XXIII</strong><br><br><strong>Dirección:</strong> DOCTOR VARGAS SALCEDO 1471", "etiqueta": "" }, "geometry": { "type": "Point", "coordinates": [ -70.726006, -33.500835 ] } },
{ "type": "Feature", "properties": { "capa": "colegios", "popup": "<strong>COLEGIO PARTICULAR MATER DEI</strong><br><br><strong>Dirección:</strong> LO ERRAZURIZ 186", "etiqueta": "" }, "geometry": { "type": "Point", "coordinates": [ -70.71193514, -33.50068912 ] } },
{ "type": "Feature", "properties": { "capa": "colegios", "popup": "<strong>ESCUELA ESTRELLA REINA DE CHILE</strong><br><br><strong>Dirección:</strong> CALLE 14 DE OCTUBRE 1151", "etiqueta": "" }, "geometry": { "type": "Point", "coordinates": [ -70.72539113, -33.499827520000011 ] } },
{ "type": "Feature", "properties": { "capa": "colegios", "popup": "<strong>ESCUELA BAS. AKORI</strong><br><br><strong>Dirección:</strong> PAICAVI 921", "etiqueta": "" }, "geometry": { "type": "Point", "coordinates": [ -70.72107247, -33.49922901 ] } },
{ "type": "Feature", "properties": { "capa": "colegios", "popup": "<strong>ESCUELA BASICA CAMPOS DE MAIPU-CERRILLOS</strong><br><br><strong>Dirección:</strong> ARTURO PRAT 7307", "etiqueta": "" }, "geometry": { "type": "Point", "coordinates": [ -70.723737379999989, -33.49900348 ] } },
{ "type": "Feature", "properties": { "capa": "colegios", "popup": "<strong>LICEO POLIVALENTE DR. LUIS VARGAS SALCEDO</strong><br><br><strong>Dirección:</strong> CALLE DOCTOR LUIS VARGAS SALCEDO 1720", "etiqueta": "" }, "geometry": { "type": "Point", "coordinates": [ -70.73097771, -33.49895872 ] } },
{ "type": "Feature", "properties": { "capa": "colegios", "popup": "<strong>COLEGIO BICENTENARIO DE EXCELENCIA POLITECNICO ALEMAN ALBERT EINSTEIN</strong><br><br><strong>Dirección:</strong> LO ERRAZURIZ 800", "etiqueta": "" }, "geometry": { "type": "Point", "coordinates": [ -70.719373409999989, -33.49711154 ] } },
{ "type": "Feature", "properties": { "capa": "colegios", "popup": "<strong>ESCUELA ESP. DIVINO MAESTRO DE CERRILLOS</strong><br><br><strong>Dirección:</strong> DIVINO MAESTRO 7260", "etiqueta": "" }, "geometry": { "type": "Point", "coordinates": [ -70.72793, -33.496162 ] } },
{ "type": "Feature", "properties": { "capa": "colegios", "popup": "<strong>ESCUELA CERRILLOS</strong><br><br><strong>Dirección:</strong> AVENIDA LOS CERRILLOS 570", "etiqueta": "" }, "geometry": { "type": "Point", "coordinates": [ -70.71027254, -33.49396474 ] } },
{ "type": "Feature", "properties": { "capa": "colegios", "popup": "<strong>ESCUELA BASICA CONDORES DE PLATA</strong><br><br><strong>Dirección:</strong> SALOMON SACK 925", "etiqueta": "" }, "geometry": { "type": "Point", "coordinates": [ -70.71815383, -33.49381185 ] } },
{ "type": "Feature", "properties": { "capa": "colegios", "popup": "<strong>ESCUELA ESP. EL SEMBRADOR DE CERRILLOS</strong><br><br><strong>Dirección:</strong> HECTOR ORREGO 7134", "etiqueta": "" }, "geometry": { "type": "Point", "coordinates": [ -70.72551, -33.493546 ] } },
{ "type": "Feature", "properties": { "capa": "colegios", "popup": "<strong>ESCUELA ESPEC.STA. TERESA DE AVILA</strong><br><br><strong>Dirección:</strong> HORACIO ROMAN SALINAS 2011", "etiqueta": "" }, "geometry": { "type": "Point", "coordinates": [ -70.724884, -33.489876 ] } },
{ "type": "Feature", "properties": { "capa": "colegios", "popup": "<strong>EJERCITO LIBERTADOR DE CERRILLOS</strong><br><br><strong>Dirección:</strong> ROSA ESTER RODRIGUEZ 6902", "etiqueta": "" }, "geometry": { "type": "Point", "coordinates": [ -70.72318235, -33.48898782 ] } },
{ "type": "Feature", "properties": { "capa": "colegios", "popup": "<strong>ESCUELA ESPECIAL AMERICA DEL SUR</strong><br><br><strong>Dirección:</strong> SAN ANDRES 4575", "etiqueta": "" }, "geometry": { "type": "Point", "coordinates": [ -70.6919, -33.484016 ] } },
{ "type": "Feature", "properties": { "capa": "colegios", "popup": "<strong>ESCUELA BASICA PEDRO AGUIRRE CERDA</strong><br><br><strong>Dirección:</strong> BUZETA 4479", "etiqueta": "" }, "geometry": { "type": "Point", "coordinates": [ -70.69316402, -33.48183896 ] } },
{ "type": "Feature", "properties": { "capa": "colegios", "popup": "<strong>ESCUELA PARTICULAR AMOR DE DIOS</strong><br><br><strong>Dirección:</strong> AVENIDA UNO 2988", "etiqueta": "" }, "geometry": { "type": "Point", "coordinates": [ -70.68673501, -33.479364379999986 ] } },
{ "type": "Feature", "properties": { "capa": "jardines", "popup": "<strong>MI REFUGIO</strong><br><br><strong>Dirección:</strong> ROSA ESTER RODRIGUEZ 7077 VILLA LOS PRESIDENTES ", "etiqueta": "" }, "geometry": { "type": "MultiPoint", "coordinates": [ [ -70.724777, -33.489979 ] ] } },
{ "type": "Feature", "properties": { "capa": "jardines", "popup": "<strong>RAYITO DE SOL</strong><br><br><strong>Dirección:</strong> LA PRIMAVERA SUR 595 VILLA MEXICO ", "etiqueta": "" }, "geometry": { "type": "MultiPoint", "coordinates": [ [ -70.73815, -33.50863 ] ] } },
{ "type": "Feature", "properties": { "capa": "jardines", "popup": "<strong>LAS TORRES</strong><br><br><strong>Dirección:</strong> PJE. GANIMIDES 7471 POB. LAS TORRES ", "etiqueta": "" }, "geometry": { "type": "MultiPoint", "coordinates": [ [ -70.731822, -33.499668 ] ] } },
{ "type": "Feature", "properties": { "capa": "jardines", "popup": "<strong>CONDORES DE PLATA</strong><br><br><strong>Dirección:</strong> AV. SALOMON SACK # 925, ", "etiqueta": "" }, "geometry": { "type": "MultiPoint", "coordinates": [ [ -70.718149, -33.493809 ] ] } },
{ "type": "Feature", "properties": { "capa": "jardines", "popup": "<strong>CARDENAL RAUL SILVA HENRIQUEZ</strong><br><br><strong>Dirección:</strong> CARDENAL JUAN FRANCISCO FRESNO N 240 ", "etiqueta": "" }, "geometry": { "type": "MultiPoint", "coordinates": [ [ -70.719033, -33.480306 ] ] } },
{ "type": "Feature", "properties": { "capa": "jardines", "popup": "<strong>EL MIRADOR</strong><br><br><strong>Dirección:</strong> AVDA LAS TORRES N 7590 ", "etiqueta": "" }, "geometry": { "type": "MultiPoint", "coordinates": [ [ -70.733124, -33.500448 ] ] } },
{ "type": "Feature", "properties": { "capa": "jardines", "popup": "<strong>ANGEL FANTUZZI</strong><br><br><strong>Dirección:</strong> DIPUTADO ANGEL FANTUZZI 7621 ", "etiqueta": "" }, "geometry": { "type": "MultiPoint", "coordinates": [ [ -70.701873, -33.514075 ] ] } },
{ "type": "Feature", "properties": { "capa": "jardines", "popup": "<strong>RIO MAGDALENA</strong><br><br><strong>Dirección:</strong> RIO MAGDALENA 540 ", "etiqueta": "" }, "geometry": { "type": "MultiPoint", "coordinates": [ [ -70.733376, -33.507053 ] ] } },
{ "type": "Feature", "properties": { "capa": "jardines", "popup": "<strong>ORESTE PLATH</strong><br><br><strong>Dirección:</strong> AVDA COSTANERA NORTE DEL FERROCARRIL 6971 ", "etiqueta": "" }, "geometry": { "type": "MultiPoint", "coordinates": [ [ -70.721805, -33.489381 ] ] } },
{ "type": "Feature", "properties": { "capa": "jardines", "popup": "<strong>VILLA MEXICO</strong><br><br><strong>Dirección:</strong> GOLFO MEXICO 361 ", "etiqueta": "" }, "geometry": { "type": "MultiPoint", "coordinates": [ [ -70.7375, -33.50905 ] ] } },
{ "type": "Feature", "properties": { "capa": "jardines", "popup": "<strong>NEWEN Y ALEGRÍA</strong><br><br><strong>Dirección:</strong> MONSEÑOR MANUEL VICUÑA  4035 ", "etiqueta": "" }, "geometry": { "type": "MultiPoint", "coordinates": [ [ -70.718082, -33.480448 ] ] } },
{ "type": "Feature", "properties": { "capa": "jardines", "popup": "<strong>PEUMAYEN</strong><br><br><strong>Dirección:</strong> AV LO ERRAZURIZ 4065 ", "etiqueta": "" }, "geometry": { "type": "MultiPoint", "coordinates": [ [ -70.722924, -33.479024 ] ] } },
{ "type": "Feature", "properties": { "capa": "jardines", "popup": "<strong>NICANOR PARRA</strong><br><br><strong>Dirección:</strong> FERNANDEZ ALBANO 2925 ", "etiqueta": "" }, "geometry": { "type": "MultiPoint", "coordinates": [ [ -70.705929, -33.509682 ] ] } },
{ "type": "Feature", "properties": { "capa": "jardines", "popup": "<strong>JOSE BERNALES</strong><br><br><strong>Dirección:</strong> JOSE BERNALES 7176 ", "etiqueta": "" }, "geometry": { "type": "MultiPoint", "coordinates": [ [ -70.704828, -33.506289 ] ] } },
{ "type": "Feature", "properties": { "capa": "jardines", "popup": "<strong>PINCELADAS DE AMOR</strong><br><br><strong>Dirección:</strong> MANUTARA / PASAJE CANBERRA ", "etiqueta": "" }, "geometry": { "type": "MultiPoint", "coordinates": [ [ -70.70211, -33.511926 ] ] } },
{ "type": "Feature", "properties": { "capa": "jardines", "popup": "<strong>NA</strong><br><br><strong>Dirección:</strong> NA ", "etiqueta": "" }, "geometry": { "type": "MultiPoint", "coordinates": [ [ -70.721987999962053, -33.502686000056833 ] ] } },
{ "type": "Feature", "properties": { "capa": "comisarias", "popup": "<strong>SCOM. CERRILLOS</strong><br><br><strong>Dirección:</strong> BUZETA 3986", "etiqueta": "" }, "geometry": { "type": "Point", "coordinates": [ -70.687951442098679, -33.479598111433248 ] } },
{ "type": "Feature", "properties": { "capa": "comisarias", "popup": "<strong>34A. COM. VISTA ALEGRE</strong><br><br><strong>Dirección:</strong> LAS TORRES 7468", "etiqueta": "" }, "geometry": { "type": "Point", "coordinates": [ -70.73229265, -33.49881765 ] } },
{ "type": "Feature", "properties": { "capa": "salud", "popup": "<strong>Centro Integramédica Oeste</strong><br><br><strong>Tipo de atención:</strong> Centro de Salud Privado<br><strong>Dirección:</strong>  1501", "etiqueta": "" }, "geometry": { "type": "Point", "coordinates": [ -70.717478, -33.516665 ] } },
{ "type": "Feature", "properties": { "capa": "salud", "popup": "<strong>Centro de Salud Familiar Enfermera Sofía Pincheira</strong><br><br><strong>Tipo de atención:</strong> Centro de Salud Familiar (CESFAM)<br><strong>Dirección:</strong>  7590", "etiqueta": "" }, "geometry": { "type": "Point", "coordinates": [ -70.73355, -33.50148 ] } },
{ "type": "Feature", "properties": { "capa": "salud", "popup": "<strong>SAR Enfermera Sofía Pincheira</strong><br><br><strong>Tipo de atención:</strong> Servicio de Atención Primaria de Urgencia de Alta Resolutividad (SAR)<br><strong>Dirección:</strong>  7590", "etiqueta": "" }, "geometry": { "type": "Point", "coordinates": [ -70.733545, -33.501479 ] } },
{ "type": "Feature", "properties": { "capa": "salud", "popup": "<strong>Consultorio Escuela de formación policial de Carabineros de Chile</strong><br><br><strong>Tipo de atención:</strong> Centro de Salud Privado<br><strong>Dirección:</strong>  6655", "etiqueta": "" }, "geometry": { "type": "Point", "coordinates": [ -70.708225, -33.497702 ] } },
{ "type": "Feature", "properties": { "capa": "salud", "popup": "<strong>SAPU Dr. Norman Voulliéme</strong><br><br><strong>Tipo de atención:</strong> Servicio de Atención Primaria de Urgencia (SAPU)<br><strong>Dirección:</strong>  1323", "etiqueta": "" }, "geometry": { "type": "Point", "coordinates": [ -70.719326, -33.493334 ] } },
{ "type": "Feature", "properties": { "capa": "salud", "popup": "<strong>Centro de Salud Familiar Dr. Norman Voulliéme</strong><br><br><strong>Tipo de atención:</strong> Centro de Salud Familiar (CESFAM)<br><strong>Dirección:</strong>  6376", "etiqueta": "" }, "geometry": { "type": "Point", "coordinates": [ -70.7192, -33.49331 ] } }
]
}
