{
"type": "FeatureCollection",
"name": "13109",
"crs": { "type": "name", "properties": { "name": "urn:ogc:def:crs:OGC:1.3:CRS84" } },
"features": [
{ "type": "Feature", "properties": { "capa": "comuna", "popup": "", "etiqueta": "" }, "geometry": { "type": "Polygon", "coordinates": [ [ [ -70.652861944956385, -33.547608975600426 ], [ -70.653197461223414, -33.54879198992154 ], [ -70.653503634021703, -33.548744495788497 ], [ -70.653508334905581, -33.548761560977496 ], [ -70.654530684174247, -33.548577461295132 ], [ -70.654688242386868, -33.548573191620051 ], [ -70.656805682004318, -33.54821823736556 ], [ -70.65680477470589, -33.548170718210841 ], [ -70.656816511195075, -33.548169514341019 ], [ -70.656780407903796, -33.548023404996663 ], [ -70.657548228519858, -33.547892190348982 ], [ -70.657957937544523, -33.547826198878433 ], [ -70.659083455628618, -33.547649920158506 ], [ -70.66151348471044, -33.547241740476849 ], [ -70.663097897275946, -33.546975342071832 ], [ -70.663978624445136, -33.546830012337352 ], [ -70.664133000825018, -33.546801267997125 ], [ -70.664653276291489, -33.546713673055784 ], [ -70.665527825746466, -33.546566510838822 ], [ -70.666665410001443, -33.54636996473571 ], [ -70.66695031698201, -33.54623288906209 ], [ -70.667726830595072, -33.545810713308462 ], [ -70.668086009385007, -33.545615392601398 ], [ -70.668250375030865, -33.545399602017021 ], [ -70.668385015423951, -33.545348816981601 ], [ -70.668761516427537, -33.545206802005517 ], [ -70.669683536455352, -33.54485901324508 ], [ -70.670305068224025, -33.54462456376941 ], [ -70.671091167759499, -33.544333980753002 ], [ -70.671413736608343, -33.544214740605128 ], [ -70.672102825279637, -33.543960009028893 ], [ -70.672624419472953, -33.543763617970825 ], [ -70.673582645199986, -33.543416969687179 ], [ -70.674588270533008, -33.543053566664959 ], [ -70.674779763503821, -33.542984405910367 ], [ -70.675357335315752, -33.54277580322637 ], [ -70.675778117872909, -33.542618505574275 ], [ -70.676074410101393, -33.542510225132737 ], [ -70.67663284510283, -33.542313209337529 ], [ -70.677137797107179, -33.542142438990737 ], [ -70.677628756054347, -33.541964393655526 ], [ -70.678129329670014, -33.541777278579524 ], [ -70.67864022133503, -33.541590020090574 ], [ -70.679369859059932, -33.541327615233932 ], [ -70.680039072505565, -33.54107504049454 ], [ -70.680424086843075, -33.54093454816708 ], [ -70.681118962461426, -33.540672605539328 ], [ -70.68207526489546, -33.540334930524757 ], [ -70.683713104762504, -33.539726533391523 ], [ -70.684560688589258, -33.539429251304078 ], [ -70.68538257700564, -33.539118352109412 ], [ -70.685379117593484, -33.539111895606077 ], [ -70.685619201336323, -33.539026348950657 ], [ -70.685764321475517, -33.538974614492595 ], [ -70.682732446306176, -33.533461768676354 ], [ -70.681909825762858, -33.53197562518082 ], [ -70.6770236059632, -33.52314691235707 ], [ -70.676105109127903, -33.521330170367833 ], [ -70.675096691830987, -33.519335266075984 ], [ -70.67332677985425, -33.515331971511507 ], [ -70.671894131367793, -33.512091005009296 ], [ -70.671331088008941, -33.510902026750891 ], [ -70.671234720338532, -33.510698487047463 ], [ -70.671101042041087, -33.510750559743897 ], [ -70.670490148122013, -33.510980208627323 ], [ -70.669859129245623, -33.511131078282453 ], [ -70.668866869945731, -33.51142400115048 ], [ -70.667113704362507, -33.511961645743433 ], [ -70.665017894380483, -33.512591711596258 ], [ -70.662953183175262, -33.513217040069165 ], [ -70.661382033336608, -33.513707020828235 ], [ -70.658070691384054, -33.514704997868854 ], [ -70.655775123032271, -33.515161904321793 ], [ -70.651288493633956, -33.516051518046616 ], [ -70.649028438380313, -33.516487437063532 ], [ -70.646806884919755, -33.516931816972111 ], [ -70.64462137635995, -33.517366664310849 ], [ -70.644675404634398, -33.517570394286174 ], [ -70.644782363442019, -33.517973714921624 ], [ -70.644893123021603, -33.51836408611657 ], [ -70.645125037485258, -33.519190641793905 ], [ -70.645343710781603, -33.520025647865324 ], [ -70.645441594808219, -33.520322735300176 ], [ -70.645709839836897, -33.521311187052206 ], [ -70.645977467722972, -33.522308659983075 ], [ -70.646191685375513, -33.523032847041335 ], [ -70.64625615836178, -33.523251833562426 ], [ -70.646622361078911, -33.524293058528372 ], [ -70.646770963986484, -33.524850255712543 ], [ -70.647098281329917, -33.526054302681935 ], [ -70.647605289577953, -33.527857448891758 ], [ -70.647708420664173, -33.528234842126494 ], [ -70.648002564122478, -33.528614273567108 ], [ -70.65085965229035, -33.538910402742914 ], [ -70.651107558562671, -33.539786922925693 ], [ -70.650915862572631, -33.540186269690246 ], [ -70.650987939797758, -33.540844362633031 ], [ -70.651776668702055, -33.543620027340161 ], [ -70.652093120922146, -33.544879300873859 ], [ -70.652861944956385, -33.547608975600426 ] ] ] } },
{ "type": "Feature", "properties": { "capa": "ds19", "popup": "<strong>EDIFICIO ALHUE VESPUCIO</strong><br><br><strong>Programa:</strong> DS19<br><strong>Comuna:</strong> La Cisterna<br><strong>Región:</strong> Metropolitana<br><strong>Año de inicio:</strong> 2020", "etiqueta": "EDIFICIO ALHUE VESPUCIO" }, "geometry": { "type": "Polygon", "coordinates": [ [ [ -70.677657758163292, -33.533584450924003 ], [ -70.677288168797531, -33.533704020982363 ], [ -70.677312158307203, -33.533777164541796 ], [ -70.67703956273759, -33.533858761983232 ], [ -70.677067479681682, -33.5339465152203 ], [ -70.677348574212175, -33.533872357181345 ], [ -70.677554746553028, -33.534417836907608 ], [ -70.677937083911004, -33.53430942563665 ], [ -70.677657758163292, -33.533584450924003 ] ] ] } },
{ "type": "Feature", "properties": { "capa": "colegios", "popup": "<strong>ESCUELA ESPECIAL ANCHIMALLEN</strong><br><br><strong>Dirección:</strong> AVENIDA AMERICO VESPUCIO 1237", "etiqueta": "" }, "geometry": { "type": "Point", "coordinates": [ -70.65582, -33.547592 ] } },
{ "type": "Feature", "properties": { "capa": "colegios", "popup": "<strong>LICEO POLIVALENTE OLOF PALME</strong><br><br><strong>Dirección:</strong> JULIO COVARRUBIAS 9370", "etiqueta": "" }, "geometry": { "type": "Point", "coordinates": [ -70.65841682, -33.54562584 ] } },
{ "type": "Feature", "properties": { "capa": "colegios", "popup": "<strong>ESCUELA PARTICULAR SAN MARTIN DE PORRES</strong><br><br><strong>Dirección:</strong> ARTURO PRAT 246", "etiqueta": "" }, "geometry": { "type": "Point", "coordinates": [ -70.66336312, -33.545543850000016 ] } },
{ "type": "Feature", "properties": { "capa": "colegios", "popup": "<strong>ESCUELA PARTICULAR ESPECIAL G.MISTRAL</strong><br><br><strong>Dirección:</strong> ARTURO PRAT 39", "etiqueta": "" }, "geometry": { "type": "Point", "coordinates": [ -70.66583, -33.545017 ] } },
{ "type": "Feature", "properties": { "capa": "colegios", "popup": "<strong>COLEGIO SANTA MARIA DE LOS ANGELES</strong><br><br><strong>Dirección:</strong> GRAN AVENIDA 9439", "etiqueta": "" }, "geometry": { "type": "Point", "coordinates": [ -70.667943579999985, -33.54494693 ] } },
{ "type": "Feature", "properties": { "capa": "colegios", "popup": "<strong>COLEGIO ANTIL MAWIDA</strong><br><br><strong>Dirección:</strong> 21 DE MAYO 43", "etiqueta": "" }, "geometry": { "type": "Point", "coordinates": [ -70.66817293, -33.54421013000001 ] } },
{ "type": "Feature", "properties": { "capa": "colegios", "popup": "<strong>COLEGIO MIGUEL DE CERVANTES</strong><br><br><strong>Dirección:</strong> VICUÑA MACKENNA 888", "etiqueta": "" }, "geometry": { "type": "Point", "coordinates": [ -70.655827499999987, -33.544127700000018 ] } },
{ "type": "Feature", "properties": { "capa": "colegios", "popup": "<strong>CENTRO POLITEC. CARLOS CONDELL DE LA CISTERNA</strong><br><br><strong>Dirección:</strong> VICUÑA MACKENNA 435", "etiqueta": "" }, "geometry": { "type": "Point", "coordinates": [ -70.66104028, -33.5435744 ] } },
{ "type": "Feature", "properties": { "capa": "colegios", "popup": "<strong>ESCUELA JOSE IBAÑEZ</strong><br><br><strong>Dirección:</strong> VICUÑA MACKENNA 626", "etiqueta": "" }, "geometry": { "type": "Point", "coordinates": [ -70.658932289999981, -33.54357307 ] } },
{ "type": "Feature", "properties": { "capa": "colegios", "popup": "<strong>COLEGIO IDOP LIMITADA</strong><br><br><strong>Dirección:</strong> VICUÑA MACKENNA 316", "etiqueta": "" }, "geometry": { "type": "Point", "coordinates": [ -70.66151495, -33.54318865 ] } },
{ "type": "Feature", "properties": { "capa": "colegios", "popup": "<strong>ESCUELA ESPECIAL ADAES</strong><br><br><strong>Dirección:</strong> AVENIDA EL PARRON 939", "etiqueta": "" }, "geometry": { "type": "Point", "coordinates": [ -70.66893, -33.54313 ] } },
{ "type": "Feature", "properties": { "capa": "colegios", "popup": "<strong>ESCUELA ESPECIAL Y DE PARVULOS PETIT PRINCE</strong><br><br><strong>Dirección:</strong> PERO 9079", "etiqueta": "" }, "geometry": { "type": "Point", "coordinates": [ -70.655828, -33.543104 ] } },
{ "type": "Feature", "properties": { "capa": "colegios", "popup": "<strong>LICEO POLITECNICO CIENCIA Y TECNOLOGIA</strong><br><br><strong>Dirección:</strong> AVENIDA GOYCOLEA 469", "etiqueta": "" }, "geometry": { "type": "Point", "coordinates": [ -70.65970618, -33.54133967 ] } },
{ "type": "Feature", "properties": { "capa": "colegios", "popup": "<strong>LICEO LAURA VICUNA</strong><br><br><strong>Dirección:</strong> GRAN AVENIDA 9042", "etiqueta": "" }, "geometry": { "type": "Point", "coordinates": [ -70.664786599999985, -33.540747689999989 ] } },
{ "type": "Feature", "properties": { "capa": "colegios", "popup": "<strong>COLEGIO ANTU</strong><br><br><strong>Dirección:</strong> TRINIDAD RAMIREZ 750", "etiqueta": "" }, "geometry": { "type": "Point", "coordinates": [ -70.67740415999998, -33.54052316 ] } },
{ "type": "Feature", "properties": { "capa": "colegios", "popup": "<strong>ESCUELA PRE MILITAR HEROES DE LA CONCEPCION</strong><br><br><strong>Dirección:</strong> AMERICO VESPUCIO 711", "etiqueta": "" }, "geometry": { "type": "Point", "coordinates": [ -70.65618, -33.539676 ] } },
{ "type": "Feature", "properties": { "capa": "colegios", "popup": "<strong>FROILAN YAÑEZ DE LA BARRA</strong><br><br><strong>Dirección:</strong> AVENIDA GOYCOLEA 172", "etiqueta": "" }, "geometry": { "type": "Point", "coordinates": [ -70.66740036, -33.539548 ] } },
{ "type": "Feature", "properties": { "capa": "colegios", "popup": "<strong>CENTRO POLITECNICO PARTICULAR SAN RAMON</strong><br><br><strong>Dirección:</strong> AMERICO VESPUCIO 555", "etiqueta": "" }, "geometry": { "type": "Point", "coordinates": [ -70.657462789999983, -33.53942493 ] } },
{ "type": "Feature", "properties": { "capa": "colegios", "popup": "<strong>ESCUELA PART. REPUBLICA ALEMANIA FEDERAL</strong><br><br><strong>Dirección:</strong> AVENIDA GOYCOLEA 147", "etiqueta": "" }, "geometry": { "type": "Point", "coordinates": [ -70.66693374, -33.53940233 ] } },
{ "type": "Feature", "properties": { "capa": "colegios", "popup": "<strong>INSTITUTO COMERCIAL PARTICULAR LA CISTERNA</strong><br><br><strong>Dirección:</strong> AVENIDA GOYCOLEA 210", "etiqueta": "" }, "geometry": { "type": "Point", "coordinates": [ -70.66797504, -33.53937703 ] } },
{ "type": "Feature", "properties": { "capa": "colegios", "popup": "<strong>ESCUELA PARTICULAR GRACIELA L.DE IBANEZ</strong><br><br><strong>Dirección:</strong> AVENIDA GOYCOLEA 219", "etiqueta": "" }, "geometry": { "type": "Point", "coordinates": [ -70.66773135, -33.5391701 ] } },
{ "type": "Feature", "properties": { "capa": "colegios", "popup": "<strong>COLEGIO TEC. PROF. SAN RAMON LA CISTERNA</strong><br><br><strong>Dirección:</strong> ALEJANDRO VIAL 8791", "etiqueta": "" }, "geometry": { "type": "Point", "coordinates": [ -70.65680491, -33.53821765 ] } },
{ "type": "Feature", "properties": { "capa": "colegios", "popup": "<strong>COLEGIO ADVENTISTA LA CISTERNA</strong><br><br><strong>Dirección:</strong> AVENIDA OSSA 203", "etiqueta": "" }, "geometry": { "type": "Point", "coordinates": [ -70.6682878, -33.537634849999989 ] } },
{ "type": "Feature", "properties": { "capa": "colegios", "popup": "<strong>ESCUELA ESPECIAL N°2253 ANTULAF</strong><br><br><strong>Dirección:</strong> HURTADO DE MENDOZA 8986", "etiqueta": "" }, "geometry": { "type": "Point", "coordinates": [ -70.679166, -33.535768 ] } },
{ "type": "Feature", "properties": { "capa": "colegios", "popup": "<strong>ESCUELA PARTICULAR PABLO GOYENECHE IVER</strong><br><br><strong>Dirección:</strong> AUGUSTO BIAUT 270", "etiqueta": "" }, "geometry": { "type": "Point", "coordinates": [ -70.66809618, -33.535313860000016 ] } },
{ "type": "Feature", "properties": { "capa": "colegios", "popup": "<strong>ESCUELA ESPECIAL PARTICULAR CECLA</strong><br><br><strong>Dirección:</strong> LAS BRISAS 606", "etiqueta": "" }, "geometry": { "type": "Point", "coordinates": [ -70.65571, -33.534847 ] } },
{ "type": "Feature", "properties": { "capa": "colegios", "popup": "<strong>CENTRO EDUCACIONAL SANTA ROSA</strong><br><br><strong>Dirección:</strong> BLAS VIAL 8450", "etiqueta": "" }, "geometry": { "type": "Point", "coordinates": [ -70.6544089, -33.53483086 ] } },
{ "type": "Feature", "properties": { "capa": "colegios", "popup": "<strong>ESCUELA BAS. OSCAR ENCALADA YOVANOVICH</strong><br><br><strong>Dirección:</strong> PEDRO AGUIRRE CERDA 184", "etiqueta": "" }, "geometry": { "type": "Point", "coordinates": [ -70.66600328, -33.534800940000011 ] } },
{ "type": "Feature", "properties": { "capa": "colegios", "popup": "<strong>ROSA MARCKMANN DE GONZALEZ</strong><br><br><strong>Dirección:</strong> LAS BRISAS 592", "etiqueta": "" }, "geometry": { "type": "Point", "coordinates": [ -70.65645729, -33.534791570000017 ] } },
{ "type": "Feature", "properties": { "capa": "colegios", "popup": "<strong>LICEO MADRE CECILIA LAZZERI</strong><br><br><strong>Dirección:</strong> AVENIDA PEDRO AGUIRRE CERDA 291", "etiqueta": "" }, "geometry": { "type": "Point", "coordinates": [ -70.66763530999998, -33.53388406 ] } },
{ "type": "Feature", "properties": { "capa": "colegios", "popup": "<strong>ESCUELA ESPECIAL APRENDAMOS JUNTOS</strong><br><br><strong>Dirección:</strong> BRASIL 774", "etiqueta": "" }, "geometry": { "type": "Point", "coordinates": [ -70.654677, -33.533694 ] } },
{ "type": "Feature", "properties": { "capa": "colegios", "popup": "<strong>ESCUELA ESPECIAL Nº 2339 ATRAVIA</strong><br><br><strong>Dirección:</strong> CALLE CIENCIAS 8670", "etiqueta": "" }, "geometry": { "type": "Point", "coordinates": [ -70.66945, -33.533443 ] } },
{ "type": "Feature", "properties": { "capa": "colegios", "popup": "<strong>ESCUELA BASICA ARISTA VITAE</strong><br><br><strong>Dirección:</strong> CIENCIAS 8750", "etiqueta": "" }, "geometry": { "type": "Point", "coordinates": [ -70.66897583, -33.53268245000001 ] } },
{ "type": "Feature", "properties": { "capa": "colegios", "popup": "<strong>COLEGIO JOSE LUIS LEGRANGE DE LA CISTERNA</strong><br><br><strong>Dirección:</strong> SANTA ANSELMA 198", "etiqueta": "" }, "geometry": { "type": "Point", "coordinates": [ -70.66450788, -33.53113805 ] } },
{ "type": "Feature", "properties": { "capa": "colegios", "popup": "<strong>ESCUELA LENG. Y PARVULOS  HORMIGUITA</strong><br><br><strong>Dirección:</strong> RAMON CARVALLO 563", "etiqueta": "" }, "geometry": { "type": "Point", "coordinates": [ -70.65598, -33.531075 ] } },
{ "type": "Feature", "properties": { "capa": "colegios", "popup": "<strong>COLEGIO SANTA ISABEL DE HUNGRIA</strong><br><br><strong>Dirección:</strong> SANTA ANSELMA 240", "etiqueta": "" }, "geometry": { "type": "Point", "coordinates": [ -70.665463859999988, -33.530795570000016 ] } },
{ "type": "Feature", "properties": { "capa": "colegios", "popup": "<strong>ESCUELA ESPECIAL GABRIELA RUBIO</strong><br><br><strong>Dirección:</strong> RAMON CARVALLO ORREGO 129", "etiqueta": "" }, "geometry": { "type": "Point", "coordinates": [ -70.66, -33.530665 ] } },
{ "type": "Feature", "properties": { "capa": "colegios", "popup": "<strong>ESCUELA PARTICULAR SAINT PHILLIP OF NERY</strong><br><br><strong>Dirección:</strong> ITALIA 862", "etiqueta": "" }, "geometry": { "type": "Point", "coordinates": [ -70.67452823, -33.53058251 ] } },
{ "type": "Feature", "properties": { "capa": "colegios", "popup": "<strong>LICEO PART. SALESIANO MANUEL ARRIARAN BARROS</strong><br><br><strong>Dirección:</strong> GRAN AVENIDA JOSE MIGUEL CARRERA 8250", "etiqueta": "" }, "geometry": { "type": "Point", "coordinates": [ -70.66225954, -33.53056565 ] } },
{ "type": "Feature", "properties": { "capa": "colegios", "popup": "<strong>ESC. BASICA Y ESP.  EL NAZARENO</strong><br><br><strong>Dirección:</strong> BLAS VIAL 8111", "etiqueta": "" }, "geometry": { "type": "Point", "coordinates": [ -70.65325732, -33.52971296 ] } },
{ "type": "Feature", "properties": { "capa": "colegios", "popup": "<strong>COLEGIO POLIV. SAINT ORLAND</strong><br><br><strong>Dirección:</strong> IGNACIO ECHEVERRIA 8020", "etiqueta": "" }, "geometry": { "type": "Point", "coordinates": [ -70.65171822, -33.52937619 ] } },
{ "type": "Feature", "properties": { "capa": "colegios", "popup": "<strong>LICEO TÉCNICO INDUSTRIAL LA CISTERNA</strong><br><br><strong>Dirección:</strong> IGNACIO ECHEVERRIA 7990", "etiqueta": "" }, "geometry": { "type": "Point", "coordinates": [ -70.6515616, -33.52882961000001 ] } },
{ "type": "Feature", "properties": { "capa": "colegios", "popup": "<strong>ESCUELA BASICA Nº128 SAN RAMON</strong><br><br><strong>Dirección:</strong> MARIA VIAL 7907", "etiqueta": "" }, "geometry": { "type": "Point", "coordinates": [ -70.64985391, -33.52869213 ] } },
{ "type": "Feature", "properties": { "capa": "colegios", "popup": "<strong>COLEGIO PALESTINO</strong><br><br><strong>Dirección:</strong> AVENIDA EL PARRON 498", "etiqueta": "" }, "geometry": { "type": "Point", "coordinates": [ -70.65477289, -33.52740653 ] } },
{ "type": "Feature", "properties": { "capa": "colegios", "popup": "<strong>COLEGIO NACIONES UNIDAS</strong><br><br><strong>Dirección:</strong> ISABEL LA CATOLICA 960", "etiqueta": "" }, "geometry": { "type": "Point", "coordinates": [ -70.67379785, -33.52672350000001 ] } },
{ "type": "Feature", "properties": { "capa": "colegios", "popup": "<strong>ESC. BAS. PATR. WILLINS HOOVER KURT</strong><br><br><strong>Dirección:</strong> SAN SIMON 614", "etiqueta": "" }, "geometry": { "type": "Point", "coordinates": [ -70.66823874, -33.526242219999986 ] } },
{ "type": "Feature", "properties": { "capa": "colegios", "popup": "<strong>ESCUELA PARTICULAR LOS CAPULLITOS</strong><br><br><strong>Dirección:</strong> ANGAMOS 7550", "etiqueta": "" }, "geometry": { "type": "Point", "coordinates": [ -70.655640729999988, -33.52586264 ] } },
{ "type": "Feature", "properties": { "capa": "colegios", "popup": "<strong>ESCUELA DE PARV. LI-MARLIN</strong><br><br><strong>Dirección:</strong> AVENIDA EL PARRON 389", "etiqueta": "" }, "geometry": { "type": "Point", "coordinates": [ -70.66525, -33.525024 ] } },
{ "type": "Feature", "properties": { "capa": "colegios", "popup": "<strong>ESC.ESP.TRAT.DE LA COMUNICION EDEN</strong><br><br><strong>Dirección:</strong> AVENIDA FERNANDEZ ALBANO 239", "etiqueta": "" }, "geometry": { "type": "Point", "coordinates": [ -70.65555024, -33.52471991 ] } },
{ "type": "Feature", "properties": { "capa": "colegios", "popup": "<strong>CHILEAN EAGLES COLLEGE - LA CISTERNA</strong><br><br><strong>Dirección:</strong> IQUIQUE 7020", "etiqueta": "" }, "geometry": { "type": "Point", "coordinates": [ -70.65101157, -33.52396166 ] } },
{ "type": "Feature", "properties": { "capa": "colegios", "popup": "<strong>ESCUELA HOGAR DE CIEGOS SANTA LUCIA</strong><br><br><strong>Dirección:</strong> FERNANDO RIOJA 730", "etiqueta": "" }, "geometry": { "type": "Point", "coordinates": [ -70.6519421, -33.523518780000011 ] } },
{ "type": "Feature", "properties": { "capa": "colegios", "popup": "<strong>ESCUELA ESP. SOL NACIENTE</strong><br><br><strong>Dirección:</strong> SANTA CLARA 1131", "etiqueta": "" }, "geometry": { "type": "Point", "coordinates": [ -70.64666, -33.52225 ] } },
{ "type": "Feature", "properties": { "capa": "colegios", "popup": "<strong>COLEGIO PARTICULAR VILLA JESUS</strong><br><br><strong>Dirección:</strong> GENERAL FREIRE 388", "etiqueta": "" }, "geometry": { "type": "Point", "coordinates": [ -70.655535639999982, -33.52135358 ] } },
{ "type": "Feature", "properties": { "capa": "colegios", "popup": "<strong>LICEO BICENTENARIO INDUSTRIAL DE ELECTROTECNIA RAMON B</strong><br><br><strong>Dirección:</strong> GENERAL FREIRE 101", "etiqueta": "" }, "geometry": { "type": "Point", "coordinates": [ -70.65822211, -33.521198030000015 ] } },
{ "type": "Feature", "properties": { "capa": "colegios", "popup": "<strong>CENTRO EDUCACIONAL SANTA CLARA</strong><br><br><strong>Dirección:</strong> GENERAL FREIRE 236", "etiqueta": "" }, "geometry": { "type": "Point", "coordinates": [ -70.65707284, -33.52104407 ] } },
{ "type": "Feature", "properties": { "capa": "colegios", "popup": "<strong>COLEGIO PRINCESS ANNE SCHOOL</strong><br><br><strong>Dirección:</strong> GRAN AVENIDA 7045", "etiqueta": "" }, "geometry": { "type": "Point", "coordinates": [ -70.66013, -33.520991 ] } },
{ "type": "Feature", "properties": { "capa": "colegios", "popup": "<strong>ESCUELA ESP. PART. SAN NICOLAS</strong><br><br><strong>Dirección:</strong> LUCERNA 300", "etiqueta": "" }, "geometry": { "type": "Point", "coordinates": [ -70.66329, -33.520695 ] } },
{ "type": "Feature", "properties": { "capa": "colegios", "popup": "<strong>ESCUELA ESPECIAL EL ALBA DE LA CISTERNA</strong><br><br><strong>Dirección:</strong> GENERAL FREIRE 286", "etiqueta": "" }, "geometry": { "type": "Point", "coordinates": [ -70.66221, -33.519806 ] } },
{ "type": "Feature", "properties": { "capa": "colegios", "popup": "<strong>ESCUELA ESPERANZA JOVEN</strong><br><br><strong>Dirección:</strong> COLON 6918", "etiqueta": "" }, "geometry": { "type": "Point", "coordinates": [ -70.6680738, -33.51866183 ] } },
{ "type": "Feature", "properties": { "capa": "colegios", "popup": "<strong>ES.ESP.PART.PUERTA ABIERTA</strong><br><br><strong>Dirección:</strong> JOSE URETA 479", "etiqueta": "" }, "geometry": { "type": "Point", "coordinates": [ -70.652985, -33.51857 ] } },
{ "type": "Feature", "properties": { "capa": "colegios", "popup": "<strong>ESCUELA PARTICULAR GUIA ESTUDIANTIL</strong><br><br><strong>Dirección:</strong> FUENZALIDA URREJOLA 639", "etiqueta": "" }, "geometry": { "type": "Point", "coordinates": [ -70.650945439999987, -33.51833179 ] } },
{ "type": "Feature", "properties": { "capa": "colegios", "popup": "<strong>ESCUELA PARTICULAR LOCARNO</strong><br><br><strong>Dirección:</strong> LOCARNO 233", "etiqueta": "" }, "geometry": { "type": "Point", "coordinates": [ -70.661832249999989, -33.517941400000019 ] } },
{ "type": "Feature", "properties": { "capa": "colegios", "popup": "<strong>ESCUELA ESPECIAL Y DE PÁRVULOS HORMIGUITA 2</strong><br><br><strong>Dirección:</strong> CALLE LOCARNO 385", "etiqueta": "" }, "geometry": { "type": "Point", "coordinates": [ -70.6634506, -33.5177267 ] } },
{ "type": "Feature", "properties": { "capa": "colegios", "popup": "<strong>ESCUELA PABLO DE TARSO</strong><br><br><strong>Dirección:</strong> COLON 6704", "etiqueta": "" }, "geometry": { "type": "Point", "coordinates": [ -70.667341879999981, -33.51617502 ] } },
{ "type": "Feature", "properties": { "capa": "colegios", "popup": "<strong>LICEO PORTAL DE LA CISTERNA</strong><br><br><strong>Dirección:</strong> ESMERALDA 6305", "etiqueta": "" }, "geometry": { "type": "Point", "coordinates": [ -70.65594521, -33.51554732000001 ] } },
{ "type": "Feature", "properties": { "capa": "jardines", "popup": "<strong>CORAZONCITO ALEGRE</strong><br><br><strong>Dirección:</strong> MARIA VIAL 8365 POB SAN RAMON ", "etiqueta": "" }, "geometry": { "type": "MultiPoint", "coordinates": [ [ -70.651449, -33.53415 ] ] } },
{ "type": "Feature", "properties": { "capa": "jardines", "popup": "<strong>ARCO IRIS</strong><br><br><strong>Dirección:</strong> JULIO COVARRUBIAS 9370 POB VENECIA (PARAD 37 G AV) ", "etiqueta": "" }, "geometry": { "type": "MultiPoint", "coordinates": [ [ -70.657887, -33.54627 ] ] } },
{ "type": "Feature", "properties": { "capa": "jardines", "popup": "<strong>SEMILLAS   DE TIERRA</strong><br><br><strong>Dirección:</strong> COLON 6918 ", "etiqueta": "" }, "geometry": { "type": "MultiPoint", "coordinates": [ [ -70.667265, -33.518957 ] ] } },
{ "type": "Feature", "properties": { "capa": "jardines", "popup": "<strong>RAICES</strong><br><br><strong>Dirección:</strong> VICTORIA 8300 ", "etiqueta": "" }, "geometry": { "type": "MultiPoint", "coordinates": [ [ -70.652016, -33.533762 ] ] } },
{ "type": "Feature", "properties": { "capa": "jardines", "popup": "<strong>ALTUE</strong><br><br><strong>Dirección:</strong> JULIO COVARRUBIAS 9370 ", "etiqueta": "" }, "geometry": { "type": "MultiPoint", "coordinates": [ [ -70.658064, -33.545368 ] ] } },
{ "type": "Feature", "properties": { "capa": "jardines", "popup": "<strong>MI TIERRA MI JARDIN</strong><br><br><strong>Dirección:</strong> AGUSTO BIAUT 0137 ", "etiqueta": "" }, "geometry": { "type": "MultiPoint", "coordinates": [ [ -70.666255, -33.535566 ] ] } },
{ "type": "Feature", "properties": { "capa": "jardines", "popup": "<strong>EL PARRON</strong><br><br><strong>Dirección:</strong> Avenida el Parrón ", "etiqueta": "" }, "geometry": { "type": "MultiPoint", "coordinates": [ [ -70.66659, -33.524856 ] ] } },
{ "type": "Feature", "properties": { "capa": "jardines", "popup": "<strong>ISABEL LA CATOLICA</strong><br><br><strong>Dirección:</strong> ISABEL LA CATOLICA ", "etiqueta": "" }, "geometry": { "type": "MultiPoint", "coordinates": [ [ -70.674085, -33.526809 ] ] } },
{ "type": "Feature", "properties": { "capa": "jardines", "popup": "<strong>NA</strong><br><br><strong>Dirección:</strong> NA ", "etiqueta": "" }, "geometry": { "type": "MultiPoint", "coordinates": [ [ -70.672107999966059, -33.53527499979667 ] ] } },
{ "type": "Feature", "properties": { "capa": "jardines", "popup": "<strong>NA</strong><br><br><strong>Dirección:</strong> NA ", "etiqueta": "" }, "geometry": { "type": "MultiPoint", "coordinates": [ [ -70.661203000258382, -33.536603999696915 ] ] } },
{ "type": "Feature", "properties": { "capa": "comisarias", "popup": "<strong>10A. COM. LA CISTERNA</strong><br><br><strong>Dirección:</strong> JOSE MIGUEL CARRERA 9089", "etiqueta": "" }, "geometry": { "type": "Point", "coordinates": [ -70.665453999999897, -33.540997 ] } },
{ "type": "Feature", "properties": { "capa": "comisarias", "popup": "<strong>TCIA. NVA. ESPANA</strong><br><br><strong>Dirección:</strong> JOSE MIGUEL CARRERA 9089", "etiqueta": "" }, "geometry": { "type": "Point", "coordinates": [ -70.672539999999898, -33.52834 ] } },
{ "type": "Feature", "properties": { "capa": "salud", "popup": "<strong>SAPU Eduardo Frei Montalva</strong><br><br><strong>Tipo de atención:</strong> Servicio de Atención Primaria de Urgencia (SAPU)<br><strong>Dirección:</strong>  140", "etiqueta": "" }, "geometry": { "type": "Point", "coordinates": [ -70.662494, -33.539064 ] } },
{ "type": "Feature", "properties": { "capa": "salud", "popup": "<strong>Centro de Salud Familiar Eduardo Frei Montalva</strong><br><br><strong>Tipo de atención:</strong> Centro de Salud Familiar (CESFAM)<br><strong>Dirección:</strong>  375", "etiqueta": "" }, "geometry": { "type": "Point", "coordinates": [ -70.660598899999968, -33.536418699999942 ] } },
{ "type": "Feature", "properties": { "capa": "salud", "popup": "<strong>Consultorio Prefectura Sur</strong><br><br><strong>Tipo de atención:</strong> Centro de Salud Privado<br><strong>Dirección:</strong>  6868", "etiqueta": "" }, "geometry": { "type": "Point", "coordinates": [ -70.67246, -33.53549 ] } },
{ "type": "Feature", "properties": { "capa": "salud", "popup": "<strong>Centro Comunitario de Salud Familiar Eduardo Frei Montalva</strong><br><br><strong>Tipo de atención:</strong> Centro Comunitario de Salud Familiar (CECOSF)<br><strong>Dirección:</strong>  8396", "etiqueta": "" }, "geometry": { "type": "Point", "coordinates": [ -70.65177, -33.53306 ] } },
{ "type": "Feature", "properties": { "capa": "salud", "popup": "<strong>Nefrolab</strong><br><br><strong>Tipo de atención:</strong> Centro de Salud Privado<br><strong>Dirección:</strong>  141", "etiqueta": "" }, "geometry": { "type": "Point", "coordinates": [ -70.661224, -33.532417 ] } },
{ "type": "Feature", "properties": { "capa": "salud", "popup": "<strong>Centro de Salud Familiar Santa Anselma</strong><br><br><strong>Tipo de atención:</strong> Centro de Salud Familiar (CESFAM)<br><strong>Dirección:</strong>  8365", "etiqueta": "" }, "geometry": { "type": "Point", "coordinates": [ -70.66737, -33.52959 ] } },
{ "type": "Feature", "properties": { "capa": "salud", "popup": "<strong>Centro Médico 271/2 Ltda</strong><br><br><strong>Tipo de atención:</strong> Centro de Salud Privado<br><strong>Dirección:</strong>  9385", "etiqueta": "" }, "geometry": { "type": "Point", "coordinates": [ -70.667283, -33.544018 ] } },
{ "type": "Feature", "properties": { "capa": "salud", "popup": "<strong>SAR Santa Anselma</strong><br><br><strong>Tipo de atención:</strong> Servicio de Atención Primaria de Urgencia de Alta Resolutividad (SAR)<br><strong>Dirección:</strong>  515", "etiqueta": "" }, "geometry": { "type": "Point", "coordinates": [ -70.669959499999933, -33.530803899999974 ] } }
]
}
