{
"type": "FeatureCollection",
"name": "13103",
"crs": { "type": "name", "properties": { "name": "urn:ogc:def:crs:OGC:1.3:CRS84" } },
"features": [
{ "type": "Feature", "properties": { "capa": "comuna", "popup": "", "etiqueta": "" }, "geometry": { "type": "Polygon", "coordinates": [ [ [ -70.719395428421137, -33.413224166084632 ], [ -70.717425008879715, -33.414454771786055 ], [ -70.716741892208447, -33.414846246097639 ], [ -70.715919999300468, -33.415124537727387 ], [ -70.716227762116816, -33.415669036441201 ], [ -70.716358632280674, -33.415877552505442 ], [ -70.716473234853055, -33.416056226067958 ], [ -70.716570532279789, -33.416215044121138 ], [ -70.716691486839508, -33.416407518834291 ], [ -70.716709404636177, -33.416574896866265 ], [ -70.716944613221955, -33.417460749022347 ], [ -70.717067338361133, -33.417962372943386 ], [ -70.717204241610432, -33.418561981908084 ], [ -70.717815078037333, -33.421159230879709 ], [ -70.717960797352831, -33.421763148432497 ], [ -70.718097740128016, -33.422373025403196 ], [ -70.718451862301222, -33.42385556723471 ], [ -70.718487977270584, -33.424002363037495 ], [ -70.718535244824196, -33.42408504011054 ], [ -70.718592410913914, -33.424254312199416 ], [ -70.7192417311676, -33.426729933142532 ], [ -70.720003128829376, -33.429636985294714 ], [ -70.720249873580045, -33.43062594734662 ], [ -70.720509457951067, -33.43183207520579 ], [ -70.720772550243282, -33.433086025816102 ], [ -70.720903389864404, -33.433670420812945 ], [ -70.72095837933621, -33.43391793164141 ], [ -70.720987331139497, -33.43404824558921 ], [ -70.72101324933206, -33.434164903506847 ], [ -70.721237122077284, -33.435216900243326 ], [ -70.721448165981911, -33.436204471841705 ], [ -70.721540714015759, -33.436637542333877 ], [ -70.721544238106617, -33.436651342459811 ], [ -70.721461958714812, -33.436629623134081 ], [ -70.721557024726366, -33.436709419308905 ], [ -70.721646526573082, -33.43702609798801 ], [ -70.721699834398677, -33.437185418167012 ], [ -70.72186835385439, -33.437597895124696 ], [ -70.722007437314886, -33.437938675634435 ], [ -70.722163303999835, -33.438324826660072 ], [ -70.722278552460907, -33.438593223714072 ], [ -70.722405659582009, -33.438934170478511 ], [ -70.722555596487766, -33.438914998934862 ], [ -70.722558109075635, -33.438921258266298 ], [ -70.722564665878878, -33.438913839271855 ], [ -70.722986738416807, -33.438788834704894 ], [ -70.723665505445496, -33.438566192292328 ], [ -70.723869121181067, -33.438271105470442 ], [ -70.724152087800618, -33.437769095897401 ], [ -70.724208195674933, -33.437686964096777 ], [ -70.724569297757895, -33.437584720342429 ], [ -70.72510878369674, -33.437466621729627 ], [ -70.725538720984957, -33.437392081183631 ], [ -70.725982678279848, -33.437322442432539 ], [ -70.726521566838997, -33.437241137056525 ], [ -70.727154221547508, -33.437124834853655 ], [ -70.728218964111079, -33.436647309395916 ], [ -70.728705569822381, -33.436435888127257 ], [ -70.728939783973146, -33.436369532043187 ], [ -70.729459248260909, -33.436353274543741 ], [ -70.729939431017954, -33.436276964632683 ], [ -70.730210186837837, -33.436252594473679 ], [ -70.730865762959155, -33.436279496178237 ], [ -70.731458792082165, -33.436298253751495 ], [ -70.732112868915252, -33.43631623094236 ], [ -70.732682469975671, -33.43634432380955 ], [ -70.733241144827275, -33.436363554393331 ], [ -70.733896718253632, -33.436381425871055 ], [ -70.734734360425151, -33.436449199518776 ], [ -70.737694866241796, -33.436398139147755 ], [ -70.74087253079523, -33.436389318106357 ], [ -70.740901774550991, -33.436390024269471 ], [ -70.740837165020821, -33.433732042575549 ], [ -70.740819831129087, -33.432122891261137 ], [ -70.740728897367816, -33.430423978543374 ], [ -70.740770161480413, -33.429900354003387 ], [ -70.741474856583139, -33.429967068891457 ], [ -70.742781803811894, -33.42991642303808 ], [ -70.743389171843475, -33.429958194717493 ], [ -70.744137440627384, -33.429961191260062 ], [ -70.745451919331487, -33.429978819654842 ], [ -70.746686758792407, -33.429974951214319 ], [ -70.746820540396072, -33.429941447963472 ], [ -70.747646768573603, -33.429781018424499 ], [ -70.748108896990061, -33.429693388259253 ], [ -70.748610480312095, -33.429600619554932 ], [ -70.748878668746912, -33.429551772021519 ], [ -70.749639675641546, -33.429302786069428 ], [ -70.749921553502958, -33.429245611405506 ], [ -70.750544722002076, -33.429119210454822 ], [ -70.751115159394018, -33.428884060608929 ], [ -70.751781852166971, -33.428561883084001 ], [ -70.751802540367947, -33.428539432265708 ], [ -70.751935511691258, -33.428487626526682 ], [ -70.752053582658945, -33.428441625769423 ], [ -70.752040504086708, -33.428438390766296 ], [ -70.752236653923944, -33.428309197461672 ], [ -70.752372194428958, -33.428249510605795 ], [ -70.753022937614034, -33.428161560266169 ], [ -70.753732450381634, -33.428078243071084 ], [ -70.754383542113047, -33.428003430561333 ], [ -70.75452829843455, -33.4279552096407 ], [ -70.755170859764021, -33.427622982446188 ], [ -70.755540258686949, -33.427477314346007 ], [ -70.75592193129161, -33.427433608695225 ], [ -70.75604809158844, -33.427401453959462 ], [ -70.756407027833248, -33.427353226706678 ], [ -70.756536867629464, -33.427363449144153 ], [ -70.756949101818392, -33.427317882629197 ], [ -70.757336675456159, -33.427335366115003 ], [ -70.758268710801076, -33.42737744942071 ], [ -70.758629645797413, -33.427393792570285 ], [ -70.759213342322951, -33.427420160221544 ], [ -70.760054599315168, -33.427465402804003 ], [ -70.760492650187047, -33.427556700593257 ], [ -70.761084745062178, -33.427684668479934 ], [ -70.761800218151677, -33.427731241672532 ], [ -70.762347203226497, -33.427723985909473 ], [ -70.762878208170719, -33.427697599607619 ], [ -70.763274544874093, -33.427581963110008 ], [ -70.763862423955558, -33.427318507896274 ], [ -70.764811600054458, -33.426867066132722 ], [ -70.765326812615982, -33.426594189929595 ], [ -70.766085571925771, -33.426187885684016 ], [ -70.766557080550413, -33.425930286900069 ], [ -70.766651250043324, -33.425894889012163 ], [ -70.766855363445558, -33.42638946099008 ], [ -70.767096711118, -33.426842128788486 ], [ -70.767446474665434, -33.426879890171563 ], [ -70.768698548305082, -33.42640865629329 ], [ -70.769731389896251, -33.425806494693589 ], [ -70.770265034090798, -33.425776344893698 ], [ -70.771252782949645, -33.425725977745557 ], [ -70.772094061501448, -33.425655512421891 ], [ -70.772873075125929, -33.425401377343974 ], [ -70.773637015918268, -33.425153628552515 ], [ -70.775096164705616, -33.424686902507723 ], [ -70.775655069525939, -33.424495325598315 ], [ -70.77602125607342, -33.424306795236973 ], [ -70.776541963629541, -33.4239190246061 ], [ -70.776808237754494, -33.423626650818505 ], [ -70.777125389762176, -33.423094484527304 ], [ -70.777456082974453, -33.422237515302143 ], [ -70.777723463823847, -33.42152831455703 ], [ -70.777811989201822, -33.42146994563528 ], [ -70.777811572383527, -33.421449738548219 ], [ -70.77791854466588, -33.421130982392732 ], [ -70.778251270765637, -33.420745455157174 ], [ -70.778548710142729, -33.420487352867326 ], [ -70.778999306885879, -33.420322203978372 ], [ -70.779372396088007, -33.420063014744038 ], [ -70.77992745162733, -33.419452296779447 ], [ -70.780111446360465, -33.419195744212296 ], [ -70.780256923130821, -33.418908126203817 ], [ -70.780326100594223, -33.418589836088287 ], [ -70.780398426652695, -33.4184301863542 ], [ -70.780433253437948, -33.418375535847332 ], [ -70.780435003356104, -33.418366275841983 ], [ -70.780541961265413, -33.418047443133879 ], [ -70.780725303821669, -33.417759207982755 ], [ -70.781020782176469, -33.417405901456064 ], [ -70.781356631718495, -33.417179006763462 ], [ -70.781694423418159, -33.417047236103677 ], [ -70.782108414711786, -33.416960831770794 ], [ -70.782244767293818, -33.413949476651155 ], [ -70.782262435358817, -33.413701661439156 ], [ -70.781970797301824, -33.413732095871495 ], [ -70.781637874471016, -33.413723903890329 ], [ -70.779924424304824, -33.413709932905256 ], [ -70.779380493501975, -33.413723903890329 ], [ -70.779023135597114, -33.413739483275677 ], [ -70.778698079313244, -33.413761645484563 ], [ -70.778373023927671, -33.413798584736291 ], [ -70.778092398317753, -33.413829539521672 ], [ -70.777870666257854, -33.413842910617852 ], [ -70.777660584448896, -33.413790053834838 ], [ -70.777434797393795, -33.413717320311342 ], [ -70.777139292089501, -33.413643443972596 ], [ -70.776703422327145, -33.413599117989207 ], [ -70.776363592350094, -33.41362866914718 ], [ -70.77609763712708, -33.413665606955803 ], [ -70.775942497179201, -33.413709932905256 ], [ -70.775665092927895, -33.413786436618395 ], [ -70.775221290143236, -33.41386447368064 ], [ -70.774789999093855, -33.41388999962507 ], [ -70.774479747944184, -33.413872460193211 ], [ -70.774228568210972, -33.41386507355017 ], [ -70.774024216755194, -33.413847436634462 ], [ -70.773774252442536, -33.413856205228612 ], [ -70.773329999601927, -33.413940000220997 ], [ -70.773029932652634, -33.414024334264276 ], [ -70.772846934151161, -33.414121932052538 ], [ -70.772707577602816, -33.414236568203918 ], [ -70.772541939942528, -33.414390328216541 ], [ -70.772432140661991, -33.414506226729721 ], [ -70.772279643557681, -33.414585525860083 ], [ -70.77212104599424, -33.414609925347207 ], [ -70.771920747737028, -33.414616484114127 ], [ -70.77170015114767, -33.414585525860083 ], [ -70.771401255601489, -33.414500126851273 ], [ -70.771169459715466, -33.414408627873662 ], [ -70.770937662931132, -33.414335429222035 ], [ -70.77093680144678, -33.414335283754454 ], [ -70.77086409989252, -33.41426792624361 ], [ -70.770680476163605, -33.414179088932805 ], [ -70.770355169249754, -33.414275265612893 ], [ -70.770354401190176, -33.414281254531794 ], [ -70.770280000023419, -33.414280000060643 ], [ -70.769611304905709, -33.414308330258713 ], [ -70.769175435143339, -33.414300942153055 ], [ -70.768850379757765, -33.414249229145064 ], [ -70.767869174227442, -33.414031999832595 ], [ -70.767448626130545, -33.413938891963006 ], [ -70.766604702401693, -33.413715349725514 ], [ -70.765759137104894, -33.41349617170399 ], [ -70.764911962639701, -33.413281366329805 ], [ -70.764063211467374, -33.413070941866138 ], [ -70.763212916109552, -33.412864906407741 ], [ -70.762361109147079, -33.41266326788049 ], [ -70.75996000042754, -33.412369999863152 ], [ -70.759581158414335, -33.412333133489149 ], [ -70.759428289407509, -33.412338316453123 ], [ -70.759154164905297, -33.412363632888159 ], [ -70.757848557064619, -33.412491852622296 ], [ -70.757164069564197, -33.41255425576383 ], [ -70.75649307925093, -33.412615254395817 ], [ -70.7555911778922, -33.412632424406709 ], [ -70.754990000151238, -33.412589999521664 ], [ -70.754503617222113, -33.412535300348488 ], [ -70.754131728169227, -33.412444472665392 ], [ -70.753750078920774, -33.412350610994309 ], [ -70.753358603001416, -33.412276864716866 ], [ -70.752848259308735, -33.412224594114129 ], [ -70.7524701619989, -33.412185867297083 ], [ -70.752382863752601, -33.412170247075373 ], [ -70.752294598170607, -33.412159037322631 ], [ -70.752205684748674, -33.412152278616631 ], [ -70.752116445327516, -33.412149995422965 ], [ -70.75202720292792, -33.41215219600646 ], [ -70.751938280581413, -33.412158872401307 ], [ -70.751850000161042, -33.4121700004399 ], [ -70.751375384348322, -33.412226959224029 ], [ -70.750899889920021, -33.412278560043504 ], [ -70.750423603680105, -33.412324793487898 ], [ -70.749946612576977, -33.412365651125619 ], [ -70.749469003687835, -33.41240112550549 ], [ -70.748990864202611, -33.412431210158104 ], [ -70.748512281408082, -33.412455899596935 ], [ -70.74803334267196, -33.412475189319409 ], [ -70.747554135426952, -33.412489075807713 ], [ -70.747074747154755, -33.412497556529345 ], [ -70.746595265370161, -33.412500629937732 ], [ -70.746115777604999, -33.412498295472346 ], [ -70.745636371392166, -33.412490553558932 ], [ -70.745157134249752, -33.412477405609401 ], [ -70.744678153664879, -33.41245885402148 ], [ -70.744446250879335, -33.412431489775834 ], [ -70.743791317951789, -33.412410188054743 ], [ -70.743277853511799, -33.412441638235464 ], [ -70.740559019659401, -33.412608145839364 ], [ -70.738374340244619, -33.412455719652399 ], [ -70.737498840372083, -33.412315579495719 ], [ -70.737097721038154, -33.412260176789744 ], [ -70.736516137350165, -33.412268320918493 ], [ -70.736262842084457, -33.412332888288155 ], [ -70.735301011418173, -33.412422590564063 ], [ -70.73384868892866, -33.412534360788435 ], [ -70.733643074441602, -33.412555925675797 ], [ -70.732506169312956, -33.412675091471662 ], [ -70.731961471348868, -33.412713209944798 ], [ -70.730295320177319, -33.413041428539664 ], [ -70.72961005293925, -33.413325363261862 ], [ -70.729107764439703, -33.413667914959049 ], [ -70.72885575645978, -33.413793398860101 ], [ -70.728384998826726, -33.413891419065912 ], [ -70.727876057404188, -33.413898511020946 ], [ -70.727436237749501, -33.413721718861986 ], [ -70.725458052272458, -33.412986773141782 ], [ -70.724065792939484, -33.412457229848435 ], [ -70.723186786044067, -33.412134044301155 ], [ -70.722814513410555, -33.41192423474947 ], [ -70.722499326018394, -33.411746648224337 ], [ -70.722147493650837, -33.412077831638797 ], [ -70.721047096055344, -33.412552323404931 ], [ -70.719395428421137, -33.413224166084632 ] ] ] } },
{ "type": "Feature", "properties": { "capa": "ds19", "popup": "<strong>CONDOMINIO 2 RIO VIEJO DE PUDAHUEL</strong><br><br><strong>Programa:</strong> DS19<br><strong>Comuna:</strong> Pudahuel<br><strong>Región:</strong> Metropolitana<br><strong>Año de inicio:</strong> 2017", "etiqueta": "CONDOMINIO 2 RIO VIEJO DE PUDAHUEL" }, "geometry": { "type": "Polygon", "coordinates": [ [ [ -70.768199582673773, -33.426728998234438 ], [ -70.768663615518619, -33.426686724183938 ], [ -70.76907192945967, -33.426515566774583 ], [ -70.769075038528854, -33.425912267821964 ], [ -70.768134730598462, -33.425900563741259 ], [ -70.768199582673773, -33.426728998234438 ] ] ] } },
{ "type": "Feature", "properties": { "capa": "ds19", "popup": "<strong>CONDOMINIO 3 RIO VIEJO DE PUDAHUEL</strong><br><br><strong>Programa:</strong> DS19<br><strong>Comuna:</strong> Pudahuel<br><strong>Región:</strong> Metropolitana<br><strong>Año de inicio:</strong> 2017", "etiqueta": "CONDOMINIO 3 RIO VIEJO DE PUDAHUEL" }, "geometry": { "type": "Polygon", "coordinates": [ [ [ -70.767267043373963, -33.426269395595547 ], [ -70.767291105647146, -33.425846684164071 ], [ -70.767032323471696, -33.425850683242189 ], [ -70.766844988802347, -33.425929345235765 ], [ -70.766694454516909, -33.426006815833816 ], [ -70.767531722090965, -33.427349677530088 ], [ -70.767960060378002, -33.427187305919439 ], [ -70.767847740424756, -33.426754540639742 ], [ -70.767606814062177, -33.42675045913348 ], [ -70.767267043373963, -33.426269395595547 ] ] ] } },
{ "type": "Feature", "properties": { "capa": "ds19", "popup": "<strong>CONDOMINIO4 RIO VIEJO DE PUDAHUEL</strong><br><br><strong>Programa:</strong> DS19<br><strong>Comuna:</strong> Pudahuel<br><strong>Región:</strong> Metropolitana<br><strong>Año de inicio:</strong> 2019", "etiqueta": "CONDOMINIO4 RIO VIEJO DE PUDAHUEL" }, "geometry": { "type": "Polygon", "coordinates": [ [ [ -70.767845006851331, -33.426761899196215 ], [ -70.768008385248706, -33.427283983249751 ], [ -70.768347514539826, -33.427224703537448 ], [ -70.769233397140397, -33.426828074445368 ], [ -70.769412660446932, -33.426443683605918 ], [ -70.769411934608186, -33.425920128021097 ], [ -70.769102872827929, -33.425901050317961 ], [ -70.769088599496385, -33.426525939256202 ], [ -70.768667398324283, -33.426701040204286 ], [ -70.768156485099709, -33.426746819965132 ], [ -70.767845006851331, -33.426761899196215 ] ] ] } },
{ "type": "Feature", "properties": { "capa": "colegios", "popup": "<strong>ESCUELA DE LENGUAJE SANTA TERESA</strong><br><br><strong>Dirección:</strong> SAN FRANCISCO 6235", "etiqueta": "" }, "geometry": { "type": "Point", "coordinates": [ -70.72323, -33.438694 ] } },
{ "type": "Feature", "properties": { "capa": "colegios", "popup": "<strong>COLEGIO NEPTUNO</strong><br><br><strong>Dirección:</strong> DEL CONSISTORIAL 6600", "etiqueta": "" }, "geometry": { "type": "Point", "coordinates": [ -70.72778904, -33.43533683 ] } },
{ "type": "Feature", "properties": { "capa": "colegios", "popup": "<strong>ESCUELA REPUBLICA DE CROACIA</strong><br><br><strong>Dirección:</strong> CARDENAL RAUL SILVA HENRIQUEZ 1185", "etiqueta": "" }, "geometry": { "type": "Point", "coordinates": [ -70.73019633, -33.43412812 ] } },
{ "type": "Feature", "properties": { "capa": "colegios", "popup": "<strong>ESCUELA PRESIDENTE ROOSEVELT</strong><br><br><strong>Dirección:</strong> AVENIDA ESTADOS UNIDOS 1180", "etiqueta": "" }, "geometry": { "type": "Point", "coordinates": [ -70.73817167, -33.4340388 ] } },
{ "type": "Feature", "properties": { "capa": "colegios", "popup": "<strong>ESCUELA CHARLES SCHOOL-DIURNA</strong><br><br><strong>Dirección:</strong> CARDENAL RAUL SILVA HENRIQUEZ 1209", "etiqueta": "" }, "geometry": { "type": "Point", "coordinates": [ -70.7302413, -33.433202400000013 ] } },
{ "type": "Feature", "properties": { "capa": "colegios", "popup": "<strong>ESCUELA PARTICULAR MONTE GRANDE</strong><br><br><strong>Dirección:</strong> NEPTUNO 1478", "etiqueta": "" }, "geometry": { "type": "Point", "coordinates": [ -70.72081413, -33.43205397 ] } },
{ "type": "Feature", "properties": { "capa": "colegios", "popup": "<strong>LICEO POLITECNICO SAN FRANCISCO SOLANO</strong><br><br><strong>Dirección:</strong> MEMBRILLAR 6166", "etiqueta": "" }, "geometry": { "type": "Point", "coordinates": [ -70.72136001, -33.431670019999984 ] } },
{ "type": "Feature", "properties": { "capa": "colegios", "popup": "<strong>ESCUELA CIUDAD SANTO DOMINGO DE GUZMAN</strong><br><br><strong>Dirección:</strong> NANCU 6880", "etiqueta": "" }, "geometry": { "type": "Point", "coordinates": [ -70.729933679999988, -33.43057297 ] } },
{ "type": "Feature", "properties": { "capa": "colegios", "popup": "<strong>COLEGIO SAN DAMIAN DE MOLOKAI</strong><br><br><strong>Dirección:</strong> ESTADOS UNIDOS 1364", "etiqueta": "" }, "geometry": { "type": "Point", "coordinates": [ -70.73796488, -33.430078950000016 ] } },
{ "type": "Feature", "properties": { "capa": "colegios", "popup": "<strong>ESCUELA PARTICULAR ROBERT KENNEDY</strong><br><br><strong>Dirección:</strong> GENOVA 7177", "etiqueta": "" }, "geometry": { "type": "Point", "coordinates": [ -70.73414133, -33.42890672 ] } },
{ "type": "Feature", "properties": { "capa": "colegios", "popup": "<strong>ESCUELA ESPECIAL AGORA</strong><br><br><strong>Dirección:</strong> CAUQUENES 6144", "etiqueta": "" }, "geometry": { "type": "Point", "coordinates": [ -70.72036, -33.42759 ] } },
{ "type": "Feature", "properties": { "capa": "colegios", "popup": "<strong>ESCUELA LEONARDO DA VINCI</strong><br><br><strong>Dirección:</strong> LOS PLACERES 8022", "etiqueta": "" }, "geometry": { "type": "Point", "coordinates": [ -70.74387557999998, -33.4275072 ] } },
{ "type": "Feature", "properties": { "capa": "colegios", "popup": "<strong>ESC. ESP. PART. LA PAMPA</strong><br><br><strong>Dirección:</strong> CAUQUENES 6161", "etiqueta": "" }, "geometry": { "type": "Point", "coordinates": [ -70.71985, -33.42719 ] } },
{ "type": "Feature", "properties": { "capa": "colegios", "popup": "<strong>ESCUELA PARTICULAR CARLOS PEZOA VELIZ</strong><br><br><strong>Dirección:</strong> EL PEUMO 1459", "etiqueta": "" }, "geometry": { "type": "Point", "coordinates": [ -70.728884889999989, -33.42716637 ] } },
{ "type": "Feature", "properties": { "capa": "colegios", "popup": "<strong>ESCUELA REPUBLICA DE ITALIA</strong><br><br><strong>Dirección:</strong> AMALFI 1469", "etiqueta": "" }, "geometry": { "type": "Point", "coordinates": [ -70.73442201, -33.42661641 ] } },
{ "type": "Feature", "properties": { "capa": "colegios", "popup": "<strong>ESC. ESPECIAL RUGENDAS</strong><br><br><strong>Dirección:</strong> CALLE CHANCO 1486", "etiqueta": "" }, "geometry": { "type": "Point", "coordinates": [ -70.72764, -33.426586 ] } },
{ "type": "Feature", "properties": { "capa": "colegios", "popup": "<strong>ESCUELA ESP. ALTUE DE CERRO NAVIA</strong><br><br><strong>Dirección:</strong> GALVARINO 1477", "etiqueta": "" }, "geometry": { "type": "Point", "coordinates": [ -70.742836, -33.426426 ] } },
{ "type": "Feature", "properties": { "capa": "colegios", "popup": "<strong>ESCUELA GENERAL RENE ESCAURIAZA</strong><br><br><strong>Dirección:</strong> ROLANDO PETERSEN 1654", "etiqueta": "" }, "geometry": { "type": "Point", "coordinates": [ -70.748602439999985, -33.42559408 ] } },
{ "type": "Feature", "properties": { "capa": "colegios", "popup": "<strong>ESCUELA SARGENTO CANDELARIA</strong><br><br><strong>Dirección:</strong> CALLE SARGENTO CANDELARIA 7521", "etiqueta": "" }, "geometry": { "type": "Point", "coordinates": [ -70.741765499999985, -33.42543239 ] } },
{ "type": "Feature", "properties": { "capa": "colegios", "popup": "<strong>ESCUELA ESPECIAL EL CASTILLO  ENCANTADO</strong><br><br><strong>Dirección:</strong> AMBROSIO O'HIGGINS 1629", "etiqueta": "" }, "geometry": { "type": "Point", "coordinates": [ -70.72308, -33.425404 ] } },
{ "type": "Feature", "properties": { "capa": "colegios", "popup": "<strong>ESCUELA HERMINDA DE LA VICTORIA</strong><br><br><strong>Dirección:</strong> PRESIDENTE GALVEZ 1530", "etiqueta": "" }, "geometry": { "type": "Point", "coordinates": [ -70.73740401, -33.42472532 ] } },
{ "type": "Feature", "properties": { "capa": "colegios", "popup": "<strong>ESC BAS PART CENTRO EDUCACIONAL SN PABLO</strong><br><br><strong>Dirección:</strong> JORGE GILES 1533", "etiqueta": "" }, "geometry": { "type": "Point", "coordinates": [ -70.73472539, -33.424565680000015 ] } },
{ "type": "Feature", "properties": { "capa": "colegios", "popup": "<strong>ESCUELA PARTICULAR LA FRONTERA</strong><br><br><strong>Dirección:</strong> ROLANDO PETERSEN 1500", "etiqueta": "" }, "geometry": { "type": "Point", "coordinates": [ -70.74767302, -33.42382413 ] } },
{ "type": "Feature", "properties": { "capa": "colegios", "popup": "<strong>ESCUELA PROVINCIA DE ARAUCO</strong><br><br><strong>Dirección:</strong> CERRO NAVIA 1818", "etiqueta": "" }, "geometry": { "type": "Point", "coordinates": [ -70.71978877, -33.42355907 ] } },
{ "type": "Feature", "properties": { "capa": "colegios", "popup": "<strong>ESCUELA BASICA N° 2485 COLEGIO CREE CERRO NAVIA</strong><br><br><strong>Dirección:</strong> AVENIDA MAPOCHO SUR 8240", "etiqueta": "" }, "geometry": { "type": "Point", "coordinates": [ -70.7569154, -33.422879099999989 ] } },
{ "type": "Feature", "properties": { "capa": "colegios", "popup": "<strong>LICEO POLIVALENTE LOS HEROES DE LA CONCEPCIÓN</strong><br><br><strong>Dirección:</strong> AVENIDA LA ESTRELLA 1633", "etiqueta": "" }, "geometry": { "type": "Point", "coordinates": [ -70.74179704, -33.42281724 ] } },
{ "type": "Feature", "properties": { "capa": "colegios", "popup": "<strong>COLEGIO CRISTIAN AND CAREN SCHOOL</strong><br><br><strong>Dirección:</strong> SALVADOR GUTIERREZ 6232", "etiqueta": "" }, "geometry": { "type": "Point", "coordinates": [ -70.71961688, -33.42161093 ] } },
{ "type": "Feature", "properties": { "capa": "colegios", "popup": "<strong>COLEGIO SAN FRANCISCO JAVIER</strong><br><br><strong>Dirección:</strong> PRESIDENTE PRIETO 1832", "etiqueta": "" }, "geometry": { "type": "Point", "coordinates": [ -70.72667173, -33.421341780000013 ] } },
{ "type": "Feature", "properties": { "capa": "colegios", "popup": "<strong>ESCUELA ESP. SAN MARTIN DE PORRES</strong><br><br><strong>Dirección:</strong> LO DUARTE 1936", "etiqueta": "" }, "geometry": { "type": "Point", "coordinates": [ -70.731895, -33.421153 ] } },
{ "type": "Feature", "properties": { "capa": "colegios", "popup": "<strong>ESCUELA FEDERICO ACEVEDO SALAZAR</strong><br><br><strong>Dirección:</strong> DIAGONAL RENI 1601", "etiqueta": "" }, "geometry": { "type": "Point", "coordinates": [ -70.75495826, -33.42075718 ] } },
{ "type": "Feature", "properties": { "capa": "colegios", "popup": "<strong>ESCUELA ESP. PART. PATAGONIA</strong><br><br><strong>Dirección:</strong> SALOMON CORVALAN 1621", "etiqueta": "" }, "geometry": { "type": "Point", "coordinates": [ -70.735466, -33.420578 ] } },
{ "type": "Feature", "properties": { "capa": "colegios", "popup": "<strong>ESCUELA DOCTOR TREVISO GIRARDI TONELLI</strong><br><br><strong>Dirección:</strong> CLORINDA SILVA 1964", "etiqueta": "" }, "geometry": { "type": "Point", "coordinates": [ -70.72875941, -33.42046717 ] } },
{ "type": "Feature", "properties": { "capa": "colegios", "popup": "<strong>ESCUELA MILLAHUE</strong><br><br><strong>Dirección:</strong> LUIS LAZZARINI 7615", "etiqueta": "" }, "geometry": { "type": "Point", "coordinates": [ -70.74398051, -33.419499 ] } },
{ "type": "Feature", "properties": { "capa": "colegios", "popup": "<strong>ESCUELA PARTICULAR ESPANA</strong><br><br><strong>Dirección:</strong> HECTOR AHUMADA 1981", "etiqueta": "" }, "geometry": { "type": "Point", "coordinates": [ -70.72857503, -33.419258409999983 ] } },
{ "type": "Feature", "properties": { "capa": "colegios", "popup": "<strong>ESCUELA ESPECIAL SGTO.CADELARIA</strong><br><br><strong>Dirección:</strong> CALLE LA CAPILLA 8550", "etiqueta": "" }, "geometry": { "type": "Point", "coordinates": [ -70.74417, -33.41836 ] } },
{ "type": "Feature", "properties": { "capa": "colegios", "popup": "<strong>ESCUELA ESP. PART. CALIN</strong><br><br><strong>Dirección:</strong> CALLE 3 DE JULIO 6664", "etiqueta": "" }, "geometry": { "type": "Point", "coordinates": [ -70.7252, -33.418186 ] } },
{ "type": "Feature", "properties": { "capa": "colegios", "popup": "<strong>LICEO BICENTENARIO DE  EXCELENCIA NACIONAL DE</strong><br><br><strong>Dirección:</strong> 5 DE FEBRERO 2009", "etiqueta": "" }, "geometry": { "type": "Point", "coordinates": [ -70.72776, -33.417763 ] } },
{ "type": "Feature", "properties": { "capa": "colegios", "popup": "<strong>ESCUELA BASICA PAULO FREIRE</strong><br><br><strong>Dirección:</strong> AVENIDA 3 DE JULIO 6635", "etiqueta": "" }, "geometry": { "type": "Point", "coordinates": [ -70.72486933, -33.41771764 ] } },
{ "type": "Feature", "properties": { "capa": "colegios", "popup": "<strong>COLEGIO ENRIQUE ALVEAR DE CERRO NAVIA</strong><br><br><strong>Dirección:</strong> EL RESBALON 1685", "etiqueta": "" }, "geometry": { "type": "Point", "coordinates": [ -70.73710134, -33.417506680000017 ] } },
{ "type": "Feature", "properties": { "capa": "colegios", "popup": "<strong>ESCUELA BASICA PARTICULAR HORIZONTE 11</strong><br><br><strong>Dirección:</strong> DARIO SALAZAR 1740", "etiqueta": "" }, "geometry": { "type": "Point", "coordinates": [ -70.74526117, -33.41676806 ] } },
{ "type": "Feature", "properties": { "capa": "colegios", "popup": "<strong>COLEGIO POLIV. SAINT ORLAND N 3</strong><br><br><strong>Dirección:</strong> DIAGONAL RENY 1719", "etiqueta": "" }, "geometry": { "type": "Point", "coordinates": [ -70.757606699999982, -33.416609949999987 ] } },
{ "type": "Feature", "properties": { "capa": "colegios", "popup": "<strong>ESCUELA DIVINO MAESTRO</strong><br><br><strong>Dirección:</strong> LANALHUE 1790", "etiqueta": "" }, "geometry": { "type": "Point", "coordinates": [ -70.76745314, -33.416523020000014 ] } },
{ "type": "Feature", "properties": { "capa": "colegios", "popup": "<strong>CEIA GEORGINA SALAS DINAMARCA</strong><br><br><strong>Dirección:</strong> CARDENAL RAUL SILVA HENRIQUEZ 1185", "etiqueta": "" }, "geometry": { "type": "Point", "coordinates": [ -70.741425, -33.41629 ] } },
{ "type": "Feature", "properties": { "capa": "colegios", "popup": "<strong>CENTRO EDUCACIONAL DE ADULTOS</strong><br><br><strong>Dirección:</strong> HUELEN 1914", "etiqueta": "" }, "geometry": { "type": "Point", "coordinates": [ -70.74167, -33.41535 ] } },
{ "type": "Feature", "properties": { "capa": "colegios", "popup": "<strong>ESCUELA MARIA LUISA BOMBAL</strong><br><br><strong>Dirección:</strong> LA CAPILLA 7270", "etiqueta": "" }, "geometry": { "type": "Point", "coordinates": [ -70.73662856, -33.41511573 ] } },
{ "type": "Feature", "properties": { "capa": "colegios", "popup": "<strong>ESCUELA ALIANZA</strong><br><br><strong>Dirección:</strong> AVENIDA LA CAPILLA 8514", "etiqueta": "" }, "geometry": { "type": "Point", "coordinates": [ -70.76228048, -33.414588379999984 ] } },
{ "type": "Feature", "properties": { "capa": "colegios", "popup": "<strong>COMPLEJO EDUCACIONAL CERRO NAVIA</strong><br><br><strong>Dirección:</strong> COSTANERA SUR 6760", "etiqueta": "" }, "geometry": { "type": "Point", "coordinates": [ -70.7248779, -33.41412712 ] } },
{ "type": "Feature", "properties": { "capa": "colegios", "popup": "<strong>ESCUELA PARTICULAR SAN VICENTE FERRER</strong><br><br><strong>Dirección:</strong> DARIO SALAZAR 1803", "etiqueta": "" }, "geometry": { "type": "Point", "coordinates": [ -70.744949700000021, -33.41379214000002 ] } },
{ "type": "Feature", "properties": { "capa": "colegios", "popup": "<strong>ESCUELA PROF. MANUEL GUERRERO CEBALLOS</strong><br><br><strong>Dirección:</strong> COSTANERA SUR 8090", "etiqueta": "" }, "geometry": { "type": "Point", "coordinates": [ -70.75287839, -33.41365608 ] } },
{ "type": "Feature", "properties": { "capa": "jardines", "popup": "<strong>LOS PEQUES</strong><br><br><strong>Dirección:</strong> LAS VIOLETAS 1118 POB. NEPTUNO ", "etiqueta": "" }, "geometry": { "type": "MultiPoint", "coordinates": [ [ -70.726996, -33.436464 ] ] } },
{ "type": "Feature", "properties": { "capa": "jardines", "popup": "<strong>PEQUEÑAS ILUSIONES</strong><br><br><strong>Dirección:</strong> EL ARROYO 1734 POB EL MONTIJO ", "etiqueta": "" }, "geometry": { "type": "MultiPoint", "coordinates": [ [ -70.756336, -33.416127 ] ] } },
{ "type": "Feature", "properties": { "capa": "jardines", "popup": "<strong>BURBUJITAS</strong><br><br><strong>Dirección:</strong> DARIO SALAZAR 1550 POB. FEDERICO STA. MARIA ", "etiqueta": "" }, "geometry": { "type": "MultiPoint", "coordinates": [ [ -70.74524, -33.420254 ] ] } },
{ "type": "Feature", "properties": { "capa": "jardines", "popup": "<strong>FANTASIA</strong><br><br><strong>Dirección:</strong> ROLANDO PETERSEN 1806 V. CALIFORNIA ", "etiqueta": "" }, "geometry": { "type": "MultiPoint", "coordinates": [ [ -70.747528, -33.413907 ] ] } },
{ "type": "Feature", "properties": { "capa": "jardines", "popup": "<strong>RELMU</strong><br><br><strong>Dirección:</strong> SIBERIA 6760 POB.INTENDENTE SAAVEDRA ", "etiqueta": "" }, "geometry": { "type": "MultiPoint", "coordinates": [ [ -70.727943, -33.417435 ] ] } },
{ "type": "Feature", "properties": { "capa": "jardines", "popup": "<strong>LAS ROSAS</strong><br><br><strong>Dirección:</strong> LA CAPILLA #7296 ", "etiqueta": "" }, "geometry": { "type": "MultiPoint", "coordinates": [ [ -70.73786, -33.415214 ] ] } },
{ "type": "Feature", "properties": { "capa": "jardines", "popup": "<strong>LOS LAGOS</strong><br><br><strong>Dirección:</strong> COSTANERA SUR 8710 A,SECTOR LOS LAGOS ", "etiqueta": "" }, "geometry": { "type": "MultiPoint", "coordinates": [ [ -70.76579, -33.414919 ] ] } },
{ "type": "Feature", "properties": { "capa": "jardines", "popup": "<strong>TRICAHUE</strong><br><br><strong>Dirección:</strong> FANALOZA 7237,POB DIGNA ROSA ", "etiqueta": "" }, "geometry": { "type": "MultiPoint", "coordinates": [ [ -70.735065, -33.417923 ] ] } },
{ "type": "Feature", "properties": { "capa": "jardines", "popup": "<strong>RENACER</strong><br><br><strong>Dirección:</strong> AV. COSTANERA SUR 6760 ", "etiqueta": "" }, "geometry": { "type": "MultiPoint", "coordinates": [ [ -70.724879, -33.414129 ] ] } },
{ "type": "Feature", "properties": { "capa": "jardines", "popup": "<strong>SEMBRANDO FUTURO</strong><br><br><strong>Dirección:</strong> SALVADOR GUTIERREZ 7651 ", "etiqueta": "" }, "geometry": { "type": "MultiPoint", "coordinates": [ [ -70.744504, -33.417916 ] ] } },
{ "type": "Feature", "properties": { "capa": "jardines", "popup": "<strong>PEQUEÑOS TALENTOS</strong><br><br><strong>Dirección:</strong> JOSE JOAQUIN PEREZ 8985 ", "etiqueta": "" }, "geometry": { "type": "MultiPoint", "coordinates": [ [ -70.759102, -33.427414 ] ] } },
{ "type": "Feature", "properties": { "capa": "jardines", "popup": "<strong>CENCRECO</strong><br><br><strong>Dirección:</strong> SALVADOR GUTIERREZ 7800 ", "etiqueta": "" }, "geometry": { "type": "MultiPoint", "coordinates": [ [ -70.74696, -33.417989 ] ] } },
{ "type": "Feature", "properties": { "capa": "jardines", "popup": "<strong>PIECECITOS DE NIÑOS</strong><br><br><strong>Dirección:</strong> ROLANDO PETERSEN ", "etiqueta": "" }, "geometry": { "type": "MultiPoint", "coordinates": [ [ -70.747468, -33.41816 ] ] } },
{ "type": "Feature", "properties": { "capa": "jardines", "popup": "<strong>RAYEN MAPU</strong><br><br><strong>Dirección:</strong> DIAGONAL RENY ESQ EL PAJAR ", "etiqueta": "" }, "geometry": { "type": "MultiPoint", "coordinates": [ [ -70.753734, -33.42322 ] ] } },
{ "type": "Feature", "properties": { "capa": "jardines", "popup": "<strong>TANGANYICA</strong><br><br><strong>Dirección:</strong> LAGO TANGANGYCA 7361 ", "etiqueta": "" }, "geometry": { "type": "MultiPoint", "coordinates": [ [ -70.741572, -33.417036 ] ] } },
{ "type": "Feature", "properties": { "capa": "jardines", "popup": "<strong>NA</strong><br><br><strong>Dirección:</strong> NA ", "etiqueta": "" }, "geometry": { "type": "MultiPoint", "coordinates": [ [ -70.755200000465607, -33.420200999918187 ] ] } },
{ "type": "Feature", "properties": { "capa": "jardines", "popup": "<strong>NA</strong><br><br><strong>Dirección:</strong> NA ", "etiqueta": "" }, "geometry": { "type": "MultiPoint", "coordinates": [ [ -70.731700000405496, -33.425482000024047 ] ] } },
{ "type": "Feature", "properties": { "capa": "jardines", "popup": "<strong>NA</strong><br><br><strong>Dirección:</strong> NA ", "etiqueta": "" }, "geometry": { "type": "MultiPoint", "coordinates": [ [ -70.760083000414497, -33.414368999830394 ] ] } },
{ "type": "Feature", "properties": { "capa": "jardines", "popup": "<strong>NA</strong><br><br><strong>Dirección:</strong> NA ", "etiqueta": "" }, "geometry": { "type": "MultiPoint", "coordinates": [ [ -70.736955000343855, -33.415002000393692 ] ] } },
{ "type": "Feature", "properties": { "capa": "comisarias", "popup": "<strong>45A. COM. CERRO NAVIA</strong><br><br><strong>Dirección:</strong> LOS CONQUISTADORES 7350", "etiqueta": "" }, "geometry": { "type": "Point", "coordinates": [ -70.742827, -33.422742 ] } },
{ "type": "Feature", "properties": { "capa": "salud", "popup": "<strong>SAPU Dr. Arturo Albertz</strong><br><br><strong>Tipo de atención:</strong> Servicio de Atención Primaria de Urgencia (SAPU)<br><strong>Dirección:</strong>  1204", "etiqueta": "" }, "geometry": { "type": "Point", "coordinates": [ -70.731486, -33.433509 ] } },
{ "type": "Feature", "properties": { "capa": "salud", "popup": "<strong>Centro de Salud Familiar Dr. Arturo Albertz</strong><br><br><strong>Tipo de atención:</strong> Centro de Salud Familiar (CESFAM)<br><strong>Dirección:</strong>  1204", "etiqueta": "" }, "geometry": { "type": "Point", "coordinates": [ -70.73166, -33.4335 ] } },
{ "type": "Feature", "properties": { "capa": "salud", "popup": "<strong>Centro de Salud Familiar Cerro Navia</strong><br><br><strong>Tipo de atención:</strong> Centro de Salud Familiar (CESFAM)<br><strong>Dirección:</strong>  7965", "etiqueta": "" }, "geometry": { "type": "Point", "coordinates": [ -70.75083, -33.41956 ] } },
{ "type": "Feature", "properties": { "capa": "salud", "popup": "<strong>SAPU Luis Chavarría</strong><br><br><strong>Tipo de atención:</strong> Servicio de Atención Primaria de Urgencia (SAPU)<br><strong>Dirección:</strong>  7965", "etiqueta": "" }, "geometry": { "type": "Point", "coordinates": [ -70.751003, -33.419555 ] } },
{ "type": "Feature", "properties": { "capa": "salud", "popup": "<strong>SAPU Dr. Adalberto Steeger</strong><br><br><strong>Tipo de atención:</strong> Servicio de Atención Primaria de Urgencia (SAPU)<br><strong>Dirección:</strong>  1629", "etiqueta": "" }, "geometry": { "type": "Point", "coordinates": [ -70.74122, -33.417692 ] } },
{ "type": "Feature", "properties": { "capa": "salud", "popup": "<strong>Centro de Salud Familiar Lo Amor</strong><br><br><strong>Tipo de atención:</strong> Centro de Salud Familiar (CESFAM)<br><strong>Dirección:</strong>  2198", "etiqueta": "" }, "geometry": { "type": "Point", "coordinates": [ -70.7174, -33.41758 ] } },
{ "type": "Feature", "properties": { "capa": "salud", "popup": "<strong>Centro de Salud Familiar Dr. Adalberto Steeger</strong><br><br><strong>Tipo de atención:</strong> Centro de Salud Familiar (CESFAM)<br><strong>Dirección:</strong>  1629", "etiqueta": "" }, "geometry": { "type": "Point", "coordinates": [ -70.7412, -33.41752 ] } },
{ "type": "Feature", "properties": { "capa": "salud", "popup": "<strong>Centro Comunitario de Salud Familiar Los Lagos (Unidad Vecinal Nº 33)</strong><br><br><strong>Tipo de atención:</strong> Centro Comunitario de Salud Familiar (CECOSF)<br><strong>Dirección:</strong>  1780", "etiqueta": "" }, "geometry": { "type": "Point", "coordinates": [ -70.76792, -33.41629 ] } },
{ "type": "Feature", "properties": { "capa": "salud", "popup": "<strong>Hospital  Félix Bulnes Cerda</strong><br><br><strong>Tipo de atención:</strong> Hospital<br><strong>Dirección:</strong>  7432", "etiqueta": "" }, "geometry": { "type": "Point", "coordinates": [ -70.741664, -33.423625 ] } },
{ "type": "Feature", "properties": { "capa": "municipios", "popup": "<strong>Municipalidad de Cerro Navia</strong><br><br><strong>Dirección:</strong> Del Consistorial Nº 6645<br><strong>Región:</strong> Metropolitana de Santiago", "etiqueta": "" }, "geometry": { "type": "Point", "coordinates": [ -70.72913802999993, -33.434759570999965 ] } }
]
}
