{
"type": "FeatureCollection",
"name": "13113",
"crs": { "type": "name", "properties": { "name": "urn:ogc:def:crs:OGC:1.3:CRS84" } },
"features": [
{ "type": "Feature", "properties": { "capa": "comuna", "popup": "", "etiqueta": "" }, "geometry": { "type": "Polygon", "coordinates": [ [ [ -70.539081268187729, -33.42892544293759 ], [ -70.539093354121547, -33.430074262873603 ], [ -70.538991254301308, -33.430774206342292 ], [ -70.538877469195853, -33.43127157009063 ], [ -70.538757634835264, -33.431660849225636 ], [ -70.538568685893338, -33.432123166393446 ], [ -70.538302374937473, -33.432685587424189 ], [ -70.538137209791017, -33.432982932510178 ], [ -70.538025052432857, -33.433193841920541 ], [ -70.53795410618666, -33.433379898565612 ], [ -70.537925970053664, -33.433376210946776 ], [ -70.537933852770266, -33.433433015552374 ], [ -70.537447200346563, -33.433386005363978 ], [ -70.536639703839342, -33.433287707298568 ], [ -70.534006947455794, -33.432963216889192 ], [ -70.532500739523968, -33.432779072517768 ], [ -70.530714351546607, -33.432554353077677 ], [ -70.529907504521347, -33.432455808926143 ], [ -70.529255362659356, -33.432374828098588 ], [ -70.52856943695619, -33.432289048507961 ], [ -70.527421362175303, -33.432148075981644 ], [ -70.526111159451943, -33.43198932530747 ], [ -70.524986050101305, -33.431849890640947 ], [ -70.523127325285685, -33.43161940297869 ], [ -70.523028649843283, -33.431611355874722 ], [ -70.523028502519594, -33.431611603270326 ], [ -70.522564519082081, -33.43181965672678 ], [ -70.521980653673282, -33.432131060515381 ], [ -70.521945938279117, -33.432129012391876 ], [ -70.521910974949947, -33.432172222389696 ], [ -70.521736452951487, -33.432275315159302 ], [ -70.521365362500887, -33.432469738661432 ], [ -70.521102652891003, -33.432553194829048 ], [ -70.520796595975384, -33.432647081890877 ], [ -70.520457273546484, -33.432775150975246 ], [ -70.520375771197379, -33.432787550575732 ], [ -70.519987749300299, -33.432956246438884 ], [ -70.519968845153471, -33.432974057894938 ], [ -70.519490418602814, -33.433169390680959 ], [ -70.519390315737439, -33.433138774894537 ], [ -70.518739193463304, -33.43361923436224 ], [ -70.51755424194171, -33.434314187239885 ], [ -70.516956732022052, -33.434707201761583 ], [ -70.516696800003032, -33.43483244909995 ], [ -70.515998294292601, -33.435136065925604 ], [ -70.515024922071547, -33.435377506397174 ], [ -70.510649266051828, -33.435594757268255 ], [ -70.509478197094637, -33.435707353011978 ], [ -70.508156332442255, -33.436149648861289 ], [ -70.506879237128686, -33.436919191457598 ], [ -70.504555067316602, -33.438193247767437 ], [ -70.503436640533351, -33.439091965427401 ], [ -70.502897172560836, -33.439557520323156 ], [ -70.502093087855073, -33.440550750023156 ], [ -70.500832331998211, -33.442270790368681 ], [ -70.500721749386742, -33.442665538629896 ], [ -70.500495675769088, -33.443160018037013 ], [ -70.500189103220492, -33.443524333777148 ], [ -70.499764694164512, -33.443857346371303 ], [ -70.498912480420771, -33.444326592832176 ], [ -70.49810154606098, -33.444926545129206 ], [ -70.49763960179915, -33.445358264095525 ], [ -70.497410688606877, -33.445688907030004 ], [ -70.497222019939329, -33.446084595424587 ], [ -70.496913083024921, -33.446317795536721 ], [ -70.496602544414358, -33.446452681139064 ], [ -70.496215450476953, -33.446686823949385 ], [ -70.495985965057855, -33.446984668227479 ], [ -70.495953686793058, -33.447378467098495 ], [ -70.495959877981988, -33.447739072866781 ], [ -70.496168253890232, -33.448490499776753 ], [ -70.496257106255001, -33.449112380829803 ], [ -70.496305237089601, -33.449636345148519 ], [ -70.496350551705788, -33.449996404120199 ], [ -70.496357395969952, -33.450389730610091 ], [ -70.496130065609208, -33.450818686645306 ], [ -70.495823449941483, -33.451183066156986 ], [ -70.495165460047005, -33.451584338828496 ], [ -70.494161237882452, -33.452317659617556 ], [ -70.493431166271279, -33.453080547159161 ], [ -70.492816207475542, -33.453710833088586 ], [ -70.492235310998765, -33.454045705031518 ], [ -70.491848822525867, -33.454312629419618 ], [ -70.491346639129219, -33.454679278679038 ], [ -70.490998620110048, -33.454912935350869 ], [ -70.490611000658205, -33.455114264053591 ], [ -70.490068002306614, -33.455383139042269 ], [ -70.489682532523247, -33.45571557622695 ], [ -70.489648541171221, -33.456011060137094 ], [ -70.489459167326174, -33.45637386792815 ], [ -70.48918994852373, -33.456639449598676 ], [ -70.489000100368216, -33.456969533894402 ], [ -70.488927923430083, -33.457331008130403 ], [ -70.488936418797721, -33.45782272237205 ], [ -70.488786637300521, -33.458217930467384 ], [ -70.488325315571203, -33.45868248412188 ], [ -70.487826452347818, -33.459245747723642 ], [ -70.48771635033502, -33.45967320678507 ], [ -70.487565618420248, -33.460002893570362 ], [ -70.48733542153542, -33.460267928278029 ], [ -70.487143318608545, -33.460466901065658 ], [ -70.486993614366455, -33.460862179545266 ], [ -70.486963442651003, -33.461387086843359 ], [ -70.486946763631124, -33.461752400692248 ], [ -70.493726186485304, -33.461566790102466 ], [ -70.503684712994016, -33.461093898769107 ], [ -70.507116449855886, -33.460842014606051 ], [ -70.507286524295367, -33.460815919412582 ], [ -70.511485856296147, -33.460340872354372 ], [ -70.51603934909771, -33.460037982265156 ], [ -70.518204325763378, -33.460011258800407 ], [ -70.518444883816684, -33.459982011218642 ], [ -70.518720125823094, -33.459925002912463 ], [ -70.521401526877597, -33.459599188196854 ], [ -70.521918791191254, -33.459596975095153 ], [ -70.522013369417621, -33.459590146930417 ], [ -70.522418196098712, -33.459560917942653 ], [ -70.523099981466757, -33.459511690822026 ], [ -70.523856511158002, -33.459469553403785 ], [ -70.524625637026162, -33.459426709989494 ], [ -70.525463240570119, -33.459376538493586 ], [ -70.525859619494298, -33.459352048167965 ], [ -70.526415956929526, -33.459316049370194 ], [ -70.526964916501342, -33.459286828533912 ], [ -70.527749319119238, -33.459233574489957 ], [ -70.529031839358794, -33.459147058520031 ], [ -70.529341089785248, -33.459134968460951 ], [ -70.529549220453433, -33.459141708976368 ], [ -70.529536750040663, -33.459294866325855 ], [ -70.529547787640539, -33.459431480195967 ], [ -70.529538543976273, -33.459451800597947 ], [ -70.52956371027895, -33.459450325693986 ], [ -70.529579706579227, -33.45954257009835 ], [ -70.529637950647285, -33.459682073423025 ], [ -70.529713101907319, -33.459810656433987 ], [ -70.529810472995919, -33.459974795624511 ], [ -70.52988152344669, -33.460110669477942 ], [ -70.529904452046011, -33.460196677117693 ], [ -70.529911172342636, -33.460333343526088 ], [ -70.529938043647732, -33.460638649504311 ], [ -70.53003833875259, -33.460875166432118 ], [ -70.530210552080746, -33.461314062709199 ], [ -70.53030513569702, -33.461694940148895 ], [ -70.530370658813837, -33.462051565417276 ], [ -70.53040500769535, -33.462292873270151 ], [ -70.530511039441606, -33.462794015479055 ], [ -70.530546969358014, -33.462992675209755 ], [ -70.5305604333075, -33.463315898453118 ], [ -70.53056431492783, -33.463409064264354 ], [ -70.530562897386332, -33.463748409425314 ], [ -70.530640899899083, -33.46400818610703 ], [ -70.530870848848878, -33.464679175592501 ], [ -70.530956142986781, -33.464925111893152 ], [ -70.531006840308152, -33.465044082885129 ], [ -70.531092691401554, -33.465185982909944 ], [ -70.531246061668327, -33.46543948287831 ], [ -70.531423446597572, -33.465447430922254 ], [ -70.531424257776294, -33.465445627137484 ], [ -70.531425179447766, -33.465446908596526 ], [ -70.531994537963058, -33.46527523488124 ], [ -70.532369275573714, -33.465171383973804 ], [ -70.533087972716785, -33.464973143651839 ], [ -70.534360401282427, -33.464614673393456 ], [ -70.535666956845731, -33.464237740892976 ], [ -70.535878123819572, -33.464181044888441 ], [ -70.53601211742567, -33.464143740388579 ], [ -70.536691855533164, -33.463954492814878 ], [ -70.537114052038604, -33.463828466176189 ], [ -70.537614486415407, -33.463690532785648 ], [ -70.538077212211519, -33.463553730781094 ], [ -70.538524279473904, -33.463428645566495 ], [ -70.538987567615393, -33.463288876984294 ], [ -70.539789029240524, -33.463067260453606 ], [ -70.540054648493609, -33.462994736094025 ], [ -70.540351029655298, -33.462962945262618 ], [ -70.541506465231635, -33.462864539821759 ], [ -70.541687597932253, -33.462867322394324 ], [ -70.542005994106603, -33.462860394815166 ], [ -70.542268462967996, -33.462868875928599 ], [ -70.542392483477812, -33.462918678191038 ], [ -70.542754800083046, -33.463082300398206 ], [ -70.543031532394508, -33.463207273700995 ], [ -70.543202923764227, -33.463284413498762 ], [ -70.543406557466071, -33.463376064038528 ], [ -70.543465906461961, -33.463389478461345 ], [ -70.544170793804156, -33.463658660524054 ], [ -70.544206503633333, -33.463644631629315 ], [ -70.544820998898373, -33.463591982036291 ], [ -70.545490339904774, -33.463505695238261 ], [ -70.54606115458914, -33.463435483171189 ], [ -70.547613855726809, -33.46322372551063 ], [ -70.548678920785534, -33.463043353463718 ], [ -70.549893307404062, -33.462835623694097 ], [ -70.550567584652967, -33.462713837117022 ], [ -70.550898820447671, -33.462639064215232 ], [ -70.551662465694292, -33.462632091652907 ], [ -70.552946606494615, -33.462615566288235 ], [ -70.553537127521366, -33.462608165807595 ], [ -70.554900482661751, -33.462600083357891 ], [ -70.556362731535174, -33.462602503971091 ], [ -70.556579762711181, -33.462598446633642 ], [ -70.557830983849612, -33.462575044620898 ], [ -70.559431289409133, -33.462569050041459 ], [ -70.560183366151534, -33.462545456170183 ], [ -70.560480981598417, -33.462532991876834 ], [ -70.560906522531653, -33.462532066347507 ], [ -70.561218599956305, -33.46252983458529 ], [ -70.561481960844773, -33.462529103154836 ], [ -70.56204004999482, -33.462522070630328 ], [ -70.5622225840673, -33.46250174420318 ], [ -70.562347307957964, -33.462482145455105 ], [ -70.562560213171892, -33.46242530891071 ], [ -70.562963670820494, -33.46229403711709 ], [ -70.563076965445816, -33.462256482248669 ], [ -70.563567896545209, -33.462087977508531 ], [ -70.564020526175838, -33.461931776446249 ], [ -70.564505409816761, -33.461760464485423 ], [ -70.565111472596229, -33.461568782073556 ], [ -70.565196549341849, -33.461574725761253 ], [ -70.565397653387876, -33.461469642861232 ], [ -70.565810767027457, -33.461326862921084 ], [ -70.567172985799033, -33.460870069553295 ], [ -70.567742237414805, -33.460656503989938 ], [ -70.568199463724753, -33.460487953422124 ], [ -70.568946012234875, -33.460212744288299 ], [ -70.569199067650416, -33.460104911550367 ], [ -70.569773065065817, -33.459881178707093 ], [ -70.570019335506018, -33.459781548929875 ], [ -70.570565746557378, -33.459573106868667 ], [ -70.571184516904836, -33.459362902363871 ], [ -70.571464909851116, -33.459264576024836 ], [ -70.572135976521182, -33.459057628615888 ], [ -70.572257560799954, -33.459011019776959 ], [ -70.572400770222529, -33.458968118428636 ], [ -70.571970484387975, -33.457707012104905 ], [ -70.57143558794192, -33.455495222692264 ], [ -70.570810662338118, -33.453509013206514 ], [ -70.570868397959742, -33.453274899306393 ], [ -70.570902103647512, -33.452663490909231 ], [ -70.572309549898691, -33.443903153811469 ], [ -70.572576512133153, -33.442927229203804 ], [ -70.572686455144122, -33.442325457314546 ], [ -70.572862818688918, -33.441453560059394 ], [ -70.572960693732384, -33.440748919499235 ], [ -70.573029766092887, -33.440333140504414 ], [ -70.573105340459435, -33.439989532120499 ], [ -70.573242386540855, -33.439185101043947 ], [ -70.573351256065095, -33.438606579752054 ], [ -70.573607999963187, -33.437935975470758 ], [ -70.573726744667326, -33.437855713404623 ], [ -70.573823833684926, -33.437835199035568 ], [ -70.574022787164154, -33.437785390613129 ], [ -70.575830836217975, -33.43675243286954 ], [ -70.576901838242406, -33.436383326214639 ], [ -70.578745426445508, -33.435752569534834 ], [ -70.58005857743963, -33.435098922850393 ], [ -70.581806278570966, -33.434054604976851 ], [ -70.582749282345546, -33.433450087738159 ], [ -70.583515385382768, -33.432833010014662 ], [ -70.583932276438119, -33.43244257188968 ], [ -70.584312225175751, -33.431963730465611 ], [ -70.58443375735223, -33.431783405103545 ], [ -70.584437580582076, -33.431783573782049 ], [ -70.584124435060559, -33.431676934427415 ], [ -70.580147825961419, -33.431442126620311 ], [ -70.57860025510233, -33.431351910966185 ], [ -70.574808809444505, -33.431240542056592 ], [ -70.57438252560452, -33.431235759804039 ], [ -70.570103510343074, -33.431062689163667 ], [ -70.565075748394023, -33.430939408817714 ], [ -70.563756499635744, -33.430888083562998 ], [ -70.559693946916738, -33.43071177506183 ], [ -70.557335393188836, -33.430579697325349 ], [ -70.554620264886992, -33.430442131629746 ], [ -70.554075221969811, -33.430428130348133 ], [ -70.55155277870314, -33.430193940660352 ], [ -70.547332493498359, -33.42977306711164 ], [ -70.547228191009026, -33.429823942456565 ], [ -70.546991088774618, -33.429853940161109 ], [ -70.54691934482446, -33.429872522194394 ], [ -70.546829477363445, -33.42986297478128 ], [ -70.545426191210339, -33.429699940638933 ], [ -70.544217689455252, -33.429559523934088 ], [ -70.543449662226664, -33.429468834760485 ], [ -70.542368063675141, -33.429342048037675 ], [ -70.54116148251812, -33.429200601409605 ], [ -70.539802565055211, -33.429047014565825 ], [ -70.539081268187729, -33.42892544293759 ] ] ] } },
{ "type": "Feature", "properties": { "capa": "colegios", "popup": "<strong>COL. PART. SAGRADO CORAZON DE JESUS DE LA RE</strong><br><br><strong>Dirección:</strong> AVENIDA JOSE ARRIETA 8220", "etiqueta": "" }, "geometry": { "type": "Point", "coordinates": [ -70.54356932, -33.46319581 ] } },
{ "type": "Feature", "properties": { "capa": "colegios", "popup": "<strong>COLEGIO JOSÉ ARRIETA</strong><br><br><strong>Dirección:</strong> AVENIDA JOSE ARRIETA 6870", "etiqueta": "" }, "geometry": { "type": "Point", "coordinates": [ -70.558003319999983, -33.4623777 ] } },
{ "type": "Feature", "properties": { "capa": "colegios", "popup": "<strong>ESC  ESP PART  PUERTA DEL SOL DE LA REINA</strong><br><br><strong>Dirección:</strong> AVENIDA JOSE ARRIET 7232", "etiqueta": "" }, "geometry": { "type": "Point", "coordinates": [ -70.55314, -33.462334 ] } },
{ "type": "Feature", "properties": { "capa": "colegios", "popup": "<strong>ESCUELA ESP. SOL DE LA REINA</strong><br><br><strong>Dirección:</strong> JANUARIO ESPINOZA 7243", "etiqueta": "" }, "geometry": { "type": "Point", "coordinates": [ -70.55381, -33.46201 ] } },
{ "type": "Feature", "properties": { "capa": "colegios", "popup": "<strong>ESCUELA PARTICULAR ANTINIL</strong><br><br><strong>Dirección:</strong> LEONIDAS BANDERA 6972", "etiqueta": "" }, "geometry": { "type": "Point", "coordinates": [ -70.55685832, -33.46117925 ] } },
{ "type": "Feature", "properties": { "capa": "colegios", "popup": "<strong>COLEGIO CORONEL ELEUTERIO RAMIREZ MOLINA</strong><br><br><strong>Dirección:</strong> TALINAY 9411", "etiqueta": "" }, "geometry": { "type": "Point", "coordinates": [ -70.53472447, -33.45951912 ] } },
{ "type": "Feature", "properties": { "capa": "colegios", "popup": "<strong>COLEGIO MUNICIPALIZADO CONFEDERAC SUIZA</strong><br><br><strong>Dirección:</strong> AVENIDA JOSE ARRIETA 5896", "etiqueta": "" }, "geometry": { "type": "Point", "coordinates": [ -70.57035089, -33.45949842000001 ] } },
{ "type": "Feature", "properties": { "capa": "colegios", "popup": "<strong>ESCUELA DE PARVULOS N°750 CHISPITAS</strong><br><br><strong>Dirección:</strong> JULIO MONTEBRUNO 701", "etiqueta": "" }, "geometry": { "type": "Point", "coordinates": [ -70.55907, -33.45858 ] } },
{ "type": "Feature", "properties": { "capa": "colegios", "popup": "<strong>ESCUELA HERMANAS DEL NINO JESUS</strong><br><br><strong>Dirección:</strong> AVENIDA EGANA 580", "etiqueta": "" }, "geometry": { "type": "Point", "coordinates": [ -70.571658, -33.45836321 ] } },
{ "type": "Feature", "properties": { "capa": "colegios", "popup": "<strong>ESCUELA ESPECIAL PART. NINOS DE LA REINA</strong><br><br><strong>Dirección:</strong> DRAGONES DE LA REINA 561", "etiqueta": "" }, "geometry": { "type": "Point", "coordinates": [ -70.56126, -33.45803 ] } },
{ "type": "Feature", "properties": { "capa": "colegios", "popup": "<strong>COLEGIO RUBEN DARIO</strong><br><br><strong>Dirección:</strong> PAULA JARAQUEMADA 151", "etiqueta": "" }, "geometry": { "type": "Point", "coordinates": [ -70.56842, -33.454635 ] } },
{ "type": "Feature", "properties": { "capa": "colegios", "popup": "<strong>COLEGIO LARRAIN</strong><br><br><strong>Dirección:</strong> AVENIDA LARRAIN 6227", "etiqueta": "" }, "geometry": { "type": "Point", "coordinates": [ -70.56545, -33.453138 ] } },
{ "type": "Feature", "properties": { "capa": "colegios", "popup": "<strong>COMPLEJO EDUCACIONAL LA REINA</strong><br><br><strong>Dirección:</strong> QUILLAGUA 40", "etiqueta": "" }, "geometry": { "type": "Point", "coordinates": [ -70.53304029, -33.452617930000017 ] } },
{ "type": "Feature", "properties": { "capa": "colegios", "popup": "<strong>ESCUELA D-231 ESPECIAL DE DESARROLLO</strong><br><br><strong>Dirección:</strong> AVENIDA LARRAIN 6374", "etiqueta": "" }, "geometry": { "type": "Point", "coordinates": [ -70.56314, -33.452576 ] } },
{ "type": "Feature", "properties": { "capa": "colegios", "popup": "<strong>ESCUELA ESP. RUCA RAYEN</strong><br><br><strong>Dirección:</strong> AVENIDA ALCALDE FERNANDO CASTILLO VELASCO 9940", "etiqueta": "" }, "geometry": { "type": "Point", "coordinates": [ -70.530106, -33.452213 ] } },
{ "type": "Feature", "properties": { "capa": "colegios", "popup": "<strong>COLEGIO SAN CONSTANTINO</strong><br><br><strong>Dirección:</strong> AVENIDA FERNANDO CASTILLO VELASCO 9201", "etiqueta": "" }, "geometry": { "type": "Point", "coordinates": [ -70.53700564, -33.452055110000011 ] } },
{ "type": "Feature", "properties": { "capa": "colegios", "popup": "<strong>COLEGIO HOSPITALARIO HOSPITAL MILITAR</strong><br><br><strong>Dirección:</strong> AVENIDA ALCALDE FERNANDO CASTILLO VELASCO 9100", "etiqueta": "" }, "geometry": { "type": "Point", "coordinates": [ -70.537674, -33.45176 ] } },
{ "type": "Feature", "properties": { "capa": "colegios", "popup": "<strong>ESCUELA ESP. PART. SOL Y LUNA</strong><br><br><strong>Dirección:</strong> LOS PRUNOS 7195", "etiqueta": "" }, "geometry": { "type": "Point", "coordinates": [ -70.55441, -33.451485 ] } },
{ "type": "Feature", "properties": { "capa": "colegios", "popup": "<strong>ESCUELA BASICA YANGTSE EX E-229</strong><br><br><strong>Dirección:</strong> AVENIDA ALCALDE FERNANDO CASTILLO VELASCO 7631", "etiqueta": "" }, "geometry": { "type": "Point", "coordinates": [ -70.549940389999989, -33.451354430000016 ] } },
{ "type": "Feature", "properties": { "capa": "colegios", "popup": "<strong>COLEGIO STA MARIA REINA</strong><br><br><strong>Dirección:</strong> ALCALDE FERNANDO CASTILLO VELASCO 7437", "etiqueta": "" }, "geometry": { "type": "Point", "coordinates": [ -70.55039972, -33.45134779 ] } },
{ "type": "Feature", "properties": { "capa": "colegios", "popup": "<strong>COLEGIO BRITISH ROYAL SCHOOL</strong><br><br><strong>Dirección:</strong> LAS PERDICES 263", "etiqueta": "" }, "geometry": { "type": "Point", "coordinates": [ -70.5277, -33.451061 ] } },
{ "type": "Feature", "properties": { "capa": "colegios", "popup": "<strong>COLEGIO SANTO DOMINGO_PADRES DOMINICOS</strong><br><br><strong>Dirección:</strong> ALVARO CASANOVA 366", "etiqueta": "" }, "geometry": { "type": "Point", "coordinates": [ -70.52094, -33.450642 ] } },
{ "type": "Feature", "properties": { "capa": "colegios", "popup": "<strong>COLEGIO SANTIAGO EVANGELISTA</strong><br><br><strong>Dirección:</strong> LYNCH NORTE 271", "etiqueta": "" }, "geometry": { "type": "Point", "coordinates": [ -70.56528, -33.450452 ] } },
{ "type": "Feature", "properties": { "capa": "colegios", "popup": "<strong>COLEGIO SANTA CATALINA LABOURÉ</strong><br><br><strong>Dirección:</strong> DOCTOR GENARO BENAVIDES 5663", "etiqueta": "" }, "geometry": { "type": "Point", "coordinates": [ -70.570751349999981, -33.44934150000001 ] } },
{ "type": "Feature", "properties": { "capa": "colegios", "popup": "<strong>ESCUELA PALESTINA</strong><br><br><strong>Dirección:</strong> GENARO BENAVIDES 6405", "etiqueta": "" }, "geometry": { "type": "Point", "coordinates": [ -70.56428186, -33.448727120000022 ] } },
{ "type": "Feature", "properties": { "capa": "colegios", "popup": "<strong>COLEGIO NUESTRA SEÑORA DEL CAMINO</strong><br><br><strong>Dirección:</strong> VICENTE PEREZ ROSALES 828", "etiqueta": "" }, "geometry": { "type": "Point", "coordinates": [ -70.55209, -33.445134 ] } },
{ "type": "Feature", "properties": { "capa": "colegios", "popup": "<strong>LICEO EUGENIO MARÍA DE HOSTOS</strong><br><br><strong>Dirección:</strong> ECHENIQUE 8625", "etiqueta": "" }, "geometry": { "type": "Point", "coordinates": [ -70.54164406, -33.4425965 ] } },
{ "type": "Feature", "properties": { "capa": "colegios", "popup": "<strong>COLEGIO TERESIANO ENRIQUE DE OSSO</strong><br><br><strong>Dirección:</strong> AVENIDA OSSA 1157", "etiqueta": "" }, "geometry": { "type": "Point", "coordinates": [ -70.57221, -33.442294 ] } },
{ "type": "Feature", "properties": { "capa": "colegios", "popup": "<strong>COLEGIO TERRANOVA</strong><br><br><strong>Dirección:</strong> LA CAÑADA 6240", "etiqueta": "" }, "geometry": { "type": "Point", "coordinates": [ -70.56861, -33.442132 ] } },
{ "type": "Feature", "properties": { "capa": "colegios", "popup": "<strong>COLEGIO ETIEVAN</strong><br><br><strong>Dirección:</strong> CARLOS SILVA VILDOSOLA 9820", "etiqueta": "" }, "geometry": { "type": "Point", "coordinates": [ -70.52888, -33.441515 ] } },
{ "type": "Feature", "properties": { "capa": "colegios", "popup": "<strong>COLEGIO DE LA SALLE</strong><br><br><strong>Dirección:</strong> AVENIDA OSSA 1349", "etiqueta": "" }, "geometry": { "type": "Point", "coordinates": [ -70.57238, -33.440899 ] } },
{ "type": "Feature", "properties": { "capa": "colegios", "popup": "<strong>COLEGIO ANDREE ENGLISH SCHOOL</strong><br><br><strong>Dirección:</strong> PRINCIPE DE GALES 7605", "etiqueta": "" }, "geometry": { "type": "Point", "coordinates": [ -70.55145, -33.439731 ] } },
{ "type": "Feature", "properties": { "capa": "colegios", "popup": "<strong>COLEGIO EL CARMEN TERESIANO</strong><br><br><strong>Dirección:</strong> PRINCIPE DE GALES 8050", "etiqueta": "" }, "geometry": { "type": "Point", "coordinates": [ -70.54791, -33.439719 ] } },
{ "type": "Feature", "properties": { "capa": "colegios", "popup": "<strong>ESCUELA BASICA N°1517 MADRIGAL</strong><br><br><strong>Dirección:</strong> MARIA MONVEL 1793", "etiqueta": "" }, "geometry": { "type": "Point", "coordinates": [ -70.52313, -33.439565 ] } },
{ "type": "Feature", "properties": { "capa": "colegios", "popup": "<strong>ESCUELA PARTICULAR SAN LEONARDO MURIALDO</strong><br><br><strong>Dirección:</strong> ONOFRE JARPA 9366", "etiqueta": "" }, "geometry": { "type": "Point", "coordinates": [ -70.533011549999983, -33.4391915 ] } },
{ "type": "Feature", "properties": { "capa": "colegios", "popup": "<strong>ESCUELA ESPECIAL EL CASTILLO DE LOS TRES HERMANOS</strong><br><br><strong>Dirección:</strong> POETA ANGEL CRUCHAGA 1541", "etiqueta": "" }, "geometry": { "type": "Point", "coordinates": [ -70.55434, -33.438816 ] } },
{ "type": "Feature", "properties": { "capa": "colegios", "popup": "<strong>ESCUELA BASICA N° 733 PEQUENO MOZART</strong><br><br><strong>Dirección:</strong> PRINCIPE DE GALES 6141", "etiqueta": "" }, "geometry": { "type": "Point", "coordinates": [ -70.56899, -33.438451 ] } },
{ "type": "Feature", "properties": { "capa": "colegios", "popup": "<strong>ESCUELA DE PARVULOS N° 1624 BARRIE MONTESSORI</strong><br><br><strong>Dirección:</strong> PRINCIPE DE GALES 6450", "etiqueta": "" }, "geometry": { "type": "Point", "coordinates": [ -70.56466, -33.43831 ] } },
{ "type": "Feature", "properties": { "capa": "colegios", "popup": "<strong>COLEGIO THE GRANGE SCHOOL</strong><br><br><strong>Dirección:</strong> PRINCIPE DE GALES 6154", "etiqueta": "" }, "geometry": { "type": "Point", "coordinates": [ -70.56862, -33.437946 ] } },
{ "type": "Feature", "properties": { "capa": "colegios", "popup": "<strong>COLEGIO SAN RAFAEL ARCANGEL</strong><br><br><strong>Dirección:</strong> AVENIDA OSSA 1838", "etiqueta": "" }, "geometry": { "type": "Point", "coordinates": [ -70.57406, -33.436595 ] } },
{ "type": "Feature", "properties": { "capa": "colegios", "popup": "<strong>COLEGIO LA ABADIA</strong><br><br><strong>Dirección:</strong> VALENZUELA PUELMA 8361", "etiqueta": "" }, "geometry": { "type": "Point", "coordinates": [ -70.54344, -33.434194 ] } },
{ "type": "Feature", "properties": { "capa": "colegios", "popup": "<strong>COLEGIO SAINT JOHN´S VILLA ACADEMY</strong><br><br><strong>Dirección:</strong> ALCALDE MANUEL DE LA LASTRA 2351", "etiqueta": "" }, "geometry": { "type": "Point", "coordinates": [ -70.55448, -33.433065 ] } },
{ "type": "Feature", "properties": { "capa": "jardines", "popup": "<strong>PAIDAHUE</strong><br><br><strong>Dirección:</strong> QUILLAGUA # 529 LA REINA ", "etiqueta": "" }, "geometry": { "type": "MultiPoint", "coordinates": [ [ -70.53324, -33.457266 ] ] } },
{ "type": "Feature", "properties": { "capa": "jardines", "popup": "<strong>CUNDALI</strong><br><br><strong>Dirección:</strong> QUILLAGUA 82 ", "etiqueta": "" }, "geometry": { "type": "MultiPoint", "coordinates": [ [ -70.53322, -33.453631 ] ] } },
{ "type": "Feature", "properties": { "capa": "jardines", "popup": "<strong>LAURITA VICUÑA</strong><br><br><strong>Dirección:</strong> PARINACOTA 18 ", "etiqueta": "" }, "geometry": { "type": "MultiPoint", "coordinates": [ [ -70.532128, -33.453737 ] ] } },
{ "type": "Feature", "properties": { "capa": "jardines", "popup": "<strong>DIEGO PORTALES</strong><br><br><strong>Dirección:</strong> SALAR DEL CARMEN 81 VILLA LA REINA ", "etiqueta": "" }, "geometry": { "type": "MultiPoint", "coordinates": [ [ -70.534491, -33.453592 ] ] } },
{ "type": "Feature", "properties": { "capa": "jardines", "popup": "<strong>ESTRELLITAS</strong><br><br><strong>Dirección:</strong> AV. LARRAIN 9201 ", "etiqueta": "" }, "geometry": { "type": "MultiPoint", "coordinates": [ [ -70.537081, -33.452571 ] ] } },
{ "type": "Feature", "properties": { "capa": "jardines", "popup": "<strong>EL CANELO</strong><br><br><strong>Dirección:</strong> AVDA ECHEÑIQUE 8625 ", "etiqueta": "" }, "geometry": { "type": "MultiPoint", "coordinates": [ [ -70.54172, -33.443112 ] ] } },
{ "type": "Feature", "properties": { "capa": "jardines", "popup": "<strong>EL ALERCE</strong><br><br><strong>Dirección:</strong> AVDA LARRAIN N:6374 ", "etiqueta": "" }, "geometry": { "type": "MultiPoint", "coordinates": [ [ -70.564023, -33.452955 ] ] } },
{ "type": "Feature", "properties": { "capa": "jardines", "popup": "<strong>EL AVELLANO</strong><br><br><strong>Dirección:</strong> FRANCISCO DE VILLAGRA 6581 ", "etiqueta": "" }, "geometry": { "type": "MultiPoint", "coordinates": [ [ -70.561589, -33.459919 ] ] } },
{ "type": "Feature", "properties": { "capa": "jardines", "popup": "<strong>TALINAY</strong><br><br><strong>Dirección:</strong> TALINAY 9951 ", "etiqueta": "" }, "geometry": { "type": "MultiPoint", "coordinates": [ [ -70.530158, -33.459945 ] ] } },
{ "type": "Feature", "properties": { "capa": "comisarias", "popup": "<strong>16A. COM. LA REINA</strong><br><br><strong>Dirección:</strong> ECHENIQUE 8428", "etiqueta": "" }, "geometry": { "type": "Point", "coordinates": [ -70.54426, -33.44148 ] } },
{ "type": "Feature", "properties": { "capa": "salud", "popup": "<strong>Centro Comunitario de Salud Familiar Dragones de La Reina</strong><br><br><strong>Tipo de atención:</strong> Centro Comunitario de Salud Familiar (CECOSF)<br><strong>Dirección:</strong>  616", "etiqueta": "" }, "geometry": { "type": "Point", "coordinates": [ -70.56223, -33.46059 ] } },
{ "type": "Feature", "properties": { "capa": "salud", "popup": "<strong>Clínica Psicoterapia los Tiempos</strong><br><br><strong>Tipo de atención:</strong> Clínica<br><strong>Dirección:</strong>  6024", "etiqueta": "" }, "geometry": { "type": "Point", "coordinates": [ -70.568823, -33.460091 ] } },
{ "type": "Feature", "properties": { "capa": "salud", "popup": "<strong>Centro de Salud Familiar Juan Pablo II ( La Reina)</strong><br><br><strong>Tipo de atención:</strong> Centro de Salud Familiar (CESFAM)<br><strong>Dirección:</strong>  440", "etiqueta": "" }, "geometry": { "type": "Point", "coordinates": [ -70.53265, -33.45686 ] } },
{ "type": "Feature", "properties": { "capa": "salud", "popup": "<strong>Integramédica Sucursal Plaza Egaña</strong><br><br><strong>Tipo de atención:</strong> Centro de Salud Privado<br><strong>Dirección:</strong>  5862", "etiqueta": "" }, "geometry": { "type": "Point", "coordinates": [ -70.56969, -33.453162 ] } },
{ "type": "Feature", "properties": { "capa": "salud", "popup": "<strong>Hospital Militar de Santiago</strong><br><br><strong>Tipo de atención:</strong> Hospital<br><strong>Dirección:</strong>  9100", "etiqueta": "" }, "geometry": { "type": "Point", "coordinates": [ -70.538184, -33.4504927 ] } },
{ "type": "Feature", "properties": { "capa": "salud", "popup": "<strong>Centro Asistencial AChS La Reina</strong><br><br><strong>Tipo de atención:</strong> Centro de Salud Privado<br><strong>Dirección:</strong>  50", "etiqueta": "" }, "geometry": { "type": "Point", "coordinates": [ -70.544078, -33.451735 ] } },
{ "type": "Feature", "properties": { "capa": "salud", "popup": "<strong>Centro Atencion Clínica Santa María La Reina</strong><br><br><strong>Tipo de atención:</strong> Centro de Salud Privado<br><strong>Dirección:</strong>  345", "etiqueta": "" }, "geometry": { "type": "Point", "coordinates": [ -70.570348, -33.450165 ] } },
{ "type": "Feature", "properties": { "capa": "salud", "popup": "<strong>Clínica Instituto El Cedro</strong><br><br><strong>Tipo de atención:</strong> Clínica<br><strong>Dirección:</strong>  1240", "etiqueta": "" }, "geometry": { "type": "Point", "coordinates": [ -70.523987699999964, -33.443999299999987 ] } },
{ "type": "Feature", "properties": { "capa": "salud", "popup": "<strong>Centro de Salud Familiar Ossandon</strong><br><br><strong>Tipo de atención:</strong> Centro de Salud Familiar (CESFAM)<br><strong>Dirección:</strong>  8419", "etiqueta": "" }, "geometry": { "type": "Point", "coordinates": [ -70.54447, -33.44286 ] } },
{ "type": "Feature", "properties": { "capa": "salud", "popup": "<strong>Centro Médico Plaza Egaña de Clínica Alemana</strong><br><br><strong>Tipo de atención:</strong> Centro de Salud Privado<br><strong>Dirección:</strong>  235", "etiqueta": "" }, "geometry": { "type": "Point", "coordinates": [ -70.570432, -33.451389 ] } },
{ "type": "Feature", "properties": { "capa": "salud", "popup": "<strong>SAR LA REINA</strong><br><br><strong>Tipo de atención:</strong> Servicio de Atención Primaria de Urgencia de Alta Resolutividad (SAR)<br><strong>Dirección:</strong>  8567", "etiqueta": "" }, "geometry": { "type": "Point", "coordinates": [ -70.542803339999963, -33.442801129999971 ] } },
{ "type": "Feature", "properties": { "capa": "salud", "popup": "<strong>Centro Médico Militar Cordillera</strong><br><br><strong>Tipo de atención:</strong> Centro de Salud Privado<br><strong>Dirección:</strong>  9036", "etiqueta": "" }, "geometry": { "type": "Point", "coordinates": [ -70.533990899999935, -33.461472599999986 ] } },
{ "type": "Feature", "properties": { "capa": "municipios", "popup": "<strong>Municipalidad de La Reina</strong><br><br><strong>Dirección:</strong> Alcalde Fernando Castillo Velasco N° 9925<br><strong>Región:</strong> Metropolitana de Santiago", "etiqueta": "" }, "geometry": { "type": "Point", "coordinates": [ -70.530598, -33.453469000999974 ] } }
]
}
