{
"type": "FeatureCollection",
"name": "13111",
"crs": { "type": "name", "properties": { "name": "urn:ogc:def:crs:OGC:1.3:CRS84" } },
"features": [
{ "type": "Feature", "properties": { "capa": "comuna", "popup": "", "etiqueta": "" }, "geometry": { "type": "Polygon", "coordinates": [ [ [ -70.636586752830638, -33.518886598164094 ], [ -70.636594892465425, -33.518728535826021 ], [ -70.636098800544715, -33.518669266213045 ], [ -70.635866303074451, -33.518641013543565 ], [ -70.635460781097322, -33.518567025866723 ], [ -70.634836566959208, -33.518532788448738 ], [ -70.634174770902888, -33.5184652092954 ], [ -70.633550554968139, -33.51839328702588 ], [ -70.632899585407628, -33.518329177573634 ], [ -70.632363761001898, -33.518248623722215 ], [ -70.631756758584629, -33.518200846186275 ], [ -70.631175664478462, -33.518137727432894 ], [ -70.630605992451152, -33.518072239000119 ], [ -70.630104609453426, -33.518017300785893 ], [ -70.629647922132662, -33.517965982148745 ], [ -70.629091063674551, -33.517911103782048 ], [ -70.628670989888121, -33.517869643349492 ], [ -70.627935228347923, -33.51778926207492 ], [ -70.62745578400606, -33.517737717122955 ], [ -70.627252479087602, -33.517704336912018 ], [ -70.627125005453834, -33.517669959849847 ], [ -70.626919110692398, -33.517595706966631 ], [ -70.626727053579586, -33.517519001238753 ], [ -70.626595595019225, -33.51746045502324 ], [ -70.626105714948721, -33.517223389329089 ], [ -70.625647372032873, -33.517021960044758 ], [ -70.625472772779304, -33.516934122227354 ], [ -70.624868307204409, -33.51665348953194 ], [ -70.624159912839346, -33.516323685803123 ], [ -70.622665984877443, -33.515627178706858 ], [ -70.620860229222544, -33.514794144892306 ], [ -70.620755351811454, -33.514713070963325 ], [ -70.619925666916728, -33.514328387436436 ], [ -70.617931681870431, -33.513813375783343 ], [ -70.616075446286473, -33.51338666394301 ], [ -70.615948181960178, -33.513330224799205 ], [ -70.615855236870985, -33.51332865793929 ], [ -70.615015797170585, -33.513107534924664 ], [ -70.614084133728184, -33.513098727680976 ], [ -70.613646885950175, -33.513085513443315 ], [ -70.611301760239101, -33.51305911192518 ], [ -70.6112656371849, -33.5130587044804 ], [ -70.611025046792264, -33.51519301241747 ], [ -70.610924344750586, -33.516150221067143 ], [ -70.610655624513143, -33.518477822816479 ], [ -70.610360714791867, -33.520811229665156 ], [ -70.610129157857727, -33.52284660389121 ], [ -70.609984176059072, -33.524118808468117 ], [ -70.60974942651238, -33.526187393440736 ], [ -70.609822491884344, -33.52843053759252 ], [ -70.609986724579528, -33.533153941333936 ], [ -70.610041197520047, -33.534793009796665 ], [ -70.610134484867345, -33.53738798597513 ], [ -70.610318342158237, -33.539019977049719 ], [ -70.610312703433195, -33.539754299224796 ], [ -70.610440130354576, -33.543330891211284 ], [ -70.610559769780735, -33.546654907774602 ], [ -70.610937890446749, -33.546650135634664 ], [ -70.61094184662727, -33.546645773027009 ], [ -70.611391955585205, -33.546631961969538 ], [ -70.612537429743341, -33.546599019664924 ], [ -70.612980846252427, -33.546593242781348 ], [ -70.613710845100087, -33.546569397035505 ], [ -70.614036453847859, -33.546543431743551 ], [ -70.614464934967017, -33.546474679571816 ], [ -70.614824270962131, -33.546397888654511 ], [ -70.614857930835825, -33.546523631153661 ], [ -70.614818325911585, -33.546653802710551 ], [ -70.614809064281005, -33.546663158320392 ], [ -70.614815545625774, -33.546662941200793 ], [ -70.61465406177534, -33.547193695209145 ], [ -70.614572107573665, -33.547478820456043 ], [ -70.614480952826852, -33.547791105327015 ], [ -70.614215961496129, -33.54869512096851 ], [ -70.614030044368292, -33.549339461273945 ], [ -70.613705336630744, -33.55048206345883 ], [ -70.612909070861221, -33.553308185518318 ], [ -70.612691153048019, -33.55406427306356 ], [ -70.612602086884237, -33.5544278738302 ], [ -70.612231166215224, -33.555611632479653 ], [ -70.612607786694724, -33.555734767637176 ], [ -70.612616691694129, -33.555703008612618 ], [ -70.612632498449855, -33.555706755405517 ], [ -70.616218261348664, -33.556483020023762 ], [ -70.61989207800994, -33.557371417350026 ], [ -70.623554310895614, -33.558199867587383 ], [ -70.62561318305147, -33.55864565304865 ], [ -70.627337254897597, -33.559031409753359 ], [ -70.627349951685815, -33.559074880598345 ], [ -70.627362515523387, -33.55911039925148 ], [ -70.627439628703996, -33.559126483998419 ], [ -70.630709155876701, -33.559808407290539 ], [ -70.630729150578304, -33.559737771031315 ], [ -70.630754776818392, -33.559359480058838 ], [ -70.630839293015285, -33.558997110506901 ], [ -70.63089815242931, -33.558715603749611 ], [ -70.631019720538404, -33.558066473530893 ], [ -70.631034823014971, -33.55797333846516 ], [ -70.631179742829858, -33.557428571103074 ], [ -70.631494568200949, -33.55597759158487 ], [ -70.63169781922052, -33.555034358806395 ], [ -70.631872820021016, -33.554266468736152 ], [ -70.631792690297672, -33.554186038949162 ], [ -70.632483121950315, -33.551455838331243 ], [ -70.632926312083953, -33.549345617547189 ], [ -70.633266489709001, -33.547571266071273 ], [ -70.634102121450908, -33.542665614487113 ], [ -70.634131708363114, -33.542329823566185 ], [ -70.634156728240399, -33.541961941567891 ], [ -70.63447394313016, -33.537785433723023 ], [ -70.634511052534535, -33.537291742939281 ], [ -70.634576244173033, -33.53597491539459 ], [ -70.634607201016024, -33.534700469643205 ], [ -70.634672508537193, -33.533946983968157 ], [ -70.634760291906758, -33.53288849991187 ], [ -70.635079109390986, -33.530532495791903 ], [ -70.63532190874092, -33.529752327258151 ], [ -70.63546225343606, -33.529148156233312 ], [ -70.635552439799014, -33.528157015072281 ], [ -70.635653252333455, -33.527314166105988 ], [ -70.635855528680935, -33.52551643489096 ], [ -70.636060535008554, -33.523219390844737 ], [ -70.636576159896805, -33.518885983293458 ], [ -70.636586752830638, -33.518886598164094 ] ] ] } },
{ "type": "Feature", "properties": { "capa": "ds19", "popup": "<strong>CONDOMINIO SANTA SOFIA 3</strong><br><br><strong>Programa:</strong> DS19<br><strong>Comuna:</strong> La Granja<br><strong>Región:</strong> Metropolitana<br><strong>Año de inicio:</strong> 2017", "etiqueta": "CONDOMINIO SANTA SOFIA 3" }, "geometry": { "type": "Polygon", "coordinates": [ [ [ -70.630079611135699, -33.557875910128772 ], [ -70.629876379879093, -33.558478755974832 ], [ -70.630682474116128, -33.558696196710166 ], [ -70.630799786007401, -33.558092117209434 ], [ -70.630079611135699, -33.557875910128772 ] ] ] } },
{ "type": "Feature", "properties": { "capa": "ds19", "popup": "<strong>LAS UVA SY EL VIENTO ETAPA 1</strong><br><br><strong>Programa:</strong> DS19<br><strong>Comuna:</strong> La Granja<br><strong>Región:</strong> Metropolitana<br><strong>Año de inicio:</strong> 2022", "etiqueta": "LAS UVA SY EL VIENTO ETAPA 1" }, "geometry": { "type": "Polygon", "coordinates": [ [ [ -70.628564036470394, -33.549101804685506 ], [ -70.628693121681778, -33.548396801374409 ], [ -70.628647629199179, -33.548348508937941 ], [ -70.628265964679358, -33.548301293816564 ], [ -70.628195171146757, -33.548344268449846 ], [ -70.628149641833204, -33.548606534459957 ], [ -70.627913357964019, -33.548579112864935 ], [ -70.627922003350321, -33.548531748883832 ], [ -70.627922645645754, -33.548439025789904 ], [ -70.627365352403046, -33.548459178565764 ], [ -70.62740959982068, -33.549224877998519 ], [ -70.628309286832248, -33.549176144311609 ], [ -70.628317507315415, -33.549132764314592 ], [ -70.62838295407542, -33.549141731846589 ], [ -70.628522119282607, -33.549134744538577 ], [ -70.628564036470394, -33.549101804685506 ] ] ] } },
{ "type": "Feature", "properties": { "capa": "ds19", "popup": "<strong>CONDOMINIO LAS UVAS Y EL VIENTO E2</strong><br><br><strong>Programa:</strong> DS19<br><strong>Comuna:</strong> La Granja<br><strong>Región:</strong> Metropolitana<br><strong>Año de inicio:</strong> 2022", "etiqueta": "CONDOMINIO LAS UVAS Y EL VIENTO E2" }, "geometry": { "type": "Polygon", "coordinates": [ [ [ -70.629025881917528, -33.548040645518363 ], [ -70.628385138778214, -33.548008220337721 ], [ -70.627346637800741, -33.547915782676746 ], [ -70.627350286757405, -33.548201574107736 ], [ -70.627361945991495, -33.548458445615111 ], [ -70.627923601453205, -33.548434971725833 ], [ -70.627915971163176, -33.548577834133638 ], [ -70.628148449768815, -33.548606809222377 ], [ -70.628194747141947, -33.548344817976393 ], [ -70.628265963781033, -33.54830235393915 ], [ -70.628640846918756, -33.548344603855703 ], [ -70.628692742592747, -33.548400365807943 ], [ -70.629025881917528, -33.548040645518363 ] ] ] } },
{ "type": "Feature", "properties": { "capa": "ds19", "popup": "<strong>CONDOMINIO LAS UVAS Y EL VIENTO E3</strong><br><br><strong>Programa:</strong> DS19<br><strong>Comuna:</strong> La Granja<br><strong>Región:</strong> Metropolitana<br><strong>Año de inicio:</strong> 2022", "etiqueta": "CONDOMINIO LAS UVAS Y EL VIENTO E3" }, "geometry": { "type": "Polygon", "coordinates": [ [ [ -70.629362655825972, -33.549194308457615 ], [ -70.62953615823659, -33.548194174203744 ], [ -70.629025183926544, -33.54811357180894 ], [ -70.629025881917528, -33.548040645518363 ], [ -70.62887344140708, -33.548205249353224 ], [ -70.628800523358834, -33.548283986714885 ], [ -70.628741787912304, -33.5483474076389 ], [ -70.628692742592747, -33.548400365807943 ], [ -70.62856398616475, -33.549101409389223 ], [ -70.628521524597886, -33.5491345633612 ], [ -70.628383766152439, -33.549141972168684 ], [ -70.628315965806365, -33.549132818967259 ], [ -70.628309780007328, -33.549176288055584 ], [ -70.628564425440914, -33.549164312384569 ], [ -70.628766986554325, -33.549155627102273 ], [ -70.629362655825972, -33.549194308457615 ] ] ] } },
{ "type": "Feature", "properties": { "capa": "ds19", "popup": "<strong>VESPUCIO 0220</strong><br><br><strong>Programa:</strong> DS19<br><strong>Comuna:</strong> La Granaja<br><strong>Región:</strong> Metropolitana<br><strong>Año de inicio:</strong> 2022", "etiqueta": "VESPUCIO 0220" }, "geometry": { "type": "Polygon", "coordinates": [ [ [ -70.631526356883938, -33.541663937904545 ], [ -70.631423761193645, -33.54163193561088 ], [ -70.631048127064318, -33.541708036689336 ], [ -70.630765605110838, -33.54176488109642 ], [ -70.630840515622381, -33.542028938566702 ], [ -70.631053060611862, -33.541978400128443 ], [ -70.631191032856364, -33.542437351016439 ], [ -70.631341972281959, -33.542415496481439 ], [ -70.631458216076368, -33.542402919395826 ], [ -70.631609069263718, -33.542393750506093 ], [ -70.631836267572112, -33.542377101848345 ], [ -70.63178936922607, -33.542195630072975 ], [ -70.63168369411099, -33.542216263490083 ], [ -70.631526356883938, -33.541663937904545 ] ] ] } },
{ "type": "Feature", "properties": { "capa": "colegios", "popup": "<strong>ESCUELA DE LENGUAJE AMERICA</strong><br><br><strong>Dirección:</strong> ERNESTO RIQUELME 129", "etiqueta": "" }, "geometry": { "type": "Point", "coordinates": [ -70.63061, -33.55961 ] } },
{ "type": "Feature", "properties": { "capa": "colegios", "popup": "<strong>COLEGIO LOS PENSAMIENTOS</strong><br><br><strong>Dirección:</strong> LAS PARCELAS 10520", "etiqueta": "" }, "geometry": { "type": "Point", "coordinates": [ -70.61982, -33.55712 ] } },
{ "type": "Feature", "properties": { "capa": "colegios", "popup": "<strong>ESCUELA ESPECIAL DE LENGUJE MIS AMIGUITOS</strong><br><br><strong>Dirección:</strong> JOAQUIN EDWARDS BELLO 10534", "etiqueta": "" }, "geometry": { "type": "Point", "coordinates": [ -70.62362, -33.557095 ] } },
{ "type": "Feature", "properties": { "capa": "colegios", "popup": "<strong>COLEGIO ALMA MATER</strong><br><br><strong>Dirección:</strong> LA PARCELAS 10544", "etiqueta": "" }, "geometry": { "type": "Point", "coordinates": [ -70.619909519999979, -33.55679441 ] } },
{ "type": "Feature", "properties": { "capa": "colegios", "popup": "<strong>ESCUELA DE PÁRVULOS PARTICULAR Nº 1930 MIS AMIGUITOS</strong><br><br><strong>Dirección:</strong> SOFIA CARMONA 469", "etiqueta": "" }, "geometry": { "type": "Point", "coordinates": [ -70.623276, -33.555756 ] } },
{ "type": "Feature", "properties": { "capa": "colegios", "popup": "<strong>LICEO BICENTENARIO NUESTRA SEÑORA DE GUADALUPE</strong><br><br><strong>Dirección:</strong> AVENIDA SAN JOSE DE LA ESTRELLA 857", "etiqueta": "" }, "geometry": { "type": "Point", "coordinates": [ -70.618188979999985, -33.55564982 ] } },
{ "type": "Feature", "properties": { "capa": "colegios", "popup": "<strong>LICEO TECNICO PROFESIONAL PATRICIO AYLWIN AZOCAR</strong><br><br><strong>Dirección:</strong> SOFIA EASTMAN DE HUNNEUS 10411", "etiqueta": "" }, "geometry": { "type": "Point", "coordinates": [ -70.62818, -33.555622 ] } },
{ "type": "Feature", "properties": { "capa": "colegios", "popup": "<strong>ESC. ESPEC. CAMPANITA DE LA GRANJA</strong><br><br><strong>Dirección:</strong> JOAQUIN EDWARDS BELLO 10491", "etiqueta": "" }, "geometry": { "type": "Point", "coordinates": [ -70.62369, -33.55529 ] } },
{ "type": "Feature", "properties": { "capa": "colegios", "popup": "<strong>COLEGIO CHRISTIAN GARDEN SCHOOL</strong><br><br><strong>Dirección:</strong> SOFIA EASTMAN DE HUNNEUS 10279", "etiqueta": "" }, "geometry": { "type": "Point", "coordinates": [ -70.62818119, -33.55512284000001 ] } },
{ "type": "Feature", "properties": { "capa": "colegios", "popup": "<strong>ESCUELA DE PARVULOS LOS DUENDECITOS II</strong><br><br><strong>Dirección:</strong> LOS PENSAMIENTOS 10461", "etiqueta": "" }, "geometry": { "type": "Point", "coordinates": [ -70.61812, -33.554752 ] } },
{ "type": "Feature", "properties": { "capa": "colegios", "popup": "<strong>SAINT CHRISTIAN COLLEGE</strong><br><br><strong>Dirección:</strong> JOAQUIN EDWARDS BELLO 10262", "etiqueta": "" }, "geometry": { "type": "Point", "coordinates": [ -70.62428201, -33.553774230000016 ] } },
{ "type": "Feature", "properties": { "capa": "colegios", "popup": "<strong>ESCUELA BAS. BENJAMIN SUBERCASEAUX</strong><br><br><strong>Dirección:</strong> SOFIA EASTMAN DE HUNNEUS 10195", "etiqueta": "" }, "geometry": { "type": "Point", "coordinates": [ -70.628841719999983, -33.55376809 ] } },
{ "type": "Feature", "properties": { "capa": "colegios", "popup": "<strong>ESCUELA DEL CARIÑO SAINT CHRISTIAN</strong><br><br><strong>Dirección:</strong> JOAQUIN EDWARDS BELLO 10232", "etiqueta": "" }, "geometry": { "type": "Point", "coordinates": [ -70.6243095, -33.553494 ] } },
{ "type": "Feature", "properties": { "capa": "colegios", "popup": "<strong>ESCUELA ESPECIAL MI CLUB RYMAI</strong><br><br><strong>Dirección:</strong> MAX JARA 10187", "etiqueta": "" }, "geometry": { "type": "Point", "coordinates": [ -70.63026, -33.553455 ] } },
{ "type": "Feature", "properties": { "capa": "colegios", "popup": "<strong>ESCUELA PARTICULAR SAN MARCELO</strong><br><br><strong>Dirección:</strong> AVENIDA SANTA ROSA 10010", "etiqueta": "" }, "geometry": { "type": "Point", "coordinates": [ -70.632122059999986, -33.551793429999989 ] } },
{ "type": "Feature", "properties": { "capa": "colegios", "popup": "<strong>LICEO MUNICIPAL LA GRANJA POETA NERUDA</strong><br><br><strong>Dirección:</strong> CANTO GENERAL 331", "etiqueta": "" }, "geometry": { "type": "Point", "coordinates": [ -70.62864054, -33.55112575 ] } },
{ "type": "Feature", "properties": { "capa": "colegios", "popup": "<strong>ESCUELA ESPECIAL N° 2258 NIÑO JESUS DE LA GR</strong><br><br><strong>Dirección:</strong> PEDRO LIRA 888", "etiqueta": "" }, "geometry": { "type": "Point", "coordinates": [ -70.63153, -33.55058 ] } },
{ "type": "Feature", "properties": { "capa": "colegios", "popup": "<strong>ESCUELA BASICA ISLAS DE CHILE</strong><br><br><strong>Dirección:</strong> TRICOLOR 777", "etiqueta": "" }, "geometry": { "type": "Point", "coordinates": [ -70.61426924, -33.545694490000017 ] } },
{ "type": "Feature", "properties": { "capa": "colegios", "popup": "<strong>ESCUELA ESPECIAL PART. EDUCADORAS AGAZZI</strong><br><br><strong>Dirección:</strong> MANUEL RODRIGUEZ 429", "etiqueta": "" }, "geometry": { "type": "Point", "coordinates": [ -70.623184, -33.544388 ] } },
{ "type": "Feature", "properties": { "capa": "colegios", "popup": "<strong>LICEO POLIVALENTE BAHIA DARWIN</strong><br><br><strong>Dirección:</strong> MANUEL RODRIGUEZ 547", "etiqueta": "" }, "geometry": { "type": "Point", "coordinates": [ -70.626366809999979, -33.54421894 ] } },
{ "type": "Feature", "properties": { "capa": "colegios", "popup": "<strong>ESCUELA PART. AMANECER DE LA GRANJA</strong><br><br><strong>Dirección:</strong> CALLE MANUEL RODRIGUEZ 477", "etiqueta": "" }, "geometry": { "type": "Point", "coordinates": [ -70.627556, -33.543896 ] } },
{ "type": "Feature", "properties": { "capa": "colegios", "popup": "<strong>ESC. DE PARV. LOS DUENDECITOS DE LA GRANJA</strong><br><br><strong>Dirección:</strong> SAN JOSE DE LA ESTRELLA 876", "etiqueta": "" }, "geometry": { "type": "Point", "coordinates": [ -70.63245, -33.54155 ] } },
{ "type": "Feature", "properties": { "capa": "colegios", "popup": "<strong>ESCUELA PARTICULAR TTE.DAGOBERTO GODOY</strong><br><br><strong>Dirección:</strong> SARGENTO ALDEA 93", "etiqueta": "" }, "geometry": { "type": "Point", "coordinates": [ -70.63299931, -33.54075006 ] } },
{ "type": "Feature", "properties": { "capa": "colegios", "popup": "<strong>ESCUELA  ESPECIAL N° 2456 `TU  ARCOIRIS`</strong><br><br><strong>Dirección:</strong> AVENIDA AMERICO VESPUCIO 808", "etiqueta": "" }, "geometry": { "type": "Point", "coordinates": [ -70.61537, -33.5406 ] } },
{ "type": "Feature", "properties": { "capa": "colegios", "popup": "<strong>ESCUELA ESPECIAL GUENIPILLAN</strong><br><br><strong>Dirección:</strong> AVENIDA SUR 145", "etiqueta": "" }, "geometry": { "type": "Point", "coordinates": [ -70.63033, -33.53915 ] } },
{ "type": "Feature", "properties": { "capa": "colegios", "popup": "<strong>ESCUELA ESPECIAL N° 2410 GRANJERITOS</strong><br><br><strong>Dirección:</strong> AVENIDA SAN GREGORIO 748", "etiqueta": "" }, "geometry": { "type": "Point", "coordinates": [ -70.61626, -33.537506 ] } },
{ "type": "Feature", "properties": { "capa": "colegios", "popup": "<strong>ESCUELA BASICA PRESBITERIANA EL SALVADOR</strong><br><br><strong>Dirección:</strong> CARDENAL RAUL SILVA HENRIQUEZ 8283", "etiqueta": "" }, "geometry": { "type": "Point", "coordinates": [ -70.6209593, -33.537385159999985 ] } },
{ "type": "Feature", "properties": { "capa": "colegios", "popup": "<strong>COLEGIO ALAMIRO PEREZ</strong><br><br><strong>Dirección:</strong> AVENIDA SAN GREGORIO 810", "etiqueta": "" }, "geometry": { "type": "Point", "coordinates": [ -70.61463162, -33.53729379 ] } },
{ "type": "Feature", "properties": { "capa": "colegios", "popup": "<strong>ESCUELA BAS. TECNO SUR</strong><br><br><strong>Dirección:</strong> AVENIDA SAN GREGORIO 140", "etiqueta": "" }, "geometry": { "type": "Point", "coordinates": [ -70.63166242, -33.53713472 ] } },
{ "type": "Feature", "properties": { "capa": "colegios", "popup": "<strong>COLEGIO SAN GREGORIO DE LA SALLE</strong><br><br><strong>Dirección:</strong> AVENIDA CARDENAL RAUL SILVA HENRIQUEZ 8240", "etiqueta": "" }, "geometry": { "type": "Point", "coordinates": [ -70.620829789999988, -33.53655435 ] } },
{ "type": "Feature", "properties": { "capa": "colegios", "popup": "<strong>ESCUELA BAS. LA ARAUCANIA</strong><br><br><strong>Dirección:</strong> JUAN MEYER 760", "etiqueta": "" }, "geometry": { "type": "Point", "coordinates": [ -70.616611879999979, -33.53470899 ] } },
{ "type": "Feature", "properties": { "capa": "colegios", "popup": "<strong>ESCUELA BELGICA</strong><br><br><strong>Dirección:</strong> EL TABO 8143", "etiqueta": "" }, "geometry": { "type": "Point", "coordinates": [ -70.62503439, -33.53469004 ] } },
{ "type": "Feature", "properties": { "capa": "colegios", "popup": "<strong>ESCUELA BAS. REINA GUILLERMINA DE HOLANDA</strong><br><br><strong>Dirección:</strong> CORONEL 8160", "etiqueta": "" }, "geometry": { "type": "Point", "coordinates": [ -70.61629, -33.53416 ] } },
{ "type": "Feature", "properties": { "capa": "colegios", "popup": "<strong>ESCUELA ESPECIAL SANTA RITA DE CASIA DE LA GR</strong><br><br><strong>Dirección:</strong> HUASCO 7966", "etiqueta": "" }, "geometry": { "type": "Point", "coordinates": [ -70.63336, -33.53252 ] } },
{ "type": "Feature", "properties": { "capa": "colegios", "popup": "<strong>ESCUELA ESPECIAL LA GRANJA</strong><br><br><strong>Dirección:</strong> AVENIDA TOME 142", "etiqueta": "" }, "geometry": { "type": "Point", "coordinates": [ -70.63063, -33.532368 ] } },
{ "type": "Feature", "properties": { "capa": "colegios", "popup": "<strong>ESCUELA ESPECIAL PARTICULAR LUNA NUEVA</strong><br><br><strong>Dirección:</strong> CALBUCO 7983", "etiqueta": "" }, "geometry": { "type": "Point", "coordinates": [ -70.61026, -33.530514 ] } },
{ "type": "Feature", "properties": { "capa": "colegios", "popup": "<strong>ESCUELA DE LENGUAJE LA GRANJITA</strong><br><br><strong>Dirección:</strong> INCA DE ORO 7969", "etiqueta": "" }, "geometry": { "type": "Point", "coordinates": [ -70.615662, -33.530375 ] } },
{ "type": "Feature", "properties": { "capa": "colegios", "popup": "<strong>ESCUELA BAS. POETA OSCAR CASTRO ZUNIGA</strong><br><br><strong>Dirección:</strong> COMBARBALA 525", "etiqueta": "" }, "geometry": { "type": "Point", "coordinates": [ -70.62330094, -33.53003089 ] } },
{ "type": "Feature", "properties": { "capa": "colegios", "popup": "<strong>ESCUELA BASICA PARTIC ESTRELLA DE CHILE</strong><br><br><strong>Dirección:</strong> ILLAPEL 7875", "etiqueta": "" }, "geometry": { "type": "Point", "coordinates": [ -70.6314954, -33.53000508 ] } },
{ "type": "Feature", "properties": { "capa": "colegios", "popup": "<strong>ESCUELA ESPECIAL PARTICULAR DESPERTARES</strong><br><br><strong>Dirección:</strong> AVENIDA COMBARBALA 575", "etiqueta": "" }, "geometry": { "type": "Point", "coordinates": [ -70.62116, -33.529713 ] } },
{ "type": "Feature", "properties": { "capa": "colegios", "popup": "<strong>COLEGIO BETANIA</strong><br><br><strong>Dirección:</strong> SANTA ROSA 7766", "etiqueta": "" }, "geometry": { "type": "Point", "coordinates": [ -70.635075270000016, -33.5286767 ] } },
{ "type": "Feature", "properties": { "capa": "colegios", "popup": "<strong>LICEO MALAQUIAS CONCHA</strong><br><br><strong>Dirección:</strong> QUILPUE 7852", "etiqueta": "" }, "geometry": { "type": "Point", "coordinates": [ -70.62156758, -33.52826022 ] } },
{ "type": "Feature", "properties": { "capa": "colegios", "popup": "<strong>COLEGIO MUNICIPAL PROCERES DE CHILE</strong><br><br><strong>Dirección:</strong> AVENIDA LINARES 875", "etiqueta": "" }, "geometry": { "type": "Point", "coordinates": [ -70.61396037, -33.52665484 ] } },
{ "type": "Feature", "properties": { "capa": "colegios", "popup": "<strong>LICEO POLIVALENTE FRANCISCO FRIAS V.</strong><br><br><strong>Dirección:</strong> AVENIDA SANTA ROSA 6740", "etiqueta": "" }, "geometry": { "type": "Point", "coordinates": [ -70.63572042, -33.52431923000001 ] } },
{ "type": "Feature", "properties": { "capa": "colegios", "popup": "<strong>ESCUELA BASICA PART GRATUITA CASA AZUL</strong><br><br><strong>Dirección:</strong> YUNGAY 641", "etiqueta": "" }, "geometry": { "type": "Point", "coordinates": [ -70.620248239999981, -33.52393152 ] } },
{ "type": "Feature", "properties": { "capa": "colegios", "popup": "<strong>ESCUELA BAS. SANITAS</strong><br><br><strong>Dirección:</strong> PRESIDENTE ALESSANDRI 629", "etiqueta": "" }, "geometry": { "type": "Point", "coordinates": [ -70.62810274, -33.52184801 ] } },
{ "type": "Feature", "properties": { "capa": "colegios", "popup": "<strong>ESCUELA BAS. LOS HEROES DE YUNGAY</strong><br><br><strong>Dirección:</strong> PASAJE LAS YUCAS 6590", "etiqueta": "" }, "geometry": { "type": "Point", "coordinates": [ -70.61841711, -33.52182186 ] } },
{ "type": "Feature", "properties": { "capa": "colegios", "popup": "<strong>ESCUELA ESPECIAL GRIBEL DE LA GRANJA</strong><br><br><strong>Dirección:</strong> PRESIDENTE ALESSANDRI 616", "etiqueta": "" }, "geometry": { "type": "Point", "coordinates": [ -70.628137, -33.521746 ] } },
{ "type": "Feature", "properties": { "capa": "colegios", "popup": "<strong>ESCUELA PARTICULAR CLAUDIO MATTE</strong><br><br><strong>Dirección:</strong> AVENIDA PADRE ESTEBAN GUMUCIO VIVES 140", "etiqueta": "" }, "geometry": { "type": "Point", "coordinates": [ -70.63317829, -33.52094645 ] } },
{ "type": "Feature", "properties": { "capa": "colegios", "popup": "<strong>ESCUELA DIFERENCIAL SANTA TERESITA DE LOS AND</strong><br><br><strong>Dirección:</strong> AVENIDA PADRE ESTEBAN GUMUCIO VIVES 323", "etiqueta": "" }, "geometry": { "type": "Point", "coordinates": [ -70.62937, -33.52038 ] } },
{ "type": "Feature", "properties": { "capa": "colegios", "popup": "<strong>ESCUELA BÁSICA PADRE ESTEBAN GUMUCIO VIVES</strong><br><br><strong>Dirección:</strong> AVENIDA PADRE ESTEBAN GUMUCIO 381", "etiqueta": "" }, "geometry": { "type": "Point", "coordinates": [ -70.629302079999988, -33.52010851 ] } },
{ "type": "Feature", "properties": { "capa": "colegios", "popup": "<strong>ESCUELA ESP. NUEVO MUNDO DE LA GRANJA</strong><br><br><strong>Dirección:</strong> LAS INDUSTRIAS 6493", "etiqueta": "" }, "geometry": { "type": "Point", "coordinates": [ -70.62308, -33.518036 ] } },
{ "type": "Feature", "properties": { "capa": "colegios", "popup": "<strong>LICEO DOCTOR ALEJANDRO DEL RIO</strong><br><br><strong>Dirección:</strong> CALLE M 65", "etiqueta": "" }, "geometry": { "type": "Point", "coordinates": [ -70.62132417, -33.5169844 ] } },
{ "type": "Feature", "properties": { "capa": "colegios", "popup": "<strong>ESC ESP PARV ELEFANTE MELODIA, LA GRANJA</strong><br><br><strong>Dirección:</strong> AVENIDA LAS INDUSTRIAS 6408", "etiqueta": "" }, "geometry": { "type": "Point", "coordinates": [ -70.62363011, -33.51646881 ] } },
{ "type": "Feature", "properties": { "capa": "jardines", "popup": "<strong>CUNCUNITAS</strong><br><br><strong>Dirección:</strong> 8 ORIENTE 6447 VILLA BRASIL PARAD. 18 STA. ROSA ", "etiqueta": "" }, "geometry": { "type": "MultiPoint", "coordinates": [ [ -70.612994, -33.53164 ] ] } },
{ "type": "Feature", "properties": { "capa": "jardines", "popup": "<strong>LOS QUECHITOS</strong><br><br><strong>Dirección:</strong> VALDIVIA E# 0475, ESQ. 3 PONIENTE-POB SAN GREGORIO ", "etiqueta": "" }, "geometry": { "type": "MultiPoint", "coordinates": [ [ -70.623793, -33.53466 ] ] } },
{ "type": "Feature", "properties": { "capa": "jardines", "popup": "<strong>BAMBI</strong><br><br><strong>Dirección:</strong> AV. SAN GREGORIO 0675 POB. SAN GREGORIO ", "etiqueta": "" }, "geometry": { "type": "MultiPoint", "coordinates": [ [ -70.617718, -33.536541 ] ] } },
{ "type": "Feature", "properties": { "capa": "jardines", "popup": "<strong>MI CAPULLITO</strong><br><br><strong>Dirección:</strong> CORONEL 8960 POB. MILLALEMU (PARAD. 25 STA. ROSA) ", "etiqueta": "" }, "geometry": { "type": "MultiPoint", "coordinates": [ [ -70.614999, -33.546153 ] ] } },
{ "type": "Feature", "properties": { "capa": "jardines", "popup": "<strong>MI PEQUENO POEMA</strong><br><br><strong>Dirección:</strong> CANTO GENERAL 0501 POB. POETA NERUDA ", "etiqueta": "" }, "geometry": { "type": "MultiPoint", "coordinates": [ [ -70.626897, -33.551543 ] ] } },
{ "type": "Feature", "properties": { "capa": "jardines", "popup": "<strong>SAN FRANCISCO DE ASIS</strong><br><br><strong>Dirección:</strong> QUILPUE.7897 (ESQUINA LINARES) ", "etiqueta": "" }, "geometry": { "type": "MultiPoint", "coordinates": [ [ -70.62202, -33.52883 ] ] } },
{ "type": "Feature", "properties": { "capa": "jardines", "popup": "<strong>ARCO IRIS</strong><br><br><strong>Dirección:</strong> MANUEL PLAZA N 0880, VILLA LOS PENSAMIENTOS ", "etiqueta": "" }, "geometry": { "type": "MultiPoint", "coordinates": [ [ -70.619117, -33.549302 ] ] } },
{ "type": "Feature", "properties": { "capa": "jardines", "popup": "<strong>PADRE HURTADO</strong><br><br><strong>Dirección:</strong> DIAGONAL SUR # 0351, VILLA PADRE ALBERTO HURTADO ", "etiqueta": "" }, "geometry": { "type": "MultiPoint", "coordinates": [ [ -70.628344, -33.54646 ] ] } },
{ "type": "Feature", "properties": { "capa": "jardines", "popup": "<strong>VERDE BOSQUE</strong><br><br><strong>Dirección:</strong> LAS YUCAS 6590 ", "etiqueta": "" }, "geometry": { "type": "MultiPoint", "coordinates": [ [ -70.618497, -33.52234 ] ] } },
{ "type": "Feature", "properties": { "capa": "jardines", "popup": "<strong>POLIWEN MONTESSORI</strong><br><br><strong>Dirección:</strong> 2 PONIENTE 8177 ", "etiqueta": "" }, "geometry": { "type": "MultiPoint", "coordinates": [ [ -70.62313, -33.535308 ] ] } },
{ "type": "Feature", "properties": { "capa": "jardines", "popup": "<strong>SEMILLITAS DEL FUTURO</strong><br><br><strong>Dirección:</strong> VALDIVIA 0891 POBL SAN GREGORIO CON 7 ORIENTE ", "etiqueta": "" }, "geometry": { "type": "MultiPoint", "coordinates": [ [ -70.614021, -33.534036 ] ] } },
{ "type": "Feature", "properties": { "capa": "jardines", "popup": "<strong>SEMILLA</strong><br><br><strong>Dirección:</strong> CAÑETE 7790 ", "etiqueta": "" }, "geometry": { "type": "MultiPoint", "coordinates": [ [ -70.613334, -33.526303 ] ] } },
{ "type": "Feature", "properties": { "capa": "jardines", "popup": "<strong>VIOLETA PARRA</strong><br><br><strong>Dirección:</strong> CANTO GENERAL ", "etiqueta": "" }, "geometry": { "type": "MultiPoint", "coordinates": [ [ -70.628701, -33.551628 ] ] } },
{ "type": "Feature", "properties": { "capa": "jardines", "popup": "<strong>NA</strong><br><br><strong>Dirección:</strong> NA ", "etiqueta": "" }, "geometry": { "type": "MultiPoint", "coordinates": [ [ -70.619710558899428, -33.515203135734282 ] ] } },
{ "type": "Feature", "properties": { "capa": "jardines", "popup": "<strong>NA</strong><br><br><strong>Dirección:</strong> NA ", "etiqueta": "" }, "geometry": { "type": "MultiPoint", "coordinates": [ [ -70.61489999965481, -33.533824999718441 ] ] } },
{ "type": "Feature", "properties": { "capa": "jardines", "popup": "<strong>NA</strong><br><br><strong>Dirección:</strong> NA ", "etiqueta": "" }, "geometry": { "type": "MultiPoint", "coordinates": [ [ -70.61882987219326, -33.51936302762477 ] ] } },
{ "type": "Feature", "properties": { "capa": "jardines", "popup": "<strong>NA</strong><br><br><strong>Dirección:</strong> NA ", "etiqueta": "" }, "geometry": { "type": "MultiPoint", "coordinates": [ [ -70.621810000282736, -33.537702999567855 ] ] } },
{ "type": "Feature", "properties": { "capa": "jardines", "popup": "<strong>NA</strong><br><br><strong>Dirección:</strong> NA ", "etiqueta": "" }, "geometry": { "type": "MultiPoint", "coordinates": [ [ -70.612101183995989, -33.544332026057504 ] ] } },
{ "type": "Feature", "properties": { "capa": "jardines", "popup": "<strong>NA</strong><br><br><strong>Dirección:</strong> NA ", "etiqueta": "" }, "geometry": { "type": "MultiPoint", "coordinates": [ [ -70.627712000062232, -33.535434000236826 ] ] } },
{ "type": "Feature", "properties": { "capa": "jardines", "popup": "<strong>NA</strong><br><br><strong>Dirección:</strong> NA ", "etiqueta": "" }, "geometry": { "type": "MultiPoint", "coordinates": [ [ -70.612633999924697, -33.538246999723128 ] ] } },
{ "type": "Feature", "properties": { "capa": "comisarias", "popup": "<strong>13A. COM. LA GRANJA</strong><br><br><strong>Dirección:</strong> JUAN MEYER 851", "etiqueta": "" }, "geometry": { "type": "Point", "coordinates": [ -70.61347, -33.53528 ] } },
{ "type": "Feature", "properties": { "capa": "comisarias", "popup": "<strong>SCOM. PARQUE BRASIL</strong><br><br><strong>Dirección:</strong> SEBASTOPOL 90", "etiqueta": "" }, "geometry": { "type": "Point", "coordinates": [ -70.61473, -33.51536 ] } },
{ "type": "Feature", "properties": { "capa": "comisarias", "popup": "<strong>TCIA. TTE. MAURICIO RIVERA L.</strong><br><br><strong>Dirección:</strong> LA SERENA 10537", "etiqueta": "" }, "geometry": { "type": "Point", "coordinates": [ -70.61659, -33.55631 ] } },
{ "type": "Feature", "properties": { "capa": "salud", "popup": "<strong>Centro de Salud Familiar Granja Sur</strong><br><br><strong>Tipo de atención:</strong> Centro de Salud Familiar (CESFAM)<br><strong>Dirección:</strong>  10009", "etiqueta": "" }, "geometry": { "type": "Point", "coordinates": [ -70.62955, -33.55182 ] } },
{ "type": "Feature", "properties": { "capa": "salud", "popup": "<strong>SAPU Granja Sur</strong><br><br><strong>Tipo de atención:</strong> Servicio de Atención Primaria de Urgencia (SAPU)<br><strong>Dirección:</strong>  10036", "etiqueta": "" }, "geometry": { "type": "Point", "coordinates": [ -70.629382, -33.55162 ] } },
{ "type": "Feature", "properties": { "capa": "salud", "popup": "<strong>Centro Comunitario de Salud Familiar Millalemu</strong><br><br><strong>Tipo de atención:</strong> Centro Comunitario de Salud Familiar (CECOSF)<br><strong>Dirección:</strong>  805", "etiqueta": "" }, "geometry": { "type": "Point", "coordinates": [ -70.61317, -33.54581 ] } },
{ "type": "Feature", "properties": { "capa": "salud", "popup": "<strong>Centro Comunitario de Salud Familiar San Gregorio</strong><br><br><strong>Tipo de atención:</strong> Centro Comunitario de Salud Familiar (CECOSF)<br><strong>Dirección:</strong>  8363", "etiqueta": "" }, "geometry": { "type": "Point", "coordinates": [ -70.61461, -33.53809 ] } },
{ "type": "Feature", "properties": { "capa": "salud", "popup": "<strong>SAPU La Granja</strong><br><br><strong>Tipo de atención:</strong> Servicio de Atención Primaria de Urgencia (SAPU)<br><strong>Dirección:</strong>  28", "etiqueta": "" }, "geometry": { "type": "Point", "coordinates": [ -70.633284, -33.537049 ] } },
{ "type": "Feature", "properties": { "capa": "salud", "popup": "<strong>Centro de Salud Familiar La Granja</strong><br><br><strong>Tipo de atención:</strong> Centro de Salud Familiar (CESFAM)<br><strong>Dirección:</strong>  28", "etiqueta": "" }, "geometry": { "type": "Point", "coordinates": [ -70.63367, -33.537 ] } },
{ "type": "Feature", "properties": { "capa": "salud", "popup": "<strong>Centro de Salud Familiar Malaquías Concha</strong><br><br><strong>Tipo de atención:</strong> Centro de Salud Familiar (CESFAM)<br><strong>Dirección:</strong>  585", "etiqueta": "" }, "geometry": { "type": "Point", "coordinates": [ -70.6213, -33.52746 ] } },
{ "type": "Feature", "properties": { "capa": "salud", "popup": "<strong>SAPU Padre Esteban Gumucio</strong><br><br><strong>Tipo de atención:</strong> Servicio de Atención Primaria de Urgencia (SAPU)<br><strong>Dirección:</strong>  281", "etiqueta": "" }, "geometry": { "type": "Point", "coordinates": [ -70.624091, -33.519708 ] } },
{ "type": "Feature", "properties": { "capa": "salud", "popup": "<strong>Centro de Salud Familiar Padre Esteban Gumucio Vives</strong><br><br><strong>Tipo de atención:</strong> Centro de Salud Familiar (CESFAM)<br><strong>Dirección:</strong>  281", "etiqueta": "" }, "geometry": { "type": "Point", "coordinates": [ -70.62398, -33.5196 ] } },
{ "type": "Feature", "properties": { "capa": "municipios", "popup": "<strong>Municipalidad de La Granja</strong><br><br><strong>Dirección:</strong> Av. Americo Vespucio Nº 002<br><strong>Región:</strong> Metropolitana de Santiago", "etiqueta": "" }, "geometry": { "type": "Point", "coordinates": [ -70.631576, -33.54320500099994 ] } }
]
}
