{
"type": "FeatureCollection",
"name": "13117",
"crs": { "type": "name", "properties": { "name": "urn:ogc:def:crs:OGC:1.3:CRS84" } },
"features": [
{ "type": "Feature", "properties": { "capa": "comuna", "popup": "", "etiqueta": "" }, "geometry": { "type": "Polygon", "coordinates": [ [ [ -70.70558601024068, -33.457160076049554 ], [ -70.706205815447362, -33.457282991623437 ], [ -70.708961803619914, -33.457964433363422 ], [ -70.710415679296545, -33.458290712138314 ], [ -70.711898817593564, -33.458432616472834 ], [ -70.712956882979611, -33.458445037138077 ], [ -70.713456562771555, -33.458365953451164 ], [ -70.714940409839343, -33.45806832663024 ], [ -70.719196845946115, -33.457248147637216 ], [ -70.724882132462341, -33.456148565806345 ], [ -70.728684308496241, -33.455413033475956 ], [ -70.731581863971044, -33.454858497435552 ], [ -70.737730175422357, -33.453674000760891 ], [ -70.738928714860961, -33.453442138039819 ], [ -70.739013843708847, -33.453241220676013 ], [ -70.739081473375009, -33.452633748426052 ], [ -70.739203449319248, -33.450237196124426 ], [ -70.739254063995617, -33.448910113267793 ], [ -70.739446381619842, -33.446633950436095 ], [ -70.740002887040035, -33.44616618783899 ], [ -70.740638366051797, -33.445589158256254 ], [ -70.740479582537134, -33.444769441401711 ], [ -70.740566284335088, -33.442872045422533 ], [ -70.740526092810967, -33.440824687261667 ], [ -70.74071374548393, -33.43799939031414 ], [ -70.740804364834844, -33.436389507765888 ], [ -70.737694866241796, -33.436398139147755 ], [ -70.734734360425151, -33.436449199518776 ], [ -70.733896718253632, -33.436381425871055 ], [ -70.733241144827275, -33.436363554393331 ], [ -70.732682469975671, -33.43634432380955 ], [ -70.732112868915252, -33.43631623094236 ], [ -70.731458792082165, -33.436298253751495 ], [ -70.730865762959155, -33.436279496178237 ], [ -70.730210186837837, -33.436252594473679 ], [ -70.729939431017954, -33.436276964632683 ], [ -70.729459248260909, -33.436353274543741 ], [ -70.728939783973146, -33.436369532043187 ], [ -70.728705569822381, -33.436435888127257 ], [ -70.728218964111079, -33.436647309395916 ], [ -70.727154221547508, -33.437124834853655 ], [ -70.726521566838997, -33.437241137056525 ], [ -70.725982678279848, -33.437322442432539 ], [ -70.725538720984957, -33.437392081183631 ], [ -70.72510878369674, -33.437466621729627 ], [ -70.724569297757895, -33.437584720342429 ], [ -70.724208195674933, -33.437686964096777 ], [ -70.724152087800618, -33.437769095897401 ], [ -70.723869121181067, -33.438271105470442 ], [ -70.723665505445496, -33.438566192292328 ], [ -70.722986738416807, -33.438788834704894 ], [ -70.722564665878878, -33.438913839271855 ], [ -70.722558109075635, -33.438921258266298 ], [ -70.722555596487766, -33.438914998934862 ], [ -70.722405659582009, -33.438934170478511 ], [ -70.722278552460907, -33.438593223714072 ], [ -70.722163303999835, -33.438324826660072 ], [ -70.722007437314886, -33.437938675634435 ], [ -70.72186835385439, -33.437597895124696 ], [ -70.721699834398677, -33.437185418167012 ], [ -70.721646526573082, -33.43702609798801 ], [ -70.721557024726366, -33.436709419308905 ], [ -70.721461958714812, -33.436629623134081 ], [ -70.719651299156766, -33.436889233677029 ], [ -70.718435495895051, -33.43707741136663 ], [ -70.71704720352237, -33.437258952130932 ], [ -70.715830503741984, -33.437420076999814 ], [ -70.714761476214534, -33.437558536440619 ], [ -70.714085749983084, -33.437655692477357 ], [ -70.712958930240148, -33.43781852801493 ], [ -70.712749766509376, -33.437848753092474 ], [ -70.712262123243917, -33.437955960578009 ], [ -70.711563112680309, -33.438016142259897 ], [ -70.710977630303987, -33.438103051875238 ], [ -70.71021050228903, -33.438130701134185 ], [ -70.709362127944814, -33.438131461256297 ], [ -70.708724351940859, -33.438104944684831 ], [ -70.707292204714307, -33.438060476017199 ], [ -70.707070393602663, -33.438054886041492 ], [ -70.707078150555162, -33.438515534965518 ], [ -70.707175084164206, -33.439885259630493 ], [ -70.707257707610765, -33.440927884441301 ], [ -70.70730969760784, -33.441521581610289 ], [ -70.707346500686725, -33.442001199344169 ], [ -70.707352530178909, -33.442758647173079 ], [ -70.707345944629552, -33.443191582258883 ], [ -70.707329601579588, -33.444003489943313 ], [ -70.707331760231213, -33.44486914689351 ], [ -70.707326618274521, -33.445924398861301 ], [ -70.707262649243162, -33.447449354018403 ], [ -70.707190003384454, -33.448189786931565 ], [ -70.707148346708081, -33.44847899586955 ], [ -70.707141577902419, -33.448785677011102 ], [ -70.707139674372343, -33.448795426965319 ], [ -70.707092183138215, -33.448793390478194 ], [ -70.707090214031112, -33.448804410144035 ], [ -70.707060361217586, -33.449084370797863 ], [ -70.707019588483462, -33.449472711057759 ], [ -70.706912750050108, -33.450114469936466 ], [ -70.706834978404373, -33.450602535965238 ], [ -70.706815341232272, -33.450801238621082 ], [ -70.706501586652976, -33.451616144325335 ], [ -70.706380764145578, -33.4519073924926 ], [ -70.706351786291151, -33.452079184868708 ], [ -70.706234880438387, -33.452369356691733 ], [ -70.706190485697036, -33.452631490925974 ], [ -70.706024182385121, -33.453697897593059 ], [ -70.705753780501439, -33.455497337717084 ], [ -70.705718876461091, -33.456055142618212 ], [ -70.705575880837515, -33.456773122250617 ], [ -70.70558601024068, -33.457160076049554 ] ] ] } },
{ "type": "Feature", "properties": { "capa": "colegios", "popup": "<strong>ESCUELA PARTICULAR ROYAL SCHOOL</strong><br><br><strong>Dirección:</strong> MINISTRO GANA 40", "etiqueta": "" }, "geometry": { "type": "Point", "coordinates": [ -70.71883599, -33.455585309999989 ] } },
{ "type": "Feature", "properties": { "capa": "colegios", "popup": "<strong>LICEO BICENTENARIO POETA PABLO NERUDA</strong><br><br><strong>Dirección:</strong> OBISPO RODRIGUEZ 5935", "etiqueta": "" }, "geometry": { "type": "Point", "coordinates": [ -70.71492292, -33.45513941 ] } },
{ "type": "Feature", "properties": { "capa": "colegios", "popup": "<strong>ESC. ESP. SAN ANTONIO DE LO PRADO</strong><br><br><strong>Dirección:</strong> FORT DODGE 158", "etiqueta": "" }, "geometry": { "type": "Point", "coordinates": [ -70.71336, -33.45456 ] } },
{ "type": "Feature", "properties": { "capa": "colegios", "popup": "<strong>ESCUELA PARTICULAR FRINGS COLLEGE</strong><br><br><strong>Dirección:</strong> SAGITARIO 5295", "etiqueta": "" }, "geometry": { "type": "Point", "coordinates": [ -70.70763408, -33.45381458 ] } },
{ "type": "Feature", "properties": { "capa": "colegios", "popup": "<strong>ESCUELA PARTICULAR VILLA LOURDES</strong><br><br><strong>Dirección:</strong> MILTON ROSSEL 7243", "etiqueta": "" }, "geometry": { "type": "Point", "coordinates": [ -70.73445, -33.4523 ] } },
{ "type": "Feature", "properties": { "capa": "colegios", "popup": "<strong>ESCUELA ANEXO BASICA PART.VILLA LOURDES</strong><br><br><strong>Dirección:</strong> GABRIELA MISTRAL 141", "etiqueta": "" }, "geometry": { "type": "Point", "coordinates": [ -70.73772105, -33.45192401 ] } },
{ "type": "Feature", "properties": { "capa": "colegios", "popup": "<strong>COLEGIO ADVENTISTA SANTIAGO PONIENTE</strong><br><br><strong>Dirección:</strong> PEDRO DE CORDOVA 5817", "etiqueta": "" }, "geometry": { "type": "Point", "coordinates": [ -70.7109297, -33.45175034 ] } },
{ "type": "Feature", "properties": { "capa": "colegios", "popup": "<strong>ESCUELA POETA VICENTE HUIDOBRO</strong><br><br><strong>Dirección:</strong> MILTON ROSSEL 7191", "etiqueta": "" }, "geometry": { "type": "Point", "coordinates": [ -70.73558746, -33.45128328 ] } },
{ "type": "Feature", "properties": { "capa": "colegios", "popup": "<strong>LICEO TENIENTE DAGOBERTO GODOY NO.3</strong><br><br><strong>Dirección:</strong> ISLA DECEPCION 232", "etiqueta": "" }, "geometry": { "type": "Point", "coordinates": [ -70.71388424, -33.451091489999989 ] } },
{ "type": "Feature", "properties": { "capa": "colegios", "popup": "<strong>ESCUELA BASICA PARTICULAR N°811 DRA.VICTORIA GARCIA</strong><br><br><strong>Dirección:</strong> YALE 6702", "etiqueta": "" }, "geometry": { "type": "Point", "coordinates": [ -70.7301775, -33.45107809 ] } },
{ "type": "Feature", "properties": { "capa": "colegios", "popup": "<strong>ESCUELA GOLDA MEIR</strong><br><br><strong>Dirección:</strong> AVENIDA DORSAL 6001", "etiqueta": "" }, "geometry": { "type": "Point", "coordinates": [ -70.718095189999985, -33.45061902 ] } },
{ "type": "Feature", "properties": { "capa": "colegios", "popup": "<strong>ESC.DE EDUCACION DIFERENCIAL QUILLAHUE</strong><br><br><strong>Dirección:</strong> GENERAL BUENDIA 350", "etiqueta": "" }, "geometry": { "type": "Point", "coordinates": [ -70.7274, -33.449547 ] } },
{ "type": "Feature", "properties": { "capa": "colegios", "popup": "<strong>ESCUELA BAS. COLEGIO BAU</strong><br><br><strong>Dirección:</strong> AVENIDA LAS TORRES 365", "etiqueta": "" }, "geometry": { "type": "Point", "coordinates": [ -70.73072933, -33.449433780000021 ] } },
{ "type": "Feature", "properties": { "capa": "colegios", "popup": "<strong>ESCUELA PARTICULAR BABILONIA</strong><br><br><strong>Dirección:</strong> TERRITORIO ANTARTICO 6100", "etiqueta": "" }, "geometry": { "type": "Point", "coordinates": [ -70.71964465, -33.4484815 ] } },
{ "type": "Feature", "properties": { "capa": "colegios", "popup": "<strong>ESC. BAS. Y ESP. CELEI</strong><br><br><strong>Dirección:</strong> TERRITORIO ANTARTICO 6048", "etiqueta": "" }, "geometry": { "type": "Point", "coordinates": [ -70.71826202, -33.4482839 ] } },
{ "type": "Feature", "properties": { "capa": "colegios", "popup": "<strong>ESCUELA PROFESORA GLADYS VALENZUELA V</strong><br><br><strong>Dirección:</strong> GENERAL BUENDIA 509", "etiqueta": "" }, "geometry": { "type": "Point", "coordinates": [ -70.726796019999981, -33.44743503 ] } },
{ "type": "Feature", "properties": { "capa": "colegios", "popup": "<strong>ESCUELA ESP. MI MUNDO EN PALABRAS</strong><br><br><strong>Dirección:</strong> AVENIDA PORTALES 5756", "etiqueta": "" }, "geometry": { "type": "Point", "coordinates": [ -70.71427, -33.445526 ] } },
{ "type": "Feature", "properties": { "capa": "colegios", "popup": "<strong>ESCUELA ESP. RUCAMALEN</strong><br><br><strong>Dirección:</strong> AVENIDA PORTALES 6010", "etiqueta": "" }, "geometry": { "type": "Point", "coordinates": [ -70.7138, -33.445263 ] } },
{ "type": "Feature", "properties": { "capa": "colegios", "popup": "<strong>ESCUELA PARTICULAR ESPECIAL RENACER</strong><br><br><strong>Dirección:</strong> AVENIDA PORTALES 5904", "etiqueta": "" }, "geometry": { "type": "Point", "coordinates": [ -70.7162, -33.445087 ] } },
{ "type": "Feature", "properties": { "capa": "colegios", "popup": "<strong>ESCUELA BASICA N°389 REPUBLICA DE ESTADOS UNIDOS</strong><br><br><strong>Dirección:</strong> SCALA 751", "etiqueta": "" }, "geometry": { "type": "Point", "coordinates": [ -70.71438986, -33.44472809 ] } },
{ "type": "Feature", "properties": { "capa": "colegios", "popup": "<strong>COMPLEJO EDUCACIONAL PEDRO PRADO</strong><br><br><strong>Dirección:</strong> LOS CANELOS 816", "etiqueta": "" }, "geometry": { "type": "Point", "coordinates": [ -70.728371569999979, -33.44430155 ] } },
{ "type": "Feature", "properties": { "capa": "colegios", "popup": "<strong>ESCUELA SOR TERESA DE LOS ANDES</strong><br><br><strong>Dirección:</strong> SAN PABLO 8011", "etiqueta": "" }, "geometry": { "type": "Point", "coordinates": [ -70.73814775, -33.444212969999988 ] } },
{ "type": "Feature", "properties": { "capa": "colegios", "popup": "<strong>ESC. ESP. DE LENGUAJE SAN  EXPEDITO</strong><br><br><strong>Dirección:</strong> LAS MADRESELVAS 821", "etiqueta": "" }, "geometry": { "type": "Point", "coordinates": [ -70.72666, -33.443962 ] } },
{ "type": "Feature", "properties": { "capa": "colegios", "popup": "<strong>ESCUELA BAS. MY GARDEN SCHOOL</strong><br><br><strong>Dirección:</strong> SAN PABLO 6135", "etiqueta": "" }, "geometry": { "type": "Point", "coordinates": [ -70.722209579999983, -33.44395417 ] } },
{ "type": "Feature", "properties": { "capa": "colegios", "popup": "<strong>ESCUELA JAIME GOMEZ GARCIA</strong><br><br><strong>Dirección:</strong> SAN GERMAN 839", "etiqueta": "" }, "geometry": { "type": "Point", "coordinates": [ -70.71958863, -33.44252746 ] } },
{ "type": "Feature", "properties": { "capa": "colegios", "popup": "<strong>ESCUELA MARISCAL DE AYACUCHO</strong><br><br><strong>Dirección:</strong> GABRIELA MISTRAL 992", "etiqueta": "" }, "geometry": { "type": "Point", "coordinates": [ -70.7366367, -33.44094361 ] } },
{ "type": "Feature", "properties": { "capa": "colegios", "popup": "<strong>ESCUELA PARTICULAR RAPA NUI</strong><br><br><strong>Dirección:</strong> AVENIDA LAS TORRES 935", "etiqueta": "" }, "geometry": { "type": "Point", "coordinates": [ -70.73078452999998, -33.44071093 ] } },
{ "type": "Feature", "properties": { "capa": "colegios", "popup": "<strong>MUSTAFA KEMAL ATATURK</strong><br><br><strong>Dirección:</strong> 9 DE JULIO 5300", "etiqueta": "" }, "geometry": { "type": "Point", "coordinates": [ -70.70999791, -33.439727499999982 ] } },
{ "type": "Feature", "properties": { "capa": "colegios", "popup": "<strong>ESCUELA CENTRO EDUC.INTEGRAL DE ADULTOS</strong><br><br><strong>Dirección:</strong> SAN PABLO 6500", "etiqueta": "" }, "geometry": { "type": "Point", "coordinates": [ -70.74014, -33.437267 ] } },
{ "type": "Feature", "properties": { "capa": "colegios", "popup": "<strong>ESCUELA IGNACIO CARRERA PINTO</strong><br><br><strong>Dirección:</strong> NICARAGUA 8131", "etiqueta": "" }, "geometry": { "type": "Point", "coordinates": [ -70.7395033, -33.43726596 ] } },
{ "type": "Feature", "properties": { "capa": "colegios", "popup": "<strong>ESCUELA JARDIN LO PRADO</strong><br><br><strong>Dirección:</strong> LAS SIEMPREVIVAS 1081", "etiqueta": "" }, "geometry": { "type": "Point", "coordinates": [ -70.73202624, -33.437105769999981 ] } },
{ "type": "Feature", "properties": { "capa": "jardines", "popup": "<strong>MUNDO FELIZ</strong><br><br><strong>Dirección:</strong> PANAMA 1015 POB. PUDAHUEL SECTOR A ", "etiqueta": "" }, "geometry": { "type": "MultiPoint", "coordinates": [ [ -70.73946, -33.440041 ] ] } },
{ "type": "Feature", "properties": { "capa": "jardines", "popup": "<strong>PICHIKECHE TAÑI RUKA</strong><br><br><strong>Dirección:</strong> TUPUNGATO 413 VILLA KENNEDY ", "etiqueta": "" }, "geometry": { "type": "MultiPoint", "coordinates": [ [ -70.73435, -33.450649 ] ] } },
{ "type": "Feature", "properties": { "capa": "jardines", "popup": "<strong>LOS TRINOS</strong><br><br><strong>Dirección:</strong> TERRITORIO ANTARTICO 5934 POB. M. RODRIGUEZ ", "etiqueta": "" }, "geometry": { "type": "MultiPoint", "coordinates": [ [ -70.715804, -33.448758 ] ] } },
{ "type": "Feature", "properties": { "capa": "jardines", "popup": "<strong>LA PRADERA</strong><br><br><strong>Dirección:</strong> WALDO TAFF 7907 C/G. MISTRAL VILLA SAN PABLO ", "etiqueta": "" }, "geometry": { "type": "MultiPoint", "coordinates": [ [ -70.736598, -33.445959 ] ] } },
{ "type": "Feature", "properties": { "capa": "jardines", "popup": "<strong>DEJANDO HUELLAS</strong><br><br><strong>Dirección:</strong> MINISTRO MORA N6000 ", "etiqueta": "" }, "geometry": { "type": "MultiPoint", "coordinates": [ [ -70.71818, -33.451135 ] ] } },
{ "type": "Feature", "properties": { "capa": "jardines", "popup": "<strong>SEMILLITA DE AMOR</strong><br><br><strong>Dirección:</strong> SAN GERMAN 839 ", "etiqueta": "" }, "geometry": { "type": "MultiPoint", "coordinates": [ [ -70.719281, -33.442609 ] ] } },
{ "type": "Feature", "properties": { "capa": "jardines", "popup": "<strong>MUSTAFA KEMAL ATATURK</strong><br><br><strong>Dirección:</strong> NUEVE DE JULIO N 5300 ", "etiqueta": "" }, "geometry": { "type": "MultiPoint", "coordinates": [ [ -70.710015, -33.439634 ] ] } },
{ "type": "Feature", "properties": { "capa": "jardines", "popup": "<strong>TIERRA DE NIÑOS</strong><br><br><strong>Dirección:</strong> MILTON ROSSEL 7191 ", "etiqueta": "" }, "geometry": { "type": "MultiPoint", "coordinates": [ [ -70.735536, -33.450998 ] ] } },
{ "type": "Feature", "properties": { "capa": "jardines", "popup": "<strong>REMOLINO DE ALEGRIA</strong><br><br><strong>Dirección:</strong> NICARAGUA 8131 ", "etiqueta": "" }, "geometry": { "type": "MultiPoint", "coordinates": [ [ -70.7395, -33.437269 ] ] } },
{ "type": "Feature", "properties": { "capa": "jardines", "popup": "<strong>ESPACIO FELIZ</strong><br><br><strong>Dirección:</strong> SAN PABLO 6100 ", "etiqueta": "" }, "geometry": { "type": "MultiPoint", "coordinates": [ [ -70.721485, -33.444066 ] ] } },
{ "type": "Feature", "properties": { "capa": "jardines", "popup": "<strong>TAIÑFOLIL</strong><br><br><strong>Dirección:</strong> LOS COPIHUES 5801 ", "etiqueta": "" }, "geometry": { "type": "MultiPoint", "coordinates": [ [ -70.714042, -33.441438 ] ] } },
{ "type": "Feature", "properties": { "capa": "jardines", "popup": "<strong>ANTU LIWEN</strong><br><br><strong>Dirección:</strong> MINISTRO GANA 146 ", "etiqueta": "" }, "geometry": { "type": "MultiPoint", "coordinates": [ [ -70.719129, -33.453386 ] ] } },
{ "type": "Feature", "properties": { "capa": "jardines", "popup": "<strong>ARTISTAS DEL FUTURO</strong><br><br><strong>Dirección:</strong> SANTA INES 654 ", "etiqueta": "" }, "geometry": { "type": "MultiPoint", "coordinates": [ [ -70.710279, -33.445199 ] ] } },
{ "type": "Feature", "properties": { "capa": "jardines", "popup": "<strong>NA</strong><br><br><strong>Dirección:</strong> NA ", "etiqueta": "" }, "geometry": { "type": "MultiPoint", "coordinates": [ [ -70.720365000257615, -33.439140000373435 ] ] } },
{ "type": "Feature", "properties": { "capa": "comisarias", "popup": "<strong>44A. COM. LO PRADO</strong><br><br><strong>Dirección:</strong> SAN PABLO 5829", "etiqueta": "" }, "geometry": { "type": "Point", "coordinates": [ -70.715861, -33.442814 ] } },
{ "type": "Feature", "properties": { "capa": "salud", "popup": "<strong>SAR Dr. Raúl Yazigi</strong><br><br><strong>Tipo de atención:</strong> Servicio de Atención Primaria de Urgencia de Alta Resolutividad (SAR)<br><strong>Dirección:</strong>  214", "etiqueta": "" }, "geometry": { "type": "Point", "coordinates": [ -70.715985, -33.451978 ] } },
{ "type": "Feature", "properties": { "capa": "salud", "popup": "<strong>Centro de Salud Familiar Dr. Raúl Yazigi</strong><br><br><strong>Tipo de atención:</strong> Centro de Salud Familiar (CESFAM)<br><strong>Dirección:</strong>  214", "etiqueta": "" }, "geometry": { "type": "Point", "coordinates": [ -70.71605, -33.45176 ] } },
{ "type": "Feature", "properties": { "capa": "salud", "popup": "<strong>SAPU Pablo Neruda</strong><br><br><strong>Tipo de atención:</strong> Servicio de Atención Primaria de Urgencia (SAPU)<br><strong>Dirección:</strong>  6741", "etiqueta": "" }, "geometry": { "type": "Point", "coordinates": [ -70.730382, -33.45001 ] } },
{ "type": "Feature", "properties": { "capa": "salud", "popup": "<strong>Centro de Salud Familiar Pablo Neruda</strong><br><br><strong>Tipo de atención:</strong> Centro de Salud Familiar (CESFAM)<br><strong>Dirección:</strong>  6741", "etiqueta": "" }, "geometry": { "type": "Point", "coordinates": [ -70.73009, -33.45 ] } },
{ "type": "Feature", "properties": { "capa": "salud", "popup": "<strong>Centro de Salud Familiar Santa Anita</strong><br><br><strong>Tipo de atención:</strong> Centro de Salud Familiar (CESFAM)<br><strong>Dirección:</strong>  5302", "etiqueta": "" }, "geometry": { "type": "Point", "coordinates": [ -70.7093, -33.43929 ] } },
{ "type": "Feature", "properties": { "capa": "salud", "popup": "<strong>SAPU Santa Anita</strong><br><br><strong>Tipo de atención:</strong> Servicio de Atención Primaria de Urgencia (SAPU)<br><strong>Dirección:</strong>  5302", "etiqueta": "" }, "geometry": { "type": "Point", "coordinates": [ -70.709532, -33.439204 ] } },
{ "type": "Feature", "properties": { "capa": "salud", "popup": "<strong>SAPU Dr. Avendaño</strong><br><br><strong>Tipo de atención:</strong> Servicio de Atención Primaria de Urgencia (SAPU)<br><strong>Dirección:</strong>  1087", "etiqueta": "" }, "geometry": { "type": "Point", "coordinates": [ -70.740457, -33.437066 ] } },
{ "type": "Feature", "properties": { "capa": "salud", "popup": "<strong>Centro de Salud Familiar Dr. Carlos Avendaño</strong><br><br><strong>Tipo de atención:</strong> Centro de Salud Familiar (CESFAM)<br><strong>Dirección:</strong>  1087", "etiqueta": "" }, "geometry": { "type": "Point", "coordinates": [ -70.74045, -33.43688 ] } },
{ "type": "Feature", "properties": { "capa": "salud", "popup": "<strong>Centro Médico Bero</strong><br><br><strong>Tipo de atención:</strong> Centro de Salud Privado<br><strong>Dirección:</strong>  6275", "etiqueta": "" }, "geometry": { "type": "Point", "coordinates": [ -70.724046689999966, -33.440085699999948 ] } },
{ "type": "Feature", "properties": { "capa": "municipios", "popup": "<strong>Municipalidad de Lo Prado</strong><br><br><strong>Dirección:</strong> San Pablo Nº 5959<br><strong>Región:</strong> Metropolitana de Santiago", "etiqueta": "" }, "geometry": { "type": "Point", "coordinates": [ -70.718273399999987, -33.44277940099996 ] } }
]
}
