{
"type": "FeatureCollection",
"name": "13112",
"crs": { "type": "name", "properties": { "name": "urn:ogc:def:crs:OGC:1.3:CRS84" } },
"features": [
{ "type": "Feature", "properties": { "capa": "comuna", "popup": "", "etiqueta": "" }, "geometry": { "type": "Polygon", "coordinates": [ [ [ -70.632463783018878, -33.558142587833153 ], [ -70.632073316805915, -33.558165764140931 ], [ -70.6314077604018, -33.558112795488903 ], [ -70.631411490206858, -33.558098362689655 ], [ -70.631019720538404, -33.558066473530893 ], [ -70.63089815242931, -33.558715603749611 ], [ -70.630839293015285, -33.558997110506901 ], [ -70.630754776818392, -33.559359480058838 ], [ -70.630729150578304, -33.559737771031315 ], [ -70.630709155876701, -33.559808407290539 ], [ -70.627439628703996, -33.559126483998419 ], [ -70.627362515523387, -33.55911039925148 ], [ -70.627349951685815, -33.559074880598345 ], [ -70.627337254897597, -33.559031409753359 ], [ -70.62561318305147, -33.55864565304865 ], [ -70.623554310895614, -33.558199867587383 ], [ -70.61989207800994, -33.557371417350026 ], [ -70.616218261348664, -33.556483020023762 ], [ -70.612632498449855, -33.555706755405517 ], [ -70.612616691694129, -33.555703008612618 ], [ -70.612607786694724, -33.555734767637176 ], [ -70.612231166215224, -33.555611632479653 ], [ -70.611916453133517, -33.556772126366319 ], [ -70.611694447087459, -33.557546439557534 ], [ -70.610702168024631, -33.561019230644142 ], [ -70.61044031361088, -33.561963089733013 ], [ -70.610721819569775, -33.562001593185961 ], [ -70.610721586906109, -33.562002355963919 ], [ -70.61251612978964, -33.562184287670568 ], [ -70.612494153404526, -33.562204101887964 ], [ -70.612512456578443, -33.562204237376179 ], [ -70.612502556245701, -33.562232632257043 ], [ -70.61221723424346, -33.564127885796673 ], [ -70.611806066354774, -33.566944477454896 ], [ -70.611440254404783, -33.569432090173883 ], [ -70.611332814998477, -33.570152014252358 ], [ -70.611271861611513, -33.570566406601394 ], [ -70.611297588462932, -33.570570458878308 ], [ -70.610018833062725, -33.58083144138326 ], [ -70.609355664380644, -33.586637755821016 ], [ -70.609401797362068, -33.586705494197176 ], [ -70.609353163470885, -33.586801090991948 ], [ -70.60852284975546, -33.586921891004877 ], [ -70.607774083304903, -33.591442821971128 ], [ -70.60748197542901, -33.59426966342977 ], [ -70.607255325092936, -33.59423903126627 ], [ -70.605965473702341, -33.602018509025598 ], [ -70.606460622392007, -33.602046570575858 ], [ -70.606555705471564, -33.60204533603244 ], [ -70.606553219833174, -33.602060993034435 ], [ -70.619580772238123, -33.603858642027767 ], [ -70.626920198552213, -33.604673346379812 ], [ -70.626658511225102, -33.609436103534946 ], [ -70.626591362157612, -33.610653190564619 ], [ -70.626569692098016, -33.611769668498312 ], [ -70.626533759486648, -33.612813196804609 ], [ -70.626521275599146, -33.613492798716578 ], [ -70.626458257883641, -33.615369339618027 ], [ -70.626450701255479, -33.615991696471525 ], [ -70.626433554213335, -33.616352657467367 ], [ -70.626434611530428, -33.616911737704058 ], [ -70.626416700920288, -33.617678510150007 ], [ -70.626427587603231, -33.618201482279495 ], [ -70.626413118438947, -33.61863451227628 ], [ -70.626512201716466, -33.618813540301517 ], [ -70.627116751733013, -33.621159348177478 ], [ -70.627615031949745, -33.623064625116697 ], [ -70.62774759543791, -33.623666445598062 ], [ -70.628069708840897, -33.624988498816187 ], [ -70.62820029693377, -33.625555401752074 ], [ -70.628485292847543, -33.626452933902236 ], [ -70.628509085626149, -33.626858420986345 ], [ -70.628683347113167, -33.627794472746757 ], [ -70.629111125749787, -33.627768555075157 ], [ -70.629107500149303, -33.627754295490547 ], [ -70.64314167591553, -33.6272230464918 ], [ -70.643135549405287, -33.627178568026793 ], [ -70.642932842764807, -33.625567448356911 ], [ -70.642680919226535, -33.623586791104607 ], [ -70.642442744403667, -33.621669112773056 ], [ -70.642213891398512, -33.619832499528925 ], [ -70.642379603618977, -33.619812272152828 ], [ -70.644347259044267, -33.619621254124027 ], [ -70.644107951445847, -33.617688058546342 ], [ -70.643875903133221, -33.615842476904319 ], [ -70.643665465591397, -33.614126685423145 ], [ -70.643622270999273, -33.613891761219314 ], [ -70.643382881654162, -33.612016355217783 ], [ -70.643208446792286, -33.61062011483088 ], [ -70.643165130029288, -33.61008939087403 ], [ -70.643157294923384, -33.609909163413811 ], [ -70.644971616014502, -33.609753703544328 ], [ -70.654484785653111, -33.608945077274115 ], [ -70.656653895467386, -33.608756155416415 ], [ -70.6593164004599, -33.60852808535828 ], [ -70.662300298406535, -33.608267246299697 ], [ -70.665907599312604, -33.607939104519787 ], [ -70.6706152133725, -33.607477493413057 ], [ -70.670490031341046, -33.607106151880394 ], [ -70.670433627920971, -33.606954474918403 ], [ -70.669641692031107, -33.604660312242203 ], [ -70.66929864339042, -33.603681751954497 ], [ -70.66878482770916, -33.602226804745975 ], [ -70.668303189681367, -33.600878403276859 ], [ -70.668236663146359, -33.600650638603902 ], [ -70.668069665436732, -33.600092604419665 ], [ -70.667497079274639, -33.598494499066327 ], [ -70.666814114418628, -33.596524302069867 ], [ -70.666425531972806, -33.595286210039923 ], [ -70.665521024601432, -33.592520814888935 ], [ -70.66525980709325, -33.591766811368181 ], [ -70.665076411536418, -33.591214076797939 ], [ -70.664961066955598, -33.59077801611523 ], [ -70.664726374002797, -33.589961375561622 ], [ -70.664675432339664, -33.589781730873497 ], [ -70.663988366674388, -33.587563546940885 ], [ -70.663799905517664, -33.587006915032902 ], [ -70.663635707856756, -33.586468057178308 ], [ -70.663244485262325, -33.585174728469916 ], [ -70.662819460860376, -33.583885547275798 ], [ -70.66251072157533, -33.58241380479226 ], [ -70.661861325863171, -33.580188301454733 ], [ -70.66068513471221, -33.575667818123534 ], [ -70.660113612155413, -33.573881040433299 ], [ -70.659933366091963, -33.573778185046507 ], [ -70.659299493267937, -33.571517143092457 ], [ -70.658609479331901, -33.56875072266115 ], [ -70.656788454113794, -33.562547435816718 ], [ -70.655790881278989, -33.558175422431184 ], [ -70.65513137682494, -33.555839486095756 ], [ -70.654938657653787, -33.554955472632919 ], [ -70.65488101276199, -33.554977152563254 ], [ -70.653820620739396, -33.555117580137782 ], [ -70.653430830957817, -33.5551751658355 ], [ -70.65321710737868, -33.555206758861772 ], [ -70.652429742116979, -33.555325502482489 ], [ -70.651907744580114, -33.555395560678036 ], [ -70.651510139455581, -33.555446005178716 ], [ -70.651121173429132, -33.555505271290791 ], [ -70.650647516932636, -33.55557475365859 ], [ -70.650220175775573, -33.555634529486163 ], [ -70.649178368997866, -33.555792695786486 ], [ -70.648441279747672, -33.555901729901599 ], [ -70.647410144955543, -33.556050726774863 ], [ -70.646989407314123, -33.55611926920291 ], [ -70.646596291969374, -33.556178798362332 ], [ -70.646258131062126, -33.556237373757497 ], [ -70.645922969629623, -33.556295983548758 ], [ -70.645504000771012, -33.556355631614508 ], [ -70.644936109204579, -33.556444370378678 ], [ -70.644503996196732, -33.556504190520663 ], [ -70.644060099088975, -33.556566233222071 ], [ -70.643858179372671, -33.556592481468023 ], [ -70.643083880106786, -33.556694444033681 ], [ -70.641808185266754, -33.556855653698136 ], [ -70.6413662860122, -33.556897566305082 ], [ -70.640490498678773, -33.557008392668052 ], [ -70.639673619268393, -33.557129015786643 ], [ -70.639350022746882, -33.557176797263388 ], [ -70.638851380509081, -33.557246565747725 ], [ -70.638450492940478, -33.557296938050882 ], [ -70.63805736142605, -33.55735621936212 ], [ -70.637466435259142, -33.557436216503881 ], [ -70.63665768111052, -33.557546129639654 ], [ -70.635853166111744, -33.557661005058826 ], [ -70.635277407998373, -33.557740716704636 ], [ -70.634648874760373, -33.557829471263489 ], [ -70.634074126353397, -33.557859814668682 ], [ -70.633640990164423, -33.557973909639578 ], [ -70.633160547794276, -33.558040755734382 ], [ -70.632463783018878, -33.558142587833153 ] ] ] } },
{ "type": "Feature", "properties": { "capa": "ds19", "popup": "<strong>CON TODOS EN COMUNIDAD 2</strong><br><br><strong>Programa:</strong> DS19<br><strong>Comuna:</strong> La Pintana<br><strong>Región:</strong> Metropolitana<br><strong>Año de inicio:</strong> 0", "etiqueta": "CON TODOS EN COMUNIDAD 2" }, "geometry": { "type": "Polygon", "coordinates": [ [ [ -70.631817987754388, -33.585848594357188 ], [ -70.631569360134904, -33.58589037165833 ], [ -70.631756318410126, -33.587066589028474 ], [ -70.632758759215463, -33.586953253900589 ], [ -70.633125638364021, -33.586896246160492 ], [ -70.633575478725717, -33.586842736872413 ], [ -70.633378640778972, -33.586518562850699 ], [ -70.633203676809387, -33.586334952251846 ], [ -70.632830173483924, -33.586084501215304 ], [ -70.632460363132594, -33.585941638738639 ], [ -70.632177043475139, -33.585884696933121 ], [ -70.631817987754388, -33.585848594357188 ] ] ] } },
{ "type": "Feature", "properties": { "capa": "ds19", "popup": "<strong>CON TODOS EN COMUNIDAD 1</strong><br><br><strong>Programa:</strong> DS19<br><strong>Comuna:</strong> La Pintana<br><strong>Región:</strong> Metropolitana<br><strong>Año de inicio:</strong> 0", "etiqueta": "CON TODOS EN COMUNIDAD 1" }, "geometry": { "type": "Polygon", "coordinates": [ [ [ -70.631716735045458, -33.587086238887466 ], [ -70.631888737269534, -33.588324792093466 ], [ -70.634448166871408, -33.588080007195906 ], [ -70.634536321245179, -33.5879616940095 ], [ -70.634546622226523, -33.587894478954581 ], [ -70.634370395225673, -33.58778903008686 ], [ -70.634010286679427, -33.587447002109677 ], [ -70.633645635352764, -33.586949476284929 ], [ -70.633575478725717, -33.586842736872413 ], [ -70.631716735045458, -33.587086238887466 ] ] ] } },
{ "type": "Feature", "properties": { "capa": "ds19", "popup": "<strong>CONJ.HABIT. LAS ROSAS</strong><br><br><strong>Programa:</strong> DS19<br><strong>Comuna:</strong> La Pintana<br><strong>Región:</strong> Metropolitana<br><strong>Año de inicio:</strong> 2018", "etiqueta": "CONJ.HABIT. LAS ROSAS" }, "geometry": { "type": "Polygon", "coordinates": [ [ [ -70.626540102490878, -33.58874203286809 ], [ -70.627996771029714, -33.588920680711347 ], [ -70.628044840778898, -33.588516763988935 ], [ -70.626617428572217, -33.588351380901848 ], [ -70.626540102490878, -33.58874203286809 ] ] ] } },
{ "type": "Feature", "properties": { "capa": "ds19", "popup": "<strong>CONDOMINIO HUERTOS DE LA PINTANA</strong><br><br><strong>Programa:</strong> DS19<br><strong>Comuna:</strong> La Pintana<br><strong>Región:</strong> Metropolitana<br><strong>Año de inicio:</strong> 2019", "etiqueta": "CONDOMINIO HUERTOS DE LA PINTANA" }, "geometry": { "type": "Polygon", "coordinates": [ [ [ -70.653334457897515, -33.586489869885149 ], [ -70.652652070658235, -33.586570656476077 ], [ -70.652782221271536, -33.587926612277272 ], [ -70.653495931866445, -33.587851271066107 ], [ -70.653334457897515, -33.586489869885149 ] ] ] } },
{ "type": "Feature", "properties": { "capa": "ds19", "popup": "<strong>CONDOMINIO ALTO MAPUHUE</strong><br><br><strong>Programa:</strong> DS19<br><strong>Comuna:</strong> La Pintana<br><strong>Región:</strong> Metropolitana<br><strong>Año de inicio:</strong> 2022", "etiqueta": "CONDOMINIO ALTO MAPUHUE" }, "geometry": { "type": "Polygon", "coordinates": [ [ [ -70.644598126163771, -33.588637277984731 ], [ -70.644445104443335, -33.587358057237168 ], [ -70.643718011645632, -33.587409325690409 ], [ -70.643859195367256, -33.588705168945737 ], [ -70.644598126163771, -33.588637277984731 ] ] ] } },
{ "type": "Feature", "properties": { "capa": "ds19", "popup": "<strong>CONJUNTO HABITACIONAL LAS ROSAS 2</strong><br><br><strong>Programa:</strong> DS19<br><strong>Comuna:</strong> La Pintana<br><strong>Región:</strong> Metropolitana<br><strong>Año de inicio:</strong> 2022", "etiqueta": "CONJUNTO HABITACIONAL LAS ROSAS 2" }, "geometry": { "type": "Polygon", "coordinates": [ [ [ -70.626575545520424, -33.587166469653823 ], [ -70.62816144479774, -33.587391486127999 ], [ -70.62819757503847, -33.587081681509517 ], [ -70.626633716824941, -33.586861262775905 ], [ -70.626570791635928, -33.587157630294264 ], [ -70.626575545520424, -33.587166469653823 ] ] ] } },
{ "type": "Feature", "properties": { "capa": "ds19", "popup": "<strong>ANTUMAPU 1,2,3 Y 4</strong><br><br><strong>Programa:</strong> DS19<br><strong>Comuna:</strong> La Pintana<br><strong>Región:</strong> Metropolitana<br><strong>Año de inicio:</strong> 2022", "etiqueta": "ANTUMAPU 1,2,3 Y 4" }, "geometry": { "type": "Polygon", "coordinates": [ [ [ -70.655955586488034, -33.567691804129744 ], [ -70.656403828746804, -33.569283542278072 ], [ -70.658103205007436, -33.568903687597718 ], [ -70.657646965946, -33.567337065411394 ], [ -70.655955586488034, -33.567691804129744 ] ] ] } },
{ "type": "Feature", "properties": { "capa": "ds19", "popup": "<strong>DS19 LA PLATINA LOTE 2</strong><br><br><strong>Programa:</strong> DS19<br><strong>Comuna:</strong> La Pintana<br><strong>Región:</strong> Metropolitana de Santiago<br><strong>Año de inicio:</strong> 2023", "etiqueta": "DS19 LA PLATINA LOTE 2" }, "geometry": { "type": "Polygon", "coordinates": [ [ [ -70.627477655288288, -33.566199890628141 ], [ -70.627446085794261, -33.566177342238419 ], [ -70.627387419518001, -33.566177351969159 ], [ -70.627251977827655, -33.566192445109195 ], [ -70.627103168307585, -33.566184858868006 ], [ -70.625665705749512, -33.565961324564164 ], [ -70.625639094057533, -33.565999181758066 ], [ -70.625444970819586, -33.567401570409331 ], [ -70.625463088042224, -33.567434479331958 ], [ -70.627350333469806, -33.567706044456735 ], [ -70.627363888149134, -33.567676738198031 ], [ -70.627477655288288, -33.566199890628141 ] ] ] } },
{ "type": "Feature", "properties": { "capa": "ds19", "popup": "<strong>SANTA ROSA 10780</strong><br><br><strong>Programa:</strong> DS19<br><strong>Comuna:</strong> La Pintana<br><strong>Región:</strong> Metropolitana de Santiago<br><strong>Año de inicio:</strong> 2023", "etiqueta": "SANTA ROSA 10780" }, "geometry": { "type": "Polygon", "coordinates": [ [ [ -70.63036142791168, -33.559819527362755 ], [ -70.629339941924016, -33.559581507350273 ], [ -70.629250394263238, -33.559648242908864 ], [ -70.629164774036866, -33.559766071654124 ], [ -70.629136461834079, -33.559850689008819 ], [ -70.629062101989774, -33.56049037385548 ], [ -70.629223473550795, -33.560497692609452 ], [ -70.629227574360073, -33.56044739403557 ], [ -70.630287413020483, -33.560569120980475 ], [ -70.630284089253934, -33.560434224462341 ], [ -70.630330563595152, -33.560036079910027 ], [ -70.63036142791168, -33.559819527362755 ] ] ] } },
{ "type": "Feature", "properties": { "capa": "colegios", "popup": "<strong>ESCUELA BAS. MISIONERO DE AGOSTINI</strong><br><br><strong>Dirección:</strong> LOS PLATANOS 779", "etiqueta": "" }, "geometry": { "type": "Point", "coordinates": [ -70.62861516, -33.62627936 ] } },
{ "type": "Feature", "properties": { "capa": "colegios", "popup": "<strong>COLEGIO SAN MARTIN DE PORRES DE LA PINTANA</strong><br><br><strong>Dirección:</strong> LOS CIPRESES 2769", "etiqueta": "" }, "geometry": { "type": "Point", "coordinates": [ -70.631914809999984, -33.624697110000014 ] } },
{ "type": "Feature", "properties": { "capa": "colegios", "popup": "<strong>ESC. DE PARV. Y ESP. PART. CENTILEN</strong><br><br><strong>Dirección:</strong> LOS PLATANOS 657", "etiqueta": "" }, "geometry": { "type": "Point", "coordinates": [ -70.62857201, -33.624148620000014 ] } },
{ "type": "Feature", "properties": { "capa": "colegios", "popup": "<strong>ESCUELA PART. SAN MARCELO N_ 3</strong><br><br><strong>Dirección:</strong> LOS OLMOS 2734", "etiqueta": "" }, "geometry": { "type": "Point", "coordinates": [ -70.63324941, -33.62247313000001 ] } },
{ "type": "Feature", "properties": { "capa": "colegios", "popup": "<strong>COLEGIO DE AD. INSTITUTO HUMBOLDT</strong><br><br><strong>Dirección:</strong> CALLE LOS PLATANOS 565", "etiqueta": "" }, "geometry": { "type": "Point", "coordinates": [ -70.628, -33.622337 ] } },
{ "type": "Feature", "properties": { "capa": "colegios", "popup": "<strong>ESCUELA ESP.  JOSE MAZA FERNANDEZ</strong><br><br><strong>Dirección:</strong> LOS OLMOS 2568", "etiqueta": "" }, "geometry": { "type": "Point", "coordinates": [ -70.63713, -33.622128 ] } },
{ "type": "Feature", "properties": { "capa": "colegios", "popup": "<strong>COLEGIO KING SCHOOL CORDILLERA</strong><br><br><strong>Dirección:</strong> LOS PLATANOS 535", "etiqueta": "" }, "geometry": { "type": "Point", "coordinates": [ -70.628033689999981, -33.62186772 ] } },
{ "type": "Feature", "properties": { "capa": "colegios", "popup": "<strong>ESC.ESP.RIGOBERTA MENCHÚ II</strong><br><br><strong>Dirección:</strong> CALLE LOS PLATANOS 485", "etiqueta": "" }, "geometry": { "type": "Point", "coordinates": [ -70.627823, -33.620995 ] } },
{ "type": "Feature", "properties": { "capa": "colegios", "popup": "<strong>ESCUELA ESPECIAL N°2443 ARCOIRIS</strong><br><br><strong>Dirección:</strong> LOS MANZANOS 2812", "etiqueta": "" }, "geometry": { "type": "Point", "coordinates": [ -70.62954, -33.62063 ] } },
{ "type": "Feature", "properties": { "capa": "colegios", "popup": "<strong>COLEGIO AUSTRALIA</strong><br><br><strong>Dirección:</strong> CALLE LOS PLATANOS 385", "etiqueta": "" }, "geometry": { "type": "Point", "coordinates": [ -70.62765577, -33.618784359999985 ] } },
{ "type": "Feature", "properties": { "capa": "colegios", "popup": "<strong>ESC. ESP. Y BAS. FRANCES DE LA PINTANA</strong><br><br><strong>Dirección:</strong> LOS DURAZNOS 384", "etiqueta": "" }, "geometry": { "type": "Point", "coordinates": [ -70.63842253, -33.61783021 ] } },
{ "type": "Feature", "properties": { "capa": "colegios", "popup": "<strong>ANEXO ESCUELA BASICA SAN JAVIER</strong><br><br><strong>Dirección:</strong> EL OLIVAR 2769", "etiqueta": "" }, "geometry": { "type": "Point", "coordinates": [ -70.63084459, -33.61517779 ] } },
{ "type": "Feature", "properties": { "capa": "colegios", "popup": "<strong>ESC.ESP. PART. EL OLIVAR</strong><br><br><strong>Dirección:</strong> EL OLIVAR 2339", "etiqueta": "" }, "geometry": { "type": "Point", "coordinates": [ -70.64286, -33.613728 ] } },
{ "type": "Feature", "properties": { "capa": "colegios", "popup": "<strong>ESCUELA BASICA PARTICULAR ESJELAVI</strong><br><br><strong>Dirección:</strong> LOS GRANADOS 185", "etiqueta": "" }, "geometry": { "type": "Point", "coordinates": [ -70.643456189999981, -33.613345 ] } },
{ "type": "Feature", "properties": { "capa": "colegios", "popup": "<strong>COLEGIO POLIVALENTE INGLES</strong><br><br><strong>Dirección:</strong> LAS ACACIAS 2563", "etiqueta": "" }, "geometry": { "type": "Point", "coordinates": [ -70.63783317, -33.61292102 ] } },
{ "type": "Feature", "properties": { "capa": "colegios", "popup": "<strong>ESCUELA BAS. Y ESP. LIKAN-RAY DE LA PINTANA</strong><br><br><strong>Dirección:</strong> AVENIDA SANTA ROSA 16035", "etiqueta": "" }, "geometry": { "type": "Point", "coordinates": [ -70.626829099999981, -33.61228376 ] } },
{ "type": "Feature", "properties": { "capa": "colegios", "popup": "<strong>CTRO.EDUC.CATOLICO DIDASCALIO STA. MARIA</strong><br><br><strong>Dirección:</strong> AVENIDA SANTA ROSA 14326", "etiqueta": "" }, "geometry": { "type": "Point", "coordinates": [ -70.627078989999987, -33.59745357 ] } },
{ "type": "Feature", "properties": { "capa": "colegios", "popup": "<strong>ESCUELA ESPECIAL VIVAN LOS NIÑOS</strong><br><br><strong>Dirección:</strong> LOS NOGALES 2599", "etiqueta": "" }, "geometry": { "type": "Point", "coordinates": [ -70.66104, -33.596195 ] } },
{ "type": "Feature", "properties": { "capa": "colegios", "popup": "<strong>COLEGIO POLIV. ALMENDRAL DE LA PINTANA</strong><br><br><strong>Dirección:</strong> AVENIDA LA PRIMAVERA 2925", "etiqueta": "" }, "geometry": { "type": "Point", "coordinates": [ -70.62030254, -33.595822199999986 ] } },
{ "type": "Feature", "properties": { "capa": "colegios", "popup": "<strong>COLEGIO SIMON BOLIVAR</strong><br><br><strong>Dirección:</strong> EL OMBU 2669", "etiqueta": "" }, "geometry": { "type": "Point", "coordinates": [ -70.6255541, -33.59529215 ] } },
{ "type": "Feature", "properties": { "capa": "colegios", "popup": "<strong>COLEGIO TECNICO PROFESIONAL NOCEDAL</strong><br><br><strong>Dirección:</strong> AVENIDA LA PRIMAVERA 3187", "etiqueta": "" }, "geometry": { "type": "Point", "coordinates": [ -70.61507686, -33.59528521 ] } },
{ "type": "Feature", "properties": { "capa": "colegios", "popup": "<strong>ESCUELA ESPECIAL N° 2470 ÁRBOL DE COLORES</strong><br><br><strong>Dirección:</strong> CALLE LA PRIMAVERA 3516", "etiqueta": "" }, "geometry": { "type": "Point", "coordinates": [ -70.61285, -33.59489 ] } },
{ "type": "Feature", "properties": { "capa": "colegios", "popup": "<strong>ESCUELA ESPECIAL PART.ARNOLD GESELL II</strong><br><br><strong>Dirección:</strong> AVENIDA LAUTARO 2694", "etiqueta": "" }, "geometry": { "type": "Point", "coordinates": [ -70.63067665, -33.59271748 ] } },
{ "type": "Feature", "properties": { "capa": "colegios", "popup": "<strong>ESC. BAS. LA CANTERA DE MAPUHUE</strong><br><br><strong>Dirección:</strong> AVENIDA LAUTARO 2090", "etiqueta": "" }, "geometry": { "type": "Point", "coordinates": [ -70.646979319999986, -33.59116085 ] } },
{ "type": "Feature", "properties": { "capa": "colegios", "popup": "<strong>COMPLEJO EDUC.STA.RITA DE CASIA-ANEXO 1</strong><br><br><strong>Dirección:</strong> BATALLON CHACABUCO 2971", "etiqueta": "" }, "geometry": { "type": "Point", "coordinates": [ -70.61990243, -33.591076989999983 ] } },
{ "type": "Feature", "properties": { "capa": "colegios", "popup": "<strong>ESC. ESPECIAL TIEMPO NUEVO</strong><br><br><strong>Dirección:</strong> CALLE TUCAPEL 2630", "etiqueta": "" }, "geometry": { "type": "Point", "coordinates": [ -70.63022, -33.589653 ] } },
{ "type": "Feature", "properties": { "capa": "colegios", "popup": "<strong>COLEGIO MARISTA MARCELINO CHAMPAGNAT</strong><br><br><strong>Dirección:</strong> SEXTO DE LINEA 13540", "etiqueta": "" }, "geometry": { "type": "Point", "coordinates": [ -70.61640242999998, -33.58847227 ] } },
{ "type": "Feature", "properties": { "capa": "colegios", "popup": "<strong>ESCUELA BASICA PARTICULAR HUEÑECITO</strong><br><br><strong>Dirección:</strong> TUCAPEL 2025", "etiqueta": "" }, "geometry": { "type": "Point", "coordinates": [ -70.64948943, -33.58843667 ] } },
{ "type": "Feature", "properties": { "capa": "colegios", "popup": "<strong>COLEGIO MIGUEL ANGEL</strong><br><br><strong>Dirección:</strong> MIGUEL ANGEL 2561", "etiqueta": "" }, "geometry": { "type": "Point", "coordinates": [ -70.62578481, -33.58766371 ] } },
{ "type": "Feature", "properties": { "capa": "colegios", "popup": "<strong>ESCUELA BÁSICA Y ESPECIAL N°352 LAUTRARU</strong><br><br><strong>Dirección:</strong> MIGUEL ANGEL 2981", "etiqueta": "" }, "geometry": { "type": "Point", "coordinates": [ -70.6195945, -33.58674891 ] } },
{ "type": "Feature", "properties": { "capa": "colegios", "popup": "<strong>ESCUELA BASICA OSCAR SALINAS</strong><br><br><strong>Dirección:</strong> MIGUEL ANGEL 3261", "etiqueta": "" }, "geometry": { "type": "Point", "coordinates": [ -70.61573645, -33.58622093 ] } },
{ "type": "Feature", "properties": { "capa": "colegios", "popup": "<strong>ESCUELA BASICA JUAN DE DIOS ALDEA</strong><br><br><strong>Dirección:</strong> LONGOMAVICA 0", "etiqueta": "" }, "geometry": { "type": "Point", "coordinates": [ -70.61302916, -33.58585162 ] } },
{ "type": "Feature", "properties": { "capa": "colegios", "popup": "<strong>ESCUELA ESP. ALEGRIA DE NIÑOS</strong><br><br><strong>Dirección:</strong> JULIO CHAVEZ 13278", "etiqueta": "" }, "geometry": { "type": "Point", "coordinates": [ -70.658295, -33.585575 ] } },
{ "type": "Feature", "properties": { "capa": "colegios", "popup": "<strong>CENTRO EDUCACIONAL SANTA ROSA DEL SUR</strong><br><br><strong>Dirección:</strong> AVENIDA SANTA ROSA 12910", "etiqueta": "" }, "geometry": { "type": "Point", "coordinates": [ -70.628435149999987, -33.584641940000012 ] } },
{ "type": "Feature", "properties": { "capa": "colegios", "popup": "<strong>LICEO MUNICIPALIZADO CENT.ED. LA PINTANA</strong><br><br><strong>Dirección:</strong> PADRE HURTADO 13132", "etiqueta": "" }, "geometry": { "type": "Point", "coordinates": [ -70.65356126, -33.58411073 ] } },
{ "type": "Feature", "properties": { "capa": "colegios", "popup": "<strong>ESC. ESPECIAL HERNAN LARRAIN PERO</strong><br><br><strong>Dirección:</strong> AVENIDA GABRIELA 3252", "etiqueta": "" }, "geometry": { "type": "Point", "coordinates": [ -70.61489, -33.58372 ] } },
{ "type": "Feature", "properties": { "capa": "colegios", "popup": "<strong>COLEGIO SANTA SOFIA</strong><br><br><strong>Dirección:</strong> AVENIDA GABRIELA 3370", "etiqueta": "" }, "geometry": { "type": "Point", "coordinates": [ -70.61418, -33.583668 ] } },
{ "type": "Feature", "properties": { "capa": "colegios", "popup": "<strong>COLEGIO ALTO GABRIELA</strong><br><br><strong>Dirección:</strong> AVENIDA GABRIELA 3250", "etiqueta": "" }, "geometry": { "type": "Point", "coordinates": [ -70.616350659999981, -33.58359326 ] } },
{ "type": "Feature", "properties": { "capa": "colegios", "popup": "<strong>COLEGIO POLIV. NUEVA NAZARET</strong><br><br><strong>Dirección:</strong> AVENIDA GABRIELA 3290", "etiqueta": "" }, "geometry": { "type": "Point", "coordinates": [ -70.61534247, -33.58343715 ] } },
{ "type": "Feature", "properties": { "capa": "colegios", "popup": "<strong>LICEO VICTOR JARA</strong><br><br><strong>Dirección:</strong> EL RAULI 12951", "etiqueta": "" }, "geometry": { "type": "Point", "coordinates": [ -70.64240597, -33.583271030000013 ] } },
{ "type": "Feature", "properties": { "capa": "colegios", "popup": "<strong>ESC. ESPECIAL PLANETA DE LOS NIÑOS</strong><br><br><strong>Dirección:</strong> ROSA ESTER 2520", "etiqueta": "" }, "geometry": { "type": "Point", "coordinates": [ -70.62709, -33.583103 ] } },
{ "type": "Feature", "properties": { "capa": "colegios", "popup": "<strong>ESC. BASICA PART.IBEROAMERICANO</strong><br><br><strong>Dirección:</strong> ROSA ESTER 2510", "etiqueta": "" }, "geometry": { "type": "Point", "coordinates": [ -70.627427419999989, -33.58304726 ] } },
{ "type": "Feature", "properties": { "capa": "colegios", "popup": "<strong>ESCUELA ESPECIAL PARTICULAR LAS ROSAS</strong><br><br><strong>Dirección:</strong> ROSA ESTER 2650", "etiqueta": "" }, "geometry": { "type": "Point", "coordinates": [ -70.624245, -33.582706 ] } },
{ "type": "Feature", "properties": { "capa": "colegios", "popup": "<strong>ESCUELA PABLO DE ROKHA</strong><br><br><strong>Dirección:</strong> JOSE TORIBIO MEDINA 12816", "etiqueta": "" }, "geometry": { "type": "Point", "coordinates": [ -70.65106011, -33.58026544 ] } },
{ "type": "Feature", "properties": { "capa": "colegios", "popup": "<strong>COLEGIO NERUDA</strong><br><br><strong>Dirección:</strong> JULIO CHAVEZ 12849", "etiqueta": "" }, "geometry": { "type": "Point", "coordinates": [ -70.657241, -33.58015447 ] } },
{ "type": "Feature", "properties": { "capa": "colegios", "popup": "<strong>ESCUELA ESPECIAL NUEVA ALBORADA</strong><br><br><strong>Dirección:</strong> CAUTIN 12595", "etiqueta": "" }, "geometry": { "type": "Point", "coordinates": [ -70.64428, -33.579983 ] } },
{ "type": "Feature", "properties": { "capa": "colegios", "popup": "<strong>ESCUELA ESPECIAL PARTICULAR CEDEL</strong><br><br><strong>Dirección:</strong> BERNARDINO PARADA 945", "etiqueta": "" }, "geometry": { "type": "Point", "coordinates": [ -70.64955865, -33.578781 ] } },
{ "type": "Feature", "properties": { "capa": "colegios", "popup": "<strong>COLEGIO PARTICULAR PUERTO NAVARINO</strong><br><br><strong>Dirección:</strong> PROFESOR JULIO CHAVEZ 12751", "etiqueta": "" }, "geometry": { "type": "Point", "coordinates": [ -70.657289899999981, -33.57873929 ] } },
{ "type": "Feature", "properties": { "capa": "colegios", "popup": "<strong>CENTRO EDUCACIONAL MUN.MARIANO LATORRE</strong><br><br><strong>Dirección:</strong> PUNTA DE HORCON 12346", "etiqueta": "" }, "geometry": { "type": "Point", "coordinates": [ -70.64184013, -33.57828062 ] } },
{ "type": "Feature", "properties": { "capa": "colegios", "popup": "<strong>LICEO N523</strong><br><br><strong>Dirección:</strong> GENERAL BELGRANO 12389", "etiqueta": "" }, "geometry": { "type": "Point", "coordinates": [ -70.636358, -33.57761485000001 ] } },
{ "type": "Feature", "properties": { "capa": "colegios", "popup": "<strong>ESCUELA PARTICULAR PDTE.JOSE J.PRIETO</strong><br><br><strong>Dirección:</strong> CALLE REY DON FELIPE 1990", "etiqueta": "" }, "geometry": { "type": "Point", "coordinates": [ -70.63016922, -33.57718287 ] } },
{ "type": "Feature", "properties": { "capa": "colegios", "popup": "<strong>ESCUELA MUNICIPAL VIOLETA PARRA</strong><br><br><strong>Dirección:</strong> PEDRO PRADO 12351", "etiqueta": "" }, "geometry": { "type": "Point", "coordinates": [ -70.64923849, -33.577069949999988 ] } },
{ "type": "Feature", "properties": { "capa": "colegios", "popup": "<strong>ESCUELA ESPECIAL N° 2453 `THE ALMOND SCHOOL II`</strong><br><br><strong>Dirección:</strong> CALLE RIO CACHAPOAL 743", "etiqueta": "" }, "geometry": { "type": "Point", "coordinates": [ -70.65575, -33.57612 ] } },
{ "type": "Feature", "properties": { "capa": "colegios", "popup": "<strong>ESCUELA CAPITAN AVALOS</strong><br><br><strong>Dirección:</strong> TENIENTE MONTT SALAMANCA 12220", "etiqueta": "" }, "geometry": { "type": "Point", "coordinates": [ -70.65680774, -33.57591274 ] } },
{ "type": "Feature", "properties": { "capa": "colegios", "popup": "<strong>COLEGIO POLIV. CARDENAL JOSE MARIA CARO</strong><br><br><strong>Dirección:</strong> SAN LEANDRO 368", "etiqueta": "" }, "geometry": { "type": "Point", "coordinates": [ -70.62513826, -33.56444442 ] } },
{ "type": "Feature", "properties": { "capa": "colegios", "popup": "<strong>COLEGIO JORGE HUNEEUS ZEGERS</strong><br><br><strong>Dirección:</strong> AVENIDA SANTA ROSA 10934", "etiqueta": "" }, "geometry": { "type": "Point", "coordinates": [ -70.63014486, -33.56434917 ] } },
{ "type": "Feature", "properties": { "capa": "colegios", "popup": "<strong>LICEO SERGIO SILVA BASCUNAN</strong><br><br><strong>Dirección:</strong> AVENIDA OBSERVATORIO 1885", "etiqueta": "" }, "geometry": { "type": "Point", "coordinates": [ -70.64427002, -33.564344980000016 ] } },
{ "type": "Feature", "properties": { "capa": "colegios", "popup": "<strong>LICEO MUNICIPAL EL ROBLE</strong><br><br><strong>Dirección:</strong> AVENIDA OBSERVATORIO 1753", "etiqueta": "" }, "geometry": { "type": "Point", "coordinates": [ -70.64955424, -33.56361519 ] } },
{ "type": "Feature", "properties": { "capa": "colegios", "popup": "<strong>ESC BASICA PART SAN JOSE DE LA FAMILIA</strong><br><br><strong>Dirección:</strong> AVENIDA SANTA ROSA 10939", "etiqueta": "" }, "geometry": { "type": "Point", "coordinates": [ -70.63087038, -33.561884399999983 ] } },
{ "type": "Feature", "properties": { "capa": "colegios", "popup": "<strong>ESC.BASICA PROF.AURELIA ROJAS BURGOS</strong><br><br><strong>Dirección:</strong> ANIBAL HUNEEUS 820", "etiqueta": "" }, "geometry": { "type": "Point", "coordinates": [ -70.61999307, -33.560507980000011 ] } },
{ "type": "Feature", "properties": { "capa": "colegios", "popup": "<strong>ESCUELA ESPECIAL PIONERITOS</strong><br><br><strong>Dirección:</strong> AVENIDA VIOLETA PARRA 1576", "etiqueta": "" }, "geometry": { "type": "Point", "coordinates": [ -70.65207, -33.560062 ] } },
{ "type": "Feature", "properties": { "capa": "colegios", "popup": "<strong>LICEO DE ADULTOS CEIA DE LA PINTANA</strong><br><br><strong>Dirección:</strong> PIO X 10739", "etiqueta": "" }, "geometry": { "type": "Point", "coordinates": [ -70.62844, -33.5598 ] } },
{ "type": "Feature", "properties": { "capa": "colegios", "popup": "<strong>ESCUELA ESPECIAL N° 2045 THE ALMOND SCHOOL</strong><br><br><strong>Dirección:</strong> CELANOVA 1893", "etiqueta": "" }, "geometry": { "type": "Point", "coordinates": [ -70.64387, -33.559387 ] } },
{ "type": "Feature", "properties": { "capa": "colegios", "popup": "<strong>COLEGIO SANTO TOMAS</strong><br><br><strong>Dirección:</strong> AVENIDA SANTO TOMAS 255", "etiqueta": "" }, "geometry": { "type": "Point", "coordinates": [ -70.62792249, -33.55929282 ] } },
{ "type": "Feature", "properties": { "capa": "colegios", "popup": "<strong>THE ALMOND SCHOOL III</strong><br><br><strong>Dirección:</strong> CELANOVA 1554", "etiqueta": "" }, "geometry": { "type": "Point", "coordinates": [ -70.65228, -33.558456 ] } },
{ "type": "Feature", "properties": { "capa": "colegios", "popup": "<strong>ESCUELA ESPECIAL N° 2433 LOS MUSICOS DE BREMEN</strong><br><br><strong>Dirección:</strong> EL NOGAL 10675", "etiqueta": "" }, "geometry": { "type": "Point", "coordinates": [ -70.642344, -33.55809 ] } },
{ "type": "Feature", "properties": { "capa": "colegios", "popup": "<strong>COLEGIO TECNICO PROFESIONAL APRENDER</strong><br><br><strong>Dirección:</strong> SANTO TOMAS 963", "etiqueta": "" }, "geometry": { "type": "Point", "coordinates": [ -70.617836639999979, -33.5570849 ] } },
{ "type": "Feature", "properties": { "capa": "colegios", "popup": "<strong>ESC. PART. CELESTIN FREINET</strong><br><br><strong>Dirección:</strong> VENANCIA LEIVA 1949", "etiqueta": "" }, "geometry": { "type": "Point", "coordinates": [ -70.6412224, -33.55705444 ] } },
{ "type": "Feature", "properties": { "capa": "colegios", "popup": "<strong>CHILEAN EAGLES COLLEGE-LA PINTANA</strong><br><br><strong>Dirección:</strong> VENANCIA LEIVA 1741", "etiqueta": "" }, "geometry": { "type": "Point", "coordinates": [ -70.64781911999998, -33.55610537 ] } },
{ "type": "Feature", "properties": { "capa": "jardines", "popup": "<strong>RAYITO DE SOL</strong><br><br><strong>Dirección:</strong> ANDRES BELLO 12558 POB.SAN RAFAEL ", "etiqueta": "" }, "geometry": { "type": "MultiPoint", "coordinates": [ [ -70.638142, -33.579564 ] ] } },
{ "type": "Feature", "properties": { "capa": "jardines", "popup": "<strong>LOBITO BUENO</strong><br><br><strong>Dirección:</strong> BERNARDINO PARADA 0935 POB. PABLO DE ROCKA ", "etiqueta": "" }, "geometry": { "type": "MultiPoint", "coordinates": [ [ -70.650099, -33.579252 ] ] } },
{ "type": "Feature", "properties": { "capa": "jardines", "popup": "<strong>MILLANTUN</strong><br><br><strong>Dirección:</strong> JULIO CHAVEZ 12613 POB. RAUL DEL CANTO ", "etiqueta": "" }, "geometry": { "type": "MultiPoint", "coordinates": [ [ -70.657527, -33.578277 ] ] } },
{ "type": "Feature", "properties": { "capa": "jardines", "popup": "<strong>PUPEÑI</strong><br><br><strong>Dirección:</strong> JACARANDA 0693 POB. LOS EUCALIPTUS ", "etiqueta": "" }, "geometry": { "type": "MultiPoint", "coordinates": [ [ -70.659522, -33.584633 ] ] } },
{ "type": "Feature", "properties": { "capa": "jardines", "popup": "<strong>ANTU- LIWEN</strong><br><br><strong>Dirección:</strong> BERNARDINO PARADA 1170 VILLA SALVADOR ALLENDE ", "etiqueta": "" }, "geometry": { "type": "MultiPoint", "coordinates": [ [ -70.64085, -33.578619 ] ] } },
{ "type": "Feature", "properties": { "capa": "jardines", "popup": "<strong>KIPAI-ANTU</strong><br><br><strong>Dirección:</strong> PJE. 12 # 12916 POB. SAN RICARDO I ", "etiqueta": "" }, "geometry": { "type": "MultiPoint", "coordinates": [ [ -70.643379, -33.583404 ] ] } },
{ "type": "Feature", "properties": { "capa": "jardines", "popup": "<strong>LUZ DEL MANAÑA</strong><br><br><strong>Dirección:</strong> CALLE A # 1174 POB. SAN RICARDO II ", "etiqueta": "" }, "geometry": { "type": "MultiPoint", "coordinates": [ [ -70.641544, -33.582556 ] ] } },
{ "type": "Feature", "properties": { "capa": "jardines", "popup": "<strong>AGUAS CLARAS</strong><br><br><strong>Dirección:</strong> ANTONIO MACHADO 1900 VILLA ESPANA ", "etiqueta": "" }, "geometry": { "type": "MultiPoint", "coordinates": [ [ -70.643702, -33.562809 ] ] } },
{ "type": "Feature", "properties": { "capa": "jardines", "popup": "<strong>CAVIAHUE</strong><br><br><strong>Dirección:</strong> LOS OLMECAS 10888 POBL. MILLARAY ", "etiqueta": "" }, "geometry": { "type": "MultiPoint", "coordinates": [ [ -70.616311, -33.561499 ] ] } },
{ "type": "Feature", "properties": { "capa": "jardines", "popup": "<strong>LOS PINTANITOS I</strong><br><br><strong>Dirección:</strong> AV JUANITA 13743 SECTOR EL CASTILLO ", "etiqueta": "" }, "geometry": { "type": "MultiPoint", "coordinates": [ [ -70.618999, -33.59108 ] ] } },
{ "type": "Feature", "properties": { "capa": "jardines", "popup": "<strong>TIERRA DE NINOS</strong><br><br><strong>Dirección:</strong> VENANCIA LEIVA 1309 ", "etiqueta": "" }, "geometry": { "type": "MultiPoint", "coordinates": [ [ -70.653864, -33.555269 ] ] } },
{ "type": "Feature", "properties": { "capa": "jardines", "popup": "<strong>MONSEÑOR SANTIAGO TAPIA</strong><br><br><strong>Dirección:</strong> BATALLON CHACABUCO 02791 ", "etiqueta": "" }, "geometry": { "type": "MultiPoint", "coordinates": [ [ -70.623371, -33.591541 ] ] } },
{ "type": "Feature", "properties": { "capa": "jardines", "popup": "<strong>EL ROBLE</strong><br><br><strong>Dirección:</strong> AVDA OBSERVATORIO 1765 LA PINTANA ", "etiqueta": "" }, "geometry": { "type": "MultiPoint", "coordinates": [ [ -70.648636, -33.564286 ] ] } },
{ "type": "Feature", "properties": { "capa": "jardines", "popup": "<strong>MUNDO ACTIVO</strong><br><br><strong>Dirección:</strong> APOSTOL SANTIAGO 0560 POB SANTO TOMAS ", "etiqueta": "" }, "geometry": { "type": "MultiPoint", "coordinates": [ [ -70.623839, -33.5588 ] ] } },
{ "type": "Feature", "properties": { "capa": "jardines", "popup": "<strong>PEUMAYEN</strong><br><br><strong>Dirección:</strong> AV JUANITA 14064 POB.JORGE ALESSANDRI ", "etiqueta": "" }, "geometry": { "type": "MultiPoint", "coordinates": [ [ -70.618469, -33.594717 ] ] } },
{ "type": "Feature", "properties": { "capa": "jardines", "popup": "<strong>BUEN PASTOR</strong><br><br><strong>Dirección:</strong> BATALLON CHACABUCO 02990 ", "etiqueta": "" }, "geometry": { "type": "MultiPoint", "coordinates": [ [ -70.61945, -33.59064 ] ] } },
{ "type": "Feature", "properties": { "capa": "jardines", "popup": "<strong>SAN DANIEL</strong><br><br><strong>Dirección:</strong> IGNACIO CARRERA PINTO 0770 ", "etiqueta": "" }, "geometry": { "type": "MultiPoint", "coordinates": [ [ -70.654262, -33.576243 ] ] } },
{ "type": "Feature", "properties": { "capa": "jardines", "popup": "<strong>LOS PINTANITOS II</strong><br><br><strong>Dirección:</strong> AVDA JUANITA 13743 SECTOR EL CASTILLO ", "etiqueta": "" }, "geometry": { "type": "MultiPoint", "coordinates": [ [ -70.619426, -33.584413 ] ] } },
{ "type": "Feature", "properties": { "capa": "jardines", "popup": "<strong>ATIPIRI</strong><br><br><strong>Dirección:</strong> PADRE HURTADO 13188 ", "etiqueta": "" }, "geometry": { "type": "MultiPoint", "coordinates": [ [ -70.653989, -33.584948 ] ] } },
{ "type": "Feature", "properties": { "capa": "jardines", "popup": "<strong>MILLARAY</strong><br><br><strong>Dirección:</strong> LA FRONTERA 03709 EL CASTILLO ", "etiqueta": "" }, "geometry": { "type": "MultiPoint", "coordinates": [ [ -70.609351, -33.593158 ] ] } },
{ "type": "Feature", "properties": { "capa": "jardines", "popup": "<strong>CEDIN</strong><br><br><strong>Dirección:</strong> AVDA JUANITA ", "etiqueta": "" }, "geometry": { "type": "MultiPoint", "coordinates": [ [ -70.618356, -33.59422 ] ] } },
{ "type": "Feature", "properties": { "capa": "jardines", "popup": "<strong>NA</strong><br><br><strong>Dirección:</strong> NA ", "etiqueta": "" }, "geometry": { "type": "MultiPoint", "coordinates": [ [ -70.624994999751905, -33.591607999837223 ] ] } },
{ "type": "Feature", "properties": { "capa": "jardines", "popup": "<strong>NA</strong><br><br><strong>Dirección:</strong> NA ", "etiqueta": "" }, "geometry": { "type": "MultiPoint", "coordinates": [ [ -70.652741999685233, -33.579705999860849 ] ] } },
{ "type": "Feature", "properties": { "capa": "jardines", "popup": "<strong>NA</strong><br><br><strong>Dirección:</strong> NA ", "etiqueta": "" }, "geometry": { "type": "MultiPoint", "coordinates": [ [ -70.646098000415193, -33.586152000245256 ] ] } },
{ "type": "Feature", "properties": { "capa": "jardines", "popup": "<strong>NA</strong><br><br><strong>Dirección:</strong> NA ", "etiqueta": "" }, "geometry": { "type": "MultiPoint", "coordinates": [ [ -70.612948000371006, -33.588121999861301 ] ] } },
{ "type": "Feature", "properties": { "capa": "jardines", "popup": "<strong>NA</strong><br><br><strong>Dirección:</strong> NA ", "etiqueta": "" }, "geometry": { "type": "MultiPoint", "coordinates": [ [ -70.635344999751155, -33.558744999657719 ] ] } },
{ "type": "Feature", "properties": { "capa": "jardines", "popup": "<strong>NA</strong><br><br><strong>Dirección:</strong> NA ", "etiqueta": "" }, "geometry": { "type": "MultiPoint", "coordinates": [ [ -70.618336999599464, -33.557615999899177 ] ] } },
{ "type": "Feature", "properties": { "capa": "jardines", "popup": "<strong>NA</strong><br><br><strong>Dirección:</strong> NA ", "etiqueta": "" }, "geometry": { "type": "MultiPoint", "coordinates": [ [ -70.652217000528267, -33.561766999950194 ] ] } },
{ "type": "Feature", "properties": { "capa": "jardines", "popup": "<strong>NA</strong><br><br><strong>Dirección:</strong> NA ", "etiqueta": "" }, "geometry": { "type": "MultiPoint", "coordinates": [ [ -70.611260110723251, -33.559358241975922 ] ] } },
{ "type": "Feature", "properties": { "capa": "jardines", "popup": "<strong>NA</strong><br><br><strong>Dirección:</strong> NA ", "etiqueta": "" }, "geometry": { "type": "MultiPoint", "coordinates": [ [ -70.615952999757724, -33.593855000429599 ] ] } },
{ "type": "Feature", "properties": { "capa": "jardines", "popup": "<strong>NA</strong><br><br><strong>Dirección:</strong> NA ", "etiqueta": "" }, "geometry": { "type": "MultiPoint", "coordinates": [ [ -70.624839999672574, -33.563221000264072 ] ] } },
{ "type": "Feature", "properties": { "capa": "jardines", "popup": "<strong>NA</strong><br><br><strong>Dirección:</strong> NA ", "etiqueta": "" }, "geometry": { "type": "MultiPoint", "coordinates": [ [ -70.621001999559681, -33.558437000106515 ] ] } },
{ "type": "Feature", "properties": { "capa": "jardines", "popup": "<strong>NA</strong><br><br><strong>Dirección:</strong> NA ", "etiqueta": "" }, "geometry": { "type": "MultiPoint", "coordinates": [ [ -70.612692999630397, -33.590073000275623 ] ] } },
{ "type": "Feature", "properties": { "capa": "comisarias", "popup": "<strong>41A. COM. LA PINTANA</strong><br><br><strong>Dirección:</strong> BALDOMERO LILLO 1901", "etiqueta": "" }, "geometry": { "type": "Point", "coordinates": [ -70.631528, -33.58296 ] } },
{ "type": "Feature", "properties": { "capa": "comisarias", "popup": "<strong>SCOM. EL CASTILLO</strong><br><br><strong>Dirección:</strong> PRIMAVERA 3741", "etiqueta": "" }, "geometry": { "type": "Point", "coordinates": [ -70.610684, -33.59475 ] } },
{ "type": "Feature", "properties": { "capa": "salud", "popup": "<strong>Centro de Salud Familiar Juan Pablo II Red de Salud UC CHRISTUS</strong><br><br><strong>Tipo de atención:</strong> Centro de Salud Familiar (CESFAM)<br><strong>Dirección:</strong>  2870", "etiqueta": "" }, "geometry": { "type": "Point", "coordinates": [ -70.6217, -33.59543 ] } },
{ "type": "Feature", "properties": { "capa": "salud", "popup": "<strong>Centro de Salud Familiar Santiago de Nueva Extremadura</strong><br><br><strong>Tipo de atención:</strong> Centro de Salud Familiar (CESFAM)<br><strong>Dirección:</strong>  13558", "etiqueta": "" }, "geometry": { "type": "Point", "coordinates": [ -70.61858, -33.58898 ] } },
{ "type": "Feature", "properties": { "capa": "salud", "popup": "<strong>SAPU Santiago de Nueva Extremadura</strong><br><br><strong>Tipo de atención:</strong> Servicio de Atención Primaria de Urgencia (SAPU)<br><strong>Dirección:</strong>  13558", "etiqueta": "" }, "geometry": { "type": "Point", "coordinates": [ -70.618785, -33.588831 ] } },
{ "type": "Feature", "properties": { "capa": "salud", "popup": "<strong>Centro de Salud Familiar Flor Fernández</strong><br><br><strong>Tipo de atención:</strong> Centro de Salud Familiar (CESFAM)<br><strong>Dirección:</strong>  1503", "etiqueta": "" }, "geometry": { "type": "Point", "coordinates": [ -70.63626, -33.5855 ] } },
{ "type": "Feature", "properties": { "capa": "salud", "popup": "<strong>SAPU San Rafael</strong><br><br><strong>Tipo de atención:</strong> Servicio de Atención Primaria de Urgencia (SAPU)<br><strong>Dirección:</strong>  12577", "etiqueta": "" }, "geometry": { "type": "Point", "coordinates": [ -70.63945, -33.57965 ] } },
{ "type": "Feature", "properties": { "capa": "salud", "popup": "<strong>Centro de Salud Familiar San Rafael</strong><br><br><strong>Tipo de atención:</strong> Centro de Salud Familiar (CESFAM)<br><strong>Dirección:</strong>  12577", "etiqueta": "" }, "geometry": { "type": "Point", "coordinates": [ -70.63909, -33.57958 ] } },
{ "type": "Feature", "properties": { "capa": "salud", "popup": "<strong>Centro de Salud Familiar Pablo de Rokha</strong><br><br><strong>Tipo de atención:</strong> Centro de Salud Familiar (CESFAM)<br><strong>Dirección:</strong>  12221", "etiqueta": "" }, "geometry": { "type": "Point", "coordinates": [ -70.64964, -33.57662 ] } },
{ "type": "Feature", "properties": { "capa": "salud", "popup": "<strong>SAPU Pablo de Rokha</strong><br><br><strong>Tipo de atención:</strong> Servicio de Atención Primaria de Urgencia (SAPU)<br><strong>Dirección:</strong>  12221", "etiqueta": "" }, "geometry": { "type": "Point", "coordinates": [ -70.650211, -33.576474 ] } },
{ "type": "Feature", "properties": { "capa": "salud", "popup": "<strong>Centro de Salud Familiar El Roble</strong><br><br><strong>Tipo de atención:</strong> Centro de Salud Familiar (CESFAM)<br><strong>Dirección:</strong>  1777", "etiqueta": "" }, "geometry": { "type": "Point", "coordinates": [ -70.64754, -33.56387 ] } },
{ "type": "Feature", "properties": { "capa": "salud", "popup": "<strong>SAPU El Roble</strong><br><br><strong>Tipo de atención:</strong> Servicio de Atención Primaria de Urgencia (SAPU)<br><strong>Dirección:</strong>  1777", "etiqueta": "" }, "geometry": { "type": "Point", "coordinates": [ -70.647535, -33.563873 ] } },
{ "type": "Feature", "properties": { "capa": "salud", "popup": "<strong>Centro de Salud Familiar Santo Tomás</strong><br><br><strong>Tipo de atención:</strong> Centro de Salud Familiar (CESFAM)<br><strong>Dirección:</strong>  987", "etiqueta": "" }, "geometry": { "type": "Point", "coordinates": [ -70.61654, -33.55697 ] } },
{ "type": "Feature", "properties": { "capa": "salud", "popup": "<strong>SAPU Santo Tomás</strong><br><br><strong>Tipo de atención:</strong> Servicio de Atención Primaria de Urgencia (SAPU)<br><strong>Dirección:</strong>  987", "etiqueta": "" }, "geometry": { "type": "Point", "coordinates": [ -70.616538, -33.556797 ] } },
{ "type": "Feature", "properties": { "capa": "municipios", "popup": "<strong>Municipalidad de La Pintana</strong><br><br><strong>Dirección:</strong> Av. Santa Rosa Nº 12975<br><strong>Región:</strong> Metropolitana de Santiago", "etiqueta": "" }, "geometry": { "type": "Point", "coordinates": [ -70.629667051416106, -33.584963528022108 ] } }
]
}
