{
"type": "FeatureCollection",
"name": "13123",
"crs": { "type": "name", "properties": { "name": "urn:ogc:def:crs:OGC:1.3:CRS84" } },
"features": [
{ "type": "Feature", "properties": { "capa": "comuna", "popup": "", "etiqueta": "" }, "geometry": { "type": "Polygon", "coordinates": [ [ [ -70.584838612779407, -33.431258787933359 ], [ -70.58444555672348, -33.431783924633287 ], [ -70.58443375735223, -33.431783405103545 ], [ -70.584312225175751, -33.431963730465611 ], [ -70.583932276438119, -33.43244257188968 ], [ -70.583515385382768, -33.432833010014662 ], [ -70.582749282345546, -33.433450087738159 ], [ -70.58224166144646, -33.433775502163321 ], [ -70.58224791551747, -33.433785295785768 ], [ -70.582464646656177, -33.434107678070248 ], [ -70.582587413117849, -33.434245778461211 ], [ -70.582611637087794, -33.434273027880799 ], [ -70.582716956470023, -33.434391501171923 ], [ -70.582984301386787, -33.434692235609774 ], [ -70.583099621713075, -33.434821957666017 ], [ -70.583850396796606, -33.435677193157616 ], [ -70.584619970025784, -33.436533142874396 ], [ -70.585080823732838, -33.437032286240203 ], [ -70.585366675741085, -33.437371280344848 ], [ -70.58604074907241, -33.438120210099022 ], [ -70.586663297733992, -33.438822836786514 ], [ -70.586816811731211, -33.438998127317106 ], [ -70.587000786701395, -33.439208199027185 ], [ -70.587059948847681, -33.4392835835814 ], [ -70.587175981537996, -33.439431432738687 ], [ -70.587273603256548, -33.439581100209558 ], [ -70.5873484140551, -33.439692976398597 ], [ -70.58744799499928, -33.439841891556917 ], [ -70.587531380217214, -33.439967020541424 ], [ -70.587622536760676, -33.440103810283865 ], [ -70.587675575091666, -33.440183398620256 ], [ -70.587781125340925, -33.44035745329677 ], [ -70.587847235955948, -33.440456223102323 ], [ -70.587915824124508, -33.440558690603631 ], [ -70.587959899963934, -33.440624536000975 ], [ -70.58806627486662, -33.440783455280673 ], [ -70.588196848586435, -33.440978526117235 ], [ -70.588603715341534, -33.441631644270551 ], [ -70.588655171739333, -33.441694077439749 ], [ -70.588720747856755, -33.441797802050182 ], [ -70.588952145789108, -33.442163809344436 ], [ -70.589509219842881, -33.443044931349291 ], [ -70.589937207786946, -33.443721264153019 ], [ -70.590480077679445, -33.444571580938174 ], [ -70.590831253378525, -33.445176232821808 ], [ -70.591068770634593, -33.445508009040715 ], [ -70.591093756375912, -33.445555912887038 ], [ -70.591125042900629, -33.445615896659504 ], [ -70.591155989862159, -33.445675229021035 ], [ -70.591166142621503, -33.445714965549996 ], [ -70.591172884477714, -33.445741354618775 ], [ -70.591233967222081, -33.445784662776632 ], [ -70.591261005613816, -33.445803832802213 ], [ -70.591312782710162, -33.44587394446436 ], [ -70.591331471261327, -33.445907614712318 ], [ -70.591351237790846, -33.445943265284285 ], [ -70.591364683774032, -33.445963742506848 ], [ -70.591402855885406, -33.446021875335795 ], [ -70.591442952188103, -33.446082937400924 ], [ -70.591491305804894, -33.446156576257451 ], [ -70.591618653674516, -33.446350513675867 ], [ -70.591697697334681, -33.446470890087177 ], [ -70.591763165654271, -33.446547535827477 ], [ -70.592027779692572, -33.446857328442469 ], [ -70.592035690256964, -33.446858615423132 ], [ -70.592070965301545, -33.446907885705485 ], [ -70.592261267106267, -33.447130676858635 ], [ -70.592385050460848, -33.447275593152121 ], [ -70.592552041882286, -33.447471090873314 ], [ -70.592718944370489, -33.447666523692995 ], [ -70.592792666410915, -33.447771845936067 ], [ -70.594188110271574, -33.447020705124807 ], [ -70.594495690729929, -33.44685877432812 ], [ -70.596105997233494, -33.445990372858105 ], [ -70.596697840580333, -33.445618334237246 ], [ -70.596989288194493, -33.445435125943881 ], [ -70.597240977272477, -33.445245246877235 ], [ -70.597425324145192, -33.445143652909572 ], [ -70.59795325505452, -33.444839268314013 ], [ -70.598100169129339, -33.444801322105953 ], [ -70.598263206166891, -33.444835273109184 ], [ -70.598871746499938, -33.444896511408714 ], [ -70.599137173513554, -33.444923220792354 ], [ -70.599183100780763, -33.444679125668664 ], [ -70.59996325077411, -33.444749956328067 ], [ -70.600409556265134, -33.444790517807654 ], [ -70.600606580163131, -33.444808364312955 ], [ -70.601095786497197, -33.444852801787917 ], [ -70.601657300923407, -33.444899701573789 ], [ -70.602211052108942, -33.444955638131027 ], [ -70.602895442591318, -33.445027983441058 ], [ -70.603868983695634, -33.445127467513473 ], [ -70.60437067751046, -33.445177196014676 ], [ -70.605219728286087, -33.445296118398218 ], [ -70.606161177076885, -33.445428690934811 ], [ -70.606375010250488, -33.445452560056353 ], [ -70.607163812816623, -33.445540181803182 ], [ -70.608128363581599, -33.445645953367361 ], [ -70.608765304152328, -33.445744295148806 ], [ -70.609457509079348, -33.445929018399397 ], [ -70.609471450932546, -33.445949196550998 ], [ -70.609750354472084, -33.446011552406532 ], [ -70.609779891078617, -33.446020289268617 ], [ -70.610347651491011, -33.446190143706268 ], [ -70.610753464522304, -33.44630739618794 ], [ -70.611211775997106, -33.446440370439838 ], [ -70.611311574333584, -33.446452002041838 ], [ -70.612311171072719, -33.446599775270606 ], [ -70.612592785727784, -33.446641406248034 ], [ -70.612744265939199, -33.446663799164838 ], [ -70.612984183493708, -33.446699264286337 ], [ -70.613151064422354, -33.446723932831368 ], [ -70.61324454580577, -33.446737750841358 ], [ -70.61347149528082, -33.446771299326464 ], [ -70.613890790227899, -33.44683327756632 ], [ -70.613826040560525, -33.447172334565032 ], [ -70.613809360642335, -33.447252622491398 ], [ -70.613744319022501, -33.447565690352008 ], [ -70.614031278653485, -33.447611213255271 ], [ -70.6140316074369, -33.447611136052096 ], [ -70.614031139414621, -33.447614210687334 ], [ -70.616516440937545, -33.448034603443986 ], [ -70.617101629564772, -33.448135203132651 ], [ -70.61781429631732, -33.448266641773664 ], [ -70.618432455810421, -33.448377147848035 ], [ -70.618637256423838, -33.447646184039172 ], [ -70.618764670768783, -33.447265749333546 ], [ -70.619850883067627, -33.447486049574074 ], [ -70.620901521182915, -33.447688704223992 ], [ -70.622248930328695, -33.447959721191893 ], [ -70.623237110378881, -33.448163174494972 ], [ -70.623719935081169, -33.448256068765254 ], [ -70.625131907943071, -33.448540151396195 ], [ -70.625359338915118, -33.448574793508335 ], [ -70.62624078743147, -33.448791220573789 ], [ -70.626766053039347, -33.44891959862246 ], [ -70.626879255138178, -33.448936139339636 ], [ -70.627983575676524, -33.449147117154425 ], [ -70.628945974078079, -33.449341849134306 ], [ -70.630253959759301, -33.449593518611906 ], [ -70.631355798252514, -33.449808580496253 ], [ -70.631526591344226, -33.449836012409627 ], [ -70.632851455471311, -33.445412625522188 ], [ -70.634578439655584, -33.439573100320061 ], [ -70.634764699939851, -33.438885400162121 ], [ -70.635288299172885, -33.436885299576424 ], [ -70.635380803189264, -33.436424116498543 ], [ -70.63535444751713, -33.436217014883788 ], [ -70.635371762544224, -33.435702744923979 ], [ -70.635411908254284, -33.435474644635434 ], [ -70.63552639494398, -33.434824144412296 ], [ -70.635645379498314, -33.434172184969626 ], [ -70.635793335618871, -33.433361461219654 ], [ -70.635951021392273, -33.432460460667812 ], [ -70.636048288276299, -33.431913016057031 ], [ -70.636219215216983, -33.430893862172553 ], [ -70.6362427447892, -33.430767294941752 ], [ -70.636055924854517, -33.430120567892082 ], [ -70.636014730810544, -33.429796297298189 ], [ -70.6361449146615, -33.429595735252654 ], [ -70.636110696934011, -33.429527172064617 ], [ -70.635773856550244, -33.429287744764956 ], [ -70.635520649319446, -33.42908208354703 ], [ -70.635222122980835, -33.428667945991187 ], [ -70.635049371561806, -33.428321815116661 ], [ -70.634914279316121, -33.42776618748205 ], [ -70.6347765756679, -33.427071185920546 ], [ -70.634727904945819, -33.426688622490595 ], [ -70.634378674997649, -33.425787407968642 ], [ -70.633558684721478, -33.424160632736282 ], [ -70.63269276627976, -33.422290733578023 ], [ -70.632520040013546, -33.421944672495599 ], [ -70.632347401782255, -33.421598535806559 ], [ -70.632269666069135, -33.421526345659053 ], [ -70.632051433845589, -33.421323614908133 ], [ -70.631713247785527, -33.421014600118987 ], [ -70.630746219467014, -33.420400169936542 ], [ -70.630323678008509, -33.42002244545484 ], [ -70.62973819383555, -33.419821139533745 ], [ -70.6294046637436, -33.419755854187962 ], [ -70.628906231711582, -33.419762402069246 ], [ -70.628447983118846, -33.419698752713515 ], [ -70.627656854814433, -33.419604600467494 ], [ -70.627113690274513, -33.419437523692139 ], [ -70.625308178063051, -33.418415970192612 ], [ -70.622401345686313, -33.416259180565483 ], [ -70.620203965890042, -33.414267112674338 ], [ -70.619100833822841, -33.413027286480315 ], [ -70.618290390841494, -33.411888168280441 ], [ -70.617906283802427, -33.411335692110598 ], [ -70.617441630221705, -33.410923748733381 ], [ -70.617220619508984, -33.41071038865087 ], [ -70.616764882605793, -33.410270621461997 ], [ -70.614542357168091, -33.409165537048175 ], [ -70.605924994717313, -33.409277403698646 ], [ -70.605869689038542, -33.409278193318649 ], [ -70.60652766186503, -33.410696120234803 ], [ -70.607306355689275, -33.413491641969919 ], [ -70.607872985122739, -33.415484036576011 ], [ -70.606608124863342, -33.416047996815152 ], [ -70.606228446518628, -33.416264639977342 ], [ -70.605005564532448, -33.416899878180416 ], [ -70.604668843624609, -33.417057164329798 ], [ -70.604253756386328, -33.41712562564517 ], [ -70.603749370320614, -33.417186302397852 ], [ -70.603412370036708, -33.417208684920453 ], [ -70.602567802752688, -33.417372898723968 ], [ -70.602233492923048, -33.417503477448669 ], [ -70.601722088320017, -33.41776259934295 ], [ -70.601555281053223, -33.417981217703208 ], [ -70.601390281196799, -33.418307970027044 ], [ -70.601028836855704, -33.418664371788182 ], [ -70.600562509713598, -33.419023308634117 ], [ -70.600059434289903, -33.419401039711651 ], [ -70.599161203447395, -33.420032244378 ], [ -70.59788169436068, -33.420770564452177 ], [ -70.595826763113962, -33.422328433210986 ], [ -70.593279155341236, -33.424377906437101 ], [ -70.591300027531446, -33.425870022613296 ], [ -70.589373051415492, -33.427404576543267 ], [ -70.587420290057608, -33.428939431716593 ], [ -70.586029342264936, -33.430251380841433 ], [ -70.585394618736316, -33.430712450533811 ], [ -70.584838612779407, -33.431258787933359 ] ] ] } },
{ "type": "Feature", "properties": { "capa": "colegios", "popup": "<strong>ESCUELA ESPECIAL PARTICULAR ANGELES</strong><br><br><strong>Dirección:</strong> JULIO PRADO 1519", "etiqueta": "" }, "geometry": { "type": "Point", "coordinates": [ -70.6203, -33.447376 ] } },
{ "type": "Feature", "properties": { "capa": "colegios", "popup": "<strong>LICEO POLIVALENTE ARTURO ALESSANDRI P.</strong><br><br><strong>Dirección:</strong> AVENIDA GENERAL BUSTAMANTE 443", "etiqueta": "" }, "geometry": { "type": "Point", "coordinates": [ -70.63096295, -33.44637164 ] } },
{ "type": "Feature", "properties": { "capa": "colegios", "popup": "<strong>ESCUELA BASICA JUAN PABLO DUARTE</strong><br><br><strong>Dirección:</strong> SANTA ISABEL 735", "etiqueta": "" }, "geometry": { "type": "Point", "coordinates": [ -70.621629429999984, -33.44555595 ] } },
{ "type": "Feature", "properties": { "capa": "colegios", "popup": "<strong>COLEGIO DE LOS SAGRADOS CORAZONES PROVIDENCIA</strong><br><br><strong>Dirección:</strong> AVENIDA CHILE ESPAÑA 1115", "etiqueta": "" }, "geometry": { "type": "Point", "coordinates": [ -70.5947, -33.444383 ] } },
{ "type": "Feature", "properties": { "capa": "colegios", "popup": "<strong>LICEO CARMELA CARVAJAL DE PRAT</strong><br><br><strong>Dirección:</strong> AVENIDA ITALIA 980", "etiqueta": "" }, "geometry": { "type": "Point", "coordinates": [ -70.6257531, -33.44343308 ] } },
{ "type": "Feature", "properties": { "capa": "colegios", "popup": "<strong>COLEGIO PARTICULAR REGINA PACIS</strong><br><br><strong>Dirección:</strong> EL AGUILUCHO 3341", "etiqueta": "" }, "geometry": { "type": "Point", "coordinates": [ -70.59659856, -33.443049939999987 ] } },
{ "type": "Feature", "properties": { "capa": "colegios", "popup": "<strong>COLEGIO THE KENT SCHOOL</strong><br><br><strong>Dirección:</strong> AVENIDA PEDRO DE VALDIVIA 2176", "etiqueta": "" }, "geometry": { "type": "Point", "coordinates": [ -70.60645, -33.442515 ] } },
{ "type": "Feature", "properties": { "capa": "colegios", "popup": "<strong>WEXFORD COLLEGE N 2</strong><br><br><strong>Dirección:</strong> AVENIDA ITALIA 654", "etiqueta": "" }, "geometry": { "type": "Point", "coordinates": [ -70.62654408, -33.44077606 ] } },
{ "type": "Feature", "properties": { "capa": "colegios", "popup": "<strong>COLEGIO  INSTITUTO PASCAL</strong><br><br><strong>Dirección:</strong> RANCAGUA 365", "etiqueta": "" }, "geometry": { "type": "Point", "coordinates": [ -70.62819, -33.440622 ] } },
{ "type": "Feature", "properties": { "capa": "colegios", "popup": "<strong>COLEGIO PEDRO DE VALDIVIA</strong><br><br><strong>Dirección:</strong> AVENIDA PEDRO DE VALDIVIA 1939", "etiqueta": "" }, "geometry": { "type": "Point", "coordinates": [ -70.60724, -33.440617 ] } },
{ "type": "Feature", "properties": { "capa": "colegios", "popup": "<strong>ESCUELA BAS. MARIA JESUS</strong><br><br><strong>Dirección:</strong> MANUEL MONTT 1993", "etiqueta": "" }, "geometry": { "type": "Point", "coordinates": [ -70.61750616, -33.44058491 ] } },
{ "type": "Feature", "properties": { "capa": "colegios", "popup": "<strong>COLEGIO LATINOAMERICANO DE INTEGRACION</strong><br><br><strong>Dirección:</strong> PUYEHUE 1389", "etiqueta": "" }, "geometry": { "type": "Point", "coordinates": [ -70.61448, -33.440518 ] } },
{ "type": "Feature", "properties": { "capa": "colegios", "popup": "<strong>COLEGIO SUPERIOR CAMBRIDGE</strong><br><br><strong>Dirección:</strong> AVENIDA SEMINARIO 81", "etiqueta": "" }, "geometry": { "type": "Point", "coordinates": [ -70.63028, -33.440315 ] } },
{ "type": "Feature", "properties": { "capa": "colegios", "popup": "<strong>COLEGIO THE ENGLISH INSTITUTE</strong><br><br><strong>Dirección:</strong> RICARDO LYON 2110", "etiqueta": "" }, "geometry": { "type": "Point", "coordinates": [ -70.60291, -33.440174 ] } },
{ "type": "Feature", "properties": { "capa": "colegios", "popup": "<strong>COLEGIO MARIANO</strong><br><br><strong>Dirección:</strong> HOLANDA 2323", "etiqueta": "" }, "geometry": { "type": "Point", "coordinates": [ -70.5984, -33.439831 ] } },
{ "type": "Feature", "properties": { "capa": "colegios", "popup": "<strong>COLEGIO POLIV. PROF. GUILLERMO GONZALEZ HEIN</strong><br><br><strong>Dirección:</strong> AVENIDA FRANCISCO BILBAO 1239", "etiqueta": "" }, "geometry": { "type": "Point", "coordinates": [ -70.61657629, -33.43966491 ] } },
{ "type": "Feature", "properties": { "capa": "colegios", "popup": "<strong>COLEGIO DE ADULTOS INSTITUTO NUEVO BILBAO</strong><br><br><strong>Dirección:</strong> RICARDO MATTE PEREZ 450", "etiqueta": "" }, "geometry": { "type": "Point", "coordinates": [ -70.62688, -33.43912 ] } },
{ "type": "Feature", "properties": { "capa": "colegios", "popup": "<strong>INSTITUTO DE TABANCURA DE PROVIDENCIA</strong><br><br><strong>Dirección:</strong> AVENIDA PEDRO DE VALDIVIA 1669", "etiqueta": "" }, "geometry": { "type": "Point", "coordinates": [ -70.60701, -33.438 ] } },
{ "type": "Feature", "properties": { "capa": "colegios", "popup": "<strong>COLEGIO COMPANIA DE MARIA-SEMINARIO</strong><br><br><strong>Dirección:</strong> SEMINARIO 31", "etiqueta": "" }, "geometry": { "type": "Point", "coordinates": [ -70.63094, -33.437231 ] } },
{ "type": "Feature", "properties": { "capa": "colegios", "popup": "<strong>COLEGIO CAMPVS COLLEGE</strong><br><br><strong>Dirección:</strong> ANTONIO VARAS 1073", "etiqueta": "" }, "geometry": { "type": "Point", "coordinates": [ -70.61461, -33.437045 ] } },
{ "type": "Feature", "properties": { "capa": "colegios", "popup": "<strong>COLEGIO PART. JOSEFINO SANTISIMA TRINIDAD</strong><br><br><strong>Dirección:</strong> CALLE MIGUEL CLARO 700", "etiqueta": "" }, "geometry": { "type": "Point", "coordinates": [ -70.619050359999989, -33.4357997 ] } },
{ "type": "Feature", "properties": { "capa": "colegios", "popup": "<strong>COLEGIO KENDAL ENGLISH SCHOOL ANEXO</strong><br><br><strong>Dirección:</strong> FRANCISCO BILBAO 2890", "etiqueta": "" }, "geometry": { "type": "Point", "coordinates": [ -70.59016, -33.435191 ] } },
{ "type": "Feature", "properties": { "capa": "colegios", "popup": "<strong>ESCUELA BASICA EL VERGEL</strong><br><br><strong>Dirección:</strong> LOS LEONES 1758", "etiqueta": "" }, "geometry": { "type": "Point", "coordinates": [ -70.60118742, -33.43515995 ] } },
{ "type": "Feature", "properties": { "capa": "colegios", "popup": "<strong>COLEGIO DE ADULTOS CASA DE ESTUDIOS FUTURO</strong><br><br><strong>Dirección:</strong> JOSE MANUEL INFANTE 50", "etiqueta": "" }, "geometry": { "type": "Point", "coordinates": [ -70.62258, -33.43418 ] } },
{ "type": "Feature", "properties": { "capa": "colegios", "popup": "<strong>ESCUELA ABELARDO ITURRIAGA JAMETT</strong><br><br><strong>Dirección:</strong> VALENZUELA CASTILLO 1793", "etiqueta": "" }, "geometry": { "type": "Point", "coordinates": [ -70.61178, -33.43379 ] } },
{ "type": "Feature", "properties": { "capa": "colegios", "popup": "<strong>COLEGIO MARIA INMACULADA</strong><br><br><strong>Dirección:</strong> MALLICKRODT 17", "etiqueta": "" }, "geometry": { "type": "Point", "coordinates": [ -70.63292953, -33.43362145 ] } },
{ "type": "Feature", "properties": { "capa": "colegios", "popup": "<strong>COLEGIO SAN IGNACIO EL BOSQUE</strong><br><br><strong>Dirección:</strong> AVENIDA POCURO 2801", "etiqueta": "" }, "geometry": { "type": "Point", "coordinates": [ -70.59447, -33.433074 ] } },
{ "type": "Feature", "properties": { "capa": "colegios", "popup": "<strong>ESCUELA Y LICEO PAULINA VON MALLINCKRODT</strong><br><br><strong>Dirección:</strong> MALLINCKRODT 93", "etiqueta": "" }, "geometry": { "type": "Point", "coordinates": [ -70.63313979, -33.43302323 ] } },
{ "type": "Feature", "properties": { "capa": "colegios", "popup": "<strong>COLEGIO AULA CLINICA SANTA MARIA</strong><br><br><strong>Dirección:</strong> AVENIDA SANTA MARIA 500", "etiqueta": "" }, "geometry": { "type": "Point", "coordinates": [ -70.628324, -33.432772 ] } },
{ "type": "Feature", "properties": { "capa": "colegios", "popup": "<strong>ESCUELA DE PROVIDENCIA</strong><br><br><strong>Dirección:</strong> AVENIDA MANUEL MONTT 485", "etiqueta": "" }, "geometry": { "type": "Point", "coordinates": [ -70.61798467, -33.432653480000013 ] } },
{ "type": "Feature", "properties": { "capa": "colegios", "popup": "<strong>COLEGIO MANANTIALES</strong><br><br><strong>Dirección:</strong> AVENIDA LOS LEONES 1383", "etiqueta": "" }, "geometry": { "type": "Point", "coordinates": [ -70.60234, -33.432043 ] } },
{ "type": "Feature", "properties": { "capa": "colegios", "popup": "<strong>COLEGIO SAINT GABRIEL´S SCHOOL LOCAL SEDE</strong><br><br><strong>Dirección:</strong> FRANCISCO BILBAO 3070", "etiqueta": "" }, "geometry": { "type": "Point", "coordinates": [ -70.58551, -33.431985 ] } },
{ "type": "Feature", "properties": { "capa": "colegios", "popup": "<strong>COL.  PART. SALES. EL PATROCINIO DE SAN JOSE</strong><br><br><strong>Dirección:</strong> BELLAVISTA 550", "etiqueta": "" }, "geometry": { "type": "Point", "coordinates": [ -70.628468399999988, -33.43088782 ] } },
{ "type": "Feature", "properties": { "capa": "colegios", "popup": "<strong>SALA CUNA Y JARDIN INFANTIL CRUCERO</strong><br><br><strong>Dirección:</strong> CRUCERO EXETER 286", "etiqueta": "" }, "geometry": { "type": "Point", "coordinates": [ -70.6328096, -33.4308045 ] } },
{ "type": "Feature", "properties": { "capa": "colegios", "popup": "<strong>LICEO JOSE VICTORINO LASTARRIA</strong><br><br><strong>Dirección:</strong> MIGUEL CLARO 32", "etiqueta": "" }, "geometry": { "type": "Point", "coordinates": [ -70.62160765, -33.430304620000015 ] } },
{ "type": "Feature", "properties": { "capa": "colegios", "popup": "<strong>COLEGIO CAMBRIDGE COLLEGE</strong><br><br><strong>Dirección:</strong> ANTONIO VARAS 233", "etiqueta": "" }, "geometry": { "type": "Point", "coordinates": [ -70.61707, -33.429721 ] } },
{ "type": "Feature", "properties": { "capa": "colegios", "popup": "<strong>COLEGIO ESPECIAL HOSPITALARIO CON TODO EL COR</strong><br><br><strong>Dirección:</strong> AVENIDA ANTONIO VARAS 360", "etiqueta": "" }, "geometry": { "type": "Point", "coordinates": [ -70.61511, -33.4297 ] } },
{ "type": "Feature", "properties": { "capa": "colegios", "popup": "<strong>COLEGIO ALEMAN SANKT THOMAS MORUS</strong><br><br><strong>Dirección:</strong> AVENIDA PEDRO DE VALDIVIA 320", "etiqueta": "" }, "geometry": { "type": "Point", "coordinates": [ -70.61112, -33.42637 ] } },
{ "type": "Feature", "properties": { "capa": "colegios", "popup": "<strong>COLEGIO INSTITUTO DE HUMANIDADES LUIS CAMPINO</strong><br><br><strong>Dirección:</strong> AVENIDA PEDRO DE VALDIVIA 290", "etiqueta": "" }, "geometry": { "type": "Point", "coordinates": [ -70.6112, -33.426164 ] } },
{ "type": "Feature", "properties": { "capa": "colegios", "popup": "<strong>LICEO Nº7 DE PROVIDENCIA LUISA SAAVEDRA</strong><br><br><strong>Dirección:</strong> MONSEÑOR SOTERO SANZ 60", "etiqueta": "" }, "geometry": { "type": "Point", "coordinates": [ -70.61430273, -33.42441804 ] } },
{ "type": "Feature", "properties": { "capa": "colegios", "popup": "<strong>COLEGIO TREWHELA´S ENGLISH SCHOOL</strong><br><br><strong>Dirección:</strong> LAS CAMELIAS 2854", "etiqueta": "" }, "geometry": { "type": "Point", "coordinates": [ -70.59742, -33.422588 ] } },
{ "type": "Feature", "properties": { "capa": "colegios", "popup": "<strong>ESCUELA BASICA MERCEDES MARIN DEL SOLAR</strong><br><br><strong>Dirección:</strong> AVENIDA LOS LEONES 262", "etiqueta": "" }, "geometry": { "type": "Point", "coordinates": [ -70.60474091, -33.422235639999982 ] } },
{ "type": "Feature", "properties": { "capa": "colegios", "popup": "<strong>LICEO B 42 TAJAMAR</strong><br><br><strong>Dirección:</strong> LOS LEONES 238", "etiqueta": "" }, "geometry": { "type": "Point", "coordinates": [ -70.604820839999988, -33.42206965 ] } },
{ "type": "Feature", "properties": { "capa": "colegios", "popup": "<strong>COLEGIO HOSPITALARIO  CLINICA INDISA</strong><br><br><strong>Dirección:</strong> AVENIDA SANTA MARIA 1810", "etiqueta": "" }, "geometry": { "type": "Point", "coordinates": [ -70.61858, -33.421401 ] } },
{ "type": "Feature", "properties": { "capa": "colegios", "popup": "<strong>ESCUELA ESPECIAL HOSPITAL FELIX BULNES</strong><br><br><strong>Dirección:</strong> AVENIDA HOLANDA 60", "etiqueta": "" }, "geometry": { "type": "Point", "coordinates": [ -70.604767, -33.418701 ] } },
{ "type": "Feature", "properties": { "capa": "jardines", "popup": "<strong>SANTA BEATRIZ</strong><br><br><strong>Dirección:</strong> SANTA BEATRIZ  220 ", "etiqueta": "" }, "geometry": { "type": "MultiPoint", "coordinates": [ [ -70.618871, -33.426214 ] ] } },
{ "type": "Feature", "properties": { "capa": "comisarias", "popup": "<strong>19A. COM. PROVIDENCIA</strong><br><br><strong>Dirección:</strong> MIGUEL CLARO 300", "etiqueta": "" }, "geometry": { "type": "Point", "coordinates": [ -70.62009, -33.43243 ] } },
{ "type": "Feature", "properties": { "capa": "comisarias", "popup": "<strong>60A. COM. METRO SANTIAGO</strong><br><br><strong>Dirección:</strong> ESTACION BAQUEDANO S/N", "etiqueta": "" }, "geometry": { "type": "Point", "coordinates": [ -70.634174, -33.437411 ] } },
{ "type": "Feature", "properties": { "capa": "salud", "popup": "<strong>Clínica San Andrés</strong><br><br><strong>Tipo de atención:</strong> Clínica<br><strong>Dirección:</strong>  695", "etiqueta": "" }, "geometry": { "type": "Point", "coordinates": [ -70.6223, -33.4446 ] } },
{ "type": "Feature", "properties": { "capa": "salud", "popup": "<strong>Elsa</strong><br><br><strong>Tipo de atención:</strong> Centro de Salud Privado<br><strong>Dirección:</strong>  1056", "etiqueta": "" }, "geometry": { "type": "Point", "coordinates": [ -70.625433, -33.444389 ] } },
{ "type": "Feature", "properties": { "capa": "salud", "popup": "<strong>Centro de Salud Familiar Dr. Hernán Alessandri</strong><br><br><strong>Tipo de atención:</strong> Centro de Salud Familiar (CESFAM)<br><strong>Dirección:</strong>  857", "etiqueta": "" }, "geometry": { "type": "Point", "coordinates": [ -70.62043, -33.44423 ] } },
{ "type": "Feature", "properties": { "capa": "salud", "popup": "<strong>Centro Médico HTS SpA</strong><br><br><strong>Tipo de atención:</strong> Centro de Salud Privado<br><strong>Dirección:</strong>  210", "etiqueta": "" }, "geometry": { "type": "Point", "coordinates": [ -70.63295, -33.444151 ] } },
{ "type": "Feature", "properties": { "capa": "salud", "popup": "<strong>Consultorio Escuela de Carabineros de Chile</strong><br><br><strong>Tipo de atención:</strong> Centro de Salud Privado<br><strong>Dirección:</strong>  1842", "etiqueta": "" }, "geometry": { "type": "Point", "coordinates": [ -70.6119, -33.44386 ] } },
{ "type": "Feature", "properties": { "capa": "salud", "popup": "<strong>Centro Comunitario de Salud Familiar Elena Caffarena</strong><br><br><strong>Tipo de atención:</strong> Centro Comunitario de Salud Familiar (CECOSF)<br><strong>Dirección:</strong>  520", "etiqueta": "" }, "geometry": { "type": "Point", "coordinates": [ -70.62476, -33.44365 ] } },
{ "type": "Feature", "properties": { "capa": "salud", "popup": "<strong>Hospital del Trabajador Santiago</strong><br><br><strong>Tipo de atención:</strong> Hospital<br><strong>Dirección:</strong>  185", "etiqueta": "" }, "geometry": { "type": "Point", "coordinates": [ -70.632551, -33.443625 ] } },
{ "type": "Feature", "properties": { "capa": "salud", "popup": "<strong>SAPU Aguilucho</strong><br><br><strong>Tipo de atención:</strong> Servicio de Atención Primaria de Urgencia (SAPU)<br><strong>Dirección:</strong>  3235", "etiqueta": "" }, "geometry": { "type": "Point", "coordinates": [ -70.597762, -33.443182 ] } },
{ "type": "Feature", "properties": { "capa": "salud", "popup": "<strong>Centro de Salud Familiar Aguilucho</strong><br><br><strong>Tipo de atención:</strong> Centro de Salud Familiar (CESFAM)<br><strong>Dirección:</strong>  3292", "etiqueta": "" }, "geometry": { "type": "Point", "coordinates": [ -70.5971, -33.44267 ] } },
{ "type": "Feature", "properties": { "capa": "salud", "popup": "<strong>Instituto Oftalmológico Dr. David Bitran</strong><br><br><strong>Tipo de atención:</strong> Centro de Salud Privado<br><strong>Dirección:</strong>  943", "etiqueta": "" }, "geometry": { "type": "Point", "coordinates": [ -70.624128, -33.442344 ] } },
{ "type": "Feature", "properties": { "capa": "salud", "popup": "<strong>Mirandes S.P.A.</strong><br><br><strong>Tipo de atención:</strong> Clínica<br><strong>Dirección:</strong>  726", "etiqueta": "" }, "geometry": { "type": "Point", "coordinates": [ -70.624318699999947, -33.440143499999976 ] } },
{ "type": "Feature", "properties": { "capa": "salud", "popup": "<strong>Instituto Clínico Oncológico Fundación Arturo López Pérez</strong><br><br><strong>Tipo de atención:</strong> Clínica<br><strong>Dirección:</strong>  878", "etiqueta": "" }, "geometry": { "type": "Point", "coordinates": [ -70.62242, -33.43913 ] } },
{ "type": "Feature", "properties": { "capa": "salud", "popup": "<strong>Clínica Las Acacias</strong><br><br><strong>Tipo de atención:</strong> Clínica<br><strong>Dirección:</strong>  537", "etiqueta": "" }, "geometry": { "type": "Point", "coordinates": [ -70.62518, -33.43878 ] } },
{ "type": "Feature", "properties": { "capa": "salud", "popup": "<strong>Instituto de Enfermedades Circulatorias</strong><br><br><strong>Tipo de atención:</strong> Centro de Salud Privado<br><strong>Dirección:</strong>  988", "etiqueta": "" }, "geometry": { "type": "Point", "coordinates": [ -70.618338, -33.438456 ] } },
{ "type": "Feature", "properties": { "capa": "salud", "popup": "<strong>Clínica Miguel Claro</strong><br><br><strong>Tipo de atención:</strong> Clínica<br><strong>Dirección:</strong>  988", "etiqueta": "" }, "geometry": { "type": "Point", "coordinates": [ -70.618322, -33.438311 ] } },
{ "type": "Feature", "properties": { "capa": "salud", "popup": "<strong>Instituto Nacional de Enfermedades Respiratorias y Cirugía Torácica</strong><br><br><strong>Tipo de atención:</strong> Hospital<br><strong>Dirección:</strong>  717", "etiqueta": "" }, "geometry": { "type": "Point", "coordinates": [ -70.621882, -33.437988 ] } },
{ "type": "Feature", "properties": { "capa": "salud", "popup": "<strong>Dilab</strong><br><br><strong>Tipo de atención:</strong> Centro de Salud Privado<br><strong>Dirección:</strong>  6", "etiqueta": "" }, "geometry": { "type": "Point", "coordinates": [ -70.634743, -33.437953 ] } },
{ "type": "Feature", "properties": { "capa": "salud", "popup": "<strong>Centro Comunitario de Salud Familiar Andacollo</strong><br><br><strong>Tipo de atención:</strong> Centro Comunitario de Salud Familiar (CECOSF)<br><strong>Dirección:</strong>  1661", "etiqueta": "" }, "geometry": { "type": "Point", "coordinates": [ -70.60625, -33.43767 ] } },
{ "type": "Feature", "properties": { "capa": "salud", "popup": "<strong>Instituto de Neurocirugía Dr. Alfonso Asenjo</strong><br><br><strong>Tipo de atención:</strong> Hospital<br><strong>Dirección:</strong>  553", "etiqueta": "" }, "geometry": { "type": "Point", "coordinates": [ -70.622448, -33.436888 ] } },
{ "type": "Feature", "properties": { "capa": "salud", "popup": "<strong>Hospital Del Salvador de Santiago</strong><br><br><strong>Tipo de atención:</strong> Hospital<br><strong>Dirección:</strong>  364", "etiqueta": "" }, "geometry": { "type": "Point", "coordinates": [ -70.624493, -33.43664 ] } },
{ "type": "Feature", "properties": { "capa": "salud", "popup": "<strong>Instituto Radiológico Providencia</strong><br><br><strong>Tipo de atención:</strong> Centro de Salud Privado<br><strong>Dirección:</strong>  199", "etiqueta": "" }, "geometry": { "type": "Point", "coordinates": [ -70.631223, -33.436374 ] } },
{ "type": "Feature", "properties": { "capa": "salud", "popup": "<strong>Clínica Psiquiatrica Bretaña</strong><br><br><strong>Tipo de atención:</strong> Clínica<br><strong>Dirección:</strong>  2638", "etiqueta": "" }, "geometry": { "type": "Point", "coordinates": [ -70.59623, -33.43594 ] } },
{ "type": "Feature", "properties": { "capa": "salud", "popup": "<strong>AMIM</strong><br><br><strong>Tipo de atención:</strong> Centro de Salud Privado<br><strong>Dirección:</strong>  1727", "etiqueta": "" }, "geometry": { "type": "Point", "coordinates": [ -70.626164, -33.435106 ] } },
{ "type": "Feature", "properties": { "capa": "salud", "popup": "<strong>Diagnóstika</strong><br><br><strong>Tipo de atención:</strong> Centro de Salud Privado<br><strong>Dirección:</strong>  135", "etiqueta": "" }, "geometry": { "type": "Point", "coordinates": [ -70.626325, -33.43499 ] } },
{ "type": "Feature", "properties": { "capa": "salud", "popup": "<strong>Instituto Nacional Geriátrico Presidente Eduardo Frei Montalva</strong><br><br><strong>Tipo de atención:</strong> Hospital<br><strong>Dirección:</strong>  370", "etiqueta": "" }, "geometry": { "type": "Point", "coordinates": [ -70.622227, -33.434825 ] } },
{ "type": "Feature", "properties": { "capa": "salud", "popup": "<strong>Red Salud Providencia ex Clínica AvanSalud Providencia</strong><br><br><strong>Tipo de atención:</strong> Clínica<br><strong>Dirección:</strong>  100", "etiqueta": "" }, "geometry": { "type": "Point", "coordinates": [ -70.625815499999987, -33.434329899999952 ] } },
{ "type": "Feature", "properties": { "capa": "salud", "popup": "<strong>Centro de Atencion Integral Providencia</strong><br><br><strong>Tipo de atención:</strong> Centro de Salud Privado<br><strong>Dirección:</strong>  331", "etiqueta": "" }, "geometry": { "type": "Point", "coordinates": [ -70.601625, -33.434704 ] } },
{ "type": "Feature", "properties": { "capa": "salud", "popup": "<strong>MegaSalud</strong><br><br><strong>Tipo de atención:</strong> Centro de Salud Privado<br><strong>Dirección:</strong>  100", "etiqueta": "" }, "geometry": { "type": "Point", "coordinates": [ -70.625991, -33.434342 ] } },
{ "type": "Feature", "properties": { "capa": "salud", "popup": "<strong>Orlandi Oncología</strong><br><br><strong>Tipo de atención:</strong> Centro de Salud Privado<br><strong>Dirección:</strong>  159", "etiqueta": "" }, "geometry": { "type": "Point", "coordinates": [ -70.623886, -33.434315 ] } },
{ "type": "Feature", "properties": { "capa": "salud", "popup": "<strong>Clínica New Clinic</strong><br><br><strong>Tipo de atención:</strong> Clínica<br><strong>Dirección:</strong>  1588", "etiqueta": "" }, "geometry": { "type": "Point", "coordinates": [ -70.601276, -33.433876 ] } },
{ "type": "Feature", "properties": { "capa": "salud", "popup": "<strong>Clínica Indisa</strong><br><br><strong>Tipo de atención:</strong> Clínica<br><strong>Dirección:</strong>  1810", "etiqueta": "" }, "geometry": { "type": "Point", "coordinates": [ -70.6184368, -33.421101699999944 ] } },
{ "type": "Feature", "properties": { "capa": "salud", "popup": "<strong>Clínica Santa María</strong><br><br><strong>Tipo de atención:</strong> Clínica<br><strong>Dirección:</strong>  410", "etiqueta": "" }, "geometry": { "type": "Point", "coordinates": [ -70.62822, -33.43282 ] } },
{ "type": "Feature", "properties": { "capa": "salud", "popup": "<strong>Centro Servicios Médicos Santa María</strong><br><br><strong>Tipo de atención:</strong> Centro de Salud Privado<br><strong>Dirección:</strong>  410", "etiqueta": "" }, "geometry": { "type": "Point", "coordinates": [ -70.628116, -33.432418 ] } },
{ "type": "Feature", "properties": { "capa": "salud", "popup": "<strong>Centro Médico Manuel Montt ex Centro Clínico Integral Las Lilas</strong><br><br><strong>Tipo de atención:</strong> Centro de Salud Privado<br><strong>Dirección:</strong>  427", "etiqueta": "" }, "geometry": { "type": "Point", "coordinates": [ -70.618483, -33.432144 ] } },
{ "type": "Feature", "properties": { "capa": "salud", "popup": "<strong>Centro de Salud Familiar Dr. Alfonso Leng</strong><br><br><strong>Tipo de atención:</strong> Centro de Salud Familiar (CESFAM)<br><strong>Dirección:</strong>  303", "etiqueta": "" }, "geometry": { "type": "Point", "coordinates": [ -70.61881, -33.43141 ] } },
{ "type": "Feature", "properties": { "capa": "salud", "popup": "<strong>Hospital de Niños Dr. Luis Calvo Mackenna</strong><br><br><strong>Tipo de atención:</strong> Hospital<br><strong>Dirección:</strong>  360", "etiqueta": "" }, "geometry": { "type": "Point", "coordinates": [ -70.614527299999963, -33.429848 ] } },
{ "type": "Feature", "properties": { "capa": "salud", "popup": "<strong>Departamento de Bienestar Social de la Dirección General de Aeronáutica Civil</strong><br><br><strong>Tipo de atención:</strong> Centro de Salud Privado<br><strong>Dirección:</strong>  2394", "etiqueta": "" }, "geometry": { "type": "Point", "coordinates": [ -70.603116, -33.429817 ] } },
{ "type": "Feature", "properties": { "capa": "salud", "popup": "<strong>Clínica Europa</strong><br><br><strong>Tipo de atención:</strong> Clínica<br><strong>Dirección:</strong>  483", "etiqueta": "" }, "geometry": { "type": "Point", "coordinates": [ -70.61109, -33.42785 ] } },
{ "type": "Feature", "properties": { "capa": "salud", "popup": "<strong>Dirección Previsional de Carabineros de Chile</strong><br><br><strong>Tipo de atención:</strong> Centro de Salud Privado<br><strong>Dirección:</strong>  171", "etiqueta": "" }, "geometry": { "type": "Point", "coordinates": [ -70.61847, -33.4262 ] } },
{ "type": "Feature", "properties": { "capa": "salud", "popup": "<strong>Centro Médico y Dental Antonio Varas del Banco del Estado de Chile</strong><br><br><strong>Tipo de atención:</strong> Centro de Salud Privado<br><strong>Dirección:</strong>  1722", "etiqueta": "" }, "geometry": { "type": "Point", "coordinates": [ -70.615578, -33.426086 ] } },
{ "type": "Feature", "properties": { "capa": "salud", "popup": "<strong>SanaSalud Pedro de Valdivia</strong><br><br><strong>Tipo de atención:</strong> Centro de Salud Privado<br><strong>Dirección:</strong>  195", "etiqueta": "" }, "geometry": { "type": "Point", "coordinates": [ -70.613927, -33.425363 ] } },
{ "type": "Feature", "properties": { "capa": "salud", "popup": "<strong>CLINICA ESTETICA LIFECHOICE SPA</strong><br><br><strong>Tipo de atención:</strong> Clínica<br><strong>Dirección:</strong>  1551", "etiqueta": "" }, "geometry": { "type": "Point", "coordinates": [ -70.61953, -33.42517 ] } },
{ "type": "Feature", "properties": { "capa": "salud", "popup": "<strong>Centro Médico y Dental Redsalud Pedro de Valdivia</strong><br><br><strong>Tipo de atención:</strong> Centro de Salud Privado<br><strong>Dirección:</strong>  1920", "etiqueta": "" }, "geometry": { "type": "Point", "coordinates": [ -70.613175, -33.425073 ] } },
{ "type": "Feature", "properties": { "capa": "salud", "popup": "<strong>Centro Integramédica Barcelona</strong><br><br><strong>Tipo de atención:</strong> Centro de Salud Privado<br><strong>Dirección:</strong>  2116", "etiqueta": "" }, "geometry": { "type": "Point", "coordinates": [ -70.610459, -33.42464 ] } },
{ "type": "Feature", "properties": { "capa": "salud", "popup": "<strong>Clínica WLK</strong><br><br><strong>Tipo de atención:</strong> Clínica<br><strong>Dirección:</strong>  485", "etiqueta": "" }, "geometry": { "type": "Point", "coordinates": [ -70.60457, -33.42421 ] } },
{ "type": "Feature", "properties": { "capa": "salud", "popup": "<strong>Clínica Oftalmológica Providencia</strong><br><br><strong>Tipo de atención:</strong> Clínica<br><strong>Dirección:</strong>  2167", "etiqueta": "" }, "geometry": { "type": "Point", "coordinates": [ -70.612059, -33.421029 ] } },
{ "type": "Feature", "properties": { "capa": "salud", "popup": "<strong>Centro Vida Integra Providencia</strong><br><br><strong>Tipo de atención:</strong> Centro de Salud Privado<br><strong>Dirección:</strong>  2350", "etiqueta": "" }, "geometry": { "type": "Point", "coordinates": [ -70.607217, -33.420859 ] } },
{ "type": "Feature", "properties": { "capa": "salud", "popup": "<strong>Centro Médico Vida Integra Tobalaba</strong><br><br><strong>Tipo de atención:</strong> Centro de Salud Privado<br><strong>Dirección:</strong>  155", "etiqueta": "" }, "geometry": { "type": "Point", "coordinates": [ -70.60058, -33.419313 ] } },
{ "type": "Feature", "properties": { "capa": "salud", "popup": "<strong>Hospital Metropolitano (Ex Militar)</strong><br><br><strong>Tipo de atención:</strong> Hospital<br><strong>Dirección:</strong>  50", "etiqueta": "" }, "geometry": { "type": "Point", "coordinates": [ -70.605168, -33.418942 ] } },
{ "type": "Feature", "properties": { "capa": "salud", "popup": "<strong>Centro  de Sangre y Tejidos Metropolitano</strong><br><br><strong>Tipo de atención:</strong> Centro de Especialidades<br><strong>Dirección:</strong>  115", "etiqueta": "" }, "geometry": { "type": "Point", "coordinates": [ -70.605024, -33.41889 ] } },
{ "type": "Feature", "properties": { "capa": "salud", "popup": "<strong>Workmed Salud Ocupacional</strong><br><br><strong>Tipo de atención:</strong> Centro de Salud Privado<br><strong>Dirección:</strong>  425", "etiqueta": "" }, "geometry": { "type": "Point", "coordinates": [ -70.618401, -33.432343 ] } },
{ "type": "Feature", "properties": { "capa": "salud", "popup": "<strong>Centro Médico del Trabajador Providencia</strong><br><br><strong>Tipo de atención:</strong> Centro de Salud Privado<br><strong>Dirección:</strong>  2050", "etiqueta": "" }, "geometry": { "type": "Point", "coordinates": [ -70.61104, -33.425065 ] } },
{ "type": "Feature", "properties": { "capa": "salud", "popup": "<strong>Centro Atencion de Salud Mutual Providencia</strong><br><br><strong>Tipo de atención:</strong> Centro de Salud Privado<br><strong>Dirección:</strong>  438", "etiqueta": "" }, "geometry": { "type": "Point", "coordinates": [ -70.610581, -33.427423 ] } },
{ "type": "Feature", "properties": { "capa": "salud", "popup": "<strong>SONORAD LAS BELLOTAS</strong><br><br><strong>Tipo de atención:</strong> Centro de Salud Privado<br><strong>Dirección:</strong>  200", "etiqueta": "" }, "geometry": { "type": "Point", "coordinates": [ -70.608105, -33.422268 ] } },
{ "type": "Feature", "properties": { "capa": "salud", "popup": "<strong>Corporación Nacional del Cáncer</strong><br><br><strong>Tipo de atención:</strong> Centro de Salud Privado<br><strong>Dirección:</strong>  86", "etiqueta": "" }, "geometry": { "type": "Point", "coordinates": [ -70.629898, -33.440183 ] } },
{ "type": "Feature", "properties": { "capa": "salud", "popup": "<strong>Instituto de la Visión</strong><br><br><strong>Tipo de atención:</strong> Centro de Salud Privado<br><strong>Dirección:</strong>  443", "etiqueta": "" }, "geometry": { "type": "Point", "coordinates": [ -70.62546, -33.437888 ] } },
{ "type": "Feature", "properties": { "capa": "salud", "popup": "<strong>Centro Médico Docente Asistencial USS</strong><br><br><strong>Tipo de atención:</strong> Centro de Salud Privado<br><strong>Dirección:</strong>  2444", "etiqueta": "" }, "geometry": { "type": "Point", "coordinates": [ -70.60306, -33.424747 ] } },
{ "type": "Feature", "properties": { "capa": "salud", "popup": "<strong>Centro Médico Workmed</strong><br><br><strong>Tipo de atención:</strong> Centro de Salud Privado<br><strong>Dirección:</strong>  427", "etiqueta": "" }, "geometry": { "type": "Point", "coordinates": [ -70.618232, -33.432345 ] } },
{ "type": "Feature", "properties": { "capa": "salud", "popup": "<strong>Centro de Diagnóstico y Laboratorio Clínica ASTRA</strong><br><br><strong>Tipo de atención:</strong> Centro de Salud Privado<br><strong>Dirección:</strong>  281", "etiqueta": "" }, "geometry": { "type": "Point", "coordinates": [ -70.625845, -33.436426 ] } },
{ "type": "Feature", "properties": { "capa": "salud", "popup": "<strong>Clínica Vida Estética</strong><br><br><strong>Tipo de atención:</strong> Clínica<br><strong>Dirección:</strong>  1759", "etiqueta": "" }, "geometry": { "type": "Point", "coordinates": [ -70.612965, -33.432437 ] } },
{ "type": "Feature", "properties": { "capa": "salud", "popup": "<strong>CLINICA VIVECLINIC SPA</strong><br><br><strong>Tipo de atención:</strong> Clínica<br><strong>Dirección:</strong>  1575", "etiqueta": "" }, "geometry": { "type": "Point", "coordinates": [ -70.601916, -33.43384 ] } },
{ "type": "Feature", "properties": { "capa": "salud", "popup": "<strong>MEDICENTER PROVIDENCIA</strong><br><br><strong>Tipo de atención:</strong> Centro de Salud Privado<br><strong>Dirección:</strong>  2155", "etiqueta": "" }, "geometry": { "type": "Point", "coordinates": [ -70.61001, -33.423249 ] } },
{ "type": "Feature", "properties": { "capa": "salud", "popup": "<strong>INSTITUTO OFTALMOLOGICO INTEGRAL</strong><br><br><strong>Tipo de atención:</strong> Centro de Salud Privado<br><strong>Dirección:</strong>  93", "etiqueta": "" }, "geometry": { "type": "Point", "coordinates": [ -70.604081759999985, -33.420169479999963 ] } },
{ "type": "Feature", "properties": { "capa": "salud", "popup": "<strong>ONCOVIDA</strong><br><br><strong>Tipo de atención:</strong> Centro de Salud Privado<br><strong>Dirección:</strong>  427", "etiqueta": "" }, "geometry": { "type": "Point", "coordinates": [ -70.618241689999934, -33.432318889999976 ] } },
{ "type": "Feature", "properties": { "capa": "salud", "popup": "<strong>Clinica Traumatológica Los Conquistadores</strong><br><br><strong>Tipo de atención:</strong> Centro de Especialidades<br><strong>Dirección:</strong>  2817", "etiqueta": "" }, "geometry": { "type": "Point", "coordinates": [ -70.608061099999986, -33.41280854999998 ] } },
{ "type": "Feature", "properties": { "capa": "salud", "popup": "<strong>CENTRO MEDICO INSTITUTO ONCOLOGICO FALP ANTONIO VARAS</strong><br><br><strong>Tipo de atención:</strong> Centro de Salud Privado<br><strong>Dirección:</strong>  621", "etiqueta": "" }, "geometry": { "type": "Point", "coordinates": [ -70.615988709999939, -33.433216509999959 ] } },
{ "type": "Feature", "properties": { "capa": "salud", "popup": "<strong>CLINICA MEDICA ALMIRANTE PASTENE</strong><br><br><strong>Tipo de atención:</strong> Centro de Salud Privado<br><strong>Dirección:</strong>  71", "etiqueta": "" }, "geometry": { "type": "Point", "coordinates": [ -70.619587219999971, -33.427585199999946 ] } },
{ "type": "Feature", "properties": { "capa": "salud", "popup": "<strong>INTEGRAMEDICA SUCURSAL LA CONCEPCION</strong><br><br><strong>Tipo de atención:</strong> Centro de Salud Privado<br><strong>Dirección:</strong>  206", "etiqueta": "" }, "geometry": { "type": "Point", "coordinates": [ -70.616469899999956, -33.424331579999958 ] } },
{ "type": "Feature", "properties": { "capa": "salud", "popup": "<strong>FAST CLINIC LOS LEONES</strong><br><br><strong>Tipo de atención:</strong> Centro de Salud Privado<br><strong>Dirección:</strong>  24", "etiqueta": "" }, "geometry": { "type": "Point", "coordinates": [ -70.608442199999942, -33.420694089999984 ] } }
]
}
