{
"type": "FeatureCollection",
"name": "13128",
"crs": { "type": "name", "properties": { "name": "urn:ogc:def:crs:OGC:1.3:CRS84" } },
"features": [
{ "type": "Feature", "properties": { "capa": "comuna", "popup": "", "etiqueta": "" }, "geometry": { "type": "Polygon", "coordinates": [ [ [ -70.696194789596831, -33.382093538024961 ], [ -70.696194217369992, -33.382093328743977 ], [ -70.696193943383832, -33.382093216977403 ], [ -70.696176010315824, -33.382086414219479 ], [ -70.696175943840487, -33.382086634752191 ], [ -70.695992914796292, -33.38204524660874 ], [ -70.695710958781433, -33.382965728338348 ], [ -70.695709134303087, -33.382965402793388 ], [ -70.695476638629458, -33.383779494652657 ], [ -70.694052476527489, -33.383420383682548 ], [ -70.694689088314817, -33.38168973877756 ], [ -70.693552193067646, -33.38134403052964 ], [ -70.693292182895192, -33.38192519567751 ], [ -70.691197562282582, -33.386577940617535 ], [ -70.689931000614038, -33.389387336465944 ], [ -70.687325201773859, -33.394163537541914 ], [ -70.683621470315316, -33.400309801272186 ], [ -70.682584094926909, -33.401893891252627 ], [ -70.682523124471928, -33.401986993284964 ], [ -70.681933723644349, -33.403017783438308 ], [ -70.681774836823408, -33.403261170807212 ], [ -70.680881438917154, -33.404865085718249 ], [ -70.680598789402907, -33.405419006874389 ], [ -70.680427000079547, -33.405989452404263 ], [ -70.680329843688298, -33.40703694774605 ], [ -70.679742120015362, -33.411039760602449 ], [ -70.679298433113374, -33.413854883265969 ], [ -70.678805990149357, -33.416587109078066 ], [ -70.678701991290581, -33.417330762580917 ], [ -70.678279059064948, -33.41854490004588 ], [ -70.677779615529914, -33.419345247886291 ], [ -70.677127656025931, -33.42001238860496 ], [ -70.675259576154943, -33.421414046422413 ], [ -70.674476139225987, -33.422113459910435 ], [ -70.673975288030903, -33.422742417320386 ], [ -70.673306601896329, -33.423622972532073 ], [ -70.672505455579866, -33.42465609704297 ], [ -70.671751248931955, -33.425550062866584 ], [ -70.671182731239767, -33.42595104849611 ], [ -70.671386669470508, -33.426515008227476 ], [ -70.672977672975264, -33.42599479163021 ], [ -70.673231626706098, -33.425917624663221 ], [ -70.673520000285336, -33.42583000034417 ], [ -70.674127035041934, -33.425573083507558 ], [ -70.677690884437709, -33.423778755997503 ], [ -70.678964278692305, -33.423241283866261 ], [ -70.681950000218976, -33.422219999299472 ], [ -70.683065599105717, -33.421802514279875 ], [ -70.683818060327027, -33.421463493103751 ], [ -70.684372253483701, -33.42112553528321 ], [ -70.685963689078093, -33.42055267740141 ], [ -70.686621987993036, -33.420315705624894 ], [ -70.68676350049806, -33.42025857527711 ], [ -70.687485843902849, -33.420004731812142 ], [ -70.68778578096294, -33.419879428750185 ], [ -70.688082798163975, -33.419749370358275 ], [ -70.688376787305032, -33.41961460399439 ], [ -70.688667641288276, -33.419475178730984 ], [ -70.68895525415796, -33.41933114533721 ], [ -70.689239521139044, -33.419182556260523 ], [ -70.689520338675436, -33.419029465607416 ], [ -70.689797604467572, -33.41887192912391 ], [ -70.690071217509796, -33.418710004175253 ], [ -70.690341078127105, -33.418543749724954 ], [ -70.690607088011475, -33.418373226313527 ], [ -70.690869150257697, -33.418198496036233 ], [ -70.691127169398598, -33.418019622520717 ], [ -70.691300625939675, -33.417833222531947 ], [ -70.691468817385044, -33.41764349032001 ], [ -70.691631651907272, -33.417450529451443 ], [ -70.691789040603595, -33.417254445255892 ], [ -70.691940897544583, -33.417055344768634 ], [ -70.692087139820941, -33.416853336672098 ], [ -70.692227687588783, -33.41664853123676 ], [ -70.692362464113273, -33.416441040260764 ], [ -70.692491395810535, -33.416230977009086 ], [ -70.692614412287725, -33.416018456151683 ], [ -70.692731446381586, -33.415803593700865 ], [ -70.692842434195043, -33.415586506948159 ], [ -70.692947315132102, -33.4153673144001 ], [ -70.693046031930919, -33.415146135713734 ], [ -70.693322156082957, -33.414851292442876 ], [ -70.693533890792068, -33.414625202392003 ], [ -70.694112705872342, -33.414145611828815 ], [ -70.694427721686282, -33.413903672146233 ], [ -70.695660000050324, -33.413020000244487 ], [ -70.696463781125502, -33.412559020299319 ], [ -70.697031589148608, -33.412301672021378 ], [ -70.697607513450308, -33.411987154947617 ], [ -70.698084068810203, -33.411605910037878 ], [ -70.698544778786825, -33.411201922456428 ], [ -70.698852510162141, -33.410973246379925 ], [ -70.699559999025396, -33.410530000395269 ], [ -70.700264687839919, -33.41023447332055 ], [ -70.700770000068701, -33.409919999752397 ], [ -70.701786934292826, -33.409206189396635 ], [ -70.702236419819968, -33.408938778301334 ], [ -70.703099999947, -33.408429999360109 ], [ -70.704026987658352, -33.407977093092164 ], [ -70.704630610613506, -33.407762104510418 ], [ -70.705272500003147, -33.407615144022657 ], [ -70.70583395963213, -33.407563430783348 ], [ -70.706449743979618, -33.407538847093051 ], [ -70.707409999899212, -33.407580000380172 ], [ -70.708592115439458, -33.407614759328638 ], [ -70.709259293302665, -33.407567103750893 ], [ -70.710086117063213, -33.40755042466747 ], [ -70.710956574692062, -33.407616338598793 ], [ -70.71187407260075, -33.407695953724385 ], [ -70.712468892964452, -33.407779171246034 ], [ -70.71285966909619, -33.407893544309438 ], [ -70.713269999755042, -33.408069999634122 ], [ -70.715490000028481, -33.409109999604439 ], [ -70.716198650413403, -33.409457207403513 ], [ -70.716666498403256, -33.409686630595459 ], [ -70.717174368135673, -33.409854108565504 ], [ -70.71780279627076, -33.409953333760129 ], [ -70.71822921934961, -33.409976204812828 ], [ -70.718460342633534, -33.409990615434097 ], [ -70.718690860933208, -33.410010672234989 ], [ -70.718920576343322, -33.410036357992318 ], [ -70.719149291647895, -33.410067650649296 ], [ -70.719376810489479, -33.410104523334432 ], [ -70.719602937537928, -33.410146944384572 ], [ -70.719827478657862, -33.410194877372128 ], [ -70.72005024107554, -33.410248281136454 ], [ -70.720271033544265, -33.410307109819158 ], [ -70.720489666508556, -33.410371312903429 ], [ -70.720705952266954, -33.410440835257617 ], [ -70.720919705133099, -33.410515617182448 ], [ -70.721130741595204, -33.410595594462436 ], [ -70.721338880473567, -33.410680698420926 ], [ -70.721543943076114, -33.410770855979273 ], [ -70.721745753351854, -33.410865989719476 ], [ -70.721944138041977, -33.410966017950834 ], [ -70.722138926828606, -33.411070854780043 ], [ -70.722329952481061, -33.411180410184933 ], [ -70.722517050999386, -33.411294590092062 ], [ -70.722700061755148, -33.411413296457212 ], [ -70.722909999833675, -33.411549999975911 ], [ -70.722630725289946, -33.411820682896135 ], [ -70.722814513410555, -33.41192423474947 ], [ -70.723186786044067, -33.412134044301155 ], [ -70.724065792939484, -33.412457229848435 ], [ -70.725458052272458, -33.412986773141782 ], [ -70.727436237749501, -33.413721718861986 ], [ -70.727876057404188, -33.413898511020946 ], [ -70.728384998826726, -33.413891419065912 ], [ -70.72885575645978, -33.413793398860101 ], [ -70.729107764439703, -33.413667914959049 ], [ -70.72961005293925, -33.413325363261862 ], [ -70.730295320177319, -33.413041428539664 ], [ -70.731961471348868, -33.412713209944798 ], [ -70.732506169312956, -33.412675091471662 ], [ -70.733643074441602, -33.412555925675797 ], [ -70.73384868892866, -33.412534360788435 ], [ -70.735301011418173, -33.412422590564063 ], [ -70.736262842084457, -33.412332888288155 ], [ -70.736516137350165, -33.412268320918493 ], [ -70.737097721038154, -33.412260176789744 ], [ -70.737498840372083, -33.412315579495719 ], [ -70.738374340244619, -33.412455719652399 ], [ -70.740559019659401, -33.412608145839364 ], [ -70.743277853511799, -33.412441638235464 ], [ -70.743791317951789, -33.412410188054743 ], [ -70.744446250879335, -33.412431489775834 ], [ -70.7446781554615, -33.41245885402148 ], [ -70.745157135927101, -33.412477405586728 ], [ -70.745636372949818, -33.412490553516847 ], [ -70.746115779042583, -33.412498295414053 ], [ -70.746595266687422, -33.412500629866486 ], [ -70.747074748351508, -33.412497556448407 ], [ -70.747554136503098, -33.412489075720309 ], [ -70.748033343627498, -33.4124751892288 ], [ -70.74851228224307, -33.412455899506327 ], [ -70.748990864917204, -33.412431210070757 ], [ -70.749469004282275, -33.412401125424651 ], [ -70.749946613051563, -33.4123656510545 ], [ -70.750423604035234, -33.412324793429761 ], [ -70.750899890156177, -33.412278560001546 ], [ -70.751375384466073, -33.412226959201433 ], [ -70.751850000161042, -33.4121700004399 ], [ -70.751938280581413, -33.412158872401307 ], [ -70.75202720292792, -33.41215219600646 ], [ -70.752116445327516, -33.412149995422965 ], [ -70.752205684748674, -33.412152278616631 ], [ -70.752294598170607, -33.412159037322631 ], [ -70.752382863752601, -33.412170247075373 ], [ -70.7524701619989, -33.412185867297083 ], [ -70.752848259308735, -33.412224594114129 ], [ -70.753358603001416, -33.412276864716866 ], [ -70.753750078920774, -33.412350610994309 ], [ -70.754131728169227, -33.412444472665392 ], [ -70.754503617222113, -33.412535300348488 ], [ -70.754990000151238, -33.412589999521664 ], [ -70.7555911778922, -33.412632424406709 ], [ -70.75649307925093, -33.412615254395817 ], [ -70.757164069564197, -33.41255425576383 ], [ -70.757848557064619, -33.412491852622296 ], [ -70.759154164905297, -33.412363632888159 ], [ -70.759428289407509, -33.412338316453123 ], [ -70.759581158414335, -33.412333133489149 ], [ -70.75996000042754, -33.412369999863152 ], [ -70.762361109147079, -33.41266326788049 ], [ -70.763212916109552, -33.412864906407741 ], [ -70.764063211467374, -33.413070941866138 ], [ -70.764911962639701, -33.413281366329826 ], [ -70.765759137104894, -33.41349617170399 ], [ -70.766604702401693, -33.413715349725514 ], [ -70.767448626130545, -33.413938891963006 ], [ -70.767869174227442, -33.414031999832595 ], [ -70.768850379757765, -33.414249229145064 ], [ -70.769175435143339, -33.414300942153055 ], [ -70.769611304905709, -33.414308330258713 ], [ -70.770280000023419, -33.414280000060643 ], [ -70.770354401190176, -33.414281254531794 ], [ -70.770355169249754, -33.414275265612893 ], [ -70.770680476163605, -33.414179088932805 ], [ -70.77086409989252, -33.41426792624361 ], [ -70.77093680144678, -33.414335283754454 ], [ -70.770937662931132, -33.414335429222035 ], [ -70.771169459715466, -33.414408627873662 ], [ -70.771401255601489, -33.414500126851273 ], [ -70.77170015114767, -33.414585525860083 ], [ -70.771920747737028, -33.414616484114127 ], [ -70.77212104599424, -33.414609925347207 ], [ -70.772279643557681, -33.414585525860083 ], [ -70.772432140661991, -33.414506226729721 ], [ -70.772541939942528, -33.414390328216541 ], [ -70.772707577602816, -33.414236568203918 ], [ -70.772846934151161, -33.414121932052538 ], [ -70.773029932652634, -33.414024334264276 ], [ -70.773329999601927, -33.413940000220997 ], [ -70.773774252442536, -33.413856205228612 ], [ -70.774024216755194, -33.413847436634462 ], [ -70.774228568210972, -33.41386507355017 ], [ -70.774479747944184, -33.413872460193211 ], [ -70.774789999093855, -33.41388999962507 ], [ -70.775221290143236, -33.41386447368064 ], [ -70.775665092927895, -33.413786436618395 ], [ -70.775942497179201, -33.413709932905256 ], [ -70.77609763712708, -33.413665606955803 ], [ -70.776363592350094, -33.41362866914718 ], [ -70.776703422327145, -33.413599117989207 ], [ -70.777139292089501, -33.413643443972596 ], [ -70.777434797393795, -33.413717320311342 ], [ -70.777660584448896, -33.413790053834838 ], [ -70.777870666257854, -33.413842910617852 ], [ -70.778092398317753, -33.413829539521672 ], [ -70.778373023927671, -33.413798584736291 ], [ -70.778698079313244, -33.413761645484563 ], [ -70.779023135597114, -33.413739483275677 ], [ -70.779380493501975, -33.413723903890329 ], [ -70.779924424304824, -33.413709932905256 ], [ -70.781637874471016, -33.413723903890329 ], [ -70.781970797301824, -33.413732095871495 ], [ -70.782262435358817, -33.413701661439156 ], [ -70.782325426124842, -33.412818155447482 ], [ -70.78252411639771, -33.406214738541593 ], [ -70.782364429177861, -33.405431895573521 ], [ -70.782372515812042, -33.405248934659376 ], [ -70.776029353487388, -33.399889676069648 ], [ -70.76414839004984, -33.389782640208701 ], [ -70.756567855015177, -33.383780237248281 ], [ -70.756039829782765, -33.384108040075901 ], [ -70.754157008557939, -33.384858367593964 ], [ -70.752384292939198, -33.385365904401283 ], [ -70.751640813972415, -33.385569442151244 ], [ -70.751009316293974, -33.385626523305632 ], [ -70.751080345185159, -33.386300975186217 ], [ -70.751088084171343, -33.38668687131625 ], [ -70.750986647307784, -33.387363756434617 ], [ -70.750773130341159, -33.388187021579853 ], [ -70.750320854646745, -33.38857940856613 ], [ -70.749867695908421, -33.388923490434308 ], [ -70.748493444203604, -33.389232313370101 ], [ -70.746194584424629, -33.389312930154752 ], [ -70.744239616804421, -33.389340429190305 ], [ -70.74286061121515, -33.389408049793936 ], [ -70.741713580276638, -33.389568882437601 ], [ -70.740396866564083, -33.389876881782506 ], [ -70.740230370114375, -33.390033472067941 ], [ -70.739719459584748, -33.390513596263268 ], [ -70.738817658837334, -33.391442900948128 ], [ -70.737139449579729, -33.393343176052426 ], [ -70.736943169486779, -33.393672237341079 ], [ -70.73663503386959, -33.393372400344724 ], [ -70.736337493881194, -33.393171335664881 ], [ -70.735991093626154, -33.392971100789033 ], [ -70.735596553553378, -33.392812392492999 ], [ -70.735056148638023, -33.392696872297691 ], [ -70.734564697414072, -33.392580666430028 ], [ -70.734025109067304, -33.392506131598552 ], [ -70.733435841190385, -33.392391214014125 ], [ -70.732892998247337, -33.392152639106527 ], [ -70.732544978329855, -33.391870192240255 ], [ -70.732049377787604, -33.391548877934788 ], [ -70.731459305918506, -33.391392959406808 ], [ -70.730773769185845, -33.391361449104089 ], [ -70.730188489828791, -33.39145168980437 ], [ -70.729607450519865, -33.391747098512205 ], [ -70.729223492601122, -33.392121761349934 ], [ -70.728791478407942, -33.392538168001039 ], [ -70.728453127057875, -33.392747965119277 ], [ -70.728062750676429, -33.392794478296302 ], [ -70.727718803720435, -33.392717191076876 ], [ -70.727567160913949, -33.392473145657007 ], [ -70.72770256577337, -33.391896718432442 ], [ -70.727546864378439, -33.391447498634619 ], [ -70.727052184609349, -33.391167152569039 ], [ -70.726415689602987, -33.391134934903278 ], [ -70.725876839671372, -33.391101430918305 ], [ -70.725196258045827, -33.391316051957205 ], [ -70.724472392894938, -33.3918185056312 ], [ -70.72423275291986, -33.392068068573494 ], [ -70.72340781831636, -33.392407839005934 ], [ -70.72238165929258, -33.392463091617508 ], [ -70.721207020430427, -33.392438391151416 ], [ -70.720321974161379, -33.392204508522752 ], [ -70.719533852518225, -33.391928125787501 ], [ -70.718197196206361, -33.391125943506005 ], [ -70.717307239745978, -33.390645800941847 ], [ -70.716764448006913, -33.390407153740014 ], [ -70.716222464751596, -33.390209422133871 ], [ -70.715634757248296, -33.390176547826947 ], [ -70.714705628851618, -33.39018939228442 ], [ -70.713294660306218, -33.390578269805495 ], [ -70.711932543044284, -33.390966384301777 ], [ -70.71123916401919, -33.391158943459416 ], [ -70.710599268889496, -33.390328152806426 ], [ -70.710098932429048, -33.389760507134838 ], [ -70.709445585027964, -33.388866804472251 ], [ -70.708998142269778, -33.388503582457851 ], [ -70.708502733967009, -33.388182242206717 ], [ -70.708202151384725, -33.387816994415587 ], [ -70.708096224741368, -33.387408137807064 ], [ -70.707992078558917, -33.387081261754858 ], [ -70.707839783575537, -33.386796048651682 ], [ -70.707538233507705, -33.386389884507913 ], [ -70.707139850442132, -33.386026053582952 ], [ -70.706840799487424, -33.385742932740449 ], [ -70.706341315528206, -33.38521633474717 ], [ -70.705989401413945, -33.384728706664674 ], [ -70.705588630626366, -33.384241897948741 ], [ -70.705337736557397, -33.383916961740248 ], [ -70.704893631040491, -33.383717980712177 ], [ -70.704351626225616, -33.383520194886209 ], [ -70.704252180927028, -33.383507688488066 ], [ -70.704024654733558, -33.383386340402872 ], [ -70.703699974843786, -33.383274732209266 ], [ -70.703289999917786, -33.383209999976394 ], [ -70.702543906853506, -33.383058590361927 ], [ -70.702045738027849, -33.383013635190501 ], [ -70.701575849964001, -33.383013635190501 ], [ -70.701241003840153, -33.383010688785227 ], [ -70.700927922997337, -33.382979533993641 ], [ -70.700388366989898, -33.382924467380874 ], [ -70.699813556599167, -33.382819085214933 ], [ -70.699376308821158, -33.382757874387657 ], [ -70.69864477565099, -33.382732863620589 ], [ -70.698441223695824, -33.38270443536419 ], [ -70.698321864544013, -33.382687764260396 ], [ -70.698108051133346, -33.382657901036062 ], [ -70.697603037145228, -33.382587367017827 ], [ -70.696486450111706, -33.382200362031909 ], [ -70.696369999704785, -33.382160000093791 ], [ -70.696194789596831, -33.382093538024961 ] ] ] } },
{ "type": "Feature", "properties": { "capa": "ds19", "popup": "<strong>CONDOMINIO ALTOS DE SANTA MARÍA</strong><br><br><strong>Programa:</strong> DS19<br><strong>Comuna:</strong> Renca<br><strong>Región:</strong> Metropolitana<br><strong>Año de inicio:</strong> 2021", "etiqueta": "CONDOMINIO ALTOS DE SANTA MARÍA" }, "geometry": { "type": "Polygon", "coordinates": [ [ [ -70.709959423167106, -33.404928379237639 ], [ -70.709956470404776, -33.404875655763938 ], [ -70.709670526768377, -33.404840187799905 ], [ -70.709375907202954, -33.405414031222556 ], [ -70.709693230788872, -33.405516801809298 ], [ -70.709959423167106, -33.404928379237639 ] ] ] } },
{ "type": "Feature", "properties": { "capa": "ds19", "popup": "<strong>LOS ACACIOS</strong><br><br><strong>Programa:</strong> DS19<br><strong>Comuna:</strong> Renca<br><strong>Región:</strong> Metropolitana<br><strong>Año de inicio:</strong> 2021", "etiqueta": "LOS ACACIOS" }, "geometry": { "type": "Polygon", "coordinates": [ [ [ -70.691781170773226, -33.405725145021286 ], [ -70.693693634605779, -33.405407599995321 ], [ -70.693552391595333, -33.404860823203542 ], [ -70.691737941146812, -33.405217892075946 ], [ -70.691781170773226, -33.405725145021286 ] ] ] } },
{ "type": "Feature", "properties": { "capa": "ds19", "popup": "<strong>JARDIN PONIENTE</strong><br><br><strong>Programa:</strong> DS19<br><strong>Comuna:</strong> Renca<br><strong>Región:</strong> Metropolitana<br><strong>Año de inicio:</strong> 2016", "etiqueta": "JARDIN PONIENTE" }, "geometry": { "type": "Polygon", "coordinates": [ [ [ -70.754448907126374, -33.396957096836047 ], [ -70.754768251921675, -33.397825349902064 ], [ -70.755695702265399, -33.397368283714364 ], [ -70.755570760982422, -33.397084060591148 ], [ -70.755395693706589, -33.397141930664574 ], [ -70.755326510853294, -33.397065123549623 ], [ -70.755246282315269, -33.397050144909329 ], [ -70.755141386937865, -33.39707784624207 ], [ -70.755000506846798, -33.397105052578141 ], [ -70.754874757080074, -33.397137876265752 ], [ -70.754757915906012, -33.396945646097031 ], [ -70.754650975064706, -33.396906078487227 ], [ -70.754448907126374, -33.396957096836047 ] ] ] } },
{ "type": "Feature", "properties": { "capa": "ds19", "popup": "<strong>CONDOMINIO TITÁN</strong><br><br><strong>Programa:</strong> DS19<br><strong>Comuna:</strong> Renca<br><strong>Región:</strong> Metropolitana<br><strong>Año de inicio:</strong> 2018", "etiqueta": "CONDOMINIO TITÁN" }, "geometry": { "type": "Polygon", "coordinates": [ [ [ -70.719968054109103, -33.398803438267926 ], [ -70.720502824790998, -33.398610634307701 ], [ -70.720729456262461, -33.397907952149374 ], [ -70.719875706399577, -33.397834073615051 ], [ -70.719968054109103, -33.398803438267926 ] ] ] } },
{ "type": "Feature", "properties": { "capa": "ds19", "popup": "<strong>CONDOMINIO JARDINES DE SANTA MARIA</strong><br><br><strong>Programa:</strong> DS19<br><strong>Comuna:</strong> Renca<br><strong>Región:</strong> Metropolitana<br><strong>Año de inicio:</strong> 2019", "etiqueta": "CONDOMINIO JARDINES DE SANTA MARIA" }, "geometry": { "type": "Polygon", "coordinates": [ [ [ -70.711354889485662, -33.405931974424526 ], [ -70.711494647580935, -33.405060982689584 ], [ -70.709863539688641, -33.404855445565481 ], [ -70.709747448607828, -33.404840289788368 ], [ -70.709696483588516, -33.404847964416227 ], [ -70.709660455755724, -33.404868161117967 ], [ -70.709632378013211, -33.404915494963269 ], [ -70.709551544010665, -33.405081417064146 ], [ -70.70993394065745, -33.40512698175003 ], [ -70.709906686670038, -33.405281515299173 ], [ -70.709831829159114, -33.40527536227912 ], [ -70.70974634547666, -33.405768349412853 ], [ -70.711354889485662, -33.405931974424526 ] ] ] } },
{ "type": "Feature", "properties": { "capa": "ds19", "popup": "<strong>PORTAL RENCA</strong><br><br><strong>Programa:</strong> DS19<br><strong>Comuna:</strong> Renca<br><strong>Región:</strong> Metropolitana de Santiago<br><strong>Año de inicio:</strong> 2023", "etiqueta": "PORTAL RENCA" }, "geometry": { "type": "Polygon", "coordinates": [ [ [ -70.745138856454972, -33.402907284851345 ], [ -70.74564857671686, -33.401945929590958 ], [ -70.744662985611299, -33.402103506798873 ], [ -70.744345719517568, -33.403059259087343 ], [ -70.745138856454972, -33.402907284851345 ] ] ] } },
{ "type": "Feature", "properties": { "capa": "ds19", "popup": "<strong>LOS TILOS</strong><br><br><strong>Programa:</strong> DS19<br><strong>Comuna:</strong> Renca<br><strong>Región:</strong> Metropolitana de Santiago<br><strong>Año de inicio:</strong> 2023", "etiqueta": "LOS TILOS" }, "geometry": { "type": "Polygon", "coordinates": [ [ [ -70.692154867236468, -33.405074274894957 ], [ -70.69354947746055, -33.404840956462621 ], [ -70.69342406186712, -33.404268431363228 ], [ -70.69171627557877, -33.404551099655954 ], [ -70.691722347291787, -33.404685524480193 ], [ -70.692048010836785, -33.404637589826457 ], [ -70.692154867236468, -33.405074274894957 ] ] ] } },
{ "type": "Feature", "properties": { "capa": "ds19", "popup": "<strong>CONDOMINIO TITÁN 2</strong><br><br><strong>Programa:</strong> DS19<br><strong>Comuna:</strong> Renca<br><strong>Región:</strong> Metropolitana de Santiago<br><strong>Año de inicio:</strong> 2023", "etiqueta": "CONDOMINIO TITÁN 2" }, "geometry": { "type": "Polygon", "coordinates": [ [ [ -70.720842878448551, -33.399156991455108 ], [ -70.720932191649041, -33.399127815605738 ], [ -70.720986556791715, -33.39910836378408 ], [ -70.72107587089053, -33.399095395400622 ], [ -70.721196249630168, -33.399082429265079 ], [ -70.72140982498729, -33.399082429265079 ], [ -70.721736012250119, -33.399066219530539 ], [ -70.721953471024193, -33.399114848725056 ], [ -70.722124327896296, -33.398648014233927 ], [ -70.72175154322305, -33.398528064227015 ], [ -70.721770958511286, -33.398229810674515 ], [ -70.721514670957362, -33.398223326417458 ], [ -70.721607866676521, -33.397954247322282 ], [ -70.721297215776531, -33.397934795987915 ], [ -70.720842878448551, -33.399156991455108 ] ] ] } },
{ "type": "Feature", "properties": { "capa": "ds19", "popup": "<strong>CONDOMINIO DON JOSE MIGUEL I</strong><br><br><strong>Programa:</strong> DS19<br><strong>Comuna:</strong> Renca<br><strong>Región:</strong> Metropolitana de Santiago<br><strong>Año de inicio:</strong> 2023", "etiqueta": "CONDOMINIO DON JOSE MIGUEL I" }, "geometry": { "type": "Polygon", "coordinates": [ [ [ -70.750899354418351, -33.40637588428784 ], [ -70.750984527283705, -33.406232934184935 ], [ -70.7484536892607, -33.405343942368596 ], [ -70.748559020321039, -33.406399689159784 ], [ -70.748999740985951, -33.406426472632482 ], [ -70.749005426423381, -33.40648518237176 ], [ -70.750869100956209, -33.406434740292021 ], [ -70.750899354418351, -33.40637588428784 ] ] ] } },
{ "type": "Feature", "properties": { "capa": "ds19", "popup": "<strong>CONDOMINIO DON JOSE MIGUEL II</strong><br><br><strong>Programa:</strong> DS19<br><strong>Comuna:</strong> Renca<br><strong>Región:</strong> Metropolitana de Santiago<br><strong>Año de inicio:</strong> 2023", "etiqueta": "CONDOMINIO DON JOSE MIGUEL II" }, "geometry": { "type": "Polygon", "coordinates": [ [ [ -70.752353526539039, -33.406833057572676 ], [ -70.752878263937532, -33.406903865126395 ], [ -70.750984419485889, -33.406234018544367 ], [ -70.75087082931482, -33.406438633028316 ], [ -70.749004950316277, -33.406485183121688 ], [ -70.749035021420411, -33.407014179405095 ], [ -70.752149343068226, -33.407004070805733 ], [ -70.752353526539039, -33.406833057572676 ] ] ] } },
{ "type": "Feature", "properties": { "capa": "colegios", "popup": "<strong>ESCUELA JUANA ATALA DE HIRMAS</strong><br><br><strong>Dirección:</strong> JUANA ATALA DE HIRMAS 2460", "etiqueta": "" }, "geometry": { "type": "Point", "coordinates": [ -70.67654668, -33.42176612 ] } },
{ "type": "Feature", "properties": { "capa": "colegios", "popup": "<strong>ESCUELA GENERAL MANUEL BULNES PRIETO</strong><br><br><strong>Dirección:</strong> ANIBAL ZAÑARTU 2870", "etiqueta": "" }, "geometry": { "type": "Point", "coordinates": [ -70.68530905, -33.41633153 ] } },
{ "type": "Feature", "properties": { "capa": "colegios", "popup": "<strong>ESCUELA ESPECIAL PARTICULAR NUEVA SENDA</strong><br><br><strong>Dirección:</strong> JOSE MANUEL BORGOÑO 2955", "etiqueta": "" }, "geometry": { "type": "Point", "coordinates": [ -70.68422, -33.413475 ] } },
{ "type": "Feature", "properties": { "capa": "colegios", "popup": "<strong>ESC.MUNIC.DE PARVULOS HERNAN DEL SOL</strong><br><br><strong>Dirección:</strong> CRUZ GRANDE 950", "etiqueta": "" }, "geometry": { "type": "Point", "coordinates": [ -70.729935, -33.411438 ] } },
{ "type": "Feature", "properties": { "capa": "colegios", "popup": "<strong>ESCUELA Nº 1365 R.P. GUSTAVO LE PAIGE</strong><br><br><strong>Dirección:</strong> TOTORAL BAJO 1023", "etiqueta": "" }, "geometry": { "type": "Point", "coordinates": [ -70.72900341, -33.41087656 ] } },
{ "type": "Feature", "properties": { "capa": "colegios", "popup": "<strong>ESC. ESPECIAL ARTESANOS DE LA VIDA</strong><br><br><strong>Dirección:</strong> OLIMPO 924", "etiqueta": "" }, "geometry": { "type": "Point", "coordinates": [ -70.743866, -33.41065 ] } },
{ "type": "Feature", "properties": { "capa": "colegios", "popup": "<strong>COLEG. POLIV. SANTA MARIA DE LA PROVIDENCIA</strong><br><br><strong>Dirección:</strong> AVENIDA DOMINGO SANTA MARIA 3198", "etiqueta": "" }, "geometry": { "type": "Point", "coordinates": [ -70.68889435, -33.41036968 ] } },
{ "type": "Feature", "properties": { "capa": "colegios", "popup": "<strong>ESCUELA JORGE ALESSANDRI RODRIGUEZ ANEXO</strong><br><br><strong>Dirección:</strong> TOPOCALMA 6215", "etiqueta": "" }, "geometry": { "type": "Point", "coordinates": [ -70.737854, -33.40939 ] } },
{ "type": "Feature", "properties": { "capa": "colegios", "popup": "<strong>LICEO POLITECNICO PARTICULAR ANDES</strong><br><br><strong>Dirección:</strong> AVENIDA DOMINGO SANTA MARIA 3640", "etiqueta": "" }, "geometry": { "type": "Point", "coordinates": [ -70.695718109999987, -33.40846399 ] } },
{ "type": "Feature", "properties": { "capa": "colegios", "popup": "<strong>COLEGIO PARTICULAR CHARLES DARWIN</strong><br><br><strong>Dirección:</strong> LOS ACACIOS 1368", "etiqueta": "" }, "geometry": { "type": "Point", "coordinates": [ -70.69279868, -33.40826233 ] } },
{ "type": "Feature", "properties": { "capa": "colegios", "popup": "<strong>ESCUELA BASICA  N° 878  LOS ACACIOS</strong><br><br><strong>Dirección:</strong> LOS ACACIOS 1445", "etiqueta": "" }, "geometry": { "type": "Point", "coordinates": [ -70.692272130000021, -33.407231350000018 ] } },
{ "type": "Feature", "properties": { "capa": "colegios", "popup": "<strong>ESCUELA BASICA 2270 MI SONRISA</strong><br><br><strong>Dirección:</strong> QUILLAGUA 6089", "etiqueta": "" }, "geometry": { "type": "Point", "coordinates": [ -70.749016, -33.407204 ] } },
{ "type": "Feature", "properties": { "capa": "colegios", "popup": "<strong>CENTRO EDUC. GOYENECHEA</strong><br><br><strong>Dirección:</strong> JOSE MIGUEL INFANTE 6098", "etiqueta": "" }, "geometry": { "type": "Point", "coordinates": [ -70.73691622, -33.40656652 ] } },
{ "type": "Feature", "properties": { "capa": "colegios", "popup": "<strong>COLEGIO  ALONSO  DE  CORDOVA</strong><br><br><strong>Dirección:</strong> AVENIDA EL MONTIJO 1010", "etiqueta": "" }, "geometry": { "type": "Point", "coordinates": [ -70.758255219999981, -33.4062648 ] } },
{ "type": "Feature", "properties": { "capa": "colegios", "popup": "<strong>ESCUELA BASICA PARTICULAR ROQUER</strong><br><br><strong>Dirección:</strong> DOMINGO SANTA MARIA 4012", "etiqueta": "" }, "geometry": { "type": "Point", "coordinates": [ -70.70246519, -33.406240080000011 ] } },
{ "type": "Feature", "properties": { "capa": "colegios", "popup": "<strong>ESC. ESPEICIAL VOCES II</strong><br><br><strong>Dirección:</strong> CALLE CINCO 1314", "etiqueta": "" }, "geometry": { "type": "Point", "coordinates": [ -70.72208, -33.405937 ] } },
{ "type": "Feature", "properties": { "capa": "colegios", "popup": "<strong>ESC.PART. TALLERES PREVOCACIONALES PADRE HURT</strong><br><br><strong>Dirección:</strong> JOSE MIGUEL INFANTE 7401", "etiqueta": "" }, "geometry": { "type": "Point", "coordinates": [ -70.74412651999998, -33.4057892 ] } },
{ "type": "Feature", "properties": { "capa": "colegios", "popup": "<strong>ESCUELA BASICA LO VELASQUEZ</strong><br><br><strong>Dirección:</strong> AVENIDA JOSE MIGUEL INFANTE 7447", "etiqueta": "" }, "geometry": { "type": "Point", "coordinates": [ -70.74463042, -33.40571544 ] } },
{ "type": "Feature", "properties": { "capa": "colegios", "popup": "<strong>ESCUELA DE PARV. MUSICAL GARFIELD</strong><br><br><strong>Dirección:</strong> CALLE 1 5266", "etiqueta": "" }, "geometry": { "type": "Point", "coordinates": [ -70.727295, -33.405613 ] } },
{ "type": "Feature", "properties": { "capa": "colegios", "popup": "<strong>ESCUELA ESP. SANTA MARIA DE RENCA</strong><br><br><strong>Dirección:</strong> AVENIDA DOMINGO SANTA MARIA 4066", "etiqueta": "" }, "geometry": { "type": "Point", "coordinates": [ -70.70284, -33.405575 ] } },
{ "type": "Feature", "properties": { "capa": "colegios", "popup": "<strong>ESCUELA CAPITAN JOSE LUIS ARANEDA</strong><br><br><strong>Dirección:</strong> CALLE DOS 5116", "etiqueta": "" }, "geometry": { "type": "Point", "coordinates": [ -70.723286189999982, -33.405277660000017 ] } },
{ "type": "Feature", "properties": { "capa": "colegios", "popup": "<strong>CENTRO EDUCACIONAL FEDERICO GARCIA LORCA</strong><br><br><strong>Dirección:</strong> AVENIDA DOMINGO SANTA MARIA 4136", "etiqueta": "" }, "geometry": { "type": "Point", "coordinates": [ -70.70484484, -33.405189340000014 ] } },
{ "type": "Feature", "properties": { "capa": "colegios", "popup": "<strong>ESCUELA PARVULOS MELODIA AZUL</strong><br><br><strong>Dirección:</strong> PASAJE TRES 1441", "etiqueta": "" }, "geometry": { "type": "Point", "coordinates": [ -70.72136, -33.40518 ] } },
{ "type": "Feature", "properties": { "capa": "colegios", "popup": "<strong>ESCUELA ESPECIAL PARTICULAR ESPERANZA</strong><br><br><strong>Dirección:</strong> ERNESTO MOUAT 4181", "etiqueta": "" }, "geometry": { "type": "Point", "coordinates": [ -70.70564, -33.405064 ] } },
{ "type": "Feature", "properties": { "capa": "colegios", "popup": "<strong>ESCUELA BASICA ISABEL LE BRUN</strong><br><br><strong>Dirección:</strong> DOMINGO SANTA MARIA 4463", "etiqueta": "" }, "geometry": { "type": "Point", "coordinates": [ -70.71227233, -33.40505077 ] } },
{ "type": "Feature", "properties": { "capa": "colegios", "popup": "<strong>ESCUELA DOMINGO SANTA MARIA GONZALEZ</strong><br><br><strong>Dirección:</strong> DOMINGO SANTA MARIA 4383", "etiqueta": "" }, "geometry": { "type": "Point", "coordinates": [ -70.71058362, -33.404840330000013 ] } },
{ "type": "Feature", "properties": { "capa": "colegios", "popup": "<strong>ESC. BASICA MONSERRAT ROBERT DE GARCIA</strong><br><br><strong>Dirección:</strong> MIRAFLORES 6004", "etiqueta": "" }, "geometry": { "type": "Point", "coordinates": [ -70.73666029, -33.40453575 ] } },
{ "type": "Feature", "properties": { "capa": "colegios", "popup": "<strong>ESCUELA PARTICULAR SAN GENARO</strong><br><br><strong>Dirección:</strong> ARTURO PRAT 4898", "etiqueta": "" }, "geometry": { "type": "Point", "coordinates": [ -70.719865649999988, -33.40446948 ] } },
{ "type": "Feature", "properties": { "capa": "colegios", "popup": "<strong>LICEO INDUSTRIAL BENJAMIN DAVILA LARRAIN</strong><br><br><strong>Dirección:</strong> CAUPOLICAN 1439", "etiqueta": "" }, "geometry": { "type": "Point", "coordinates": [ -70.70056326, -33.40438993 ] } },
{ "type": "Feature", "properties": { "capa": "colegios", "popup": "<strong>LICEO INSTITUTO CUMBRE DE CONDORES</strong><br><br><strong>Dirección:</strong> AVENIDA JAIME GUZMAN 1365", "etiqueta": "" }, "geometry": { "type": "Point", "coordinates": [ -70.70272, -33.40416 ] } },
{ "type": "Feature", "properties": { "capa": "colegios", "popup": "<strong>ESCUELA BASICA Y ESPECIAL N° 1905 JACARANDA</strong><br><br><strong>Dirección:</strong> CALLE MIRAFLORES 6353", "etiqueta": "" }, "geometry": { "type": "Point", "coordinates": [ -70.73798, -33.40411 ] } },
{ "type": "Feature", "properties": { "capa": "colegios", "popup": "<strong>ESCUELA  DIFERENCIAL N° 2480  ` AMULEN`</strong><br><br><strong>Dirección:</strong> ESMERALDA 1418", "etiqueta": "" }, "geometry": { "type": "Point", "coordinates": [ -70.73629, -33.40402 ] } },
{ "type": "Feature", "properties": { "capa": "colegios", "popup": "<strong>ESCUELA REBECA MATTE BELLO</strong><br><br><strong>Dirección:</strong> CONDELL 1552", "etiqueta": "" }, "geometry": { "type": "Point", "coordinates": [ -70.73007011, -33.40389768 ] } },
{ "type": "Feature", "properties": { "capa": "colegios", "popup": "<strong>COLEGIO EL BOSQUE DE RENCA</strong><br><br><strong>Dirección:</strong> MIRAFLORES 7050", "etiqueta": "" }, "geometry": { "type": "Point", "coordinates": [ -70.74172543, -33.403779060000012 ] } },
{ "type": "Feature", "properties": { "capa": "colegios", "popup": "<strong>ESCUELA PARTICULAR SAN FIDEL</strong><br><br><strong>Dirección:</strong> J M BALMACEDA 4159", "etiqueta": "" }, "geometry": { "type": "Point", "coordinates": [ -70.70577317, -33.40371933 ] } },
{ "type": "Feature", "properties": { "capa": "colegios", "popup": "<strong>COLEGIO LO  BOZA ROSALBA LAGOS MONACO</strong><br><br><strong>Dirección:</strong> ECUADOR 1553", "etiqueta": "" }, "geometry": { "type": "Point", "coordinates": [ -70.7399, -33.403503 ] } },
{ "type": "Feature", "properties": { "capa": "colegios", "popup": "<strong>ESCUELA ESPECIAL MAGOS DE RENCA</strong><br><br><strong>Dirección:</strong> ARTURO PRAT 4538", "etiqueta": "" }, "geometry": { "type": "Point", "coordinates": [ -70.713211, -33.403488 ] } },
{ "type": "Feature", "properties": { "capa": "colegios", "popup": "<strong>ESCUELA ESP. PROFESORA ELSA BENITEZ</strong><br><br><strong>Dirección:</strong> ESMERALDA 1440", "etiqueta": "" }, "geometry": { "type": "Point", "coordinates": [ -70.73601, -33.40348 ] } },
{ "type": "Feature", "properties": { "capa": "colegios", "popup": "<strong>ESCUELA PARTICULAR PRIMITIVA ECHEVERRIA</strong><br><br><strong>Dirección:</strong> AVENIDA JOSE MANUEL BALMACEDA 4251", "etiqueta": "" }, "geometry": { "type": "Point", "coordinates": [ -70.70751846, -33.403333090000011 ] } },
{ "type": "Feature", "properties": { "capa": "colegios", "popup": "<strong>ESC. ESP. MAGICAS PALABRAS</strong><br><br><strong>Dirección:</strong> EDUCADORA AURORA VALDES 1446", "etiqueta": "" }, "geometry": { "type": "Point", "coordinates": [ -70.708519, -33.403099 ] } },
{ "type": "Feature", "properties": { "capa": "colegios", "popup": "<strong>COLEGIO DE ADULTO LAURA VICUNA DE RENCA</strong><br><br><strong>Dirección:</strong> CALLE JOSE MANUEL BALMACEDA 4411", "etiqueta": "" }, "geometry": { "type": "Point", "coordinates": [ -70.71002, -33.403065 ] } },
{ "type": "Feature", "properties": { "capa": "colegios", "popup": "<strong>CENTRO EDUCACIONAL LAURA VICUNA</strong><br><br><strong>Dirección:</strong> JOSE MANUEL BALMACEDA 4411", "etiqueta": "" }, "geometry": { "type": "Point", "coordinates": [ -70.710022129999984, -33.403063660000015 ] } },
{ "type": "Feature", "properties": { "capa": "colegios", "popup": "<strong>ESCUELA JUANA DE LESTONAC</strong><br><br><strong>Dirección:</strong> NUEVA UNO 1488", "etiqueta": "" }, "geometry": { "type": "Point", "coordinates": [ -70.723703539999988, -33.40298808 ] } },
{ "type": "Feature", "properties": { "capa": "colegios", "popup": "<strong>LICEO POLITEC.PARTIC.EL SENOR DE RENCA</strong><br><br><strong>Dirección:</strong> J M BALMACEDA 4495", "etiqueta": "" }, "geometry": { "type": "Point", "coordinates": [ -70.71164013, -33.40229643 ] } },
{ "type": "Feature", "properties": { "capa": "colegios", "popup": "<strong>ESCUELA PARTIC. COLEGIO BALMACEDA-RENCA</strong><br><br><strong>Dirección:</strong> GENERAL VELASQUEZ 1497", "etiqueta": "" }, "geometry": { "type": "Point", "coordinates": [ -70.717979229999983, -33.402105960000014 ] } },
{ "type": "Feature", "properties": { "capa": "colegios", "popup": "<strong>CENTRO EDUCACIONAL RENCA</strong><br><br><strong>Dirección:</strong> J M BALMACEDA 5318", "etiqueta": "" }, "geometry": { "type": "Point", "coordinates": [ -70.72863372, -33.40206808 ] } },
{ "type": "Feature", "properties": { "capa": "colegios", "popup": "<strong>ESC. PARV. UN RINCON DE ALEGRIA</strong><br><br><strong>Dirección:</strong> CALLE ECUADOR 1709", "etiqueta": "" }, "geometry": { "type": "Point", "coordinates": [ -70.739616, -33.401455 ] } },
{ "type": "Feature", "properties": { "capa": "colegios", "popup": "<strong>COLEGIO POLIV. SAN JOSE DE RENCA</strong><br><br><strong>Dirección:</strong> AVENIDA JOSE MANUEL BALMACEDA 4883", "etiqueta": "" }, "geometry": { "type": "Point", "coordinates": [ -70.72015431, -33.401331300000024 ] } },
{ "type": "Feature", "properties": { "capa": "colegios", "popup": "<strong>COLEGIO CORAZON DE JESUS DE RENCA</strong><br><br><strong>Dirección:</strong> BAQUEDANO 4144", "etiqueta": "" }, "geometry": { "type": "Point", "coordinates": [ -70.70422985, -33.40076507 ] } },
{ "type": "Feature", "properties": { "capa": "colegios", "popup": "<strong>COLEGIO PART. SOCHIDES RENCA</strong><br><br><strong>Dirección:</strong> GENERAL FREIRE 5141", "etiqueta": "" }, "geometry": { "type": "Point", "coordinates": [ -70.72521632, -33.40074501 ] } },
{ "type": "Feature", "properties": { "capa": "colegios", "popup": "<strong>ESCUELA PARTICULAR JOSE BERNARDO SUAREZ</strong><br><br><strong>Dirección:</strong> CLAUDIO MATTE 1592", "etiqueta": "" }, "geometry": { "type": "Point", "coordinates": [ -70.716706179999989, -33.40043982000001 ] } },
{ "type": "Feature", "properties": { "capa": "colegios", "popup": "<strong>COLEGIO SAN JOAQUIN</strong><br><br><strong>Dirección:</strong> VILLARRICA 1653", "etiqueta": "" }, "geometry": { "type": "Point", "coordinates": [ -70.72908621, -33.39991112 ] } },
{ "type": "Feature", "properties": { "capa": "colegios", "popup": "<strong>ESCUELA ESPECIAL JESUS ANGEL GAZO</strong><br><br><strong>Dirección:</strong> AVENIDA MANUEL RODRIGUEZ 1560", "etiqueta": "" }, "geometry": { "type": "Point", "coordinates": [ -70.721992, -33.399849 ] } },
{ "type": "Feature", "properties": { "capa": "colegios", "popup": "<strong>ESCUELA  ESPECIAL DE LENGUAJE PETRICOR</strong><br><br><strong>Dirección:</strong> SANTA CRUZ 7109", "etiqueta": "" }, "geometry": { "type": "Point", "coordinates": [ -70.74537, -33.39955 ] } },
{ "type": "Feature", "properties": { "capa": "colegios", "popup": "<strong>ESCUELA ESPECIAL N° 2451 `PUCALAN`</strong><br><br><strong>Dirección:</strong> AVENIDA APOSTOL SANTIAGO 1921", "etiqueta": "" }, "geometry": { "type": "Point", "coordinates": [ -70.69799, -33.39933 ] } },
{ "type": "Feature", "properties": { "capa": "colegios", "popup": "<strong>LICEO THOMAS ALVA EDISON</strong><br><br><strong>Dirección:</strong> LAS MARGARITAS 4020", "etiqueta": "" }, "geometry": { "type": "Point", "coordinates": [ -70.70159944, -33.39868189 ] } },
{ "type": "Feature", "properties": { "capa": "colegios", "popup": "<strong>COLEGIO PARTICULAR HELENICO</strong><br><br><strong>Dirección:</strong> MANUEL RODRIGUEZ 1621", "etiqueta": "" }, "geometry": { "type": "Point", "coordinates": [ -70.72224457, -33.39834524 ] } },
{ "type": "Feature", "properties": { "capa": "colegios", "popup": "<strong>INSTITUTO CUMBRES DE CONDORES PONIENTE</strong><br><br><strong>Dirección:</strong> AVENIDA BRASIL 7965", "etiqueta": "" }, "geometry": { "type": "Point", "coordinates": [ -70.74297, -33.3978 ] } },
{ "type": "Feature", "properties": { "capa": "colegios", "popup": "<strong>ESCUELA ESPECIAL EL RINCON DE JOSEFINA</strong><br><br><strong>Dirección:</strong> MANUEL RODRIGUEZ 1706", "etiqueta": "" }, "geometry": { "type": "Point", "coordinates": [ -70.722916, -33.396805 ] } },
{ "type": "Feature", "properties": { "capa": "colegios", "popup": "<strong>ESCUELA GENERAL ALEJANDRO GOROSTIAGA O</strong><br><br><strong>Dirección:</strong> PUERTO MONTT 3594", "etiqueta": "" }, "geometry": { "type": "Point", "coordinates": [ -70.69644571, -33.39329537 ] } },
{ "type": "Feature", "properties": { "capa": "jardines", "popup": "<strong>LA ALBORADA</strong><br><br><strong>Dirección:</strong> PJE  12 # 5125 POB LA ALBORADA ", "etiqueta": "" }, "geometry": { "type": "MultiPoint", "coordinates": [ [ -70.69707, -33.405703 ] ] } },
{ "type": "Feature", "properties": { "capa": "jardines", "popup": "<strong>CAPULLITO DE TERNURA</strong><br><br><strong>Dirección:</strong> DIEGO PORTALES 4323, POB. EL DAMASCAL ", "etiqueta": "" }, "geometry": { "type": "MultiPoint", "coordinates": [ [ -70.710116, -33.401073 ] ] } },
{ "type": "Feature", "properties": { "capa": "jardines", "popup": "<strong>EL MUNDO DE LOS NIÑOS</strong><br><br><strong>Dirección:</strong> RIVERA 1580 VILLA EL SALVADOR ", "etiqueta": "" }, "geometry": { "type": "MultiPoint", "coordinates": [ [ -70.697772, -33.404252 ] ] } },
{ "type": "Feature", "properties": { "capa": "jardines", "popup": "<strong>WILEFUN</strong><br><br><strong>Dirección:</strong> TOCOMCE 1090  VILLA MANUEL RODRIGUEZ ", "etiqueta": "" }, "geometry": { "type": "MultiPoint", "coordinates": [ [ -70.718455, -33.408678 ] ] } },
{ "type": "Feature", "properties": { "capa": "jardines", "popup": "<strong>LOS PEQUES Y PECAS DEL MAÑANA</strong><br><br><strong>Dirección:</strong> BAQUEDANO 4035 POB. HUAMACHUCO 1. ", "etiqueta": "" }, "geometry": { "type": "MultiPoint", "coordinates": [ [ -70.701427, -33.399785 ] ] } },
{ "type": "Feature", "properties": { "capa": "jardines", "popup": "<strong>RUISEÑOR DEL ALBA</strong><br><br><strong>Dirección:</strong> ANGOL 1742 POB CERRO COLORADO ", "etiqueta": "" }, "geometry": { "type": "MultiPoint", "coordinates": [ [ -70.727023, -33.397465 ] ] } },
{ "type": "Feature", "properties": { "capa": "jardines", "popup": "<strong>CARNAVALITO</strong><br><br><strong>Dirección:</strong> PUERTO MONTT 2307 POB. HUAMACHUCO I ", "etiqueta": "" }, "geometry": { "type": "MultiPoint", "coordinates": [ [ -70.690946, -33.393514 ] ] } },
{ "type": "Feature", "properties": { "capa": "jardines", "popup": "<strong>SEMILLITAS DEL FUTURO</strong><br><br><strong>Dirección:</strong> VILLARRICA 2565 POB. HUAMACHUCO II ", "etiqueta": "" }, "geometry": { "type": "MultiPoint", "coordinates": [ [ -70.697169, -33.389645 ] ] } },
{ "type": "Feature", "properties": { "capa": "jardines", "popup": "<strong>CRISTO VIVE</strong><br><br><strong>Dirección:</strong> HERCULES 1100, POBL. LAS MERCEDES ", "etiqueta": "" }, "geometry": { "type": "MultiPoint", "coordinates": [ [ -70.745043, -33.407438 ] ] } },
{ "type": "Feature", "properties": { "capa": "jardines", "popup": "<strong>CUMBRE VOLCAN OJOS DEL SALADO</strong><br><br><strong>Dirección:</strong> PIEDRA LOBO NUMERO 1206, POBLACION VALLE DEL ELQUI ", "etiqueta": "" }, "geometry": { "type": "MultiPoint", "coordinates": [ [ -70.728252, -33.408882 ] ] } },
{ "type": "Feature", "properties": { "capa": "jardines", "popup": "<strong>SALA CUNA CRISTO VIVE</strong><br><br><strong>Dirección:</strong> PSJE AGRIGENTO 7418 ", "etiqueta": "" }, "geometry": { "type": "MultiPoint", "coordinates": [ [ -70.745472, -33.408387 ] ] } },
{ "type": "Feature", "properties": { "capa": "jardines", "popup": "<strong>CUMBRE VOLCAN OSORNO</strong><br><br><strong>Dirección:</strong> LAS MARGARITAS 4020 B ", "etiqueta": "" }, "geometry": { "type": "MultiPoint", "coordinates": [ [ -70.701683, -33.399197 ] ] } },
{ "type": "Feature", "properties": { "capa": "jardines", "popup": "<strong>CUMBRE CERRO ACONCAGUA</strong><br><br><strong>Dirección:</strong> ARTURO PRAT 5491 ", "etiqueta": "" }, "geometry": { "type": "MultiPoint", "coordinates": [ [ -70.730155, -33.404412 ] ] } },
{ "type": "Feature", "properties": { "capa": "jardines", "popup": "<strong>CUMBRE MONTE EVEREST</strong><br><br><strong>Dirección:</strong> AV CAUPOLICAN 1484 ", "etiqueta": "" }, "geometry": { "type": "MultiPoint", "coordinates": [ [ -70.701469, -33.404084 ] ] } },
{ "type": "Feature", "properties": { "capa": "jardines", "popup": "<strong>CUMBRE TORRES DEL PAINE</strong><br><br><strong>Dirección:</strong> AVDA VICUÑA MACKENNA 7400 ", "etiqueta": "" }, "geometry": { "type": "MultiPoint", "coordinates": [ [ -70.736423, -33.401318 ] ] } },
{ "type": "Feature", "properties": { "capa": "jardines", "popup": "<strong>CUMBRE VOLCAN VILLARRICA</strong><br><br><strong>Dirección:</strong> AVDA LA PUNTA 1799 ", "etiqueta": "" }, "geometry": { "type": "MultiPoint", "coordinates": [ [ -70.743698, -33.398888 ] ] } },
{ "type": "Feature", "properties": { "capa": "jardines", "popup": "<strong>CUMBRE VOLCAN LONQUIMAY</strong><br><br><strong>Dirección:</strong> DOMINGO STA MARIA 4382 (INTERIOR) ", "etiqueta": "" }, "geometry": { "type": "MultiPoint", "coordinates": [ [ -70.710096, -33.405259 ] ] } },
{ "type": "Feature", "properties": { "capa": "jardines", "popup": "<strong>KAIROS</strong><br><br><strong>Dirección:</strong> JOSE MIGUEL INFANTE 4835 ", "etiqueta": "" }, "geometry": { "type": "MultiPoint", "coordinates": [ [ -70.718843, -33.406868 ] ] } },
{ "type": "Feature", "properties": { "capa": "jardines", "popup": "<strong>CUMBRE MONTE KILIMANJARO</strong><br><br><strong>Dirección:</strong> CALLE 2 5116-B ", "etiqueta": "" }, "geometry": { "type": "MultiPoint", "coordinates": [ [ -70.723371, -33.405792 ] ] } },
{ "type": "Feature", "properties": { "capa": "jardines", "popup": "<strong>CUMB VOLCAN NEVADO INCAHUASI</strong><br><br><strong>Dirección:</strong> TOTORAL BAJO 1011-A ", "etiqueta": "" }, "geometry": { "type": "MultiPoint", "coordinates": [ [ -70.72899, -33.4116 ] ] } },
{ "type": "Feature", "properties": { "capa": "jardines", "popup": "<strong>CUMBRE VOLCAN PARINACOTA</strong><br><br><strong>Dirección:</strong> CRUZ GRANDE 950 ", "etiqueta": "" }, "geometry": { "type": "MultiPoint", "coordinates": [ [ -70.73077, -33.41123 ] ] } },
{ "type": "Feature", "properties": { "capa": "jardines", "popup": "<strong>HUELLAS DE FELICIDAD</strong><br><br><strong>Dirección:</strong> CAUPOLICAN 1484 ", "etiqueta": "" }, "geometry": { "type": "MultiPoint", "coordinates": [ [ -70.70044, -33.403694 ] ] } },
{ "type": "Feature", "properties": { "capa": "jardines", "popup": "<strong>NA</strong><br><br><strong>Dirección:</strong> NA ", "etiqueta": "" }, "geometry": { "type": "MultiPoint", "coordinates": [ [ -70.697798053598319, -33.393295951888959 ] ] } },
{ "type": "Feature", "properties": { "capa": "jardines", "popup": "<strong>NA</strong><br><br><strong>Dirección:</strong> NA ", "etiqueta": "" }, "geometry": { "type": "MultiPoint", "coordinates": [ [ -70.72727882865081, -33.403169731898117 ] ] } },
{ "type": "Feature", "properties": { "capa": "jardines", "popup": "<strong>NA</strong><br><br><strong>Dirección:</strong> NA ", "etiqueta": "" }, "geometry": { "type": "MultiPoint", "coordinates": [ [ -70.744061828570111, -33.409040175903201 ] ] } },
{ "type": "Feature", "properties": { "capa": "jardines", "popup": "<strong>NA</strong><br><br><strong>Dirección:</strong> NA ", "etiqueta": "" }, "geometry": { "type": "MultiPoint", "coordinates": [ [ -70.740768266559442, -33.411034360411321 ] ] } },
{ "type": "Feature", "properties": { "capa": "jardines", "popup": "<strong>NA</strong><br><br><strong>Dirección:</strong> NA ", "etiqueta": "" }, "geometry": { "type": "MultiPoint", "coordinates": [ [ -70.74793418336246, -33.405351363915983 ] ] } },
{ "type": "Feature", "properties": { "capa": "jardines", "popup": "<strong>NA</strong><br><br><strong>Dirección:</strong> NA ", "etiqueta": "" }, "geometry": { "type": "MultiPoint", "coordinates": [ [ -70.750541891656553, -33.400273459436463 ] ] } },
{ "type": "Feature", "properties": { "capa": "jardines", "popup": "<strong>NA</strong><br><br><strong>Dirección:</strong> NA ", "etiqueta": "" }, "geometry": { "type": "MultiPoint", "coordinates": [ [ -70.742852655604992, -33.40018332763659 ] ] } },
{ "type": "Feature", "properties": { "capa": "jardines", "popup": "<strong>NA</strong><br><br><strong>Dirección:</strong> NA ", "etiqueta": "" }, "geometry": { "type": "MultiPoint", "coordinates": [ [ -70.738023999661451, -33.404444999780388 ] ] } },
{ "type": "Feature", "properties": { "capa": "jardines", "popup": "<strong>NA</strong><br><br><strong>Dirección:</strong> NA ", "etiqueta": "" }, "geometry": { "type": "MultiPoint", "coordinates": [ [ -70.737220999504942, -33.40028899981543 ] ] } },
{ "type": "Feature", "properties": { "capa": "comisarias", "popup": "<strong>7MA. COM. RENCA</strong><br><br><strong>Dirección:</strong> BLANCO ENCALADA 79", "etiqueta": "" }, "geometry": { "type": "Point", "coordinates": [ -70.704469999999887, -33.40393 ] } },
{ "type": "Feature", "properties": { "capa": "comisarias", "popup": "<strong>SCOM. LO VELASQUEZ</strong><br><br><strong>Dirección:</strong> BRASIL 7845", "etiqueta": "" }, "geometry": { "type": "Point", "coordinates": [ -70.74882, -33.39829 ] } },
{ "type": "Feature", "properties": { "capa": "salud", "popup": "<strong>Centro de Salud Familiar Dr. Hernán Urzúa Merino</strong><br><br><strong>Tipo de atención:</strong> Centro de Salud Familiar (CESFAM)<br><strong>Dirección:</strong>  1011", "etiqueta": "" }, "geometry": { "type": "Point", "coordinates": [ -70.72847, -33.41148 ] } },
{ "type": "Feature", "properties": { "capa": "salud", "popup": "<strong>SAR Renca</strong><br><br><strong>Tipo de atención:</strong> Servicio de Atención Primaria de Urgencia de Alta Resolutividad (SAR)<br><strong>Dirección:</strong>  4012", "etiqueta": "" }, "geometry": { "type": "Point", "coordinates": [ -70.702362, -33.4035 ] } },
{ "type": "Feature", "properties": { "capa": "salud", "popup": "<strong>Centro de Salud Familiar Renca</strong><br><br><strong>Tipo de atención:</strong> Centro de Salud Familiar (CESFAM)<br><strong>Dirección:</strong>  4420", "etiqueta": "" }, "geometry": { "type": "Point", "coordinates": [ -70.7097, -33.40345 ] } },
{ "type": "Feature", "properties": { "capa": "salud", "popup": "<strong>SAR Bicentenario</strong><br><br><strong>Tipo de atención:</strong> Servicio de Atención Primaria de Urgencia de Alta Resolutividad (SAR)<br><strong>Dirección:</strong>  8005", "etiqueta": "" }, "geometry": { "type": "Point", "coordinates": [ -70.749863, -33.39774 ] } },
{ "type": "Feature", "properties": { "capa": "salud", "popup": "<strong>Centro de Salud Familiar Bicentenario</strong><br><br><strong>Tipo de atención:</strong> Centro de Salud Familiar (CESFAM)<br><strong>Dirección:</strong>  8005", "etiqueta": "" }, "geometry": { "type": "Point", "coordinates": [ -70.74971, -33.39767 ] } },
{ "type": "Feature", "properties": { "capa": "salud", "popup": "<strong>Centro de Salud Familiar Huamachuco</strong><br><br><strong>Tipo de atención:</strong> Centro de Salud Familiar (CESFAM)<br><strong>Dirección:</strong>  2466", "etiqueta": "" }, "geometry": { "type": "Point", "coordinates": [ -70.69893, -33.39126 ] } },
{ "type": "Feature", "properties": { "capa": "salud", "popup": "<strong>SAPU Huamachuco</strong><br><br><strong>Tipo de atención:</strong> Servicio de Atención Primaria de Urgencia (SAPU)<br><strong>Dirección:</strong>  2466", "etiqueta": "" }, "geometry": { "type": "Point", "coordinates": [ -70.698838, -33.391219 ] } },
{ "type": "Feature", "properties": { "capa": "salud", "popup": "<strong>Centro Médico INALAB LTDA.</strong><br><br><strong>Tipo de atención:</strong> Centro de Salud Privado<br><strong>Dirección:</strong>  1286", "etiqueta": "" }, "geometry": { "type": "Point", "coordinates": [ -70.698107209999932, -33.407928209999973 ] } },
{ "type": "Feature", "properties": { "capa": "salud", "popup": "<strong>Centro Comunitario de Salud Familiar IRMA ABARCA</strong><br><br><strong>Tipo de atención:</strong> Centro Comunitario de Salud Familiar (CECOSF)<br><strong>Dirección:</strong>  1070", "etiqueta": "" }, "geometry": { "type": "Point", "coordinates": [ -70.686881599999921, -33.415097099999954 ] } },
{ "type": "Feature", "properties": { "capa": "salud", "popup": "<strong>CESFAM Cerro Colorado</strong><br><br><strong>Tipo de atención:</strong> Centro de Salud Familiar (CESFAM)<br><strong>Dirección:</strong>  5266", "etiqueta": "" }, "geometry": { "type": "Point", "coordinates": [ -70.727564499999971, -33.402166399999963 ] } },
{ "type": "Feature", "properties": { "capa": "municipios", "popup": "<strong>Municipalidad de Renca</strong><br><br><strong>Dirección:</strong> Blanco Encalada Nº 1335<br><strong>Región:</strong> Metropolitana de Santiago", "etiqueta": "" }, "geometry": { "type": "Point", "coordinates": [ -70.704211769999972, -33.40446885099994 ] } }
]
}
