{
"type": "FeatureCollection",
"name": "13129",
"crs": { "type": "name", "properties": { "name": "urn:ogc:def:crs:OGC:1.3:CRS84" } },
"features": [
{ "type": "Feature", "properties": { "capa": "comuna", "popup": "", "etiqueta": "" }, "geometry": { "type": "Polygon", "coordinates": [ [ [ -70.623415817628242, -33.473379739208625 ], [ -70.622924955699119, -33.475213460717448 ], [ -70.622951219743101, -33.475214867915597 ], [ -70.622945873868829, -33.475221930881091 ], [ -70.622103762578774, -33.478281042231636 ], [ -70.621922392722922, -33.4789417393213 ], [ -70.621798923778698, -33.479412329669827 ], [ -70.621525282570104, -33.480443991064476 ], [ -70.621193013712812, -33.481674780057809 ], [ -70.620571829592166, -33.483984930347034 ], [ -70.620542901145058, -33.484457681041555 ], [ -70.620503454324293, -33.484605918443556 ], [ -70.620350758692311, -33.485179743908382 ], [ -70.620296724129673, -33.4853749875804 ], [ -70.620223736012832, -33.485564994532979 ], [ -70.620082634936196, -33.485837748898248 ], [ -70.619896380041823, -33.486085881778166 ], [ -70.619634707087755, -33.486358898225134 ], [ -70.619126389096039, -33.486864650481287 ], [ -70.618698343659801, -33.487292906825736 ], [ -70.618487535113758, -33.487526247073163 ], [ -70.617537565802479, -33.491586018163552 ], [ -70.617461182053873, -33.492006565512291 ], [ -70.616558130851573, -33.496110498801492 ], [ -70.616274949534656, -33.4973226077052 ], [ -70.616002781563154, -33.498534571541462 ], [ -70.61541963300995, -33.501096563576489 ], [ -70.61481046205958, -33.503882888347682 ], [ -70.614639930377621, -33.505118271459793 ], [ -70.614360143794173, -33.506411448373946 ], [ -70.614165961267418, -33.507314027130505 ], [ -70.614038607109578, -33.507797958485796 ], [ -70.613837008990146, -33.508159037915114 ], [ -70.613746544149464, -33.508261449353597 ], [ -70.613594703713616, -33.508427476413672 ], [ -70.613594934580647, -33.508427461433286 ], [ -70.613550686264702, -33.508474087881041 ], [ -70.613130137269479, -33.508888919846676 ], [ -70.612859712927943, -33.509143771977968 ], [ -70.611642731974882, -33.510297103123229 ], [ -70.611562757660067, -33.510388274748024 ], [ -70.611516538440384, -33.510868589974621 ], [ -70.611529727505385, -33.510875703960309 ], [ -70.6113516769245, -33.512307262213902 ], [ -70.611309549530944, -33.512669031364794 ], [ -70.611309546835997, -33.512669175169478 ], [ -70.6112656371849, -33.5130587044804 ], [ -70.611301760239101, -33.51305911192518 ], [ -70.613646885950175, -33.513085513443315 ], [ -70.614084133728184, -33.513098727680976 ], [ -70.615015797170585, -33.513107534924664 ], [ -70.615855236870985, -33.51332865793929 ], [ -70.615948181960178, -33.513330224799205 ], [ -70.616075446286473, -33.51338666394301 ], [ -70.617931681870431, -33.513813375783343 ], [ -70.619925666916728, -33.514328387436436 ], [ -70.620755351811454, -33.514713070963325 ], [ -70.620860229222544, -33.514794144892306 ], [ -70.622665984877443, -33.515627178706858 ], [ -70.624159912839346, -33.516323685803123 ], [ -70.624868307204409, -33.51665348953194 ], [ -70.625472772779304, -33.516934122227354 ], [ -70.625647372032873, -33.517021960044758 ], [ -70.626105714948721, -33.517223389329089 ], [ -70.626595595019225, -33.51746045502324 ], [ -70.626727053579586, -33.517519001238753 ], [ -70.626919110692398, -33.517595706966631 ], [ -70.627125005453834, -33.517669959849847 ], [ -70.627252479087602, -33.517704336912018 ], [ -70.62745578400606, -33.517737717122955 ], [ -70.627935228347923, -33.51778926207492 ], [ -70.628670989888121, -33.517869643349492 ], [ -70.629091063674551, -33.517911103782048 ], [ -70.629647922132662, -33.517965982148745 ], [ -70.630104609453426, -33.518017300785893 ], [ -70.630605992451152, -33.518072239000119 ], [ -70.631175664478462, -33.518137727432894 ], [ -70.631756758584629, -33.518200846186275 ], [ -70.632363761001898, -33.518248623722215 ], [ -70.632899585407628, -33.518329177573634 ], [ -70.633550554968139, -33.51839328702588 ], [ -70.634174770902888, -33.5184652092954 ], [ -70.634836566959208, -33.518532788448738 ], [ -70.635460781097322, -33.518567025866723 ], [ -70.635866303074451, -33.518641013543565 ], [ -70.636098800544715, -33.518669266213045 ], [ -70.636586980104397, -33.518727590676029 ], [ -70.636710555049831, -33.5179764912303 ], [ -70.636803277356833, -33.517055424400787 ], [ -70.636909241729413, -33.516107142801232 ], [ -70.637003464222943, -33.515176968925005 ], [ -70.6370296222657, -33.514852007610358 ], [ -70.637129796996291, -33.514102161995304 ], [ -70.637150698996322, -33.513849374405616 ], [ -70.637214425482597, -33.513223470044942 ], [ -70.637223336770191, -33.513135945188878 ], [ -70.637668647826217, -33.511218194717202 ], [ -70.6381266278227, -33.509192120769313 ], [ -70.638365699164197, -33.508171947304319 ], [ -70.638606797104984, -33.50730094533661 ], [ -70.638627708986476, -33.507081696723567 ], [ -70.638630403034028, -33.506382563259464 ], [ -70.63864652689503, -33.506314694475442 ], [ -70.638751388136484, -33.505549476394663 ], [ -70.638897673390616, -33.50401444394253 ], [ -70.639020925840853, -33.502586248155296 ], [ -70.639154862853076, -33.501098217551508 ], [ -70.63931123528954, -33.499617128706504 ], [ -70.639329517802196, -33.499445566146463 ], [ -70.639423835517121, -33.498578551488386 ], [ -70.639493878956472, -33.497883253703968 ], [ -70.639559133477022, -33.497284051468526 ], [ -70.639681054624006, -33.496338665810498 ], [ -70.639748505525446, -33.495814723860164 ], [ -70.63980368364345, -33.495317982006142 ], [ -70.639947448224888, -33.494324056744205 ], [ -70.640040933201561, -33.493628448355771 ], [ -70.640086132833403, -33.493332119553997 ], [ -70.640276342111662, -33.492084845366627 ], [ -70.640417775564941, -33.490972451203952 ], [ -70.640582789794422, -33.489680075266335 ], [ -70.640772438523939, -33.48807191640514 ], [ -70.641023242761378, -33.486247375188128 ], [ -70.641163412285053, -33.485367930687175 ], [ -70.641302618814734, -33.484217961084376 ], [ -70.641512846150789, -33.482617507160199 ], [ -70.641652278157608, -33.48145187087917 ], [ -70.641714932953718, -33.480917721632558 ], [ -70.641775657270301, -33.480033639763541 ], [ -70.641849848231303, -33.478868130557473 ], [ -70.641759028556081, -33.478801884115093 ], [ -70.641848096516512, -33.477649251298317 ], [ -70.641932286624936, -33.477177316138523 ], [ -70.641946989351197, -33.476882267035343 ], [ -70.641830847964727, -33.476872978057358 ], [ -70.640615374384723, -33.476725216711017 ], [ -70.637430183745835, -33.475849421291493 ], [ -70.634628255729666, -33.474660364131203 ], [ -70.633874728208085, -33.474388348612891 ], [ -70.632341934635434, -33.473858942462336 ], [ -70.632031319668059, -33.473749806399887 ], [ -70.631909349113727, -33.473808150641247 ], [ -70.631697176925087, -33.473733824163681 ], [ -70.630003830156653, -33.473140776136638 ], [ -70.62790693860299, -33.472357999518756 ], [ -70.627890739283487, -33.472318180783347 ], [ -70.627146035014633, -33.471886974456034 ], [ -70.626196946950657, -33.471342174314032 ], [ -70.625522911348583, -33.470859214166914 ], [ -70.624865203525104, -33.470324986874502 ], [ -70.624868184135224, -33.470322409113663 ], [ -70.624578830493988, -33.469956707249494 ], [ -70.624512711794139, -33.469997801717604 ], [ -70.624346621382941, -33.470162288050936 ], [ -70.624217607138462, -33.470452544726719 ], [ -70.624023584511818, -33.471302833191196 ], [ -70.62396645974458, -33.471520043534653 ], [ -70.623415817628242, -33.473379739208625 ] ] ] } },
{ "type": "Feature", "properties": { "capa": "ds19", "popup": "<strong>MATTA VIAL 635</strong><br><br><strong>Programa:</strong> DS19<br><strong>Comuna:</strong> San Joaquín<br><strong>Región:</strong> Metropolitana<br><strong>Año de inicio:</strong> 2021", "etiqueta": "MATTA VIAL 635" }, "geometry": { "type": "Polygon", "coordinates": [ [ [ -70.63974433644421, -33.490841660171803 ], [ -70.639761084634358, -33.490604535791178 ], [ -70.63876777969547, -33.490587076296961 ], [ -70.638663731429375, -33.490802322659327 ], [ -70.638739230337421, -33.490825217351457 ], [ -70.63974433644421, -33.490841660171803 ] ] ] } },
{ "type": "Feature", "properties": { "capa": "ds19", "popup": "<strong>CONDOMINIO URETA COX</strong><br><br><strong>Programa:</strong> DS19<br><strong>Comuna:</strong> San Joaquín<br><strong>Región:</strong> Metropolitana<br><strong>Año de inicio:</strong> 2019", "etiqueta": "CONDOMINIO URETA COX" }, "geometry": { "type": "Polygon", "coordinates": [ [ [ -70.636005184414003, -33.499453934310637 ], [ -70.634895462305877, -33.499371398003198 ], [ -70.634749062067385, -33.500670248966955 ], [ -70.635853333198384, -33.500748745713977 ], [ -70.636005184414003, -33.499453934310637 ] ] ] } },
{ "type": "Feature", "properties": { "capa": "ds19", "popup": "<strong>MATTA VIAL 636</strong><br><br><strong>Programa:</strong> DS19<br><strong>Comuna:</strong> San Joaquin<br><strong>Región:</strong> Metropolitana<br><strong>Año de inicio:</strong> 2022", "etiqueta": "MATTA VIAL 636" }, "geometry": { "type": "Polygon", "coordinates": [ [ [ -70.639401711808304, -33.490975615700059 ], [ -70.63861058350389, -33.490973418383071 ], [ -70.638405919434405, -33.491436101840023 ], [ -70.63938875630528, -33.491439055054222 ], [ -70.639401711808304, -33.490975615700059 ] ] ] } },
{ "type": "Feature", "properties": { "capa": "ds19", "popup": "<strong>PINTOR CICARELLI III</strong><br><br><strong>Programa:</strong> DS19<br><strong>Comuna:</strong> San Joaquín<br><strong>Región:</strong> Metropolitana de Santiago<br><strong>Año de inicio:</strong> 2023", "etiqueta": "PINTOR CICARELLI III" }, "geometry": { "type": "Polygon", "coordinates": [ [ [ -70.62971963913337, -33.475979496153307 ], [ -70.628916547964309, -33.47584486778738 ], [ -70.628763980791391, -33.475997320504092 ], [ -70.62917976422402, -33.47682712059801 ], [ -70.629523949233558, -33.476875272390807 ], [ -70.62971963913337, -33.475979496153307 ] ] ] } },
{ "type": "Feature", "properties": { "capa": "colegios", "popup": "<strong>ESC. PART. PARV. HEIDI GARDEN SCHOOL</strong><br><br><strong>Dirección:</strong> AVENIDA LO OVALLE 441", "etiqueta": "" }, "geometry": { "type": "Point", "coordinates": [ -70.633644, -33.518185 ] } },
{ "type": "Feature", "properties": { "capa": "colegios", "popup": "<strong>ESCUELA PARTICULAR JAVIERA CARRERA</strong><br><br><strong>Dirección:</strong> SEBASTOPOL 448", "etiqueta": "" }, "geometry": { "type": "Point", "coordinates": [ -70.63483415, -33.517014930000016 ] } },
{ "type": "Feature", "properties": { "capa": "colegios", "popup": "<strong>INSTITUTO DE EDUCACIÓN DE ADULTOS LA CASTRINA</strong><br><br><strong>Dirección:</strong> PASEO METAL ROJO 6280", "etiqueta": "" }, "geometry": { "type": "Point", "coordinates": [ -70.633194, -33.516163 ] } },
{ "type": "Feature", "properties": { "capa": "colegios", "popup": "<strong>COLEGIO LA CASTRINA</strong><br><br><strong>Dirección:</strong> METAL ROJO 6280", "etiqueta": "" }, "geometry": { "type": "Point", "coordinates": [ -70.63320536, -33.516162150000014 ] } },
{ "type": "Feature", "properties": { "capa": "colegios", "popup": "<strong>ESCUELA DE LENGUAJE LUZ DE ESPERANZA</strong><br><br><strong>Dirección:</strong> EL CORTIJO 461", "etiqueta": "" }, "geometry": { "type": "Point", "coordinates": [ -70.63532, -33.513898 ] } },
{ "type": "Feature", "properties": { "capa": "colegios", "popup": "<strong>ESCUELA BÁSICA POETA NERUDA (EX-483)</strong><br><br><strong>Dirección:</strong> NAVARINO 344", "etiqueta": "" }, "geometry": { "type": "Point", "coordinates": [ -70.63066628, -33.513133980000013 ] } },
{ "type": "Feature", "properties": { "capa": "colegios", "popup": "<strong>ESCUELA ESPECIAL PART. ABRA PALABRA</strong><br><br><strong>Dirección:</strong> NACIONES UNIDAS 87", "etiqueta": "" }, "geometry": { "type": "Point", "coordinates": [ -70.61403, -33.511353 ] } },
{ "type": "Feature", "properties": { "capa": "colegios", "popup": "<strong>ESCUELA DE PARVULOS N 2251 ANDALUE DE SAN J</strong><br><br><strong>Dirección:</strong> VARAS MENA 127", "etiqueta": "" }, "geometry": { "type": "Point", "coordinates": [ -70.617725, -33.511029 ] } },
{ "type": "Feature", "properties": { "capa": "colegios", "popup": "<strong>ESC.BAS. PART. COLEGIO HAYDN DE SAN JOAQUIN</strong><br><br><strong>Dirección:</strong> DEPARTAMENTAL 92", "etiqueta": "" }, "geometry": { "type": "Point", "coordinates": [ -70.61768727, -33.50815766 ] } },
{ "type": "Feature", "properties": { "capa": "colegios", "popup": "<strong>COLEGIO INFOCAP</strong><br><br><strong>Dirección:</strong> AVENIDA DEPARTAMENTAL 440", "etiqueta": "" }, "geometry": { "type": "Point", "coordinates": [ -70.63431, -33.506985 ] } },
{ "type": "Feature", "properties": { "capa": "colegios", "popup": "<strong>LICEO INDUSTRIAL DE SAN MIGUEL AGUSTIN ED</strong><br><br><strong>Dirección:</strong> DEPARTAMENTAL 285", "etiqueta": "" }, "geometry": { "type": "Point", "coordinates": [ -70.63234112, -33.50693331 ] } },
{ "type": "Feature", "properties": { "capa": "colegios", "popup": "<strong>ESCUELA BASICA FRAY CAMILO HENRIQUEZ</strong><br><br><strong>Dirección:</strong> PASAJE HUARA 5369", "etiqueta": "" }, "geometry": { "type": "Point", "coordinates": [ -70.62432593, -33.50569342 ] } },
{ "type": "Feature", "properties": { "capa": "colegios", "popup": "<strong>COLEGIO PESTALOZZI</strong><br><br><strong>Dirección:</strong> CANADA 5359", "etiqueta": "" }, "geometry": { "type": "Point", "coordinates": [ -70.6192, -33.505146 ] } },
{ "type": "Feature", "properties": { "capa": "colegios", "popup": "<strong>ESCUELA PARTIC.DE PARVULOS MI PRINCESITA</strong><br><br><strong>Dirección:</strong> GASPAR DE ESPINOZA 5288", "etiqueta": "" }, "geometry": { "type": "Point", "coordinates": [ -70.634254, -33.50473 ] } },
{ "type": "Feature", "properties": { "capa": "colegios", "popup": "<strong>ESUELA ESPECIAL DE LENGUAJE PIRAMIDE</strong><br><br><strong>Dirección:</strong> AVENIDA PIRAMIDE 433", "etiqueta": "" }, "geometry": { "type": "Point", "coordinates": [ -70.63565, -33.50355 ] } },
{ "type": "Feature", "properties": { "capa": "colegios", "popup": "<strong>ESCUELA POETA VICTOR DOMINGO SILVA</strong><br><br><strong>Dirección:</strong> FRANCISCO VILLAESPESA 411", "etiqueta": "" }, "geometry": { "type": "Point", "coordinates": [ -70.63456899, -33.503127549999988 ] } },
{ "type": "Feature", "properties": { "capa": "colegios", "popup": "<strong>ESCUELA ESP. NIÑO JESUS DE SAN JOAQUIN</strong><br><br><strong>Dirección:</strong> TOMAS DE CAMPANELLA 4986", "etiqueta": "" }, "geometry": { "type": "Point", "coordinates": [ -70.628136, -33.502477 ] } },
{ "type": "Feature", "properties": { "capa": "colegios", "popup": "<strong>LICEO SANTA MARIA EUFRASIA</strong><br><br><strong>Dirección:</strong> CAPITAN PRAT 20", "etiqueta": "" }, "geometry": { "type": "Point", "coordinates": [ -70.616615, -33.501022 ] } },
{ "type": "Feature", "properties": { "capa": "colegios", "popup": "<strong>ESC. ESP. CHILE CUBA</strong><br><br><strong>Dirección:</strong> AVENIDA LAS INDUSTRIAS 4825", "etiqueta": "" }, "geometry": { "type": "Point", "coordinates": [ -70.62686, -33.50087 ] } },
{ "type": "Feature", "properties": { "capa": "colegios", "popup": "<strong>ESCUELA BASICA PARTICULAR RAINBOW SCHOOL</strong><br><br><strong>Dirección:</strong> URETA COX 312", "etiqueta": "" }, "geometry": { "type": "Point", "coordinates": [ -70.63132535, -33.500710769999984 ] } },
{ "type": "Feature", "properties": { "capa": "colegios", "popup": "<strong>CENTRO EDUCACIONAL HORACIO ARAVENA A.</strong><br><br><strong>Dirección:</strong> URETA COX 401", "etiqueta": "" }, "geometry": { "type": "Point", "coordinates": [ -70.63454954, -33.50066196 ] } },
{ "type": "Feature", "properties": { "capa": "colegios", "popup": "<strong>ESC. ESP. VOCARE</strong><br><br><strong>Dirección:</strong> VECINAL 4535", "etiqueta": "" }, "geometry": { "type": "Point", "coordinates": [ -70.625275, -33.498474 ] } },
{ "type": "Feature", "properties": { "capa": "colegios", "popup": "<strong>COLEGIO POLIV.ADVENTISTA SANTIAGO SUR</strong><br><br><strong>Dirección:</strong> AVENIDA LAS INDUSTRIAS 4349", "etiqueta": "" }, "geometry": { "type": "Point", "coordinates": [ -70.62856671, -33.496665069999985 ] } },
{ "type": "Feature", "properties": { "capa": "colegios", "popup": "<strong>ESCUELA PARTICULAR N°333 EL ANGEL</strong><br><br><strong>Dirección:</strong> AVENIDA PRESIDENTE SALVADOR ALLENDE 244", "etiqueta": "" }, "geometry": { "type": "Point", "coordinates": [ -70.62961168, -33.49614513 ] } },
{ "type": "Feature", "properties": { "capa": "colegios", "popup": "<strong>ESCUELA BAS. PART. QUEEN & FLOWER COLLEGE</strong><br><br><strong>Dirección:</strong> AVENIDA SALVADOR ALLENDE 298", "etiqueta": "" }, "geometry": { "type": "Point", "coordinates": [ -70.631063669999989, -33.49604116 ] } },
{ "type": "Feature", "properties": { "capa": "colegios", "popup": "<strong>LICEO MUNICIPAL SAN JOAQUIN</strong><br><br><strong>Dirección:</strong> COMERCIO 175", "etiqueta": "" }, "geometry": { "type": "Point", "coordinates": [ -70.62669596, -33.49374962 ] } },
{ "type": "Feature", "properties": { "capa": "colegios", "popup": "<strong>COLEGIO ESPIRITU SANTO DEL VERBO DIVINO</strong><br><br><strong>Dirección:</strong> SAN JUAN 3675", "etiqueta": "" }, "geometry": { "type": "Point", "coordinates": [ -70.619105809999979, -33.49274999 ] } },
{ "type": "Feature", "properties": { "capa": "colegios", "popup": "<strong>ESC.PARA SORDOS DR. OTTE GABLER</strong><br><br><strong>Dirección:</strong> EL PINAR 125", "etiqueta": "" }, "geometry": { "type": "Point", "coordinates": [ -70.620308, -33.491642 ] } },
{ "type": "Feature", "properties": { "capa": "colegios", "popup": "<strong>ESC. BAS. Y ESP. SU SANTIDAD JUAN XXIII</strong><br><br><strong>Dirección:</strong> ALCALDE PEDRO ALARCON 401", "etiqueta": "" }, "geometry": { "type": "Point", "coordinates": [ -70.63231794, -33.49015442000001 ] } },
{ "type": "Feature", "properties": { "capa": "colegios", "popup": "<strong>ESCUELA ESP. PART. ARBOLIRIS</strong><br><br><strong>Dirección:</strong> ARTES Y OFICIOS 308", "etiqueta": "" }, "geometry": { "type": "Point", "coordinates": [ -70.629, -33.490093 ] } },
{ "type": "Feature", "properties": { "capa": "colegios", "popup": "<strong>COLEGIO CIUDAD DE FRANKFORT</strong><br><br><strong>Dirección:</strong> FRANCISCA DE RIMINI 3464", "etiqueta": "" }, "geometry": { "type": "Point", "coordinates": [ -70.62281982, -33.48926175 ] } },
{ "type": "Feature", "properties": { "capa": "colegios", "popup": "<strong>ESCUELA ESPECIAL CTI.LOS COPIHUES   N.3</strong><br><br><strong>Dirección:</strong> ALCALDE PEDRO ALARCON 607", "etiqueta": "" }, "geometry": { "type": "Point", "coordinates": [ -70.6381, -33.488564 ] } },
{ "type": "Feature", "properties": { "capa": "colegios", "popup": "<strong>COLEGIO POLIV. ARZOBISPO MANUEL VICUNA</strong><br><br><strong>Dirección:</strong> AVENIDA JORGE CANNING 660", "etiqueta": "" }, "geometry": { "type": "Point", "coordinates": [ -70.639877269999985, -33.48720121 ] } },
{ "type": "Feature", "properties": { "capa": "colegios", "popup": "<strong>ESCUELA PARTICULAR LAURA VICUNA</strong><br><br><strong>Dirección:</strong> SIERRA BELLA 3261", "etiqueta": "" }, "geometry": { "type": "Point", "coordinates": [ -70.63272118, -33.487018729999988 ] } },
{ "type": "Feature", "properties": { "capa": "colegios", "popup": "<strong>LICEO BICENTENARIO POLITECNICO SAN JOAQUIN</strong><br><br><strong>Dirección:</strong> SANTA ROSA 3050", "etiqueta": "" }, "geometry": { "type": "Point", "coordinates": [ -70.641020809999986, -33.48364713 ] } },
{ "type": "Feature", "properties": { "capa": "colegios", "popup": "<strong>ESCUELA ESPECIAL PALABRAS MAGICAS</strong><br><br><strong>Dirección:</strong> STRAVINSKY 3068", "etiqueta": "" }, "geometry": { "type": "Point", "coordinates": [ -70.627724, -33.480649 ] } },
{ "type": "Feature", "properties": { "capa": "colegios", "popup": "<strong>CENTRO EDUC. PROVINCIA DE ÑUBLE</strong><br><br><strong>Dirección:</strong> AVENIDA SILVA 528", "etiqueta": "" }, "geometry": { "type": "Point", "coordinates": [ -70.63618339, -33.47836714000001 ] } },
{ "type": "Feature", "properties": { "capa": "colegios", "popup": "<strong>ESCUELA DE PARVULOS CASTORCITO Nº 2</strong><br><br><strong>Dirección:</strong> TOCORNAL 2383", "etiqueta": "" }, "geometry": { "type": "Point", "coordinates": [ -70.633354, -33.475708 ] } },
{ "type": "Feature", "properties": { "capa": "colegios", "popup": "<strong>ESCUELA ESPECIAL CASTORCITO</strong><br><br><strong>Dirección:</strong> CALLE DAVILA LARRAIN 2356", "etiqueta": "" }, "geometry": { "type": "Point", "coordinates": [ -70.632576, -33.47561 ] } },
{ "type": "Feature", "properties": { "capa": "colegios", "popup": "<strong>COLEGIO PART. NUESTRA SRA DEL HUERTO</strong><br><br><strong>Dirección:</strong> CELIA SOLAR 50", "etiqueta": "" }, "geometry": { "type": "Point", "coordinates": [ -70.62537056, -33.47219384000001 ] } },
{ "type": "Feature", "properties": { "capa": "jardines", "popup": "<strong>RAYITO DE SOL</strong><br><br><strong>Dirección:</strong> PJE.CONCEPCION #4239, VILLA ESMERALDA ", "etiqueta": "" }, "geometry": { "type": "MultiPoint", "coordinates": [ [ -70.627609, -33.495643 ] ] } },
{ "type": "Feature", "properties": { "capa": "jardines", "popup": "<strong>LA LUNA Y EL SOL</strong><br><br><strong>Dirección:</strong> PJE.CHOMOCO 227 POBL JOAQUIN E BELLO ", "etiqueta": "" }, "geometry": { "type": "MultiPoint", "coordinates": [ [ -70.623497, -33.509895 ] ] } },
{ "type": "Feature", "properties": { "capa": "jardines", "popup": "<strong>GENESIS</strong><br><br><strong>Dirección:</strong> BENOZZO GOZZOLLI # 5656, POB. LAS INDUSTRIAS ", "etiqueta": "" }, "geometry": { "type": "MultiPoint", "coordinates": [ [ -70.628299, -33.509762 ] ] } },
{ "type": "Feature", "properties": { "capa": "jardines", "popup": "<strong>LOS COPIHUES</strong><br><br><strong>Dirección:</strong> ALVAREZ DE TOLEDO 352 POB. LA LEGUA ", "etiqueta": "" }, "geometry": { "type": "MultiPoint", "coordinates": [ [ -70.631554, -33.492812 ] ] } },
{ "type": "Feature", "properties": { "capa": "jardines", "popup": "<strong>GABRIELA MISTRAL</strong><br><br><strong>Dirección:</strong> PINTOR MURILLO # 5369 ", "etiqueta": "" }, "geometry": { "type": "MultiPoint", "coordinates": [ [ -70.629975, -33.506118 ] ] } },
{ "type": "Feature", "properties": { "capa": "jardines", "popup": "<strong>PRINCIPITO</strong><br><br><strong>Dirección:</strong> ARQUITECTO BRUNELLESKY 3475 ", "etiqueta": "" }, "geometry": { "type": "MultiPoint", "coordinates": [ [ -70.622737, -33.489715 ] ] } },
{ "type": "Feature", "properties": { "capa": "jardines", "popup": "<strong>OFELIA REVECO (EX BENOZZO GOZZOLLI)</strong><br><br><strong>Dirección:</strong> BENOZZO GOZZOLI 5770 ", "etiqueta": "" }, "geometry": { "type": "MultiPoint", "coordinates": [ [ -70.627453, -33.510978 ] ] } },
{ "type": "Feature", "properties": { "capa": "jardines", "popup": "<strong>ARELI</strong><br><br><strong>Dirección:</strong> JORGE CANNING 486 ", "etiqueta": "" }, "geometry": { "type": "MultiPoint", "coordinates": [ [ -70.63537, -33.4884 ] ] } },
{ "type": "Feature", "properties": { "capa": "jardines", "popup": "<strong>NA</strong><br><br><strong>Dirección:</strong> NA ", "etiqueta": "" }, "geometry": { "type": "MultiPoint", "coordinates": [ [ -70.631200947948258, -33.49298477389307 ] ] } },
{ "type": "Feature", "properties": { "capa": "jardines", "popup": "<strong>NA</strong><br><br><strong>Dirección:</strong> NA ", "etiqueta": "" }, "geometry": { "type": "MultiPoint", "coordinates": [ [ -70.634700985109205, -33.511407920888203 ] ] } },
{ "type": "Feature", "properties": { "capa": "jardines", "popup": "<strong>NA</strong><br><br><strong>Dirección:</strong> NA ", "etiqueta": "" }, "geometry": { "type": "MultiPoint", "coordinates": [ [ -70.626235999750534, -33.503186999938812 ] ] } },
{ "type": "Feature", "properties": { "capa": "jardines", "popup": "<strong>NA</strong><br><br><strong>Dirección:</strong> NA ", "etiqueta": "" }, "geometry": { "type": "MultiPoint", "coordinates": [ [ -70.625032000001269, -33.49863900006622 ] ] } },
{ "type": "Feature", "properties": { "capa": "jardines", "popup": "<strong>NA</strong><br><br><strong>Dirección:</strong> NA ", "etiqueta": "" }, "geometry": { "type": "MultiPoint", "coordinates": [ [ -70.624098678158745, -33.492491901137122 ] ] } },
{ "type": "Feature", "properties": { "capa": "jardines", "popup": "<strong>NA</strong><br><br><strong>Dirección:</strong> NA ", "etiqueta": "" }, "geometry": { "type": "MultiPoint", "coordinates": [ [ -70.616316635196014, -33.501170024127937 ] ] } },
{ "type": "Feature", "properties": { "capa": "jardines", "popup": "<strong>NA</strong><br><br><strong>Dirección:</strong> NA ", "etiqueta": "" }, "geometry": { "type": "MultiPoint", "coordinates": [ [ -70.635460999815038, -33.488852000379723 ] ] } },
{ "type": "Feature", "properties": { "capa": "comisarias", "popup": "<strong>50A. COM. SAN JOAQUIN</strong><br><br><strong>Dirección:</strong> CARLOS VALDOVINOS 282", "etiqueta": "" }, "geometry": { "type": "Point", "coordinates": [ -70.629879999999886, -33.48448 ] } },
{ "type": "Feature", "properties": { "capa": "salud", "popup": "<strong>Centro Comunitario de Salud Familiar Dr. Salvador Allende</strong><br><br><strong>Tipo de atención:</strong> Centro Comunitario de Salud Familiar (CECOSF)<br><strong>Dirección:</strong>  472", "etiqueta": "" }, "geometry": { "type": "Point", "coordinates": [ -70.63664, -33.51265 ] } },
{ "type": "Feature", "properties": { "capa": "salud", "popup": "<strong>Centro Comunitario de Salud Familiar Coñimo</strong><br><br><strong>Tipo de atención:</strong> Centro Comunitario de Salud Familiar (CECOSF)<br><strong>Dirección:</strong>  275", "etiqueta": "" }, "geometry": { "type": "Point", "coordinates": [ -70.62374, -33.51077 ] } },
{ "type": "Feature", "properties": { "capa": "salud", "popup": "<strong>SAPU Santa Teresa de Los Andes</strong><br><br><strong>Tipo de atención:</strong> Servicio de Atención Primaria de Urgencia (SAPU)<br><strong>Dirección:</strong>  5379", "etiqueta": "" }, "geometry": { "type": "Point", "coordinates": [ -70.62454, -33.506319 ] } },
{ "type": "Feature", "properties": { "capa": "salud", "popup": "<strong>Centro de Salud Familiar Santa Teresa de Los Andes</strong><br><br><strong>Tipo de atención:</strong> Centro de Salud Familiar (CESFAM)<br><strong>Dirección:</strong>  5379", "etiqueta": "" }, "geometry": { "type": "Point", "coordinates": [ -70.62439, -33.5063 ] } },
{ "type": "Feature", "properties": { "capa": "salud", "popup": "<strong>Centro Comunitario de Salud Familiar Martín Henríquez</strong><br><br><strong>Tipo de atención:</strong> Centro Comunitario de Salud Familiar (CECOSF)<br><strong>Dirección:</strong>  4537", "etiqueta": "" }, "geometry": { "type": "Point", "coordinates": [ -70.63273, -33.49891 ] } },
{ "type": "Feature", "properties": { "capa": "salud", "popup": "<strong>Centro Comunitario de Salud Familiar Reverendo Javier Peró</strong><br><br><strong>Tipo de atención:</strong> Centro Comunitario de Salud Familiar (CECOSF)<br><strong>Dirección:</strong>  145", "etiqueta": "" }, "geometry": { "type": "Point", "coordinates": [ -70.62411, -33.49815 ] } },
{ "type": "Feature", "properties": { "capa": "salud", "popup": "<strong>Centro de Salud Familiar Arturo Baeza Goñi</strong><br><br><strong>Tipo de atención:</strong> Centro de Salud Familiar (CESFAM)<br><strong>Dirección:</strong>  399", "etiqueta": "" }, "geometry": { "type": "Point", "coordinates": [ -70.63322, -33.49196 ] } },
{ "type": "Feature", "properties": { "capa": "salud", "popup": "<strong>SAR Enrique Molina</strong><br><br><strong>Tipo de atención:</strong> Servicio de Atención Primaria de Urgencia de Alta Resolutividad (SAR)<br><strong>Dirección:</strong>  307", "etiqueta": "" }, "geometry": { "type": "Point", "coordinates": [ -70.623535, -33.486624 ] } },
{ "type": "Feature", "properties": { "capa": "salud", "popup": "<strong>Centro de Salud Familiar San Joaquín</strong><br><br><strong>Tipo de atención:</strong> Centro de Salud Familiar (CESFAM)<br><strong>Dirección:</strong>  3223", "etiqueta": "" }, "geometry": { "type": "Point", "coordinates": [ -70.62353, -33.48649 ] } },
{ "type": "Feature", "properties": { "capa": "salud", "popup": "<strong>Centro Comunitario de Salud Familiar Sierra Bella</strong><br><br><strong>Tipo de atención:</strong> Centro Comunitario de Salud Familiar (CECOSF)<br><strong>Dirección:</strong>  3208", "etiqueta": "" }, "geometry": { "type": "Point", "coordinates": [ -70.63252, -33.4861 ] } },
{ "type": "Feature", "properties": { "capa": "salud", "popup": "<strong>Centro Comunitario de Salud Familiar Yalta</strong><br><br><strong>Tipo de atención:</strong> Centro Comunitario de Salud Familiar (CECOSF)<br><strong>Dirección:</strong>  2514", "etiqueta": "" }, "geometry": { "type": "Point", "coordinates": [ -70.63665, -33.47838 ] } }
]
}
