{
"type": "FeatureCollection",
"name": "13121",
"crs": { "type": "name", "properties": { "name": "urn:ogc:def:crs:OGC:1.3:CRS84" } },
"features": [
{ "type": "Feature", "properties": { "capa": "comuna", "popup": "", "etiqueta": "" }, "geometry": { "type": "Polygon", "coordinates": [ [ [ -70.671230783920933, -33.510690174647394 ], [ -70.671787396240646, -33.510478291316225 ], [ -70.674703277347248, -33.50921698649352 ], [ -70.675940630294335, -33.508671146326854 ], [ -70.676671469066775, -33.508365823103276 ], [ -70.678133866162185, -33.508295781467858 ], [ -70.678520940336654, -33.508173294794247 ], [ -70.679821587680337, -33.507614590256757 ], [ -70.681141609888058, -33.50707363639961 ], [ -70.682675609898169, -33.506354606192644 ], [ -70.683902754390331, -33.505908848402939 ], [ -70.684567880501419, -33.505737497558663 ], [ -70.687495712794572, -33.504723657797157 ], [ -70.688841134866962, -33.504251203509746 ], [ -70.690763254690495, -33.503587945202824 ], [ -70.6926797717216, -33.502923773943969 ], [ -70.694105274110001, -33.502432143345565 ], [ -70.694602932692561, -33.502298860231804 ], [ -70.694919273521549, -33.502354813681151 ], [ -70.695281815603906, -33.502469236600895 ], [ -70.695286824609937, -33.50247279094279 ], [ -70.695409121252709, -33.502433902914113 ], [ -70.694185502648011, -33.499758718913 ], [ -70.694136281258665, -33.499770398793146 ], [ -70.693236922132172, -33.497870893376621 ], [ -70.693105537233663, -33.497599675138197 ], [ -70.691897833182537, -33.495178109792462 ], [ -70.691201871500994, -33.493745397694752 ], [ -70.690968222390552, -33.493243051557478 ], [ -70.690607575753447, -33.492331342164817 ], [ -70.689946405822852, -33.490620715693517 ], [ -70.689648882902432, -33.489879064432216 ], [ -70.689157908683896, -33.488909555720753 ], [ -70.688887285814673, -33.488272072015128 ], [ -70.688542648054224, -33.487532242173785 ], [ -70.688168802470656, -33.486827161701996 ], [ -70.68688996981534, -33.483615535481007 ], [ -70.686137366660191, -33.482058041285072 ], [ -70.685630113172081, -33.479779571083419 ], [ -70.685556092890977, -33.478616282314512 ], [ -70.685696365720915, -33.478111451467434 ], [ -70.682324909407853, -33.478325806471389 ], [ -70.681322182938274, -33.478363278699611 ], [ -70.681343886235538, -33.478553692905116 ], [ -70.681189900622783, -33.478463920373194 ], [ -70.671688079401164, -33.478469765496037 ], [ -70.671682108299464, -33.478470113910582 ], [ -70.671728248467417, -33.476387174434279 ], [ -70.67119829455207, -33.476283654544325 ], [ -70.670571204008411, -33.476226581280713 ], [ -70.669944830320375, -33.476202223096621 ], [ -70.669514024361249, -33.476175300806297 ], [ -70.668887650673184, -33.476150937362689 ], [ -70.668301037317931, -33.476158836469168 ], [ -70.667676548295347, -33.476232771231601 ], [ -70.665207081375954, -33.476170605701881 ], [ -70.665132552648387, -33.476168725711858 ], [ -70.663566933736931, -33.476124151428849 ], [ -70.661689068517546, -33.476116546793726 ], [ -70.66106340988847, -33.476124935195514 ], [ -70.660321608076316, -33.476200405299039 ], [ -70.658290424692439, -33.476358736373832 ], [ -70.657235654326854, -33.476438449538243 ], [ -70.656416206633097, -33.476547736569053 ], [ -70.655596757142717, -33.476657092397112 ], [ -70.655067341318244, -33.476724743157369 ], [ -70.65543387102214, -33.47759928066889 ], [ -70.656287238202708, -33.479183399510319 ], [ -70.658190833866769, -33.483211350445018 ], [ -70.661665953966974, -33.490116019237654 ], [ -70.661747886609092, -33.490278778732588 ], [ -70.663423721619409, -33.494482190630073 ], [ -70.666085501671475, -33.500440260354495 ], [ -70.666233119127156, -33.50071649456364 ], [ -70.668648090648162, -33.5052354502157 ], [ -70.670393294463025, -33.508921268319845 ], [ -70.671230783920933, -33.510690174647394 ] ] ] } },
{ "type": "Feature", "properties": { "capa": "ds19", "popup": "<strong>PRESIDENTE PRIETO</strong><br><br><strong>Programa:</strong> DS19<br><strong>Comuna:</strong> Pedro Aguirre Cerda<br><strong>Región:</strong> Metropolitana<br><strong>Año de inicio:</strong> 2021", "etiqueta": "PRESIDENTE PRIETO" }, "geometry": { "type": "Polygon", "coordinates": [ [ [ -70.671249193994385, -33.502284021104607 ], [ -70.670683874304601, -33.50112692165348 ], [ -70.670110289215927, -33.501339250361873 ], [ -70.670734609355222, -33.502525742754131 ], [ -70.671000211540346, -33.50240501347583 ], [ -70.671095357501969, -33.502569137147638 ], [ -70.671198078956408, -33.502527088084797 ], [ -70.671095357501969, -33.502347614349858 ], [ -70.671249193994385, -33.502284021104607 ] ] ] } },
{ "type": "Feature", "properties": { "capa": "colegios", "popup": "<strong>C.E.I.A.PEDRO AGUIRRE CERDA</strong><br><br><strong>Dirección:</strong> AVENIDA LO OVALLE 1895", "etiqueta": "" }, "geometry": { "type": "Point", "coordinates": [ -70.67393, -33.509 ] } },
{ "type": "Feature", "properties": { "capa": "colegios", "popup": "<strong>ESC.BAS.PROFESORA AIDA RAMOS DIAZ</strong><br><br><strong>Dirección:</strong> PETROHUE 2309", "etiqueta": "" }, "geometry": { "type": "Point", "coordinates": [ -70.670967689999983, -33.50720949 ] } },
{ "type": "Feature", "properties": { "capa": "colegios", "popup": "<strong>ESCUELA  CONSOLIDADA DAVILA</strong><br><br><strong>Dirección:</strong> JOSE JOAQUIN PRIETO 6075", "etiqueta": "" }, "geometry": { "type": "Point", "coordinates": [ -70.66965572, -33.50665601 ] } },
{ "type": "Feature", "properties": { "capa": "colegios", "popup": "<strong>ESCUELA PARTICULAR MIGUEL DAVILA</strong><br><br><strong>Dirección:</strong> CLUB HIPICO 6201", "etiqueta": "" }, "geometry": { "type": "Point", "coordinates": [ -70.67684, -33.506073 ] } },
{ "type": "Feature", "properties": { "capa": "colegios", "popup": "<strong>ESCUELA ESPECIAL PART SANTIAGO SUR</strong><br><br><strong>Dirección:</strong> REUMEN 5970", "etiqueta": "" }, "geometry": { "type": "Point", "coordinates": [ -70.670784, -33.505634 ] } },
{ "type": "Feature", "properties": { "capa": "colegios", "popup": "<strong>ESCUELA ESPECIAL NUEVO MUNDO PAC</strong><br><br><strong>Dirección:</strong> AVENIDA PETROHUE 2559", "etiqueta": "" }, "geometry": { "type": "Point", "coordinates": [ -70.67408, -33.505619 ] } },
{ "type": "Feature", "properties": { "capa": "colegios", "popup": "<strong>ESCUELA BOROA</strong><br><br><strong>Dirección:</strong> BOROA 6079", "etiqueta": "" }, "geometry": { "type": "Point", "coordinates": [ -70.67470241, -33.505253620000012 ] } },
{ "type": "Feature", "properties": { "capa": "colegios", "popup": "<strong>ESCUELA LO VALLEDOR</strong><br><br><strong>Dirección:</strong> AVENIDA A ALESSANDRI 6378", "etiqueta": "" }, "geometry": { "type": "Point", "coordinates": [ -70.68580051, -33.50497266 ] } },
{ "type": "Feature", "properties": { "capa": "colegios", "popup": "<strong>ESCUELA DE LENGUAJE LA DAVILITA</strong><br><br><strong>Dirección:</strong> MELINKA 3028", "etiqueta": "" }, "geometry": { "type": "Point", "coordinates": [ -70.679823, -33.504456 ] } },
{ "type": "Feature", "properties": { "capa": "colegios", "popup": "<strong>ESCUELA PARTICULAR JOSE A.ALFONSO</strong><br><br><strong>Dirección:</strong> ALHUE 2980", "etiqueta": "" }, "geometry": { "type": "Point", "coordinates": [ -70.677601219999985, -33.50278671 ] } },
{ "type": "Feature", "properties": { "capa": "colegios", "popup": "<strong>COLEGIO PARQUE LAS AMERICAS</strong><br><br><strong>Dirección:</strong> LO OVALLE 3915", "etiqueta": "" }, "geometry": { "type": "Point", "coordinates": [ -70.69324705, -33.502605069999987 ] } },
{ "type": "Feature", "properties": { "capa": "colegios", "popup": "<strong>ESCUELA VILLA SUR</strong><br><br><strong>Dirección:</strong> LOS MOLLES 2973", "etiqueta": "" }, "geometry": { "type": "Point", "coordinates": [ -70.68227832, -33.50233314 ] } },
{ "type": "Feature", "properties": { "capa": "colegios", "popup": "<strong>INSTITUTO COMERCIAL PADRE ALBERTO HURTADO DE PEDRO AGUIRRE CERDA</strong><br><br><strong>Dirección:</strong> CLOTARIO BLEST 6055", "etiqueta": "" }, "geometry": { "type": "Point", "coordinates": [ -70.68156263, -33.50209125 ] } },
{ "type": "Feature", "properties": { "capa": "colegios", "popup": "<strong>LICEO TÉCNICO CLOTARIO BLEST RIFFO</strong><br><br><strong>Dirección:</strong> CALLE CAREN 3250", "etiqueta": "" }, "geometry": { "type": "Point", "coordinates": [ -70.68163149, -33.50164846 ] } },
{ "type": "Feature", "properties": { "capa": "colegios", "popup": "<strong>COLEGIO GRACE SCHOOL</strong><br><br><strong>Dirección:</strong> ARMADA NACIONAL 6136", "etiqueta": "" }, "geometry": { "type": "Point", "coordinates": [ -70.68742747, -33.50157889 ] } },
{ "type": "Feature", "properties": { "capa": "colegios", "popup": "<strong>ESCUELA PARTICULAR SAN CARLOS</strong><br><br><strong>Dirección:</strong> ALHUE 3105", "etiqueta": "" }, "geometry": { "type": "Point", "coordinates": [ -70.67915783, -33.50150324 ] } },
{ "type": "Feature", "properties": { "capa": "colegios", "popup": "<strong>ESCUELA PARTICULAR KAROL C.DE CRACOVIA</strong><br><br><strong>Dirección:</strong> 8 NORTE 3922", "etiqueta": "" }, "geometry": { "type": "Point", "coordinates": [ -70.693045949999984, -33.50149347 ] } },
{ "type": "Feature", "properties": { "capa": "colegios", "popup": "<strong>COMPLEJO EDUC.PART.MONSENOR LUIS A.PEREZ</strong><br><br><strong>Dirección:</strong> AVENIDA CENTRAL 6234", "etiqueta": "" }, "geometry": { "type": "Point", "coordinates": [ -70.68927348, -33.50108236 ] } },
{ "type": "Feature", "properties": { "capa": "colegios", "popup": "<strong>ESCUELA ESPECIAL PARTICULAR GENESIS</strong><br><br><strong>Dirección:</strong> PASAJE LOS PIONEROS 3782", "etiqueta": "" }, "geometry": { "type": "Point", "coordinates": [ -70.6882, -33.499943 ] } },
{ "type": "Feature", "properties": { "capa": "colegios", "popup": "<strong>COLEGIO SAN SEBASTIAN</strong><br><br><strong>Dirección:</strong> FRATERNAL 3690", "etiqueta": "" }, "geometry": { "type": "Point", "coordinates": [ -70.68615105, -33.499417480000012 ] } },
{ "type": "Feature", "properties": { "capa": "colegios", "popup": "<strong>ESCUELA PARTICULAR DIVINA GABRIELA</strong><br><br><strong>Dirección:</strong> VECINAL 2800", "etiqueta": "" }, "geometry": { "type": "Point", "coordinates": [ -70.67615697, -33.498955539999983 ] } },
{ "type": "Feature", "properties": { "capa": "colegios", "popup": "<strong>ESCUELA ESPECIAL NTA SENORA DE LAS PENAS</strong><br><br><strong>Dirección:</strong> AVENIDA LOS CERRILLOS 6140", "etiqueta": "" }, "geometry": { "type": "Point", "coordinates": [ -70.69228, -33.49846 ] } },
{ "type": "Feature", "properties": { "capa": "colegios", "popup": "<strong>ESCUELA CIUDAD DE BARCELONA</strong><br><br><strong>Dirección:</strong> MAYA 5961", "etiqueta": "" }, "geometry": { "type": "Point", "coordinates": [ -70.69021299, -33.49747193 ] } },
{ "type": "Feature", "properties": { "capa": "colegios", "popup": "<strong>ESCUELA PARTICULAR EL GRECO</strong><br><br><strong>Dirección:</strong> AVENIDA LAZO 1687", "etiqueta": "" }, "geometry": { "type": "Point", "coordinates": [ -70.66593152, -33.49716311 ] } },
{ "type": "Feature", "properties": { "capa": "colegios", "popup": "<strong>EST. EDUC. PART. ARCANGEL GABRIEL N° 2</strong><br><br><strong>Dirección:</strong> AVENIDA LAZO 1730", "etiqueta": "" }, "geometry": { "type": "Point", "coordinates": [ -70.666384279999988, -33.49714389 ] } },
{ "type": "Feature", "properties": { "capa": "colegios", "popup": "<strong>ESCUELA PARTICULAR AMIGOS</strong><br><br><strong>Dirección:</strong> SAN NICOLAS 1829", "etiqueta": "" }, "geometry": { "type": "Point", "coordinates": [ -70.66586892, -33.49546304 ] } },
{ "type": "Feature", "properties": { "capa": "colegios", "popup": "<strong>LICEO POLIVALENTE EUGENIO PEREIRA SALAS</strong><br><br><strong>Dirección:</strong> COOPERACION 4581", "etiqueta": "" }, "geometry": { "type": "Point", "coordinates": [ -70.68331155, -33.49472056 ] } },
{ "type": "Feature", "properties": { "capa": "colegios", "popup": "<strong>ESCUELA PARTICULAR MARQUEZ DE OVANDO</strong><br><br><strong>Dirección:</strong> AVENIDA LA MARINA 2025", "etiqueta": "" }, "geometry": { "type": "Point", "coordinates": [ -70.66742087999998, -33.49314784 ] } },
{ "type": "Feature", "properties": { "capa": "colegios", "popup": "<strong>ESCUELA ESPECIAL Y LENGUAJE ROCIO</strong><br><br><strong>Dirección:</strong> ROSSINI 2585", "etiqueta": "" }, "geometry": { "type": "Point", "coordinates": [ -70.66927, -33.491367 ] } },
{ "type": "Feature", "properties": { "capa": "colegios", "popup": "<strong>ESC. DE PARV. Y ESP. LUIS SEMBRADOR</strong><br><br><strong>Dirección:</strong> MAIPU 4305", "etiqueta": "" }, "geometry": { "type": "Point", "coordinates": [ -70.68139, -33.49125 ] } },
{ "type": "Feature", "properties": { "capa": "colegios", "popup": "<strong>COLEGIO DE AD. ANTONIO ACEVEDO</strong><br><br><strong>Dirección:</strong> AVENIDA LA MARINA 2835", "etiqueta": "" }, "geometry": { "type": "Point", "coordinates": [ -70.67311, -33.49118 ] } },
{ "type": "Feature", "properties": { "capa": "colegios", "popup": "<strong>COLEGIO PART. ANTONIO ACEVEDO HERNANDEZ</strong><br><br><strong>Dirección:</strong> AVENIDA LA MARINA 2835", "etiqueta": "" }, "geometry": { "type": "Point", "coordinates": [ -70.67311233, -33.49117946 ] } },
{ "type": "Feature", "properties": { "capa": "colegios", "popup": "<strong>ESCUELA BASICA RICARDO E. LATCHMAN</strong><br><br><strong>Dirección:</strong> FELIX OSEGUEDA 4031", "etiqueta": "" }, "geometry": { "type": "Point", "coordinates": [ -70.68241824, -33.49101098000002 ] } },
{ "type": "Feature", "properties": { "capa": "colegios", "popup": "<strong>ESCUELA PARTICULAR LA RONDA DE SN.MIGUEL</strong><br><br><strong>Dirección:</strong> BALAKIREFF 4631", "etiqueta": "" }, "geometry": { "type": "Point", "coordinates": [ -70.669785110000021, -33.49068434 ] } },
{ "type": "Feature", "properties": { "capa": "colegios", "popup": "<strong>ESC. BASICA MUNICIPAL RISOPATRON</strong><br><br><strong>Dirección:</strong> PASAJE F 4491", "etiqueta": "" }, "geometry": { "type": "Point", "coordinates": [ -70.688382239999981, -33.490518530000017 ] } },
{ "type": "Feature", "properties": { "capa": "colegios", "popup": "<strong>ESCUELA ESPECIAL ARCANGEL GABRIEL</strong><br><br><strong>Dirección:</strong> CALLE MANUELA ERRAZURIZ 4418", "etiqueta": "" }, "geometry": { "type": "Point", "coordinates": [ -70.66537, -33.49021 ] } },
{ "type": "Feature", "properties": { "capa": "colegios", "popup": "<strong>COLEGIO PARTICULAR PADRE FIDEL ABARCA</strong><br><br><strong>Dirección:</strong> GALO GONZALEZ 4827", "etiqueta": "" }, "geometry": { "type": "Point", "coordinates": [ -70.67752012, -33.48997419 ] } },
{ "type": "Feature", "properties": { "capa": "colegios", "popup": "<strong>ESCUELA ESP. TU ESPERANZA</strong><br><br><strong>Dirección:</strong> GUIDO RENNI 4230", "etiqueta": "" }, "geometry": { "type": "Point", "coordinates": [ -70.663734, -33.48937 ] } },
{ "type": "Feature", "properties": { "capa": "colegios", "popup": "<strong>ESC. ESPEC. LENGUAJE LOS CHIQUITINES</strong><br><br><strong>Dirección:</strong> HAITI 4095", "etiqueta": "" }, "geometry": { "type": "Point", "coordinates": [ -70.68413, -33.48912 ] } },
{ "type": "Feature", "properties": { "capa": "colegios", "popup": "<strong>ESCUELA PARV. MY HAPPY SCHOOL</strong><br><br><strong>Dirección:</strong> HAITI 4115", "etiqueta": "" }, "geometry": { "type": "Point", "coordinates": [ -70.68415, -33.488922 ] } },
{ "type": "Feature", "properties": { "capa": "colegios", "popup": "<strong>ESCUELA CENTRO EDUC. REP. MEXICANA</strong><br><br><strong>Dirección:</strong> AVENIDA SALVADOR ALLENDE 2140", "etiqueta": "" }, "geometry": { "type": "Point", "coordinates": [ -70.665371969999981, -33.48876641 ] } },
{ "type": "Feature", "properties": { "capa": "colegios", "popup": "<strong>ESCUELA LA VICTORIA</strong><br><br><strong>Dirección:</strong> PRIMERO DE MAYO 4710", "etiqueta": "" }, "geometry": { "type": "Point", "coordinates": [ -70.67974555, -33.48776092 ] } },
{ "type": "Feature", "properties": { "capa": "colegios", "popup": "<strong>ESCUELA ESP. DESPERTARES DE PEDRO AGUIRRE CER</strong><br><br><strong>Dirección:</strong> ENRIQUE MATTE 1726", "etiqueta": "" }, "geometry": { "type": "Point", "coordinates": [ -70.65959, -33.484264 ] } },
{ "type": "Feature", "properties": { "capa": "colegios", "popup": "<strong>ESCUELA DE PARVULOS RAYITO DE LUZ</strong><br><br><strong>Dirección:</strong> MARIQUINA 3244", "etiqueta": "" }, "geometry": { "type": "Point", "coordinates": [ -70.67844, -33.48273 ] } },
{ "type": "Feature", "properties": { "capa": "colegios", "popup": "<strong>LICEO MUNICIPAL ENRIQUE BACKAUSSE</strong><br><br><strong>Dirección:</strong> JOSE BACKAUSSE 2850", "etiqueta": "" }, "geometry": { "type": "Point", "coordinates": [ -70.67448238, -33.48263186 ] } },
{ "type": "Feature", "properties": { "capa": "colegios", "popup": "<strong>COLEGIO PARTICULAR POBL. ALESSANDRI</strong><br><br><strong>Dirección:</strong> ENRIQUE MATTE 2150", "etiqueta": "" }, "geometry": { "type": "Point", "coordinates": [ -70.66529311, -33.482388660000012 ] } },
{ "type": "Feature", "properties": { "capa": "colegios", "popup": "<strong>ESCUELA POETAS DE CHILE</strong><br><br><strong>Dirección:</strong> JUAN BASTIDAS 2890", "etiqueta": "" }, "geometry": { "type": "Point", "coordinates": [ -70.6604761, -33.48073675 ] } },
{ "type": "Feature", "properties": { "capa": "colegios", "popup": "<strong>ESCUELA BASICA PARTIC JACQUELINE KENNEDY</strong><br><br><strong>Dirección:</strong> ANDREA DORIA 2638", "etiqueta": "" }, "geometry": { "type": "Point", "coordinates": [ -70.669969989999984, -33.47933577 ] } },
{ "type": "Feature", "properties": { "capa": "colegios", "popup": "<strong>ESCUELA PARTICULAR PIO DOCE</strong><br><br><strong>Dirección:</strong> MARILUAN 2440", "etiqueta": "" }, "geometry": { "type": "Point", "coordinates": [ -70.66817507, -33.47826403 ] } },
{ "type": "Feature", "properties": { "capa": "colegios", "popup": "<strong>ESCUELA PARTICULAR ROCIO DE LOS ANGELES</strong><br><br><strong>Dirección:</strong> TRASLAVIÑA 1955", "etiqueta": "" }, "geometry": { "type": "Point", "coordinates": [ -70.66168975, -33.477958150000021 ] } },
{ "type": "Feature", "properties": { "capa": "jardines", "popup": "<strong>WE-ZIPANTU</strong><br><br><strong>Dirección:</strong> CLUB HIPICO 5789 POB. DAVILA ", "etiqueta": "" }, "geometry": { "type": "MultiPoint", "coordinates": [ [ -70.675138, -33.502372 ] ] } },
{ "type": "Feature", "properties": { "capa": "jardines", "popup": "<strong>MIS PRIMEROS PASOS</strong><br><br><strong>Dirección:</strong> GUANAQUEROS 3210 VILLA SUR ", "etiqueta": "" }, "geometry": { "type": "MultiPoint", "coordinates": [ [ -70.678101, -33.496468 ] ] } },
{ "type": "Feature", "properties": { "capa": "jardines", "popup": "<strong>PEQUEÑO MUNDO</strong><br><br><strong>Dirección:</strong> LO OVALLE 2300 POB. SANTA ADRIANA P. 17 G. AV ", "etiqueta": "" }, "geometry": { "type": "MultiPoint", "coordinates": [ [ -70.67736, -33.507809 ] ] } },
{ "type": "Feature", "properties": { "capa": "jardines", "popup": "<strong>NIDITO DE SOL</strong><br><br><strong>Dirección:</strong> ANTONIO D`CAMARA # 3591, POB. NUEVA INDEPENDENCIA ", "etiqueta": "" }, "geometry": { "type": "MultiPoint", "coordinates": [ [ -70.685009, -33.484954 ] ] } },
{ "type": "Feature", "properties": { "capa": "jardines", "popup": "<strong>FLORECER</strong><br><br><strong>Dirección:</strong> PJE. 5 S/N POB. RISOPATRON ", "etiqueta": "" }, "geometry": { "type": "MultiPoint", "coordinates": [ [ -70.688203, -33.492631 ] ] } },
{ "type": "Feature", "properties": { "capa": "jardines", "popup": "<strong>IRENE FREI DE CID</strong><br><br><strong>Dirección:</strong> ALEJANDRO PETION # 4354 ", "etiqueta": "" }, "geometry": { "type": "MultiPoint", "coordinates": [ [ -70.68621, -33.492556 ] ] } },
{ "type": "Feature", "properties": { "capa": "jardines", "popup": "<strong>DESPERTAR</strong><br><br><strong>Dirección:</strong> AV.CLOTARIO BLEST 5415 ", "etiqueta": "" }, "geometry": { "type": "MultiPoint", "coordinates": [ [ -70.67828, -33.49694 ] ] } },
{ "type": "Feature", "properties": { "capa": "jardines", "popup": "<strong>LA MARINA</strong><br><br><strong>Dirección:</strong> FELIX MANDELSSOHN 4960 ", "etiqueta": "" }, "geometry": { "type": "MultiPoint", "coordinates": [ [ -70.672958, -33.493872 ] ] } },
{ "type": "Feature", "properties": { "capa": "jardines", "popup": "<strong>OCHAGAVIA</strong><br><br><strong>Dirección:</strong> JOSE JOAQUIN PRIETO 6075 ", "etiqueta": "" }, "geometry": { "type": "MultiPoint", "coordinates": [ [ -70.669738, -33.507173 ] ] } },
{ "type": "Feature", "properties": { "capa": "jardines", "popup": "<strong>CEIA</strong><br><br><strong>Dirección:</strong> LO OVALLE 1895 ", "etiqueta": "" }, "geometry": { "type": "MultiPoint", "coordinates": [ [ -70.67434, -33.50908 ] ] } },
{ "type": "Feature", "properties": { "capa": "jardines", "popup": "<strong>PARQUE LAS AMERICAS</strong><br><br><strong>Dirección:</strong> LO OVALLE 3901 ", "etiqueta": "" }, "geometry": { "type": "MultiPoint", "coordinates": [ [ -70.692972, -33.502667 ] ] } },
{ "type": "Feature", "properties": { "capa": "jardines", "popup": "<strong>PEQUEÑO AYMARA</strong><br><br><strong>Dirección:</strong> 1 DE MAYO 4740 LA VICTORIA ", "etiqueta": "" }, "geometry": { "type": "MultiPoint", "coordinates": [ [ -70.679829, -33.488278 ] ] } },
{ "type": "Feature", "properties": { "capa": "jardines", "popup": "<strong>MI TRENCITO DE LO OVALLE</strong><br><br><strong>Dirección:</strong> LO OVALLE 3431 ", "etiqueta": "" }, "geometry": { "type": "MultiPoint", "coordinates": [ [ -70.686806, -33.504946 ] ] } },
{ "type": "Feature", "properties": { "capa": "jardines", "popup": "<strong>CIUDAD DE BARCELONA</strong><br><br><strong>Dirección:</strong> MAYA 5971 ", "etiqueta": "" }, "geometry": { "type": "MultiPoint", "coordinates": [ [ -70.690297, -33.497989 ] ] } },
{ "type": "Feature", "properties": { "capa": "jardines", "popup": "<strong>JOSE BACKAUSSE</strong><br><br><strong>Dirección:</strong> JOSE BACKAUSSE 2880 ", "etiqueta": "" }, "geometry": { "type": "MultiPoint", "coordinates": [ [ -70.675042, -33.482462 ] ] } },
{ "type": "Feature", "properties": { "capa": "jardines", "popup": "<strong>POETAS DE CHILE</strong><br><br><strong>Dirección:</strong> JUAN BASTIAS 2890 ", "etiqueta": "" }, "geometry": { "type": "MultiPoint", "coordinates": [ [ -70.660284, -33.480291 ] ] } },
{ "type": "Feature", "properties": { "capa": "jardines", "popup": "<strong>EUGENIO PEREIRA SALAS</strong><br><br><strong>Dirección:</strong> COOPERACION 4581 ", "etiqueta": "" }, "geometry": { "type": "MultiPoint", "coordinates": [ [ -70.683611, -33.49403 ] ] } },
{ "type": "Feature", "properties": { "capa": "jardines", "popup": "<strong>EL JARDÍN DE VIOLETA PARRA</strong><br><br><strong>Dirección:</strong> TONGOY 3200 ", "etiqueta": "" }, "geometry": { "type": "MultiPoint", "coordinates": [ [ -70.681608, -33.498912 ] ] } },
{ "type": "Feature", "properties": { "capa": "jardines", "popup": "<strong>ELOISA DIAZ</strong><br><br><strong>Dirección:</strong> QUIAPO 3091 ", "etiqueta": "" }, "geometry": { "type": "MultiPoint", "coordinates": [ [ -70.676686, -33.480157 ] ] } },
{ "type": "Feature", "properties": { "capa": "jardines", "popup": "<strong>ISIDORA AGUIRRE</strong><br><br><strong>Dirección:</strong> SALVADOR ALLENDE/CLUB HIPICO ", "etiqueta": "" }, "geometry": { "type": "MultiPoint", "coordinates": [ [ -70.665519, -33.489563 ] ] } },
{ "type": "Feature", "properties": { "capa": "jardines", "popup": "<strong>NA</strong><br><br><strong>Dirección:</strong> NA ", "etiqueta": "" }, "geometry": { "type": "MultiPoint", "coordinates": [ [ -70.670115999848775, -33.503945999919885 ] ] } },
{ "type": "Feature", "properties": { "capa": "jardines", "popup": "<strong>NA</strong><br><br><strong>Dirección:</strong> NA ", "etiqueta": "" }, "geometry": { "type": "MultiPoint", "coordinates": [ [ -70.678634000212469, -33.483476999921741 ] ] } },
{ "type": "Feature", "properties": { "capa": "jardines", "popup": "<strong>NA</strong><br><br><strong>Dirección:</strong> NA ", "etiqueta": "" }, "geometry": { "type": "MultiPoint", "coordinates": [ [ -70.676660999773333, -33.488292999787127 ] ] } },
{ "type": "Feature", "properties": { "capa": "comisarias", "popup": "<strong>51A. COM. PEDRO AGUIRRE CERDA</strong><br><br><strong>Dirección:</strong> CENTRO AMERICA 4210", "etiqueta": "" }, "geometry": { "type": "Point", "coordinates": [ -70.684469, -33.494167 ] } },
{ "type": "Feature", "properties": { "capa": "comisarias", "popup": "<strong>TCIA. ALC. CARLOS VALDOVINOS</strong><br><br><strong>Dirección:</strong> BELEN 3435", "etiqueta": "" }, "geometry": { "type": "Point", "coordinates": [ -70.674298999999891, -33.48087 ] } },
{ "type": "Feature", "properties": { "capa": "comisarias", "popup": "<strong>TCIA. LA VICTORIA</strong><br><br><strong>Dirección:</strong> 1 DE MAYO 4560", "etiqueta": "" }, "geometry": { "type": "Point", "coordinates": [ -70.679658, -33.486792 ] } },
{ "type": "Feature", "properties": { "capa": "comisarias", "popup": "<strong>TCIA. P, A.C</strong><br><br><strong>Dirección:</strong> CLUB HIPICO 6035", "etiqueta": "" }, "geometry": { "type": "Point", "coordinates": [ -70.676001, -33.503978 ] } },
{ "type": "Feature", "properties": { "capa": "salud", "popup": "<strong>SAR Dr. Amador Neghme R.</strong><br><br><strong>Tipo de atención:</strong> Servicio de Atención Primaria de Urgencia de Alta Resolutividad (SAR)<br><strong>Dirección:</strong>  6043", "etiqueta": "" }, "geometry": { "type": "Point", "coordinates": [ -70.675846, -33.503567 ] } },
{ "type": "Feature", "properties": { "capa": "salud", "popup": "<strong>Centro de Salud Familiar Amador Neghme</strong><br><br><strong>Tipo de atención:</strong> Centro de Salud Familiar (CESFAM)<br><strong>Dirección:</strong>  2810", "etiqueta": "" }, "geometry": { "type": "Point", "coordinates": [ -70.67606, -33.50346 ] } },
{ "type": "Feature", "properties": { "capa": "salud", "popup": "<strong>Centro de Salud Familiar Villa Sur</strong><br><br><strong>Tipo de atención:</strong> Centro de Salud Familiar (CESFAM)<br><strong>Dirección:</strong>  6035", "etiqueta": "" }, "geometry": { "type": "Point", "coordinates": [ -70.68072, -33.50158 ] } },
{ "type": "Feature", "properties": { "capa": "salud", "popup": "<strong>Centro Comunitario de Salud Familiar Dr. Miguel Enríquez Espinosa</strong><br><br><strong>Tipo de atención:</strong> Centro Comunitario de Salud Familiar (CECOSF)<br><strong>Dirección:</strong>  6041", "etiqueta": "" }, "geometry": { "type": "Point", "coordinates": [ -70.68552, -33.50027 ] } },
{ "type": "Feature", "properties": { "capa": "salud", "popup": "<strong>Centro Clínico Ochagavía</strong><br><br><strong>Tipo de atención:</strong> Centro de Salud Privado<br><strong>Dirección:</strong>  4676", "etiqueta": "" }, "geometry": { "type": "Point", "coordinates": [ -70.667549, -33.492317 ] } },
{ "type": "Feature", "properties": { "capa": "salud", "popup": "<strong>Centro de Salud Familiar Padre Pierre Dubois (Ex La Feria)</strong><br><br><strong>Tipo de atención:</strong> Centro de Salud Familiar (CESFAM)<br><strong>Dirección:</strong>  4772", "etiqueta": "" }, "geometry": { "type": "Point", "coordinates": [ -70.67602, -33.48971 ] } },
{ "type": "Feature", "properties": { "capa": "salud", "popup": "<strong>SAPU La Feria</strong><br><br><strong>Tipo de atención:</strong> Servicio de Atención Primaria de Urgencia (SAPU)<br><strong>Dirección:</strong>  3939", "etiqueta": "" }, "geometry": { "type": "Point", "coordinates": [ -70.676158, -33.489687 ] } },
{ "type": "Feature", "properties": { "capa": "salud", "popup": "<strong>Centro de Salud Familiar Lo Valledor Norte</strong><br><br><strong>Tipo de atención:</strong> Centro de Salud Familiar (CESFAM)<br><strong>Dirección:</strong>  4661", "etiqueta": "" }, "geometry": { "type": "Point", "coordinates": [ -70.68321119999996, -33.495380299999972 ] } },
{ "type": "Feature", "properties": { "capa": "salud", "popup": "<strong>Centro de Salud Familiar Edgardo Enríquez Fröedden</strong><br><br><strong>Tipo de atención:</strong> Centro de Salud Familiar (CESFAM)<br><strong>Dirección:</strong>  2650", "etiqueta": "" }, "geometry": { "type": "Point", "coordinates": [ -70.66908, -33.48019 ] } },
{ "type": "Feature", "properties": { "capa": "salud", "popup": "<strong>SAPU Edgardo Enríquez Froedden</strong><br><br><strong>Tipo de atención:</strong> Servicio de Atención Primaria de Urgencia (SAPU)<br><strong>Dirección:</strong>  2650", "etiqueta": "" }, "geometry": { "type": "Point", "coordinates": [ -70.669113, -33.47999 ] } },
{ "type": "Feature", "properties": { "capa": "salud", "popup": "<strong>CLÍNICA NUCLEOSalud OCHAGAVIA</strong><br><br><strong>Tipo de atención:</strong> Clínica<br><strong>Dirección:</strong>  4676", "etiqueta": "" }, "geometry": { "type": "Point", "coordinates": [ -70.667044, -33.491598 ] } }
]
}
