{
"type": "FeatureCollection",
"name": "13132",
"crs": { "type": "name", "properties": { "name": "urn:ogc:def:crs:OGC:1.3:CRS84" } },
"features": [
{ "type": "Feature", "properties": { "capa": "comuna", "popup": "", "etiqueta": "" }, "geometry": { "type": "Polygon", "coordinates": [ [ [ -70.57944464002837, -33.352010438592252 ], [ -70.57894658349214, -33.352016848256952 ], [ -70.578531518711728, -33.352022052075981 ], [ -70.577826646640901, -33.352065883452148 ], [ -70.577164393342088, -33.352178764545577 ], [ -70.576134269154636, -33.352610006583241 ], [ -70.575395377883993, -33.353072266428903 ], [ -70.574826864683388, -33.353776312643468 ], [ -70.57409476737125, -33.354621766115159 ], [ -70.57340482619874, -33.355501553712671 ], [ -70.57287021631528, -33.355787001500403 ], [ -70.572126271122855, -33.355970633767484 ], [ -70.57154518959311, -33.355977991565716 ], [ -70.57092006186835, -33.355846566308905 ], [ -70.570253480486514, -33.355715662339001 ], [ -70.568755396918107, -33.355525524084548 ], [ -70.568090693015193, -33.355499049826648 ], [ -70.567591988793637, -33.355470551141515 ], [ -70.56684794388822, -33.355654079028717 ], [ -70.56610648163921, -33.355977054395638 ], [ -70.565697636793843, -33.356330628661162 ], [ -70.565373033260883, -33.35675280715747 ], [ -70.564800673474238, -33.357247777202545 ], [ -70.564142813835474, -33.357604484904186 ], [ -70.562530213034648, -33.357973209756324 ], [ -70.560256516863419, -33.358524433701 ], [ -70.559345893761602, -33.358675287274401 ], [ -70.558267932488633, -33.358758492451479 ], [ -70.557728906487256, -33.358800054493358 ], [ -70.557420663970547, -33.358881890983376 ], [ -70.556293872075386, -33.358896023095248 ], [ -70.554840944121366, -33.35887069783896 ], [ -70.552771850035882, -33.359201316667836 ], [ -70.550335065623131, -33.359275305310675 ], [ -70.549620556425921, -33.359937195152618 ], [ -70.548903723287083, -33.360468517020998 ], [ -70.548665994926921, -33.361690359086431 ], [ -70.547719103243807, -33.363878732876742 ], [ -70.546905427225752, -33.364803032880573 ], [ -70.544845588482644, -33.366118284642063 ], [ -70.543782322749422, -33.367149073243404 ], [ -70.542510210390745, -33.368557889517717 ], [ -70.541389827076813, -33.369747152331854 ], [ -70.541184141622836, -33.370068928315874 ], [ -70.540618029619012, -33.370267137846511 ], [ -70.539584344509763, -33.370523915159744 ], [ -70.538089211008753, -33.370507507295706 ], [ -70.536220470876046, -33.370495855017047 ], [ -70.535389541814638, -33.370471339614021 ], [ -70.534226553203411, -33.370450849089003 ], [ -70.533065922669806, -33.370569731277378 ], [ -70.531986647161588, -33.370583057265506 ], [ -70.531073921103683, -33.370629117170211 ], [ -70.530326002662747, -33.37060347048773 ], [ -70.529681171290562, -33.370526235562039 ], [ -70.529582610832534, -33.370524495822998 ], [ -70.5285003430361, -33.370356748505856 ], [ -70.527537977872228, -33.370187442671188 ], [ -70.526645869048423, -33.369916714096902 ], [ -70.5255139675359, -33.369648926286594 ], [ -70.52486368518656, -33.369495931854402 ], [ -70.524431015223229, -33.369440887462829 ], [ -70.523999044149193, -33.369426021847566 ], [ -70.523663642866509, -33.369450235956698 ], [ -70.523306489777525, -33.369595509216666 ], [ -70.523045202200734, -33.36973960589274 ], [ -70.522400529830335, -33.369908424958417 ], [ -70.521730862735495, -33.37001733602736 ], [ -70.521085575019129, -33.370145967091467 ], [ -70.520463092832884, -33.3702140272433 ], [ -70.520241026599706, -33.370244305107462 ], [ -70.519922661866389, -33.370330121215254 ], [ -70.519471334792925, -33.370365254412953 ], [ -70.518495805716867, -33.371378196368937 ], [ -70.517689052116395, -33.372578569998907 ], [ -70.517573281734158, -33.372763869766821 ], [ -70.517867823146148, -33.372897649827792 ], [ -70.522410638572225, -33.374960889086765 ], [ -70.524944225439995, -33.375874087439385 ], [ -70.525325069797958, -33.376205632622622 ], [ -70.525986520901213, -33.376516219346499 ], [ -70.5270933360611, -33.377147134715017 ], [ -70.527613236031797, -33.377565324183912 ], [ -70.527941625963678, -33.377888717069951 ], [ -70.528748520599649, -33.378649126888824 ], [ -70.529351155407994, -33.379516736180349 ], [ -70.53010071057939, -33.380073859922668 ], [ -70.530844164393358, -33.380758537040784 ], [ -70.532348571203045, -33.382167955015618 ], [ -70.532351762018934, -33.382168410332653 ], [ -70.533885184412284, -33.383816178117229 ], [ -70.534942586841652, -33.384142433366634 ], [ -70.537340444558197, -33.385364495745627 ], [ -70.541796493507618, -33.387349100900892 ], [ -70.543428814125562, -33.388143328409086 ], [ -70.543790493825242, -33.388282194204983 ], [ -70.545223995711254, -33.388797690841578 ], [ -70.545957289579363, -33.389023050803551 ], [ -70.547234711879668, -33.389508475162629 ], [ -70.54743540180236, -33.389701014298474 ], [ -70.548278215574953, -33.390077408052399 ], [ -70.549436466471377, -33.390520928638949 ], [ -70.549683451072227, -33.390616991253609 ], [ -70.550802039552224, -33.391062989448564 ], [ -70.551394041900878, -33.391290082111382 ], [ -70.552489090028857, -33.391711313927701 ], [ -70.552536701637209, -33.391772714958506 ], [ -70.553318569209367, -33.391980527106 ], [ -70.55413744287965, -33.392324759766566 ], [ -70.554501199484292, -33.392456388673885 ], [ -70.556616277430862, -33.393193502370941 ], [ -70.558735274726999, -33.39391537038312 ], [ -70.561534573374345, -33.394896750257793 ], [ -70.561611346991782, -33.394955546537901 ], [ -70.565831362701985, -33.396320203060263 ], [ -70.569749428594051, -33.397489108296874 ], [ -70.57161418649514, -33.398045303148372 ], [ -70.571943873594307, -33.398143670362423 ], [ -70.586508740792723, -33.404113024603767 ], [ -70.58664482657511, -33.40416878646873 ], [ -70.586850528198767, -33.40422828739959 ], [ -70.59414978814155, -33.406338725907595 ], [ -70.595950992931222, -33.407000629532277 ], [ -70.59778065275583, -33.40767295234027 ], [ -70.598610952996538, -33.408056767128215 ], [ -70.599163226453427, -33.408246903781759 ], [ -70.599674592428897, -33.408338938669218 ], [ -70.600341514272245, -33.408363212430849 ], [ -70.601165195725926, -33.40838545849882 ], [ -70.601674668951119, -33.408378954752777 ], [ -70.602263121157762, -33.408404157609574 ], [ -70.603759769218328, -33.408779401029008 ], [ -70.604587081662402, -33.408998833875145 ], [ -70.605493900398997, -33.409282984279507 ], [ -70.605869689038542, -33.409278193318649 ], [ -70.605924994717313, -33.409277403698646 ], [ -70.614542357168091, -33.409165537048175 ], [ -70.614374945335115, -33.409082311856103 ], [ -70.612617157919757, -33.40837355858541 ], [ -70.612111707350408, -33.407996847382663 ], [ -70.611771709388407, -33.407583187417565 ], [ -70.611473284559466, -33.407169060547972 ], [ -70.610962057822846, -33.406478877957056 ], [ -70.610784391720884, -33.405853957231919 ], [ -70.610561305899878, -33.405020696608688 ], [ -70.610561237627905, -33.405017003285792 ], [ -70.61054073537818, -33.403906136125691 ], [ -70.610486312743319, -33.403210020422499 ], [ -70.610391700380973, -33.402584093769924 ], [ -70.610071451880486, -33.400985675866636 ], [ -70.609290514962979, -33.399184083895747 ], [ -70.608937172527433, -33.398038968122258 ], [ -70.608541634426359, -33.396859527011529 ], [ -70.607430466928932, -33.39516673956787 ], [ -70.605856850316513, -33.393166387812322 ], [ -70.60298404163116, -33.39052085063495 ], [ -70.602265276216116, -33.389833309468159 ], [ -70.601712758417492, -33.389143692724559 ], [ -70.601451443891222, -33.388485036576071 ], [ -70.6015211441741, -33.38775251533535 ], [ -70.602000870586977, -33.386736028736749 ], [ -70.602456242774181, -33.386322263056726 ], [ -70.602817799404662, -33.385993708748842 ], [ -70.603262427741058, -33.385326083992524 ], [ -70.603658366490748, -33.384275729367388 ], [ -70.603890897198681, -33.383366895559661 ], [ -70.603883221094563, -33.382948914014818 ], [ -70.603618801092381, -33.382116170374282 ], [ -70.602895629440894, -33.381184886940481 ], [ -70.601001790379115, -33.379815609040385 ], [ -70.600496008331433, -33.37940405257828 ], [ -70.600156181947668, -33.378990354025085 ], [ -70.600020036876472, -33.378365024842886 ], [ -70.600002898817479, -33.377424544888633 ], [ -70.600103862268895, -33.376134127161492 ], [ -70.600089102050475, -33.375333026427256 ], [ -70.599821554114428, -33.37432610569428 ], [ -70.599087741020099, -33.372802647160889 ], [ -70.598198758333453, -33.371873396056905 ], [ -70.597777871571708, -33.371565197901276 ], [ -70.597605390545581, -33.37121907955521 ], [ -70.597556284140566, -33.370801555016023 ], [ -70.597623373919262, -33.369929657574879 ], [ -70.597466975431644, -33.36818974818096 ], [ -70.597448507866062, -33.367179541234734 ], [ -70.597354127269043, -33.366553669488361 ], [ -70.597345850192013, -33.366100822597424 ], [ -70.597340120737144, -33.365787353729353 ], [ -70.597746242788872, -33.36529437616764 ], [ -70.598688297942488, -33.364585418128236 ], [ -70.599588702707962, -33.363876989253413 ], [ -70.600611179537395, -33.363027644725783 ], [ -70.601062006249236, -33.362708287106059 ], [ -70.600139943102278, -33.362232352772274 ], [ -70.599090068554986, -33.361583999076892 ], [ -70.598334034733782, -33.361105986287235 ], [ -70.597367185180005, -33.360456400464159 ], [ -70.59689844965466, -33.359800473480632 ], [ -70.596723539583977, -33.359314972579192 ], [ -70.596383264940869, -33.358866396303732 ], [ -70.595837270707818, -33.358525075219795 ], [ -70.595038462706057, -33.357977849729615 ], [ -70.594488030795489, -33.357392630396021 ], [ -70.594024501905523, -33.357015297580013 ], [ -70.593602434757486, -33.356637504676065 ], [ -70.59326400435566, -33.356293507415067 ], [ -70.593008025822186, -33.355913506138087 ], [ -70.592627512044245, -33.35553517646057 ], [ -70.592040729805717, -33.355229085919731 ], [ -70.590829985855663, -33.35486139467416 ], [ -70.589787866464235, -33.354630868586376 ], [ -70.589081080083517, -33.354570175172221 ], [ -70.588375474987416, -33.354579279899859 ], [ -70.587793685585225, -33.354551850910731 ], [ -70.587252263776961, -33.3544542350038 ], [ -70.586833397326302, -33.354250511887678 ], [ -70.586368566777466, -33.353803571546401 ], [ -70.586028911073598, -33.353389827783758 ], [ -70.585817042515529, -33.353148657684557 ], [ -70.58560689512953, -33.353012005637176 ], [ -70.585147847934508, -33.352878457627234 ], [ -70.584689434051768, -33.352779769824821 ], [ -70.584188218140682, -33.352611958283497 ], [ -70.583810821516778, -33.35240776937998 ], [ -70.583471270915794, -33.351994015981532 ], [ -70.583133528623463, -33.351684779429384 ], [ -70.582754334470678, -33.351376070043429 ], [ -70.582624843220785, -33.351098972259031 ], [ -70.582515206535305, -33.35096553987421 ], [ -70.581961975474314, -33.351177089614275 ], [ -70.581342535881944, -33.351359114545986 ], [ -70.580767786576644, -33.351714924171731 ], [ -70.580149601032417, -33.351966670969659 ], [ -70.57944464002837, -33.352010438592252 ] ] ] } },
{ "type": "Feature", "properties": { "capa": "colegios", "popup": "<strong>COLEGIO INMACULADA CONCEPCION</strong><br><br><strong>Dirección:</strong> EL LITRE 1410", "etiqueta": "" }, "geometry": { "type": "Point", "coordinates": [ -70.59391824, -33.40279576 ] } },
{ "type": "Feature", "properties": { "capa": "colegios", "popup": "<strong>COLEGIO SAN PEDRO NOLASCO</strong><br><br><strong>Dirección:</strong> AVENIDA KENNEDY 5850", "etiqueta": "" }, "geometry": { "type": "Point", "coordinates": [ -70.573, -33.398148 ] } },
{ "type": "Feature", "properties": { "capa": "colegios", "popup": "<strong>COLEGIO ALEMAN DE SANTIAGO ANEXO</strong><br><br><strong>Dirección:</strong> AVENIDA KENNEDY 6150", "etiqueta": "" }, "geometry": { "type": "Point", "coordinates": [ -70.569628, -33.396079 ] } },
{ "type": "Feature", "properties": { "capa": "colegios", "popup": "<strong>LYCÉE ANTOINE DE SAINT-EXUPÉRY</strong><br><br><strong>Dirección:</strong> AVENIDA LUIS PASTEUR 5418", "etiqueta": "" }, "geometry": { "type": "Point", "coordinates": [ -70.58243, -33.394906 ] } },
{ "type": "Feature", "properties": { "capa": "colegios", "popup": "<strong>COLEGIO SANTA URSULA</strong><br><br><strong>Dirección:</strong> NUEVA COSTANERA 4190", "etiqueta": "" }, "geometry": { "type": "Point", "coordinates": [ -70.59769, -33.393524 ] } },
{ "type": "Feature", "properties": { "capa": "colegios", "popup": "<strong>COLEGIO ADUL. INSTITUTO TABANCURA DE VITACURA</strong><br><br><strong>Dirección:</strong> AVENIDA KENNEDY 8260", "etiqueta": "" }, "geometry": { "type": "Point", "coordinates": [ -70.551073, -33.390505 ] } },
{ "type": "Feature", "properties": { "capa": "colegios", "popup": "<strong>COLEGIO ANTARTICA CHILENA</strong><br><br><strong>Dirección:</strong> LAS HUALTATAS 7440", "etiqueta": "" }, "geometry": { "type": "Point", "coordinates": [ -70.5591368, -33.38992646 ] } },
{ "type": "Feature", "properties": { "capa": "colegios", "popup": "<strong>LICEO MUNICIPALIZADO AMANDA LABARCA</strong><br><br><strong>Dirección:</strong> AVENIDA PADRE HURTADO NORTE 1150", "etiqueta": "" }, "geometry": { "type": "Point", "coordinates": [ -70.54939272, -33.38827666 ] } },
{ "type": "Feature", "properties": { "capa": "colegios", "popup": "<strong>LICEO BICENTENARIO DE EXCELENCIA MARIA LUISA BOMBAL</strong><br><br><strong>Dirección:</strong> LO ARCAYA 1970", "etiqueta": "" }, "geometry": { "type": "Point", "coordinates": [ -70.57974941, -33.38806398 ] } },
{ "type": "Feature", "properties": { "capa": "colegios", "popup": "<strong>COLEGIO SAINT GEORGE S COLLEGE</strong><br><br><strong>Dirección:</strong> AVENIDA SANTA CRUZ 5400", "etiqueta": "" }, "geometry": { "type": "Point", "coordinates": [ -70.60084, -33.386459 ] } },
{ "type": "Feature", "properties": { "capa": "colegios", "popup": "<strong>COLEGIO BRADFORD SCHOOL</strong><br><br><strong>Dirección:</strong> AVENIDA LUIS PASTEUR 6335", "etiqueta": "" }, "geometry": { "type": "Point", "coordinates": [ -70.57339, -33.38399 ] } },
{ "type": "Feature", "properties": { "capa": "colegios", "popup": "<strong>COLEGIO SAN ESTEBAN DIÁCONO</strong><br><br><strong>Dirección:</strong> LO BELTRAN 8751", "etiqueta": "" }, "geometry": { "type": "Point", "coordinates": [ -70.55391, -33.382274 ] } },
{ "type": "Feature", "properties": { "capa": "colegios", "popup": "<strong>COLEGIO LA MAISONNETTE</strong><br><br><strong>Dirección:</strong> AVENIDA LUIS PASTEUR 6076", "etiqueta": "" }, "geometry": { "type": "Point", "coordinates": [ -70.57115, -33.38114 ] } },
{ "type": "Feature", "properties": { "capa": "colegios", "popup": "<strong>COLEGIO TABANCURA</strong><br><br><strong>Dirección:</strong> LAS HUALTATAS 10650", "etiqueta": "" }, "geometry": { "type": "Point", "coordinates": [ -70.53482, -33.380274 ] } },
{ "type": "Feature", "properties": { "capa": "colegios", "popup": "<strong>COLEGIO EL CARMEN TERESIANO I</strong><br><br><strong>Dirección:</strong> AVENIDA LUIS PASTEUR 6700", "etiqueta": "" }, "geometry": { "type": "Point", "coordinates": [ -70.57058, -33.380059 ] } },
{ "type": "Feature", "properties": { "capa": "colegios", "popup": "<strong>COLEGIO DE LOS SAGRADOS CORAZONES</strong><br><br><strong>Dirección:</strong> PADRE DAMIAN VEUSTER 2215", "etiqueta": "" }, "geometry": { "type": "Point", "coordinates": [ -70.55175, -33.378682 ] } },
{ "type": "Feature", "properties": { "capa": "colegios", "popup": "<strong>COLEGIO HUELEN</strong><br><br><strong>Dirección:</strong> SANTA MARIA 6480", "etiqueta": "" }, "geometry": { "type": "Point", "coordinates": [ -70.57543, -33.377985 ] } },
{ "type": "Feature", "properties": { "capa": "colegios", "popup": "<strong>COLEGIO LOS ANDES DE VITACURA</strong><br><br><strong>Dirección:</strong> SAN DAMIAN 100", "etiqueta": "" }, "geometry": { "type": "Point", "coordinates": [ -70.52658, -33.375508 ] } },
{ "type": "Feature", "properties": { "capa": "colegios", "popup": "<strong>COLEGIO SAN BENITO</strong><br><br><strong>Dirección:</strong> AVENIDA PARQUE ANTONIO RABAT 6150", "etiqueta": "" }, "geometry": { "type": "Point", "coordinates": [ -70.58101, -33.371643 ] } },
{ "type": "Feature", "properties": { "capa": "jardines", "popup": "<strong>HAMMARSKJOLD</strong><br><br><strong>Dirección:</strong> Dag Hammarskjold ", "etiqueta": "" }, "geometry": { "type": "MultiPoint", "coordinates": [ [ -70.600479, -33.405755 ] ] } },
{ "type": "Feature", "properties": { "capa": "jardines", "popup": "<strong>NA</strong><br><br><strong>Dirección:</strong> NA ", "etiqueta": "" }, "geometry": { "type": "MultiPoint", "coordinates": [ [ -70.562196999785343, -33.386202999779911 ] ] } },
{ "type": "Feature", "properties": { "capa": "comisarias", "popup": "<strong>37A. COM. VITACURA</strong><br><br><strong>Dirección:</strong> PUERTO RICO 7905", "etiqueta": "" }, "geometry": { "type": "Point", "coordinates": [ -70.55449, -33.38941 ] } },
{ "type": "Feature", "properties": { "capa": "salud", "popup": "<strong>ENSalud</strong><br><br><strong>Tipo de atención:</strong> Centro de Salud Privado<br><strong>Dirección:</strong>  1146", "etiqueta": "" }, "geometry": { "type": "Point", "coordinates": [ -70.587353, -33.402336 ] } },
{ "type": "Feature", "properties": { "capa": "salud", "popup": "<strong>Clínica Fundación Médica San Cristóbal</strong><br><br><strong>Tipo de atención:</strong> Clínica<br><strong>Dirección:</strong>  5292", "etiqueta": "" }, "geometry": { "type": "Point", "coordinates": [ -70.583000599999934, -33.395847799999956 ] } },
{ "type": "Feature", "properties": { "capa": "salud", "popup": "<strong>Clínica Oftalmológica Los Andes</strong><br><br><strong>Tipo de atención:</strong> Clínica<br><strong>Dirección:</strong>  5951", "etiqueta": "" }, "geometry": { "type": "Point", "coordinates": [ -70.57315, -33.39531 ] } },
{ "type": "Feature", "properties": { "capa": "salud", "popup": "<strong>Clínica Psiquiátrica Mida</strong><br><br><strong>Tipo de atención:</strong> Clínica<br><strong>Dirección:</strong>  1109", "etiqueta": "" }, "geometry": { "type": "Point", "coordinates": [ -70.561956, -33.393275 ] } },
{ "type": "Feature", "properties": { "capa": "salud", "popup": "<strong>Instituto Europeo del Sueño</strong><br><br><strong>Tipo de atención:</strong> Centro de Salud Privado<br><strong>Dirección:</strong>  5607", "etiqueta": "" }, "geometry": { "type": "Point", "coordinates": [ -70.579737, -33.391324 ] } },
{ "type": "Feature", "properties": { "capa": "salud", "popup": "<strong>Clínica Alemana</strong><br><br><strong>Tipo de atención:</strong> Clínica<br><strong>Dirección:</strong>  5951", "etiqueta": "" }, "geometry": { "type": "Point", "coordinates": [ -70.572983, -33.391276 ] } },
{ "type": "Feature", "properties": { "capa": "salud", "popup": "<strong>Clínica IST Vitacura</strong><br><br><strong>Tipo de atención:</strong> Clínica<br><strong>Dirección:</strong>  5950", "etiqueta": "" }, "geometry": { "type": "Point", "coordinates": [ -70.58274229999995, -33.379281 ] } },
{ "type": "Feature", "properties": { "capa": "salud", "popup": "<strong>Santiago Medical Institute SPA</strong><br><br><strong>Tipo de atención:</strong> Clínica<br><strong>Dirección:</strong>  6130", "etiqueta": "" }, "geometry": { "type": "Point", "coordinates": [ -70.57247, -33.389936 ] } },
{ "type": "Feature", "properties": { "capa": "salud", "popup": "<strong>Centro de Salud Familiar Vitacura</strong><br><br><strong>Tipo de atención:</strong> Centro de Salud Familiar (CESFAM)<br><strong>Dirección:</strong>  1195", "etiqueta": "" }, "geometry": { "type": "Point", "coordinates": [ -70.55501, -33.38985 ] } },
{ "type": "Feature", "properties": { "capa": "salud", "popup": "<strong>Clínica Orema</strong><br><br><strong>Tipo de atención:</strong> Clínica<br><strong>Dirección:</strong>  6260", "etiqueta": "" }, "geometry": { "type": "Point", "coordinates": [ -70.571883, -33.388422 ] } },
{ "type": "Feature", "properties": { "capa": "salud", "popup": "<strong>Clínica Psiquiatrica Pocuro</strong><br><br><strong>Tipo de atención:</strong> Clínica<br><strong>Dirección:</strong>  9000", "etiqueta": "" }, "geometry": { "type": "Point", "coordinates": [ -70.54528, -33.38832 ] } },
{ "type": "Feature", "properties": { "capa": "salud", "popup": "<strong>Centro Oftalmológico Luis Pasteur</strong><br><br><strong>Tipo de atención:</strong> Centro de Salud Privado<br><strong>Dirección:</strong>  5917", "etiqueta": "" }, "geometry": { "type": "Point", "coordinates": [ -70.577027, -33.388011 ] } },
{ "type": "Feature", "properties": { "capa": "salud", "popup": "<strong>Centro de Salud Mutual CChC las Tranqueras</strong><br><br><strong>Tipo de atención:</strong> Centro de Salud Privado<br><strong>Dirección:</strong>  1327", "etiqueta": "" }, "geometry": { "type": "Point", "coordinates": [ -70.552732, -33.387251 ] } },
{ "type": "Feature", "properties": { "capa": "salud", "popup": "<strong>Clínica RedSalud Vitacura</strong><br><br><strong>Tipo de atención:</strong> Clínica<br><strong>Dirección:</strong>  1185", "etiqueta": "" }, "geometry": { "type": "Point", "coordinates": [ -70.53534, -33.38216 ] } },
{ "type": "Feature", "properties": { "capa": "salud", "popup": "<strong>Procedimientos Clínicos Alto Tabancura</strong><br><br><strong>Tipo de atención:</strong> Centro de Salud Privado<br><strong>Dirección:</strong>  1515", "etiqueta": "" }, "geometry": { "type": "Point", "coordinates": [ -70.536344, -33.380903 ] } },
{ "type": "Feature", "properties": { "capa": "salud", "popup": "<strong>INTEGRAMEDICA VITACURA</strong><br><br><strong>Tipo de atención:</strong> Centro de Salud Privado<br><strong>Dirección:</strong>  4705", "etiqueta": "" }, "geometry": { "type": "Point", "coordinates": [ -70.585848, -33.398481 ] } },
{ "type": "Feature", "properties": { "capa": "salud", "popup": "<strong>Sciensolutions SPA</strong><br><br><strong>Tipo de atención:</strong> Centro de Salud Privado<br><strong>Dirección:</strong>  7120", "etiqueta": "" }, "geometry": { "type": "Point", "coordinates": [ -70.560466, -33.393662 ] } },
{ "type": "Feature", "properties": { "capa": "salud", "popup": "<strong>SAPU VITACURA</strong><br><br><strong>Tipo de atención:</strong> Servicio de Atención Primaria de Urgencia (SAPU)<br><strong>Dirección:</strong>  1195", "etiqueta": "" }, "geometry": { "type": "Point", "coordinates": [ -70.554986, -33.389906699999976 ] } },
{ "type": "Feature", "properties": { "capa": "salud", "popup": "<strong>OPERACIÓN CLINICA HUINGANAL</strong><br><br><strong>Tipo de atención:</strong> Clínica<br><strong>Dirección:</strong>  NA", "etiqueta": "" }, "geometry": { "type": "Point", "coordinates": [ -70.599194399999988, -33.400332099999972 ] } },
{ "type": "Feature", "properties": { "capa": "salud", "popup": "<strong>CENTRO MEDICO UC CHRISTUS VITACURA</strong><br><br><strong>Tipo de atención:</strong> Centro de Salud Privado<br><strong>Dirección:</strong>  5670", "etiqueta": "" }, "geometry": { "type": "Point", "coordinates": [ -70.576426629999958, -33.392608699999975 ] } },
{ "type": "Feature", "properties": { "capa": "municipios", "popup": "<strong>Municipalidad de Vitacura</strong><br><br><strong>Dirección:</strong> Av.Bicentenario Nº 3800<br><strong>Región:</strong> Metropolitana de Santiago", "etiqueta": "" }, "geometry": { "type": "Point", "coordinates": [ -70.601815, -33.398799000999936 ] } }
]
}
