{
"type": "FeatureCollection",
"name": "13131",
"crs": { "type": "name", "properties": { "name": "urn:ogc:def:crs:OGC:1.3:CRS84" } },
"features": [
{ "type": "Feature", "properties": { "capa": "comuna", "popup": "", "etiqueta": "" }, "geometry": { "type": "Polygon", "coordinates": [ [ [ -70.638107144262491, -33.518680763048756 ], [ -70.637404678778296, -33.518786019200917 ], [ -70.636594892465425, -33.518728535826021 ], [ -70.636586752830638, -33.518886598164094 ], [ -70.636576159896805, -33.518885983293458 ], [ -70.636060535008554, -33.523219390844737 ], [ -70.635855528680935, -33.52551643489096 ], [ -70.635653252333455, -33.527314166105988 ], [ -70.635552439799014, -33.528157015072281 ], [ -70.63546225343606, -33.529148156233312 ], [ -70.63532190874092, -33.529752327258151 ], [ -70.635079109390986, -33.530532495791903 ], [ -70.634760291906758, -33.53288849991187 ], [ -70.634672508537193, -33.533946983968157 ], [ -70.634607201016024, -33.534700469643205 ], [ -70.634576244173033, -33.53597491539459 ], [ -70.634511052534535, -33.537291742939281 ], [ -70.63447394313016, -33.537785433723023 ], [ -70.634156728240399, -33.541961941567891 ], [ -70.634131708363114, -33.542329823566185 ], [ -70.634102121450908, -33.542665614487113 ], [ -70.633266489709001, -33.547571266071273 ], [ -70.632926312083953, -33.549345617547189 ], [ -70.632483121950315, -33.551455838331243 ], [ -70.631792690297672, -33.554186038949162 ], [ -70.631872820021016, -33.554266468736152 ], [ -70.63169781922052, -33.555034358806395 ], [ -70.631494568200949, -33.55597759158487 ], [ -70.631179742829858, -33.557428571103074 ], [ -70.631034823014971, -33.55797333846516 ], [ -70.631019720538404, -33.558066473530893 ], [ -70.631411490206858, -33.558098362689655 ], [ -70.6314077604018, -33.558112795488903 ], [ -70.632073316805915, -33.558165764140931 ], [ -70.632463783018878, -33.558142587833153 ], [ -70.633160547794276, -33.558040755734382 ], [ -70.633640990164423, -33.557973909639578 ], [ -70.634074126353397, -33.557859814668682 ], [ -70.634648874760373, -33.557829471263489 ], [ -70.635277407998373, -33.557740716704636 ], [ -70.635853166111744, -33.557661005058826 ], [ -70.63665768111052, -33.557546129639654 ], [ -70.637466435259142, -33.557436216503881 ], [ -70.63805736142605, -33.55735621936212 ], [ -70.638450492940478, -33.557296938050882 ], [ -70.638851380509081, -33.557246565747725 ], [ -70.639350022746882, -33.557176797263388 ], [ -70.639673619268393, -33.557129015786643 ], [ -70.640490498678773, -33.557008392668052 ], [ -70.6413662860122, -33.556897566305082 ], [ -70.641808185266754, -33.556855653698136 ], [ -70.643083880106786, -33.556694444033681 ], [ -70.643858179372671, -33.556592481468023 ], [ -70.644060099088975, -33.556566233222071 ], [ -70.644503996196732, -33.556504190520663 ], [ -70.644936109204579, -33.556444370378678 ], [ -70.645504000771012, -33.556355631614508 ], [ -70.645922969629623, -33.556295983548758 ], [ -70.646258131062126, -33.556237373757497 ], [ -70.646596291969374, -33.556178798362332 ], [ -70.646989407314123, -33.55611926920291 ], [ -70.647410144955543, -33.556050726774863 ], [ -70.648441279747672, -33.555901729901599 ], [ -70.649178368997866, -33.555792695786486 ], [ -70.650220175775573, -33.555634529486163 ], [ -70.650647516932636, -33.55557475365859 ], [ -70.651121173429132, -33.555505271290791 ], [ -70.651510139455581, -33.555446005178716 ], [ -70.651907744580114, -33.555395560678036 ], [ -70.652429742116979, -33.555325502482489 ], [ -70.65321710737868, -33.555206758861772 ], [ -70.653430830957817, -33.5551751658355 ], [ -70.653820620739396, -33.555117580137782 ], [ -70.654708282902533, -33.555000028028061 ], [ -70.653793013714079, -33.551134133721234 ], [ -70.653545654515739, -33.550019667292204 ], [ -70.652861944956385, -33.547608975600426 ], [ -70.652093120922146, -33.544879300873859 ], [ -70.651776668702055, -33.543620027340161 ], [ -70.650987939797758, -33.540844362633031 ], [ -70.650915862572631, -33.540186269690246 ], [ -70.651107558562671, -33.539786922925693 ], [ -70.65085965229035, -33.538910402742914 ], [ -70.648002564122478, -33.528614273567108 ], [ -70.647708420664173, -33.528234842126494 ], [ -70.647605289577953, -33.527857448891758 ], [ -70.647098281329917, -33.526054302681935 ], [ -70.646770963986484, -33.524850255712543 ], [ -70.646622361078911, -33.524293058528372 ], [ -70.64625615836178, -33.523251833562426 ], [ -70.646191685375513, -33.523032847041335 ], [ -70.645977467722972, -33.522308659983075 ], [ -70.645709839836897, -33.521311187052206 ], [ -70.645441594808219, -33.520322735300176 ], [ -70.645343710781603, -33.520025647865324 ], [ -70.645125037485258, -33.519190641793905 ], [ -70.644893123021603, -33.51836408611657 ], [ -70.644782363442019, -33.517973714921624 ], [ -70.644675404634398, -33.517570394286174 ], [ -70.64462137635995, -33.517366664310849 ], [ -70.64327943975087, -33.517636989282828 ], [ -70.641055084444929, -33.518090316814266 ], [ -70.638867840340026, -33.518525161325236 ], [ -70.638107144262491, -33.518680763048756 ] ] ] } },
{ "type": "Feature", "properties": { "capa": "ds19", "popup": "<strong>CONDOMINIO NUEVA VESPUCIO</strong><br><br><strong>Programa:</strong> DS19<br><strong>Comuna:</strong> San Ramón<br><strong>Región:</strong> Metropolitana de Santiago<br><strong>Año de inicio:</strong> 2023", "etiqueta": "CONDOMINIO NUEVA VESPUCIO" }, "geometry": { "type": "Polygon", "coordinates": [ [ [ -70.636637071062964, -33.543663878051184 ], [ -70.636583424572493, -33.543070694372851 ], [ -70.635625745919469, -33.543129395455367 ], [ -70.63566663453625, -33.543700977586127 ], [ -70.636637071062964, -33.543663878051184 ] ] ] } },
{ "type": "Feature", "properties": { "capa": "colegios", "popup": "<strong>ESCUELA BASICA VILLA LA CULTURA</strong><br><br><strong>Dirección:</strong> GALVARINO 10256", "etiqueta": "" }, "geometry": { "type": "Point", "coordinates": [ -70.633015269999987, -33.55540974 ] } },
{ "type": "Feature", "properties": { "capa": "colegios", "popup": "<strong>ESCUELA BASICA TUPAHUE</strong><br><br><strong>Dirección:</strong> AURORA DE CHILE 10104", "etiqueta": "" }, "geometry": { "type": "Point", "coordinates": [ -70.64141983, -33.55382014 ] } },
{ "type": "Feature", "properties": { "capa": "colegios", "popup": "<strong>ESCUELA HOSPITALARIA PADRE HURTADO</strong><br><br><strong>Dirección:</strong> ESPERANZA 2150", "etiqueta": "" }, "geometry": { "type": "Point", "coordinates": [ -70.63536, -33.55262 ] } },
{ "type": "Feature", "properties": { "capa": "colegios", "popup": "<strong>CENTRO DE EDUCACION PAULA JARAQUEMADA</strong><br><br><strong>Dirección:</strong> ALMIRANTE LATORRE 9921", "etiqueta": "" }, "geometry": { "type": "Point", "coordinates": [ -70.64480909, -33.55182479 ] } },
{ "type": "Feature", "properties": { "capa": "colegios", "popup": "<strong>ESCUELA BASICA ALIVEN</strong><br><br><strong>Dirección:</strong> ALMIRANTE LATORRE 9835", "etiqueta": "" }, "geometry": { "type": "Point", "coordinates": [ -70.644590169999987, -33.550884320000016 ] } },
{ "type": "Feature", "properties": { "capa": "colegios", "popup": "<strong>ESCUELA NANIHUE</strong><br><br><strong>Dirección:</strong> RIQUELME 1922", "etiqueta": "" }, "geometry": { "type": "Point", "coordinates": [ -70.64043938, -33.550141020000012 ] } },
{ "type": "Feature", "properties": { "capa": "colegios", "popup": "<strong>CENTRO EDUCACIONAL MUNICIPAL SAN RAMON</strong><br><br><strong>Dirección:</strong> ALMIRANTE LATORRE 9701", "etiqueta": "" }, "geometry": { "type": "Point", "coordinates": [ -70.64463024, -33.549771430000014 ] } },
{ "type": "Feature", "properties": { "capa": "colegios", "popup": "<strong>ESCUELA ESPECIAL DE ADULTOS</strong><br><br><strong>Dirección:</strong> SANTA ROSA 9449", "etiqueta": "" }, "geometry": { "type": "Point", "coordinates": [ -70.633324, -33.549068 ] } },
{ "type": "Feature", "properties": { "capa": "colegios", "popup": "<strong>ESCUELA PARTICULAR ARTURO MATTE LARRAIN</strong><br><br><strong>Dirección:</strong> ANIBAL ZAÑARTU 9567", "etiqueta": "" }, "geometry": { "type": "Point", "coordinates": [ -70.64904628, -33.54829191000001 ] } },
{ "type": "Feature", "properties": { "capa": "colegios", "popup": "<strong>ESCUELA PARTICULAR 1788 EDEN DE SAN RAMON</strong><br><br><strong>Dirección:</strong> QUINTIN ROMERO 2020", "etiqueta": "" }, "geometry": { "type": "Point", "coordinates": [ -70.6367, -33.547203 ] } },
{ "type": "Feature", "properties": { "capa": "colegios", "popup": "<strong>ESCUELA BASICA KARELMAPU</strong><br><br><strong>Dirección:</strong> ALMIRANTE LATORRE 9299", "etiqueta": "" }, "geometry": { "type": "Point", "coordinates": [ -70.64375712, -33.54572768 ] } },
{ "type": "Feature", "properties": { "capa": "colegios", "popup": "<strong>LICEO BICENTENARIO SAN FRANCISCO</strong><br><br><strong>Dirección:</strong> SANTA ROSA 9093", "etiqueta": "" }, "geometry": { "type": "Point", "coordinates": [ -70.63420356, -33.54411525 ] } },
{ "type": "Feature", "properties": { "capa": "colegios", "popup": "<strong>ESCUELA ESPECIAL PARTICULAR GALVARINO</strong><br><br><strong>Dirección:</strong> AMERICO VESPUCIO 1670", "etiqueta": "" }, "geometry": { "type": "Point", "coordinates": [ -70.64583, -33.54037 ] } },
{ "type": "Feature", "properties": { "capa": "colegios", "popup": "<strong>ESCUELA PARTIC PARROQUIAL DOMINGO SAVIO</strong><br><br><strong>Dirección:</strong> BOLIVIA 1574", "etiqueta": "" }, "geometry": { "type": "Point", "coordinates": [ -70.64662425, -33.53850019 ] } },
{ "type": "Feature", "properties": { "capa": "colegios", "popup": "<strong>ESCUELA BASICA EDUCADORES DE CHILE</strong><br><br><strong>Dirección:</strong> DONIHUE 1887", "etiqueta": "" }, "geometry": { "type": "Point", "coordinates": [ -70.640038379999979, -33.53762321 ] } },
{ "type": "Feature", "properties": { "capa": "colegios", "popup": "<strong>LICEO COMERCIAL VATE VICENTE HUIDOBRO</strong><br><br><strong>Dirección:</strong> DOÑIHUE 2030", "etiqueta": "" }, "geometry": { "type": "Point", "coordinates": [ -70.63650029, -33.53761294000001 ] } },
{ "type": "Feature", "properties": { "capa": "colegios", "popup": "<strong>LICEO MUNICIPAL PURKUYEN</strong><br><br><strong>Dirección:</strong> PASAJE PROFESOR DAVID CATILAO RIVEROS 8450", "etiqueta": "" }, "geometry": { "type": "Point", "coordinates": [ -70.63732312, -33.5372955 ] } },
{ "type": "Feature", "properties": { "capa": "colegios", "popup": "<strong>ESC. ESP. PART. DIEGO THOMPSON</strong><br><br><strong>Dirección:</strong> CALLE LA GRANJA 8552", "etiqueta": "" }, "geometry": { "type": "Point", "coordinates": [ -70.6497, -33.536316 ] } },
{ "type": "Feature", "properties": { "capa": "colegios", "popup": "<strong>ESCUELA ESPECIAL PARAPEQUES</strong><br><br><strong>Dirección:</strong> JUAN LUIS SANFUENTES 8338", "etiqueta": "" }, "geometry": { "type": "Point", "coordinates": [ -70.644608, -33.536311 ] } },
{ "type": "Feature", "properties": { "capa": "colegios", "popup": "<strong>ESC.PAR.MAURICE AND NATALY SCHOOL</strong><br><br><strong>Dirección:</strong> VENEZUELA 2095", "etiqueta": "" }, "geometry": { "type": "Point", "coordinates": [ -70.635302329999988, -33.53490136 ] } },
{ "type": "Feature", "properties": { "capa": "colegios", "popup": "<strong>LICEO MUNICIPALIZADO ARAUCANIA</strong><br><br><strong>Dirección:</strong> PROFESOR DAVID CATILAO RIVEROS 8153", "etiqueta": "" }, "geometry": { "type": "Point", "coordinates": [ -70.63725008, -33.53481258 ] } },
{ "type": "Feature", "properties": { "capa": "colegios", "popup": "<strong>ESCUELA DE LENGUAJE CHILE</strong><br><br><strong>Dirección:</strong> LOS CLARINES 8153", "etiqueta": "" }, "geometry": { "type": "Point", "coordinates": [ -70.642012, -33.534021 ] } },
{ "type": "Feature", "properties": { "capa": "colegios", "popup": "<strong>ESCUELA ESPECIAL MIS PRIMEROS PASITOS E.I.R.L</strong><br><br><strong>Dirección:</strong> RAMON BARROS LUCO 8094", "etiqueta": "" }, "geometry": { "type": "Point", "coordinates": [ -70.645223, -33.532216 ] } },
{ "type": "Feature", "properties": { "capa": "colegios", "popup": "<strong>ESCUELA PARTICULAR FRANCISCO RAMIREZ</strong><br><br><strong>Dirección:</strong> AMERICA DEL SUR 2041", "etiqueta": "" }, "geometry": { "type": "Point", "coordinates": [ -70.63619913, -33.53208591 ] } },
{ "type": "Feature", "properties": { "capa": "colegios", "popup": "<strong>ESCUELA PARTICULAR ELSA RAMIREZ</strong><br><br><strong>Dirección:</strong> AMERICA DEL SUR 2062", "etiqueta": "" }, "geometry": { "type": "Point", "coordinates": [ -70.63607961, -33.531944270000011 ] } },
{ "type": "Feature", "properties": { "capa": "colegios", "popup": "<strong>ESCUELA PARTICULAR FRANCISCO DE MIRANDA</strong><br><br><strong>Dirección:</strong> AMERICA DEL NORTE 2086", "etiqueta": "" }, "geometry": { "type": "Point", "coordinates": [ -70.635723840000011, -33.53125923 ] } },
{ "type": "Feature", "properties": { "capa": "colegios", "popup": "<strong>ESC.PART. ESPECIAL NUESTRO MUNDO</strong><br><br><strong>Dirección:</strong> AMERICA DEL NORTE 2001", "etiqueta": "" }, "geometry": { "type": "Point", "coordinates": [ -70.637146, -33.530853 ] } },
{ "type": "Feature", "properties": { "capa": "colegios", "popup": "<strong>COLEGIO NUESTRO MUNDO</strong><br><br><strong>Dirección:</strong> AMERICA CENTRAL 1731", "etiqueta": "" }, "geometry": { "type": "Point", "coordinates": [ -70.64247198, -33.53062828 ] } },
{ "type": "Feature", "properties": { "capa": "colegios", "popup": "<strong>ESCUELA PARTICULAR EMA DIAZ SIERRA</strong><br><br><strong>Dirección:</strong> JUAN LUIS SANFUENTES 7910", "etiqueta": "" }, "geometry": { "type": "Point", "coordinates": [ -70.64272504, -33.529762400000017 ] } },
{ "type": "Feature", "properties": { "capa": "colegios", "popup": "<strong>ESCUELA BASICA PARTICULAR ARMI</strong><br><br><strong>Dirección:</strong> AVENIDA EL PARRON 1357", "etiqueta": "" }, "geometry": { "type": "Point", "coordinates": [ -70.64661259, -33.52892188 ] } },
{ "type": "Feature", "properties": { "capa": "colegios", "popup": "<strong>ESCUELA BASICA SENDERO DEL SABER</strong><br><br><strong>Dirección:</strong> CARLOS DAVILA 7551", "etiqueta": "" }, "geometry": { "type": "Point", "coordinates": [ -70.63856408, -33.52660334 ] } },
{ "type": "Feature", "properties": { "capa": "colegios", "popup": "<strong>COLEGIO POLIVALENTE FRANCISCO RAMIREZ</strong><br><br><strong>Dirección:</strong> SANTA ANA 1901", "etiqueta": "" }, "geometry": { "type": "Point", "coordinates": [ -70.63693928, -33.52546589 ] } },
{ "type": "Feature", "properties": { "capa": "colegios", "popup": "<strong>ESC. DE PARV. PART. MI PEQUENO MUNDO DE SAN R</strong><br><br><strong>Dirección:</strong> PARROQUIA 1508", "etiqueta": "" }, "geometry": { "type": "Point", "coordinates": [ -70.64067, -33.521465 ] } },
{ "type": "Feature", "properties": { "capa": "colegios", "popup": "<strong>ESCUELA ESP. ARCA DE LOS NIÑOS</strong><br><br><strong>Dirección:</strong> PARROQUIA 1267", "etiqueta": "" }, "geometry": { "type": "Point", "coordinates": [ -70.6447, -33.52135 ] } },
{ "type": "Feature", "properties": { "capa": "colegios", "popup": "<strong>ESCUELA BASICA ALAS DE AGUILA</strong><br><br><strong>Dirección:</strong> SANTA ROSA 6499", "etiqueta": "" }, "geometry": { "type": "Point", "coordinates": [ -70.636521049999985, -33.52069352 ] } },
{ "type": "Feature", "properties": { "capa": "colegios", "popup": "<strong>ESCUELA COLEGIO ALBERTO BLEST GANA</strong><br><br><strong>Dirección:</strong> AVENIDA MIRADOR 1674", "etiqueta": "" }, "geometry": { "type": "Point", "coordinates": [ -70.638285, -33.51989686 ] } },
{ "type": "Feature", "properties": { "capa": "colegios", "popup": "<strong>CENTRO EDUCACIONAL MIRADOR</strong><br><br><strong>Dirección:</strong> AVENIDA MIRADOR 1470", "etiqueta": "" }, "geometry": { "type": "Point", "coordinates": [ -70.64109271, -33.51935004 ] } },
{ "type": "Feature", "properties": { "capa": "colegios", "popup": "<strong>ESCUELA BASICA PARTICULAR DEUTSCHLAND</strong><br><br><strong>Dirección:</strong> AVENIDA LO OVALLE 1295", "etiqueta": "" }, "geometry": { "type": "Point", "coordinates": [ -70.64362585, -33.51767586 ] } },
{ "type": "Feature", "properties": { "capa": "jardines", "popup": "<strong>FRANCISCO FRIAS VALENZUELA</strong><br><br><strong>Dirección:</strong> STA ROSA 6740 ", "etiqueta": "" }, "geometry": { "type": "MultiPoint", "coordinates": [ [ -70.63601, -33.523791 ] ] } },
{ "type": "Feature", "properties": { "capa": "jardines", "popup": "<strong>PRIMAVERA</strong><br><br><strong>Dirección:</strong> PEDRO AGUIRRE CERDA #8582 POB. PARAGUAY ", "etiqueta": "" }, "geometry": { "type": "MultiPoint", "coordinates": [ [ -70.637343, -33.538274 ] ] } },
{ "type": "Feature", "properties": { "capa": "jardines", "popup": "<strong>LOS CARIÑOSITOS</strong><br><br><strong>Dirección:</strong> ALMIRANTE LATORRE 9285 POB. LA BANDERA ", "etiqueta": "" }, "geometry": { "type": "MultiPoint", "coordinates": [ [ -70.643598, -33.545688 ] ] } },
{ "type": "Feature", "properties": { "capa": "jardines", "popup": "<strong>LAS HORMIGUITAS</strong><br><br><strong>Dirección:</strong> AURORA DE CHILE 9491 POBL. LA BANDERA ", "etiqueta": "" }, "geometry": { "type": "MultiPoint", "coordinates": [ [ -70.640839, -33.548925 ] ] } },
{ "type": "Feature", "properties": { "capa": "jardines", "popup": "<strong>PRINCIPES DEL REINO</strong><br><br><strong>Dirección:</strong> PEDRO AGUIRRE CERDA 8153 ", "etiqueta": "" }, "geometry": { "type": "MultiPoint", "coordinates": [ [ -70.637785, -33.534051 ] ] } },
{ "type": "Feature", "properties": { "capa": "jardines", "popup": "<strong>SEMILLITAS DE ESPERANZA</strong><br><br><strong>Dirección:</strong> URUGUAY N 1730, SAN RAMON ", "etiqueta": "" }, "geometry": { "type": "MultiPoint", "coordinates": [ [ -70.643209, -33.532804 ] ] } },
{ "type": "Feature", "properties": { "capa": "jardines", "popup": "<strong>BELEN</strong><br><br><strong>Dirección:</strong> AURORA DE CHILE 1008 ", "etiqueta": "" }, "geometry": { "type": "MultiPoint", "coordinates": [ [ -70.641344, -33.553071 ] ] } },
{ "type": "Feature", "properties": { "capa": "jardines", "popup": "<strong>CABALLITO FELIZ</strong><br><br><strong>Dirección:</strong> SANTA INES 2093 ", "etiqueta": "" }, "geometry": { "type": "MultiPoint", "coordinates": [ [ -70.636505, -33.548629 ] ] } },
{ "type": "Feature", "properties": { "capa": "jardines", "popup": "<strong>AKUN PICHIWENTXU</strong><br><br><strong>Dirección:</strong> LA BANDERA 9750 ", "etiqueta": "" }, "geometry": { "type": "MultiPoint", "coordinates": [ [ -70.646215, -33.550045 ] ] } },
{ "type": "Feature", "properties": { "capa": "jardines", "popup": "<strong>MODELO</strong><br><br><strong>Dirección:</strong> AV MIRADOR 1298 ", "etiqueta": "" }, "geometry": { "type": "MultiPoint", "coordinates": [ [ -70.643718, -33.518942 ] ] } },
{ "type": "Feature", "properties": { "capa": "jardines", "popup": "<strong>CRECER CON AMOR</strong><br><br><strong>Dirección:</strong> SANTA ROSA 9485 ", "etiqueta": "" }, "geometry": { "type": "MultiPoint", "coordinates": [ [ -70.633134, -33.549167 ] ] } },
{ "type": "Feature", "properties": { "capa": "jardines", "popup": "<strong>ANGEL DE LA GUARDA SAN RAMON</strong><br><br><strong>Dirección:</strong> RIQUELME 1500 POB LA BANDERA ", "etiqueta": "" }, "geometry": { "type": "MultiPoint", "coordinates": [ [ -70.650114, -33.548743 ] ] } },
{ "type": "Feature", "properties": { "capa": "jardines", "popup": "<strong>NA</strong><br><br><strong>Dirección:</strong> NA ", "etiqueta": "" }, "geometry": { "type": "MultiPoint", "coordinates": [ [ -70.632304000264554, -33.556269000428721 ] ] } },
{ "type": "Feature", "properties": { "capa": "jardines", "popup": "<strong>NA</strong><br><br><strong>Dirección:</strong> NA ", "etiqueta": "" }, "geometry": { "type": "MultiPoint", "coordinates": [ [ -70.645580000355054, -33.54751700029999 ] ] } },
{ "type": "Feature", "properties": { "capa": "jardines", "popup": "<strong>NA</strong><br><br><strong>Dirección:</strong> NA ", "etiqueta": "" }, "geometry": { "type": "MultiPoint", "coordinates": [ [ -70.638049999479762, -33.524007000236168 ] ] } },
{ "type": "Feature", "properties": { "capa": "bomberos", "popup": "<strong>Cuerpo de Bomberos</strong><br><br><strong>Dirección:</strong> Argentina 2095", "etiqueta": "" }, "geometry": { "type": "Point", "coordinates": [ -70.635359675977355, -33.533127028611759 ] } },
{ "type": "Feature", "properties": { "capa": "comisarias", "popup": "<strong>31A. COM. SAN RAMON</strong><br><br><strong>Dirección:</strong> VICUNA MACKENNA 1759", "etiqueta": "" }, "geometry": { "type": "Point", "coordinates": [ -70.644815, -33.546011 ] } },
{ "type": "Feature", "properties": { "capa": "salud", "popup": "<strong>Hospital Padre Alberto Hurtado (San Ramón)</strong><br><br><strong>Tipo de atención:</strong> Hospital<br><strong>Dirección:</strong>  2150", "etiqueta": "" }, "geometry": { "type": "Point", "coordinates": [ -70.635024, -33.5525 ] } },
{ "type": "Feature", "properties": { "capa": "salud", "popup": "<strong>SAPU Poetisa Gabriela Mistral</strong><br><br><strong>Tipo de atención:</strong> Servicio de Atención Primaria de Urgencia (SAPU)<br><strong>Dirección:</strong>  9872", "etiqueta": "" }, "geometry": { "type": "Point", "coordinates": [ -70.640914, -33.551808 ] } },
{ "type": "Feature", "properties": { "capa": "salud", "popup": "<strong>Centro de Salud Familiar Poetisa Gabriela Mistral</strong><br><br><strong>Tipo de atención:</strong> Centro de Salud Familiar (CESFAM)<br><strong>Dirección:</strong>  9872", "etiqueta": "" }, "geometry": { "type": "Point", "coordinates": [ -70.64073, -33.55161 ] } },
{ "type": "Feature", "properties": { "capa": "salud", "popup": "<strong>Centro de Salud Familiar La Bandera</strong><br><br><strong>Tipo de atención:</strong> Centro de Salud Familiar (CESFAM)<br><strong>Dirección:</strong>  1758", "etiqueta": "" }, "geometry": { "type": "Point", "coordinates": [ -70.64482, -33.54543 ] } },
{ "type": "Feature", "properties": { "capa": "salud", "popup": "<strong>SAPU San Ramón</strong><br><br><strong>Tipo de atención:</strong> Servicio de Atención Primaria de Urgencia (SAPU)<br><strong>Dirección:</strong>  1760", "etiqueta": "" }, "geometry": { "type": "Point", "coordinates": [ -70.640711, -33.537991 ] } },
{ "type": "Feature", "properties": { "capa": "salud", "popup": "<strong>Centro de Salud Familiar Dr. Salvador Allende (Ex Consultorio San Ramón)</strong><br><br><strong>Tipo de atención:</strong> Centro de Salud Familiar (CESFAM)<br><strong>Dirección:</strong>  8097", "etiqueta": "" }, "geometry": { "type": "Point", "coordinates": [ -70.642517, -33.532855 ] } },
{ "type": "Feature", "properties": { "capa": "salud", "popup": "<strong>Centro Comunitario de Salud Familiar Modelo</strong><br><br><strong>Tipo de atención:</strong> Centro Comunitario de Salud Familiar (CECOSF)<br><strong>Dirección:</strong>  6543", "etiqueta": "" }, "geometry": { "type": "Point", "coordinates": [ -70.642705, -33.519808 ] } },
{ "type": "Feature", "properties": { "capa": "salud", "popup": "<strong>SAR La Bandera</strong><br><br><strong>Tipo de atención:</strong> Servicio de Atención Primaria de Urgencia de Alta Resolutividad (SAR)<br><strong>Dirección:</strong>  9250", "etiqueta": "" }, "geometry": { "type": "Point", "coordinates": [ -70.644722, -33.545766 ] } }
]
}
