{
"type": "FeatureCollection",
"name": "13302",
"crs": { "type": "name", "properties": { "name": "urn:ogc:def:crs:OGC:1.3:CRS84" } },
"features": [
{ "type": "Feature", "properties": { "capa": "comuna", "popup": "", "etiqueta": "" }, "geometry": { "type": "Polygon", "coordinates": [ [ [ -70.794380098585506, -33.171888215797999 ], [ -70.792756044264834, -33.172900846150227 ], [ -70.792677386880229, -33.172920818400854 ], [ -70.792490263314974, -33.172954985210168 ], [ -70.792301376356804, -33.172984596935422 ], [ -70.792111171570127, -33.173014153761251 ], [ -70.791950489016941, -33.173035305732206 ], [ -70.791943301596362, -33.173053921507609 ], [ -70.791911308097511, -33.17305821942179 ], [ -70.79174984670496, -33.173369133400669 ], [ -70.791024210076344, -33.174249715505525 ], [ -70.790028393447912, -33.175022458417374 ], [ -70.785812733668521, -33.178126891006329 ], [ -70.78438594758758, -33.179117081521397 ], [ -70.783613254509433, -33.180221999681876 ], [ -70.782972929985007, -33.181592355105806 ], [ -70.781771011982627, -33.184289885943031 ], [ -70.781437901403933, -33.185033010110651 ], [ -70.781082930322782, -33.18583082067488 ], [ -70.780439547034831, -33.187273768202786 ], [ -70.779539714496181, -33.18929236104443 ], [ -70.778779947276661, -33.190991564469272 ], [ -70.778226199684383, -33.192229846623917 ], [ -70.77754404600708, -33.193762541024249 ], [ -70.777020606674171, -33.194931138518555 ], [ -70.776209100985852, -33.196751533934012 ], [ -70.775744876799848, -33.197791834817174 ], [ -70.775192955482552, -33.199027383153322 ], [ -70.774666373842763, -33.200206853295718 ], [ -70.774215195889639, -33.201217349345839 ], [ -70.773196088640844, -33.203499657908388 ], [ -70.771400540542516, -33.207527070305872 ], [ -70.771143515471749, -33.208103409433285 ], [ -70.771298390416618, -33.2083164939691 ], [ -70.771075513004732, -33.208255891894517 ], [ -70.767498288592705, -33.216269326525975 ], [ -70.766547323049792, -33.21840010979728 ], [ -70.765947229575374, -33.219740950534472 ], [ -70.764633120977166, -33.222691973783888 ], [ -70.763834296805712, -33.224465224948204 ], [ -70.760259284944226, -33.232117321018315 ], [ -70.758801023692371, -33.235377658803081 ], [ -70.758758203697724, -33.235473026184188 ], [ -70.75874661183731, -33.235498841119444 ], [ -70.757723062419416, -33.237778227702535 ], [ -70.756585693760101, -33.240321522924958 ], [ -70.755663624324924, -33.242385460429929 ], [ -70.755195326279107, -33.243438646172656 ], [ -70.754266347002769, -33.245525881874691 ], [ -70.753354401580836, -33.247567363512708 ], [ -70.752537366761928, -33.249398220526153 ], [ -70.751349705921427, -33.252055174038709 ], [ -70.751221127359869, -33.252343726635729 ], [ -70.750612030071366, -33.253704637809513 ], [ -70.749999352098143, -33.255073578452034 ], [ -70.749023496035321, -33.257253054688846 ], [ -70.746499700804151, -33.26288780894788 ], [ -70.746565249972122, -33.262961605954793 ], [ -70.746466126270406, -33.262962694352595 ], [ -70.745565068429727, -33.26497536277612 ], [ -70.743482422359861, -33.269630332688031 ], [ -70.74281498937512, -33.271077137065319 ], [ -70.742068297134551, -33.272777550613156 ], [ -70.740949904487294, -33.275286913292895 ], [ -70.739555845828789, -33.278397724418362 ], [ -70.739156349750587, -33.279286469043512 ], [ -70.738394060061736, -33.280989353398361 ], [ -70.737647993048611, -33.282652955208526 ], [ -70.734861514258682, -33.288874290781365 ], [ -70.733382692366604, -33.292166785042426 ], [ -70.732063219927809, -33.29511372533743 ], [ -70.731316009359332, -33.296779627292558 ], [ -70.730167409063995, -33.299335993047521 ], [ -70.728805120223839, -33.302373165386413 ], [ -70.728303235966195, -33.303491973511456 ], [ -70.726710945175626, -33.30704137763982 ], [ -70.724718104583047, -33.311479581037176 ], [ -70.7233307976622, -33.314577171147654 ], [ -70.723332121778952, -33.314581360765317 ], [ -70.723328895030434, -33.31458137127504 ], [ -70.72227839974731, -33.316912898680144 ], [ -70.721797631288709, -33.317980680815886 ], [ -70.72093474555939, -33.319937425216871 ], [ -70.719576230541733, -33.322960408612161 ], [ -70.718833903215128, -33.324609022072636 ], [ -70.719484538602373, -33.324811134682093 ], [ -70.723959322815361, -33.325667104526772 ], [ -70.726513817073041, -33.326242121873044 ], [ -70.72650969560253, -33.326271519576281 ], [ -70.726563924201272, -33.326254403818247 ], [ -70.726943210880549, -33.326343959960234 ], [ -70.727929449671407, -33.326311993755816 ], [ -70.728967664086312, -33.32672133112073 ], [ -70.729250150107177, -33.326812126002991 ], [ -70.729274639080131, -33.326824864975663 ], [ -70.730174906403377, -33.327053564195324 ], [ -70.731646526501805, -33.32733562628998 ], [ -70.732092634363497, -33.327329469256298 ], [ -70.732218651828163, -33.327390563704434 ], [ -70.745582772427341, -33.330426906659014 ], [ -70.752790529975314, -33.33209272914111 ], [ -70.752790583874216, -33.332092842472946 ], [ -70.75686907180804, -33.333044194496146 ], [ -70.756908655172722, -33.333015258404977 ], [ -70.756943714621627, -33.333033883659965 ], [ -70.759903224206639, -33.333701656763516 ], [ -70.766188336499326, -33.335199222537419 ], [ -70.793490603859169, -33.341266057614888 ], [ -70.793499583418736, -33.341265509026329 ], [ -70.797876684827756, -33.338472729053002 ], [ -70.797762273596518, -33.338952735584044 ], [ -70.797771614278844, -33.339411520426175 ], [ -70.797784735970211, -33.340049991932418 ], [ -70.798037598247959, -33.341287083337541 ], [ -70.798469736408649, -33.342951021634057 ], [ -70.798543347057972, -33.343761264459154 ], [ -70.798794182736444, -33.34490293532442 ], [ -70.799320505661413, -33.345611096152275 ], [ -70.799420235725933, -33.345696751197465 ], [ -70.800308161095472, -33.346451822492511 ], [ -70.800942893607242, -33.34697349080956 ], [ -70.801063894879391, -33.347057505612121 ], [ -70.801465926003317, -33.34733676168441 ], [ -70.801878525806586, -33.347701558123184 ], [ -70.802109495242547, -33.348192585989224 ], [ -70.803284964148006, -33.349844232274975 ], [ -70.803600542307336, -33.350377983970191 ], [ -70.803683694861604, -33.350581264418814 ], [ -70.803783808506751, -33.350825817593808 ], [ -70.803922506589998, -33.351144277091969 ], [ -70.804131791593306, -33.351624238538058 ], [ -70.804470130366965, -33.351959298575281 ], [ -70.804731533826441, -33.352140853640954 ], [ -70.80503117766925, -33.352383686344766 ], [ -70.805329459666069, -33.352564851835872 ], [ -70.805740737149236, -33.35286789401578 ], [ -70.80648270784468, -33.353135168449064 ], [ -70.80681777764903, -33.353315646547827 ], [ -70.806939598184698, -33.353374673539598 ], [ -70.807189725990725, -33.353495735587124 ], [ -70.807342063194923, -33.353740706776669 ], [ -70.807356661716597, -33.353816660739106 ], [ -70.807383408155872, -33.353956487770709 ], [ -70.807499510016456, -33.354232793092429 ], [ -70.807615065701341, -33.354478373742332 ], [ -70.807916728956897, -33.354813884256806 ], [ -70.808144470746043, -33.355150470971267 ], [ -70.808557137024636, -33.355515316455659 ], [ -70.80896779916182, -33.355787402180901 ], [ -70.8091931685003, -33.356000500901963 ], [ -70.809382390530075, -33.35624493155477 ], [ -70.809505810066966, -33.356419253480716 ], [ -70.809514703388274, -33.356461897117981 ], [ -70.809569342517108, -33.356613581130929 ], [ -70.809640288763291, -33.356723804661179 ], [ -70.809749505037217, -33.356947608270247 ], [ -70.80977846043379, -33.356960040453295 ], [ -70.810336413039906, -33.357198132660578 ], [ -70.810415409987669, -33.357242118248415 ], [ -70.810813084282486, -33.357451814441951 ], [ -70.811125808494126, -33.357699685744912 ], [ -70.811193742689184, -33.357923573131337 ], [ -70.811223511061073, -33.358021910705546 ], [ -70.811222598372751, -33.35816479978017 ], [ -70.811220979608592, -33.358443557278129 ], [ -70.811192922527326, -33.358568005195551 ], [ -70.811130106034469, -33.3588461041291 ], [ -70.811135226431588, -33.359093218150392 ], [ -70.811214011376933, -33.359339331310331 ], [ -70.811512327509746, -33.359520333763818 ], [ -70.81177257843072, -33.3596401290025 ], [ -70.81210704636382, -33.359789794412222 ], [ -70.8126637862443, -33.359997974110108 ], [ -70.813256034731339, -33.36014387239647 ], [ -70.813810768673804, -33.360259361558931 ], [ -70.814364860320836, -33.360343903754377 ], [ -70.814514023777107, -33.360434436996606 ], [ -70.814738777769634, -33.360616580624054 ], [ -70.814926010929369, -33.360768316669379 ], [ -70.815113978012675, -33.360950996808079 ], [ -70.815376162108123, -33.361163470648307 ], [ -70.815714579933527, -33.361498423438036 ], [ -70.816122724991288, -33.361647000736248 ], [ -70.816677558646745, -33.361762475149 ], [ -70.817010115863241, -33.36181944137914 ], [ -70.817194788824409, -33.361847618363633 ], [ -70.817490003074553, -33.361874249750933 ], [ -70.817690027345591, -33.361920964763399 ], [ -70.817936227717198, -33.362084023316861 ], [ -70.818139886571885, -33.362313896425952 ], [ -70.818310891666002, -33.362387556800506 ], [ -70.818646021657472, -33.362568001458513 ], [ -70.818793377703415, -33.362647401251088 ], [ -70.818876646140382, -33.362667826839207 ], [ -70.81912904039585, -33.362777231651528 ], [ -70.819350037633839, -33.362773991952395 ], [ -70.819532783708723, -33.362709552825528 ], [ -70.819751761533951, -33.362613555416814 ], [ -70.819899005290495, -33.362611469640861 ], [ -70.82016048690339, -33.362632974888797 ], [ -70.820378896993361, -33.362666192732291 ], [ -70.820489994339511, -33.36269544309102 ], [ -70.820585139402823, -33.362741483162729 ], [ -70.820770159113678, -33.362689599172342 ], [ -70.821249801983228, -33.363129436049078 ], [ -70.82149955968336, -33.363555654785799 ], [ -70.821869379017841, -33.364377635040533 ], [ -70.822328079463162, -33.365036815904972 ], [ -70.822687567273547, -33.365447161915242 ], [ -70.82285097621363, -33.365730144014186 ], [ -70.822819497449444, -33.366065485110262 ], [ -70.822701017748315, -33.366180211663796 ], [ -70.822760795240569, -33.366453564222468 ], [ -70.822905385373758, -33.366868396002737 ], [ -70.823168845076921, -33.367363850935313 ], [ -70.823459408748832, -33.36816652627693 ], [ -70.823515542674315, -33.368463468039756 ], [ -70.823550783582903, -33.368470845788131 ], [ -70.823747958397888, -33.368895563417368 ], [ -70.823850154337862, -33.369180455620054 ], [ -70.823908391219405, -33.369346854057319 ], [ -70.823983524513139, -33.369504360573032 ], [ -70.824272754186865, -33.369760969838424 ], [ -70.82452415131236, -33.369982294215447 ], [ -70.824636746150077, -33.370179659952917 ], [ -70.824709373144174, -33.370381528015884 ], [ -70.824818875980682, -33.370666924744619 ], [ -70.825012690198164, -33.370908380890135 ], [ -70.82513843457501, -33.371005969337972 ], [ -70.825443364104956, -33.371104023554196 ], [ -70.825805497453871, -33.371112362842517 ], [ -70.826170305985698, -33.37106754628536 ], [ -70.826318824451619, -33.371054131096919 ], [ -70.826528703241323, -33.371082439377716 ], [ -70.826787197057584, -33.371170314722534 ], [ -70.827253010363322, -33.371433217028589 ], [ -70.827572524041912, -33.371643599967847 ], [ -70.827746298642055, -33.371789453970756 ], [ -70.828008498008856, -33.372122183531062 ], [ -70.828181087731139, -33.372356535791113 ], [ -70.828441874048025, -33.372740328001676 ], [ -70.828508836265911, -33.372889751822655 ], [ -70.828586364468194, -33.373186402144256 ], [ -70.828636153592825, -33.37346181520396 ], [ -70.828742359612235, -33.373657047775922 ], [ -70.82894280429484, -33.37392416683867 ], [ -70.829090419055589, -33.374123028493294 ], [ -70.829197250302428, -33.374326163457987 ], [ -70.829244777469171, -33.374535416386394 ], [ -70.82933927035559, -33.374750626696994 ], [ -70.829327401814069, -33.374898976567394 ], [ -70.829321636426556, -33.374907980895429 ], [ -70.829322894067971, -33.374909144413884 ], [ -70.829390556971788, -33.375617425691885 ], [ -70.829508253341999, -33.376192067444009 ], [ -70.829939125776463, -33.376584641341587 ], [ -70.830368233021375, -33.376888590082068 ], [ -70.831223584580385, -33.377363696338136 ], [ -70.831649909742879, -33.377534631034315 ], [ -70.83223654645434, -33.377791996014011 ], [ -70.832401500496687, -33.378099836791037 ], [ -70.832619274579457, -33.378407045608157 ], [ -70.832892741514883, -33.378846258421213 ], [ -70.832902041773011, -33.379289447733704 ], [ -70.832913114407205, -33.379821260525276 ], [ -70.83281500939502, -33.380177385099117 ], [ -70.832611179860436, -33.38053499721179 ], [ -70.832565714327274, -33.380890344737288 ], [ -70.832836311145357, -33.381196624050787 ], [ -70.83336922860282, -33.381410451164825 ], [ -70.834006009273452, -33.381534017099931 ], [ -70.835066176717248, -33.38169564292928 ], [ -70.836502685264506, -33.382161966883565 ], [ -70.836982797952928, -33.382376559735043 ], [ -70.837413823999285, -33.382769178474909 ], [ -70.837580584553706, -33.383165708723411 ], [ -70.837532516601172, -33.383388046880256 ], [ -70.837433318339279, -33.383699865865559 ], [ -70.837440777051086, -33.384054356601432 ], [ -70.837498348281017, -33.384275203552718 ], [ -70.837557694581946, -33.384584601067502 ], [ -70.837934894474785, -33.384933689073023 ], [ -70.838467844271619, -33.385147419237086 ], [ -70.83919498468002, -33.385288496564279 ], [ -70.839228066038672, -33.385270796091042 ], [ -70.839508706919972, -33.385083010935112 ], [ -70.839817526155073, -33.384884328109926 ], [ -70.840305630256267, -33.38473087291986 ], [ -70.841109622435553, -33.384553777629513 ], [ -70.841472065703257, -33.384469721766756 ], [ -70.842262653221866, -33.384222841844903 ], [ -70.842959971359477, -33.384013022651324 ], [ -70.843189793646829, -33.38391231489927 ], [ -70.843712852992354, -33.383580956618069 ], [ -70.844275436413753, -33.383195299486474 ], [ -70.844723138785071, -33.382918808596585 ], [ -70.844946515660254, -33.382784137073024 ], [ -70.845319467420126, -33.382593681417028 ], [ -70.846003293760475, -33.382327460608515 ], [ -70.846734623911388, -33.382047153392186 ], [ -70.847603698134705, -33.381732583812074 ], [ -70.848015541556492, -33.381520412246211 ], [ -70.848117322474806, -33.381615524658862 ], [ -70.848255879522554, -33.381754858450947 ], [ -70.84850924216191, -33.381676914067519 ], [ -70.849381771305801, -33.381462693047411 ], [ -70.850223537642776, -33.381294768044476 ], [ -70.85040564591381, -33.381260144841271 ], [ -70.850495685851357, -33.381223248764904 ], [ -70.850585458090961, -33.381236992437039 ], [ -70.850657404162064, -33.381212279779724 ], [ -70.850998898717322, -33.381088173301187 ], [ -70.851432201992921, -33.380883649152651 ], [ -70.851611165262142, -33.380777258599124 ], [ -70.851797650125249, -33.380660117146519 ], [ -70.852056370316959, -33.380436478047983 ], [ -70.852260922097045, -33.380245411897313 ], [ -70.852695607879895, -33.379911286665319 ], [ -70.852702626417198, -33.379885962275175 ], [ -70.852755372795741, -33.379859085857944 ], [ -70.852799473787982, -33.379838164719125 ], [ -70.85291710368287, -33.379755353266304 ], [ -70.853118760192785, -33.379627692831711 ], [ -70.853286870016746, -33.379532416966128 ], [ -70.853641533874054, -33.379362019542455 ], [ -70.853961353878148, -33.379208151033076 ], [ -70.854187191238893, -33.379105855677381 ], [ -70.854500008875334, -33.378972308706508 ], [ -70.854711524395483, -33.378882306349006 ], [ -70.854875750802478, -33.378803834293116 ], [ -70.855078240050688, -33.378716781312697 ], [ -70.855414147084872, -33.378573556169769 ], [ -70.855698436922822, -33.378453828257889 ], [ -70.855728392144286, -33.378448680029749 ], [ -70.857097237787713, -33.377799259698861 ], [ -70.860135454164634, -33.376556829956257 ], [ -70.862917932756616, -33.375717091317739 ], [ -70.863708331629013, -33.375616572752023 ], [ -70.864447805906281, -33.375605465028912 ], [ -70.867724563618708, -33.375644912555401 ], [ -70.870152424167415, -33.37551962261854 ], [ -70.870890946230489, -33.375464165695256 ], [ -70.871622819862125, -33.375098456385061 ], [ -70.872618839509798, -33.374728830375808 ], [ -70.873815552673435, -33.37386844558425 ], [ -70.874390867019059, -33.373593808002433 ], [ -70.875129457354078, -33.373538324344956 ], [ -70.875658525530554, -33.373574653541489 ], [ -70.876032102517854, -33.373746306108018 ], [ -70.876304726833553, -33.374141107825942 ], [ -70.876522640155173, -33.374448160336513 ], [ -70.877114137650622, -33.374926861249627 ], [ -70.87796979463684, -33.37540156187849 ], [ -70.879603395354067, -33.375852138366085 ], [ -70.881510068646307, -33.37607840582249 ], [ -70.884221935165357, -33.375817110907377 ], [ -70.885260426261354, -33.375500152010822 ], [ -70.88774167278909, -33.375190572138351 ], [ -70.889696823665631, -33.375178839468582 ], [ -70.891039027972653, -33.375340566379776 ], [ -70.892476221934473, -33.375464706566568 ], [ -70.894648539632627, -33.374788776059781 ], [ -70.895796623396649, -33.374124028483017 ], [ -70.897590004758513, -33.373597743469809 ], [ -70.899702845900009, -33.373199147836345 ], [ -70.90052045114912, -33.372640549436717 ], [ -70.901389769714186, -33.371966501736672 ], [ -70.901993077360686, -33.371008783363422 ], [ -70.903784507581733, -33.370522924131166 ], [ -70.904644612126944, -33.370042249922513 ], [ -70.90588770351205, -33.369339901008388 ], [ -70.907325487667023, -33.368450307527517 ], [ -70.908962837053906, -33.368270143650811 ], [ -70.909845303361479, -33.368299265336731 ], [ -70.910257995691211, -33.368429950817443 ], [ -70.911105723248411, -33.369201369569673 ], [ -70.91197992864862, -33.369423857461783 ], [ -70.912851506476628, -33.369686937596136 ], [ -70.91396281500954, -33.369804623481997 ], [ -70.914401421040282, -33.369988231421267 ], [ -70.914967366855805, -33.370225204674554 ], [ -70.915441281168768, -33.370565395060574 ], [ -70.91548806453045, -33.370598950471091 ], [ -70.916261049561086, -33.371821230935808 ], [ -70.916899049245544, -33.372383974922471 ], [ -70.917420198772788, -33.372805427369592 ], [ -70.918051928216556, -33.373081926408638 ], [ -70.918512038118564, -33.373313427623572 ], [ -70.91931522540736, -33.373635065885225 ], [ -70.920117545821881, -33.373908914895807 ], [ -70.921093596819119, -33.374323312030945 ], [ -70.922130540117877, -33.374927647430837 ], [ -70.92293077913591, -33.375106065373679 ], [ -70.923507697872623, -33.37547897851703 ], [ -70.924339838761355, -33.375670337952677 ], [ -70.924481579438449, -33.375693478335961 ], [ -70.925105445928551, -33.375795056046357 ], [ -70.925676711567178, -33.375827044594963 ], [ -70.926360000714993, -33.375864160508641 ], [ -70.927046446542732, -33.376044318409491 ], [ -70.927389803305573, -33.376134430977288 ], [ -70.927619264470167, -33.376226385098761 ], [ -70.928032518246937, -33.376523216831366 ], [ -70.928139433935442, -33.376600009839976 ], [ -70.92871436290379, -33.376877409756254 ], [ -70.92957131615897, -33.377054902509578 ], [ -70.929881677801419, -33.377050149530085 ], [ -70.930139927275931, -33.377046058936905 ], [ -70.930879123075457, -33.37703463258061 ], [ -70.931278205928635, -33.377076144633868 ], [ -70.931794085938421, -33.377258930059995 ], [ -70.932083669548376, -33.377493107197459 ], [ -70.93231744532126, -33.377775727548261 ], [ -70.932666969916852, -33.378151989894974 ], [ -70.932959725478057, -33.378529209295095 ], [ -70.93330828887629, -33.37885783531744 ], [ -70.933882191968593, -33.37908750507701 ], [ -70.93445284046463, -33.379174053594738 ], [ -70.935023488062328, -33.379260527012782 ], [ -70.935819560694071, -33.379248110018224 ], [ -70.936561944614539, -33.379379692713407 ], [ -70.936905146867147, -33.379469780071389 ], [ -70.937421141861307, -33.379652614476051 ], [ -70.937939167048, -33.379930784790403 ], [ -70.9385688932487, -33.380111837421488 ], [ -70.939829323017094, -33.380521638992782 ], [ -70.940285288092369, -33.380562305491708 ], [ -70.941200309345845, -33.380786531612479 ], [ -70.94199957548841, -33.380917191581062 ], [ -70.942745074766293, -33.38119178128342 ], [ -70.943317955575779, -33.381373698424611 ], [ -70.943662234010134, -33.381511473112781 ], [ -70.944068774676779, -33.381886882169958 ], [ -70.944415268356593, -33.382120063449825 ], [ -70.944593294682974, -33.382451256273761 ], [ -70.944771235669393, -33.382782522846746 ], [ -70.945006130743167, -33.383112896286036 ], [ -70.945239963109927, -33.383395490121622 ], [ -70.945473799968283, -33.383678157298377 ], [ -70.945892469687905, -33.384142608888496 ], [ -70.945940412774618, -33.384195784495496 ], [ -70.946582975900711, -33.384863714965846 ], [ -70.946664656116241, -33.384909417017262 ], [ -70.947660023587034, -33.384789117260958 ], [ -70.948113883011288, -33.384734269319878 ], [ -70.948734444599452, -33.384569315740009 ], [ -70.949358082917456, -33.384506773984512 ], [ -70.950155536259786, -33.384463584525214 ], [ -70.950373666973718, -33.384404972421386 ], [ -70.950720993391798, -33.384311602523297 ], [ -70.951523012870709, -33.384078772913973 ], [ -70.951621114289637, -33.384035713008366 ], [ -70.952190866267003, -33.383906705685582 ], [ -70.952867823190388, -33.383657515364632 ], [ -70.953487997604668, -33.383409141938209 ], [ -70.954163877448025, -33.383112165686363 ], [ -70.955175597850243, -33.382571356735873 ], [ -70.955733550456358, -33.38208526804965 ], [ -70.956231431821124, -33.381457105429099 ], [ -70.956849316429725, -33.380934755668406 ], [ -70.957407290595413, -33.380627284986168 ], [ -70.958256933360815, -33.380470785776502 ], [ -70.959220140246103, -33.380356589656259 ], [ -70.960482878684786, -33.380100102415106 ], [ -70.960976507425002, -33.379998335449464 ], [ -70.961399246512869, -33.379770772213298 ], [ -70.961707140483242, -33.379605008825685 ], [ -70.962281505309605, -33.379471672658823 ], [ -70.962834638454225, -33.379157753131643 ], [ -70.963335578582516, -33.378672607043363 ], [ -70.963555516706791, -33.378335146631372 ], [ -70.964056535886826, -33.37784999520391 ], [ -70.964731264089991, -33.377505333154161 ], [ -70.965466064432832, -33.377302807986993 ], [ -70.967097728382299, -33.376513399497959 ], [ -70.96754723007912, -33.376267661987171 ], [ -70.967681766267646, -33.376185450264678 ], [ -70.968108212702688, -33.375924785058984 ], [ -70.968272428329897, -33.375635848290294 ], [ -70.968486300131048, -33.375264788739479 ], [ -70.968527990045061, -33.37519247082021 ], [ -70.968563071053552, -33.375143379640157 ], [ -70.968652077030214, -33.374818624732519 ], [ -70.968872970063643, -33.374528787828361 ], [ -70.969234198809062, -33.374203332959304 ], [ -70.969525331114539, -33.373795512854521 ], [ -70.969866051322015, -33.373318276831156 ], [ -70.969980929677178, -33.373157257338143 ], [ -70.970063357291025, -33.373036939072868 ], [ -70.970199911095676, -33.372837603065079 ], [ -70.970283043887008, -33.372584672069983 ], [ -70.970379278606771, -33.372292009236752 ], [ -70.970625624505445, -33.371542421768119 ], [ -70.970670732509134, -33.371016837582317 ], [ -70.971053568432069, -33.370342648263822 ], [ -70.971332463886768, -33.370099682616797 ], [ -70.971676553674882, -33.369850803083288 ], [ -70.97234176871919, -33.369463257526995 ], [ -70.972858844386593, -33.369128150092813 ], [ -70.973294204804205, -33.368827730302556 ], [ -70.973694440195899, -33.368527645577068 ], [ -70.974020377727072, -33.368243590744555 ], [ -70.974875393316182, -33.367786231736652 ], [ -70.975311663727183, -33.367507287348104 ], [ -70.976038849051363, -33.366774266786557 ], [ -70.977090946030643, -33.365713313604175 ], [ -70.97759397833525, -33.365323522857835 ], [ -70.978044474467083, -33.365125530142279 ], [ -70.978946451284301, -33.364777095630295 ], [ -70.979398023597838, -33.364626802576161 ], [ -70.980018976851468, -33.36442600904217 ], [ -70.98057983191427, -33.364083006659214 ], [ -70.98102274267184, -33.363550994852595 ], [ -70.981464568264542, -33.362971278006896 ], [ -70.981852784197741, -33.362535655402638 ], [ -70.982180899245151, -33.361957752733673 ], [ -70.982906867352114, -33.361373566301417 ], [ -70.983581389841078, -33.361028733176461 ], [ -70.984200231155484, -33.360732583111499 ], [ -70.984646265355295, -33.360343676413876 ], [ -70.984833423954854, -33.360138271403777 ], [ -70.984993355516451, -33.359962850231412 ], [ -70.985367956583175, -33.359568582913802 ], [ -70.985697123557813, -33.359038449294111 ], [ -70.985947599011851, -33.358218292897043 ], [ -70.986348938433011, -33.357691878649618 ], [ -70.986792781641839, -33.357207628783357 ], [ -70.98717660660995, -33.3565810993029 ], [ -70.987299195205182, -33.355940651821236 ], [ -70.987262015732213, -33.355339107860651 ], [ -70.987251259304998, -33.354862060981361 ], [ -70.987011866366615, -33.354341025206203 ], [ -70.986829493092586, -33.353818929062079 ], [ -70.986679508576117, -33.353339160553034 ], [ -70.986397908294109, -33.352571767956604 ], [ -70.986205781112716, -33.351395311182344 ], [ -70.986297792852326, -33.350439472712857 ], [ -70.986452062332674, -33.349721247902231 ], [ -70.986946290249179, -33.348949786277799 ], [ -70.987444760010462, -33.348369215768344 ], [ -70.987717033983174, -33.347839913674704 ], [ -70.98832600460922, -33.347114405675043 ], [ -70.988715204197646, -33.346726469200867 ], [ -70.988870013565503, -33.346652258273664 ], [ -70.989952554449772, -33.346133976183616 ], [ -70.990964618906744, -33.3456405293431 ], [ -70.991864171171017, -33.345196674838718 ], [ -70.992597633922415, -33.34494629376087 ], [ -70.993554093561613, -33.344501440640585 ], [ -70.994394605850445, -33.343963072984756 ], [ -70.995344641637047, -33.343461279408935 ], [ -70.995893149356277, -33.343025328020822 ], [ -70.996406818612144, -33.34245142405522 ], [ -70.996733677814802, -33.341825781979317 ], [ -70.997011612970439, -33.3412201330122 ], [ -70.997613547092868, -33.340523208528332 ], [ -70.998596163876527, -33.338741904376242 ], [ -70.999088044495167, -33.337874989472297 ], [ -70.999638930054957, -33.33710264162287 ], [ -71.000135067789728, -33.336426615772638 ], [ -71.000529155111607, -33.335687151492856 ], [ -71.000571179198928, -33.3356083170112 ], [ -71.000901258861873, -33.335125778570955 ], [ -71.001286987360032, -33.33459469379855 ], [ -71.001686319046556, -33.333838963555706 ], [ -71.00204987442855, -33.333150810782321 ], [ -71.002034593187247, -33.332483024449772 ], [ -71.002018133356302, -33.331767534378073 ], [ -71.002174517470849, -33.331144627118242 ], [ -71.002467651222787, -33.330679228381179 ], [ -71.00294609663807, -33.330082374270198 ], [ -71.003340109399772, -33.329434061097658 ], [ -71.003492446603971, -33.329119194731895 ], [ -71.003590721397728, -33.328449575369454 ], [ -71.003637806593346, -33.328019318531041 ], [ -71.003623518888759, -33.327399163129613 ], [ -71.00355577154329, -33.32692311007392 ], [ -71.0036017634892, -33.326445148667297 ], [ -71.003709954785393, -33.326204866203398 ], [ -71.003856537381893, -33.325946384149852 ], [ -71.003834617590627, -33.325292739460288 ], [ -71.00365698023478, -33.323764217725795 ], [ -71.003717011950258, -33.322450525405607 ], [ -71.002715538630483, -33.319088759258982 ], [ -71.002061853462862, -33.317130358592237 ], [ -71.001729120176577, -33.315385075998577 ], [ -71.001624351461601, -33.314066059553021 ], [ -71.001608490806944, -33.312610274681639 ], [ -71.001684393058568, -33.310950228954368 ], [ -71.001830062068422, -33.309567338865975 ], [ -71.001801408505798, -33.309287599108487 ], [ -71.001660589500176, -33.30867731182888 ], [ -71.001247717507383, -33.308015928785018 ], [ -71.000839122393657, -33.307545364473093 ], [ -71.000544245011753, -33.307072891448172 ], [ -71.000182806958875, -33.306636655123349 ], [ -70.99978506618875, -33.30617847024655 ], [ -70.999435476914456, -33.305802320984967 ], [ -70.997874335206376, -33.304634459608593 ], [ -70.997471302460895, -33.304402404135644 ], [ -70.997013544348306, -33.304266523997541 ], [ -70.996388704982763, -33.304276567955853 ], [ -70.995588995072424, -33.304098529651064 ], [ -70.994728220384033, -33.303730650340235 ], [ -70.993923177175859, -33.303314075504247 ], [ -70.993403193661862, -33.302940717349721 ], [ -70.990523800325477, -33.301268961885299 ], [ -70.989890311082064, -33.300897406682466 ], [ -70.989545119061091, -33.300712046314608 ], [ -70.989083147849811, -33.300385389002102 ], [ -70.98862434230162, -33.300201845273598 ], [ -70.987994028602728, -33.299973395451453 ], [ -70.987136569596032, -33.299748502419433 ], [ -70.986327182135156, -33.299141057082331 ], [ -70.985808336786604, -33.298815369212946 ], [ -70.984426739557733, -33.298026165816559 ], [ -70.983797533481606, -33.297845399725972 ], [ -70.983114847103337, -33.297808577917266 ], [ -70.982261735942615, -33.297774396789229 ], [ -70.981458873843962, -33.297453221624252 ], [ -70.981000187771684, -33.297269721281388 ], [ -70.98020047875967, -33.29709150724225 ], [ -70.979686064800433, -33.29695653850245 ], [ -70.978488888106114, -33.296784719531665 ], [ -70.97814705668263, -33.296742515207221 ], [ -70.977576828598146, -33.296656148287354 ], [ -70.977059106143727, -33.296378127856791 ], [ -70.976717185787024, -33.296335772414807 ], [ -70.975861941127505, -33.296206283719549 ], [ -70.975290729387794, -33.296072126032357 ], [ -70.974719433206445, -33.295938040971684 ], [ -70.97408703541609, -33.295614107908357 ], [ -70.973509384552429, -33.295193782056273 ], [ -70.972653931483777, -33.29437059845484 ], [ -70.97228969158553, -33.294020162124099 ], [ -70.971580837283042, -33.293569553363085 ], [ -70.971114572124705, -33.292996524336097 ], [ -70.970891031756139, -33.292467586431052 ], [ -70.970598514248493, -33.292090520526941 ], [ -70.970420504990102, -33.29175935863217 ], [ -70.97024374349165, -33.291475826818953 ], [ -70.969953287617571, -33.291194023394077 ], [ -70.969434547371918, -33.290868262303434 ], [ -70.96874432772168, -33.290497421209658 ], [ -70.968481541754997, -33.290158809564986 ], [ -70.968465496047386, -33.290027936795937 ], [ -70.96968104059431, -33.289194211968358 ], [ -70.969737217638908, -33.289138063291603 ], [ -70.970070081180907, -33.28880626242637 ], [ -70.970348050472552, -33.288529112074251 ], [ -70.970459030139381, -33.28841838850424 ], [ -70.971071964132463, -33.287883717334893 ], [ -70.971793216982505, -33.287108785587776 ], [ -70.972141524360865, -33.286838641294942 ], [ -70.97229583875702, -33.286718953197166 ], [ -70.972564725182806, -33.286046642698579 ], [ -70.972667679300883, -33.285567856441872 ], [ -70.972992373563685, -33.284846861329953 ], [ -70.973145503980291, -33.284080942619276 ], [ -70.973190403574833, -33.283555354021438 ], [ -70.973359172762201, -33.282554414658243 ], [ -70.973388845912666, -33.282430794615337 ], [ -70.973500139989852, -33.28216655350186 ], [ -70.973587885630167, -33.281602535661477 ], [ -70.973648965679587, -33.281209810682334 ], [ -70.973924356806364, -33.280202448999795 ], [ -70.974253284829089, -33.278998987003519 ], [ -70.974607927126854, -33.278379163342059 ], [ -70.975546488732334, -33.277171179882806 ], [ -70.975933215258777, -33.276687879379807 ], [ -70.976323248483794, -33.276347618984133 ], [ -70.976880433928642, -33.275861529867697 ], [ -70.977270461763766, -33.275521340603248 ], [ -70.977716116874532, -33.275132541700501 ], [ -70.977817867250138, -33.27460597394407 ], [ -70.977978647719681, -33.274173911027987 ], [ -70.97813817683604, -33.273694146375021 ], [ -70.978316540030661, -33.273433412492068 ], [ -70.978728448131136, -33.272157772156923 ], [ -70.978706416948796, -33.271181361123567 ], [ -70.978699387631707, -33.270869798655873 ], [ -70.978739945668465, -33.270153386877851 ], [ -70.978641270226092, -33.268293848739681 ], [ -70.978733237049923, -33.267338005426609 ], [ -70.978831746303968, -33.266668393849862 ], [ -70.979016809133967, -33.26613621308185 ], [ -70.979256985403282, -33.265373184249626 ], [ -70.979347018154314, -33.26513092106596 ], [ -70.979471216530555, -33.264797175177499 ], [ -70.979850775399356, -33.264451530204376 ], [ -70.980306771915679, -33.264068025534357 ], [ -70.980583595855308, -33.263670825310605 ], [ -70.980912029804657, -33.263199446462849 ], [ -70.982074257542834, -33.261844757710492 ], [ -70.982345246924694, -33.261267838259194 ], [ -70.982501587021801, -33.260645024568177 ], [ -70.982712550078077, -33.259925819469025 ], [ -70.982814171096251, -33.259399323020141 ], [ -70.982738072113605, -33.258541602335782 ], [ -70.982926302403285, -33.256820658026399 ], [ -70.983084786778974, -33.256293179832525 ], [ -70.983244347336367, -33.255813407845046 ], [ -70.98334604920295, -33.255286909899858 ], [ -70.983618087817064, -33.254757618796582 ], [ -70.984001441169625, -33.254131254284012 ], [ -70.984277876138748, -33.253792782538028 ], [ -70.984549729699907, -33.253263494403349 ], [ -70.984763987776645, -33.252687475344516 ], [ -70.985150557996221, -33.252204076153248 ], [ -70.985764324727583, -33.251717046579515 ], [ -70.986296788535839, -33.251072188798169 ], [ -70.986483002107718, -33.250846630374113 ], [ -70.986758163265748, -33.250460525269219 ], [ -70.987030167743896, -33.249931228970574 ], [ -70.987071824420255, -33.24926244556859 ], [ -70.987229193986664, -33.248687331698207 ], [ -70.987390605971868, -33.248290928502563 ], [ -70.987444327920798, -33.248159017080411 ], [ -70.987832033610914, -33.247723314911219 ], [ -70.988452804506537, -33.246953739417975 ], [ -70.988525607570409, -33.2468414688365 ], [ -70.989654620100964, -33.245451342142516 ], [ -70.990261407820867, -33.244694541186291 ], [ -70.990820903732654, -33.244287401117106 ], [ -70.991374566883295, -33.2436582140421 ], [ -70.991644270775993, -33.243033498734434 ], [ -70.991965421185, -33.242169420548535 ], [ -70.992286566204129, -33.241305340583402 ], [ -70.992556315910917, -33.240663779446798 ], [ -70.992711625640368, -33.240294431397828 ], [ -70.993043370779844, -33.239622991158136 ], [ -70.993588325662131, -33.238612227063619 ], [ -70.994754380223426, -33.237448181450219 ], [ -70.995242445697073, -33.236438248017727 ], [ -70.995619222483427, -33.235525544921387 ], [ -70.995878122338198, -33.234423841768354 ], [ -70.995914743059075, -33.233927190045321 ], [ -70.996080174106851, -33.231679794879916 ], [ -70.996138488243503, -33.230888405900934 ], [ -70.99609238760145, -33.230461192066961 ], [ -70.996066456832466, -33.230221443268995 ], [ -70.995937845033225, -33.229555537313232 ], [ -70.995983766910555, -33.229077573020213 ], [ -70.996145382813324, -33.228693197740697 ], [ -70.996704248107775, -33.228302517734505 ], [ -70.997478310218412, -33.22738335598379 ], [ -70.997864704368197, -33.226899922059644 ], [ -70.998303517011465, -33.226224827597832 ], [ -70.998575472980562, -33.225695582190603 ], [ -70.99889858081859, -33.224926825015437 ], [ -70.999170442464589, -33.224397580020842 ], [ -70.99967042229386, -33.22391231478791 ], [ -71.000562191554494, -33.223182206299995 ], [ -71.000913366355263, -33.222554758085636 ], [ -71.000898386049599, -33.222414121409379 ], [ -71.000814481605431, -33.221794262254562 ], [ -71.000518745434121, -33.22127414475986 ], [ -71.000219752869882, -33.220610834758524 ], [ -70.999972094532581, -33.219708159951352 ], [ -70.999902397842945, -33.219136681383524 ], [ -70.999823926409618, -33.218183488349759 ], [ -70.999813072066033, -33.217706509545323 ], [ -71.000024807673441, -33.217035060461249 ], [ -71.000255401613614, -33.216586112193568 ], [ -71.00029663698011, -33.216505738414462 ], [ -71.00094836741367, -33.215206816030204 ], [ -71.001376238576768, -33.214054659678155 ], [ -71.001535632945831, -33.213574867819005 ], [ -71.001688510935836, -33.212808990117772 ], [ -71.001608945354477, -33.211808167636399 ], [ -71.001293689690385, -33.210429353091399 ], [ -71.001115834942212, -33.210098155167124 ], [ -71.000706725093821, -33.209579785506406 ], [ -71.000242955455363, -33.209157812234452 ], [ -70.9997737617892, -33.208497236419774 ], [ -70.999590581828031, -33.207927580947995 ], [ -70.999514303182309, -33.207069870108221 ], [ -70.999646573819703, -33.205397593200075 ], [ -70.99956595810778, -33.204349060517345 ], [ -70.999552850789485, -33.203776596960843 ], [ -70.999367511278365, -33.203111456346655 ], [ -70.999068597765898, -33.202448213123226 ], [ -70.998715112498232, -33.201881291919555 ], [ -70.998305336998229, -33.201219089456622 ], [ -70.998019399650033, -33.200468833174789 ], [ -70.997819582889818, -33.199939111767478 ], [ -70.997693092012966, -33.199368542181794 ], [ -70.997499708986808, -33.198367544976492 ], [ -70.996926174203765, -33.197566127691395 ], [ -70.997029227136537, -33.196315477935748 ], [ -70.997161662165595, -33.195461136033764 ], [ -70.997794982525747, -33.193800686138403 ], [ -70.99816662005037, -33.192793718864436 ], [ -70.998191573452331, -33.192252261397904 ], [ -70.996783506465292, -33.190484810634693 ], [ -70.995302012983558, -33.186252142549066 ], [ -70.993308603757399, -33.183475079237283 ], [ -70.993119609899694, -33.183284185163117 ], [ -70.992882490597296, -33.183067023467217 ], [ -70.992675658893035, -33.182844869864248 ], [ -70.992544021567937, -33.182599054185324 ], [ -70.99250231458592, -33.182324612650582 ], [ -70.992518264173782, -33.182035802741012 ], [ -70.99255580566782, -33.181742140289117 ], [ -70.992591060949451, -33.181448441516636 ], [ -70.992667212932744, -33.181172259627992 ], [ -70.992828396745836, -33.180930620249015 ], [ -70.993067592953167, -33.180723929661028 ], [ -70.993292721543156, -33.180512883145035 ], [ -70.993467503154733, -33.180266666955504 ], [ -70.99363057342994, -33.180011477499896 ], [ -70.993763418989104, -33.179752338574765 ], [ -70.993812867652238, -33.179476510726381 ], [ -70.993721338307935, -33.179193928832738 ], [ -70.993566841553786, -33.17893939412955 ], [ -70.993456678455559, -33.17867956784022 ], [ -70.993473944075319, -33.178390809824528 ], [ -70.993434667036141, -33.17810731692736 ], [ -70.99338599541575, -33.177824048673628 ], [ -70.993376484053513, -33.177663965950252 ], [ -70.991727057715948, -33.177750508385131 ], [ -70.987358512760011, -33.177735683780298 ], [ -70.985682074980176, -33.177474256946844 ], [ -70.984889033264182, -33.176362825932664 ], [ -70.984002128380808, -33.174036461605631 ], [ -70.983457219312626, -33.172933032435189 ], [ -70.982829649966916, -33.172538788353336 ], [ -70.98224605764598, -33.172267653818487 ], [ -70.981699054604846, -33.172294980703462 ], [ -70.98097450314107, -33.172938367991662 ], [ -70.980568549972602, -33.173132545632896 ], [ -70.97931350740096, -33.173425330138755 ], [ -70.978167638882425, -33.173514394890823 ], [ -70.977630282849134, -33.173330341020737 ], [ -70.977195175756435, -33.173063915887077 ], [ -70.976516943225349, -33.172708636502293 ], [ -70.976192753815724, -33.172197988758001 ], [ -70.975607118725804, -33.171971845739975 ], [ -70.975104895803284, -33.172072750916186 ], [ -70.974421279668704, -33.172933605390966 ], [ -70.973536706811785, -33.173824089168889 ], [ -70.972811390881716, -33.17438174664327 ], [ -70.972712317485659, -33.174468717141423 ], [ -70.971398312193713, -33.174966770231123 ], [ -70.969669240324734, -33.175870380066364 ], [ -70.968157143936224, -33.176366511653391 ], [ -70.966747818409459, -33.176780329438252 ], [ -70.965046778468931, -33.177058522149871 ], [ -70.963304400753955, -33.177520112073729 ], [ -70.962264775984067, -33.17727912502361 ], [ -70.961539881363862, -33.176890591445229 ], [ -70.960435538367648, -33.176701510089579 ], [ -70.95926991409938, -33.176505996746393 ], [ -70.957937151085957, -33.176201327001081 ], [ -70.956101513871459, -33.175096350624877 ], [ -70.955203359385791, -33.174107456068541 ], [ -70.954075126592898, -33.172737200897146 ], [ -70.95329181991967, -33.172499945227649 ], [ -70.952290412176893, -33.17267914273409 ], [ -70.951640216065826, -33.172779616250608 ], [ -70.951083560626998, -33.173018244150242 ], [ -70.950481392044267, -33.17316538599313 ], [ -70.94957920322463, -33.173343155019737 ], [ -70.948780356595307, -33.173443281898258 ], [ -70.947584948683797, -33.173530475139742 ], [ -70.946339530662087, -33.17387877729918 ], [ -70.94561227347269, -33.17426129926325 ], [ -70.945053413568132, -33.174651824239895 ], [ -70.944271933169858, -33.175236718203507 ], [ -70.94382230570892, -33.175434562226783 ], [ -70.943261414713504, -33.175729736808421 ], [ -70.942866406618464, -33.175831277512913 ], [ -70.9424158098753, -33.175981481569245 ], [ -70.941741358353255, -33.17627834829846 ], [ -70.941289617156443, -33.176380841752227 ], [ -70.940896795560789, -33.176577789960163 ], [ -70.940559478171593, -33.176726220560781 ], [ -70.939724371045827, -33.177455093995881 ], [ -70.939620368593793, -33.177886154493137 ], [ -70.939461825827621, -33.178413586778483 ], [ -70.939244270035488, -33.178846489880193 ], [ -70.938577228716198, -33.179477216717565 ], [ -70.937964722321198, -33.18001171733998 ], [ -70.936955159672294, -33.180552320436121 ], [ -70.935835265940185, -33.181237804242592 ], [ -70.935280602964639, -33.181819115365577 ], [ -70.934838265332232, -33.182350953758281 ], [ -70.934678548467971, -33.18283060021669 ], [ -70.934519878141018, -33.183357954623709 ], [ -70.934186893326441, -33.183697195906838 ], [ -70.93367732038827, -33.183752838698652 ], [ -70.933393641404692, -33.183757245853457 ], [ -70.93294499490402, -33.184002834241831 ], [ -70.932781161959142, -33.184291721870387 ], [ -70.932619334952278, -33.184675951601001 ], [ -70.932348226094476, -33.185252845613817 ], [ -70.931907947400688, -33.185880016935833 ], [ -70.9314613796016, -33.186221015174674 ], [ -70.930957113011814, -33.18651518360727 ], [ -70.930071965233125, -33.186732959991708 ], [ -70.929834706691835, -33.186791308056804 ], [ -70.928976698814537, -33.186784516371709 ], [ -70.928466041609809, -33.186723579130017 ], [ -70.927610894866675, -33.186614784967936 ], [ -70.927039424412143, -33.186432741095615 ], [ -70.926524518176137, -33.186249818747036 ], [ -70.926067572140553, -33.186113720976017 ], [ -70.925324762418654, -33.185886595931869 ], [ -70.924812127123644, -33.185799078178363 ], [ -70.924070365735673, -33.185619654143153 ], [ -70.923670075546767, -33.185482671273085 ], [ -70.923098622160225, -33.185300682185307 ], [ -70.922583905468741, -33.185117740181383 ], [ -70.921727639424759, -33.18489234622394 ], [ -70.921327445355573, -33.184755427623998 ], [ -70.920530002793015, -33.184624491715418 ], [ -70.919735689062605, -33.184636821400929 ], [ -70.918826946134658, -33.18460303881033 ], [ -70.918257497787863, -33.184516443750368 ], [ -70.917742794571097, -33.184333481313502 ], [ -70.91717135825256, -33.184151389847173 ], [ -70.916656573289103, -33.183968498070399 ], [ -70.914255132192878, -33.183146428774741 ], [ -70.913397956155521, -33.182873340736265 ], [ -70.912939917768554, -33.18268941252974 ], [ -70.912313750693031, -33.182603587705167 ], [ -70.911802179901656, -33.18256372429915 ], [ -70.911345186255375, -33.182427645612172 ], [ -70.910941820234925, -33.182147495636741 ], [ -70.910368252214212, -33.181870031067668 ], [ -70.90979684284514, -33.18168783147992 ], [ -70.909111968170848, -33.181507443440239 ], [ -70.907575034263047, -33.181292390759253 ], [ -70.905812090517941, -33.181184280041371 ], [ -70.905504089648062, -33.181181017809031 ], [ -70.904792091242101, -33.181191917228361 ], [ -70.90382768151261, -33.181206674334746 ], [ -70.903200576595935, -33.181137587778402 ], [ -70.902893791146624, -33.181125508715105 ], [ -70.902350592470725, -33.181133812789376 ], [ -70.902223682978956, -33.181099110850951 ], [ -70.901498747934568, -33.181076501503682 ], [ -70.900761063999667, -33.181110376426723 ], [ -70.900080241625616, -33.181120772873768 ], [ -70.899691730146699, -33.181156476254337 ], [ -70.899487170281773, -33.181175260220478 ], [ -70.898610446005506, -33.181381751258577 ], [ -70.897420118965243, -33.181447702460481 ], [ -70.897021942512183, -33.181406048402884 ], [ -70.896011917230908, -33.181306045653322 ], [ -70.894510004144436, -33.181157376206684 ], [ -70.89292903392311, -33.181086649095526 ], [ -70.892254449450391, -33.181383179750696 ], [ -70.890846539668516, -33.183070051060419 ], [ -70.890786238458446, -33.183142183231119 ], [ -70.890317978141866, -33.183703223984161 ], [ -70.890237480109263, -33.183947647209273 ], [ -70.889762175204226, -33.185391837662422 ], [ -70.889718699439413, -33.186042906898344 ], [ -70.889761587706019, -33.187990599826009 ], [ -70.890235651139349, -33.194723516501568 ], [ -70.890517164284759, -33.19713869101502 ], [ -70.890538055505019, -33.198797267552656 ], [ -70.890877950160757, -33.199966292464865 ], [ -70.891300315549458, -33.201476036161488 ], [ -70.891908648371668, -33.203235163807996 ], [ -70.892039440382064, -33.204649605091809 ], [ -70.892190156127199, -33.205650256881746 ], [ -70.89317631856126, -33.20775527942277 ], [ -70.894453396806824, -33.20915352210416 ], [ -70.894444857421718, -33.209923589607179 ], [ -70.894580515606052, -33.210337962873396 ], [ -70.894592345520024, -33.210886830362284 ], [ -70.894148677482661, -33.211370827020012 ], [ -70.893697719616782, -33.211520791259566 ], [ -70.893192061536595, -33.211767107483958 ], [ -70.892763609163524, -33.211921601543558 ], [ -70.892579773432217, -33.211987858187072 ], [ -70.891948669215878, -33.21202464478101 ], [ -70.89126863017276, -33.212082709937221 ], [ -70.890477219797333, -33.212237911421539 ], [ -70.890070320702876, -33.212373304203126 ], [ -70.890025455244327, -33.212375389815193 ], [ -70.889461858523276, -33.212539608875396 ], [ -70.888561027956356, -33.212887356849215 ], [ -70.887439311542551, -33.21352479426082 ], [ -70.886991405253681, -33.213817934531313 ], [ -70.886215238390321, -33.214688665267651 ], [ -70.886114096174154, -33.2152628138236 ], [ -70.886127406511733, -33.215883025129969 ], [ -70.885971463469986, -33.216553452698456 ], [ -70.886049724697529, -33.217554471168867 ], [ -70.886118767413649, -33.218125964580189 ], [ -70.886250720047414, -33.218982995916441 ], [ -70.886383696760589, -33.219887662936401 ], [ -70.886393937554843, -33.220364673437423 ], [ -70.886460941993562, -33.220840896772565 ], [ -70.886584707381829, -33.221316260059538 ], [ -70.886775391868881, -33.22226777395791 ], [ -70.887179987682956, -33.222595703459461 ], [ -70.887701949287234, -33.223112745557088 ], [ -70.887738451430465, -33.223171219674995 ], [ -70.887876287131036, -33.223392750198038 ], [ -70.887937288128711, -33.223490892324619 ], [ -70.887832985639406, -33.22392191710707 ], [ -70.887325191365491, -33.224072796170077 ], [ -70.886033033999567, -33.224712735636089 ], [ -70.885083491388045, -33.225442991410659 ], [ -70.88402543049358, -33.226413430813899 ], [ -70.883368884191768, -33.227568676660105 ], [ -70.883089316797253, -33.228431941815167 ], [ -70.882950395033504, -33.228860828476954 ], [ -70.882059642665766, -33.22766517971823 ], [ -70.881128741893022, -33.22699901233382 ], [ -70.879697934054562, -33.226717383332478 ], [ -70.878742444595886, -33.226572987081333 ], [ -70.877147446283047, -33.226866941789311 ], [ -70.875261907654519, -33.227493711330219 ], [ -70.873419443243847, -33.227202702137035 ], [ -70.872200086246849, -33.226815261728021 ], [ -70.869885766461863, -33.226332945078994 ], [ -70.868586451319743, -33.226177090784496 ], [ -70.866818595586679, -33.22577131404465 ], [ -70.866307537733334, -33.224943366993188 ], [ -70.865965942566774, -33.223431807469602 ], [ -70.865309551673505, -33.222774769920505 ], [ -70.864460486524834, -33.221822895560457 ], [ -70.863287511342605, -33.220454844016658 ], [ -70.862342217762375, -33.218634793449148 ], [ -70.861908183258109, -33.217638194290792 ], [ -70.861493182258101, -33.216236833754188 ], [ -70.860954671889687, -33.214542994068161 ], [ -70.860116870716354, -33.213357245368456 ], [ -70.859575686961662, -33.211721800899348 ], [ -70.859228833057415, -33.210327168545646 ], [ -70.858418212209642, -33.208565721908585 ], [ -70.857624033226514, -33.206457835632605 ], [ -70.856528286209254, -33.204083167168818 ], [ -70.854993314222042, -33.202500201474813 ], [ -70.853125567626009, -33.200631317914322 ], [ -70.852470338254406, -33.20003735311105 ], [ -70.850048835981255, -33.197771522455021 ], [ -70.849414939801022, -33.195281537094964 ], [ -70.849177353374685, -33.194525685964912 ], [ -70.849427708454485, -33.192119333292339 ], [ -70.849950631256092, -33.189726585375674 ], [ -70.850378389231466, -33.187902773688521 ], [ -70.851071479897357, -33.186258968858084 ], [ -70.852241338823873, -33.18463111441072 ], [ -70.8554578249706, -33.183071600568596 ], [ -70.857206114498467, -33.182210785532895 ], [ -70.857364244039601, -33.181756519130005 ], [ -70.857175726289015, -33.18140782574735 ], [ -70.856567415026404, -33.181270403232638 ], [ -70.853710366384391, -33.181003962389916 ], [ -70.850223313962275, -33.181058733253252 ], [ -70.848038137779142, -33.181044361816291 ], [ -70.845721440153568, -33.180908453693228 ], [ -70.842256135944481, -33.180504195570734 ], [ -70.840416671008555, -33.180388606015462 ], [ -70.838190526258572, -33.179795984321522 ], [ -70.835257304972032, -33.179697724031996 ], [ -70.832311844139767, -33.180846920664258 ], [ -70.830802459765096, -33.181381918166608 ], [ -70.829938741297525, -33.182154820729757 ], [ -70.828602409277494, -33.183502116184215 ], [ -70.827210175097335, -33.18468524998292 ], [ -70.825863564553828, -33.184905887033985 ], [ -70.824938524390006, -33.184289058196882 ], [ -70.823749227717357, -33.183244501000416 ], [ -70.822933389454434, -33.181811554920394 ], [ -70.822535162695729, -33.180888079523662 ], [ -70.821956851570306, -33.179629766320943 ], [ -70.820338991133511, -33.177980625899956 ], [ -70.81899256833789, -33.176863110354645 ], [ -70.81667787665036, -33.175983343234769 ], [ -70.81529595243471, -33.175670981372846 ], [ -70.813169071523618, -33.175166884823639 ], [ -70.811255469525619, -33.174656471707159 ], [ -70.809248298109296, -33.173174194600357 ], [ -70.808466755727267, -33.172782917143252 ], [ -70.808107693718313, -33.17239236880085 ], [ -70.807646327971554, -33.17175965552876 ], [ -70.807208993056946, -33.171663832980535 ], [ -70.80602856455279, -33.171705122475778 ], [ -70.80468315146355, -33.172114713184925 ], [ -70.803304169230472, -33.172189737223064 ], [ -70.802215973451482, -33.172081012989011 ], [ -70.801420934780637, -33.17150903254057 ], [ -70.800823336826099, -33.170659880647761 ], [ -70.799982219072746, -33.16976644795664 ], [ -70.799401796906409, -33.169580169499589 ], [ -70.798463962037999, -33.169674619782207 ], [ -70.797263712207112, -33.170129609765944 ], [ -70.795549113095674, -33.171062760785908 ], [ -70.794380098585506, -33.171888215797999 ] ] ] } },
{ "type": "Feature", "properties": { "capa": "ds19", "popup": "<strong>CONDOMINIO LAS PATAGUAS 8</strong><br><br><strong>Programa:</strong> DS19<br><strong>Comuna:</strong> Lampa<br><strong>Región:</strong> Metropolitana<br><strong>Año de inicio:</strong> 2020", "etiqueta": "CONDOMINIO LAS PATAGUAS 8" }, "geometry": { "type": "Polygon", "coordinates": [ [ [ -70.881606419248726, -33.301909756552824 ], [ -70.881274357902271, -33.301844353407617 ], [ -70.880995696009549, -33.301802391037384 ], [ -70.880884304914318, -33.301811276039778 ], [ -70.880456661025008, -33.301826700533923 ], [ -70.879945822360582, -33.301679259256467 ], [ -70.879662990488328, -33.301544076878521 ], [ -70.879524187302209, -33.301517444311159 ], [ -70.879295976592488, -33.301508421881394 ], [ -70.879081569395424, -33.30151183579413 ], [ -70.878841861148373, -33.301544658752583 ], [ -70.878296227139742, -33.30149419711843 ], [ -70.878110652270038, -33.302145836940269 ], [ -70.881457288131784, -33.302643484567362 ], [ -70.881606419248726, -33.301909756552824 ] ] ] } },
{ "type": "Feature", "properties": { "capa": "ds19", "popup": "<strong>ESCRITOR NICOMEDES GUZMAN</strong><br><br><strong>Programa:</strong> DS19<br><strong>Comuna:</strong> Lampa<br><strong>Región:</strong> Metropolitana<br><strong>Año de inicio:</strong> 2020", "etiqueta": "ESCRITOR NICOMEDES GUZMAN" }, "geometry": { "type": "Polygon", "coordinates": [ [ [ -70.87802708199915, -33.290377057813508 ], [ -70.881424771813442, -33.290705779278241 ], [ -70.881577793533879, -33.290277200642151 ], [ -70.881556897822051, -33.28999934235344 ], [ -70.88141241189345, -33.289411040406584 ], [ -70.879264711627343, -33.289210588596347 ], [ -70.879198915422677, -33.289698988256319 ], [ -70.877949225013481, -33.289544885445906 ], [ -70.87802708199915, -33.290377057813508 ] ] ] } },
{ "type": "Feature", "properties": { "capa": "ds19", "popup": "<strong>SAN JOSE DE VALLE GRANDE 3</strong><br><br><strong>Programa:</strong> DS19<br><strong>Comuna:</strong> Lampa<br><strong>Región:</strong> Metropolitana<br><strong>Año de inicio:</strong> 2020", "etiqueta": "SAN JOSE DE VALLE GRANDE 3" }, "geometry": { "type": "Polygon", "coordinates": [ [ [ -70.766914032416764, -33.329390300141227 ], [ -70.767252682905834, -33.328368415063757 ], [ -70.766802816493012, -33.328268041462991 ], [ -70.766444627646507, -33.328346433743704 ], [ -70.766180727768855, -33.328377450476012 ], [ -70.765969808730048, -33.329222363964426 ], [ -70.766914032416764, -33.329390300141227 ] ] ] } },
{ "type": "Feature", "properties": { "capa": "ds19", "popup": "<strong>CONDOMINIO SAN JOSE CINCO</strong><br><br><strong>Programa:</strong> DS19<br><strong>Comuna:</strong> Lampa<br><strong>Región:</strong> Metropolitana<br><strong>Año de inicio:</strong> 2021", "etiqueta": "CONDOMINIO SAN JOSE CINCO" }, "geometry": { "type": "Polygon", "coordinates": [ [ [ -70.769568721167985, -33.327536103813699 ], [ -70.768946009013021, -33.327384720418181 ], [ -70.7689131405551, -33.327483110498079 ], [ -70.768873132287283, -33.327601200964743 ], [ -70.768827275986979, -33.327680704704079 ], [ -70.768799097633135, -33.327764326800391 ], [ -70.768756831899026, -33.327834008316643 ], [ -70.768710055723872, -33.327897348891931 ], [ -70.76864342408598, -33.327982571762284 ], [ -70.768575055106325, -33.328072703321624 ], [ -70.768509648770504, -33.328152842368723 ], [ -70.768434743648839, -33.328262676351962 ], [ -70.768418929706598, -33.328327889299231 ], [ -70.768387176057928, -33.328384032260658 ], [ -70.768366739385201, -33.328464221309787 ], [ -70.768344418047022, -33.328512101125511 ], [ -70.769178539720954, -33.328697457183772 ], [ -70.769568721167985, -33.327536103813699 ] ] ] } },
{ "type": "Feature", "properties": { "capa": "ds19", "popup": "<strong>CONDOMINIO SAN JOSE SEIS</strong><br><br><strong>Programa:</strong> DS19<br><strong>Comuna:</strong> Lampa<br><strong>Región:</strong> Metropolitana<br><strong>Año de inicio:</strong> 2021", "etiqueta": "CONDOMINIO SAN JOSE SEIS" }, "geometry": { "type": "Polygon", "coordinates": [ [ [ -70.767947590863542, -33.328435984733247 ], [ -70.768104380118274, -33.328472747072809 ], [ -70.7681171002627, -33.328359111695548 ], [ -70.768132386893882, -33.328257366783134 ], [ -70.768161802227866, -33.328017577191808 ], [ -70.768148974285609, -33.32791425866882 ], [ -70.768142627688135, -33.327812213005373 ], [ -70.768167101389722, -33.327663800886477 ], [ -70.768154908556383, -33.32751805307943 ], [ -70.768185808805526, -33.327411893009483 ], [ -70.768231842073945, -33.327303052476793 ], [ -70.768247602117285, -33.327258808575252 ], [ -70.768208940424074, -33.327225662788294 ], [ -70.767685831671201, -33.327114235506968 ], [ -70.767319828380039, -33.328281176526396 ], [ -70.767947590863542, -33.328435984733247 ] ] ] } },
{ "type": "Feature", "properties": { "capa": "ds19", "popup": "<strong>CONDOMINIO FUENTES DE VALLE GRANDE</strong><br><br><strong>Programa:</strong> DS19<br><strong>Comuna:</strong> Lampa<br><strong>Región:</strong> Metropolitana<br><strong>Año de inicio:</strong> 2017", "etiqueta": "CONDOMINIO FUENTES DE VALLE GRANDE" }, "geometry": { "type": "Polygon", "coordinates": [ [ [ -70.767287453097225, -33.32832443440428 ], [ -70.767706987894456, -33.326924289996192 ], [ -70.76679784162296, -33.326704009789758 ], [ -70.766370314514646, -33.327888022205443 ], [ -70.766470480262072, -33.328006970783825 ], [ -70.766611469947591, -33.328066756501521 ], [ -70.766819594327572, -33.328204256816392 ], [ -70.767287453097225, -33.32832443440428 ] ] ] } },
{ "type": "Feature", "properties": { "capa": "ds19", "popup": "<strong>SAN JOSE DE VALLE GRANDE 2</strong><br><br><strong>Programa:</strong> DS19<br><strong>Comuna:</strong> Lampa<br><strong>Región:</strong> Metropolitana<br><strong>Año de inicio:</strong> 2017", "etiqueta": "SAN JOSE DE VALLE GRANDE 2" }, "geometry": { "type": "Polygon", "coordinates": [ [ [ -70.766742111041054, -33.326719322546047 ], [ -70.765657191417901, -33.326467891565898 ], [ -70.765513286699274, -33.326545810342779 ], [ -70.765118649608439, -33.327795475091307 ], [ -70.765304361022075, -33.327835139438953 ], [ -70.765557753305856, -33.327891982256908 ], [ -70.765785787047449, -33.32789496880811 ], [ -70.766048194823426, -33.327889100035989 ], [ -70.7661957997027, -33.327886158519306 ], [ -70.766359647918961, -33.327902647223986 ], [ -70.766742111041054, -33.326719322546047 ] ] ] } },
{ "type": "Feature", "properties": { "capa": "ds19", "popup": "<strong>BRISAS DEL VALLE IV</strong><br><br><strong>Programa:</strong> DS19<br><strong>Comuna:</strong> Lampa<br><strong>Región:</strong> Metropolitana<br><strong>Año de inicio:</strong> 2017", "etiqueta": "BRISAS DEL VALLE IV" }, "geometry": { "type": "Polygon", "coordinates": [ [ [ -70.774339035838082, -33.32977505339705 ], [ -70.774078890918318, -33.328869364887346 ], [ -70.771756983064108, -33.328254007208493 ], [ -70.771467878256217, -33.32914409106148 ], [ -70.774339035838082, -33.32977505339705 ] ] ] } },
{ "type": "Feature", "properties": { "capa": "ds19", "popup": "<strong>BRISAS DEL VALLE III</strong><br><br><strong>Programa:</strong> DS19<br><strong>Comuna:</strong> Lampa<br><strong>Región:</strong> Metropolitana<br><strong>Año de inicio:</strong> 2017", "etiqueta": "BRISAS DEL VALLE III" }, "geometry": { "type": "Polygon", "coordinates": [ [ [ -70.773750836956339, -33.327985907328902 ], [ -70.772213123310863, -33.32704470578399 ], [ -70.771827499915588, -33.328245892739332 ], [ -70.773850614631584, -33.328801577137938 ], [ -70.773750836956339, -33.327985907328902 ] ] ] } },
{ "type": "Feature", "properties": { "capa": "ds19", "popup": "<strong>LUIS DURAND II</strong><br><br><strong>Programa:</strong> DS19<br><strong>Comuna:</strong> Lampa<br><strong>Región:</strong> Metropolitana<br><strong>Año de inicio:</strong> 2017", "etiqueta": "LUIS DURAND II" }, "geometry": { "type": "Polygon", "coordinates": [ [ [ -70.871209266048041, -33.294131005482626 ], [ -70.871936118995563, -33.291160698697809 ], [ -70.870579157165039, -33.29099415386974 ], [ -70.869893880943806, -33.293923148915688 ], [ -70.871209266048041, -33.294131005482626 ] ] ] } },
{ "type": "Feature", "properties": { "capa": "ds19", "popup": "<strong>VALLE NORTE DS19</strong><br><br><strong>Programa:</strong> DS19<br><strong>Comuna:</strong> Lampa<br><strong>Región:</strong> Metropolitana<br><strong>Año de inicio:</strong> 2017", "etiqueta": "VALLE NORTE DS19" }, "geometry": { "type": "Polygon", "coordinates": [ [ [ -70.771425153482994, -33.329157128419034 ], [ -70.771792964184485, -33.328031796876949 ], [ -70.769700055760822, -33.327497919477125 ], [ -70.769002723250182, -33.329320634880922 ], [ -70.770811034612038, -33.329830217444119 ], [ -70.7704106366253, -33.330777475888418 ], [ -70.770664858054062, -33.330890049832547 ], [ -70.77101875564847, -33.329797955296186 ], [ -70.771263999314286, -33.329265552322944 ], [ -70.771425153482994, -33.329157128419034 ] ] ] } },
{ "type": "Feature", "properties": { "capa": "ds19", "popup": "<strong>LAS PATAGUAS</strong><br><br><strong>Programa:</strong> DS19<br><strong>Comuna:</strong> Lampa<br><strong>Región:</strong> Metropolitana<br><strong>Año de inicio:</strong> 2017", "etiqueta": "LAS PATAGUAS" }, "geometry": { "type": "Polygon", "coordinates": [ [ [ -70.884470935585696, -33.299359101162196 ], [ -70.878914349801903, -33.298708619322923 ], [ -70.878714333615704, -33.299694402768473 ], [ -70.884250503388003, -33.300585579382599 ], [ -70.884470935585696, -33.299359101162196 ] ] ] } },
{ "type": "Feature", "properties": { "capa": "ds19", "popup": "<strong>VALLE NORTE 5 DS19 AÑO 2017</strong><br><br><strong>Programa:</strong> DS19<br><strong>Comuna:</strong> Lampa<br><strong>Región:</strong> Metropolitana<br><strong>Año de inicio:</strong> 2018", "etiqueta": "VALLE NORTE 5 DS19 AÑO 2017" }, "geometry": { "type": "Polygon", "coordinates": [ [ [ -70.77137431692276, -33.333799705725106 ], [ -70.770067183742711, -33.333526757976699 ], [ -70.76936722994806, -33.335925398692993 ], [ -70.772355128990981, -33.336588348660555 ], [ -70.772751720815876, -33.335262221527373 ], [ -70.771094369540876, -33.334872270399323 ], [ -70.77137431692276, -33.333799705725106 ] ] ] } },
{ "type": "Feature", "properties": { "capa": "ds19", "popup": "<strong>CONDOMIO LAS PATAGUAS III Y IV</strong><br><br><strong>Programa:</strong> DS19<br><strong>Comuna:</strong> Lampa<br><strong>Región:</strong> Metropolitana<br><strong>Año de inicio:</strong> 2018", "etiqueta": "CONDOMIO LAS PATAGUAS III Y IV" }, "geometry": { "type": "Polygon", "coordinates": [ [ [ -70.878710114228795, -33.299738810074579 ], [ -70.878287152358752, -33.301457524758803 ], [ -70.878565664232795, -33.301487750700765 ], [ -70.878755742357043, -33.301472676022172 ], [ -70.878998520147391, -33.301457533768499 ], [ -70.879450532635445, -33.301457534519287 ], [ -70.879679858154418, -33.301480224623887 ], [ -70.879839932548151, -33.301540016523745 ], [ -70.880191145078157, -33.301699253917413 ], [ -70.880431442620022, -33.301776139956942 ], [ -70.88065431464203, -33.301796802059577 ], [ -70.880978873259224, -33.301762280128052 ], [ -70.881202215100132, -33.30020638771505 ], [ -70.878710114228795, -33.299738810074579 ] ] ] } },
{ "type": "Feature", "properties": { "capa": "ds19", "popup": "<strong>BRISAS DEL VALLE V</strong><br><br><strong>Programa:</strong> DS19<br><strong>Comuna:</strong> Lampa<br><strong>Región:</strong> Metropolitana<br><strong>Año de inicio:</strong> 2018", "etiqueta": "BRISAS DEL VALLE V" }, "geometry": { "type": "Polygon", "coordinates": [ [ [ -70.774336305857929, -33.329853172618641 ], [ -70.771584045693814, -33.329185574170111 ], [ -70.771364144400479, -33.329849126341763 ], [ -70.771763067353518, -33.329970202333399 ], [ -70.77165889871317, -33.330251043585676 ], [ -70.774447664613803, -33.330852176193595 ], [ -70.774336305857929, -33.329853172618641 ] ] ] } },
{ "type": "Feature", "properties": { "capa": "ds19", "popup": "<strong>CONDOMINIO LAS PATAGUAS 6</strong><br><br><strong>Programa:</strong> DS19<br><strong>Comuna:</strong> Lampa<br><strong>Región:</strong> Metropolitana<br><strong>Año de inicio:</strong> 2019", "etiqueta": "CONDOMINIO LAS PATAGUAS 6" }, "geometry": { "type": "Polygon", "coordinates": [ [ [ -70.883903584805068, -33.302376652092732 ], [ -70.884350420302113, -33.300648245256959 ], [ -70.881243617553253, -33.300226496837773 ], [ -70.880986496362738, -33.30176157662531 ], [ -70.88163452573734, -33.301905423673894 ], [ -70.882491153802377, -33.301919683657474 ], [ -70.882756618545258, -33.302046840142744 ], [ -70.883138810376138, -33.302240837871956 ], [ -70.883903584805068, -33.302376652092732 ] ] ] } },
{ "type": "Feature", "properties": { "capa": "ds19", "popup": "<strong>CONDOMINIO LAS PATAGUAS 7</strong><br><br><strong>Programa:</strong> DS19<br><strong>Comuna:</strong> Lampa<br><strong>Región:</strong> Metropolitana<br><strong>Año de inicio:</strong> 2019", "etiqueta": "CONDOMINIO LAS PATAGUAS 7" }, "geometry": { "type": "Polygon", "coordinates": [ [ [ -70.883903584805068, -33.302376652092732 ], [ -70.884350420302113, -33.300648245256959 ], [ -70.881243617553253, -33.300226496837773 ], [ -70.880986496362738, -33.30176157662531 ], [ -70.88163452573734, -33.301905423673894 ], [ -70.882491153802377, -33.301919683657474 ], [ -70.882756618545258, -33.302046840142744 ], [ -70.883138810376138, -33.302240837871956 ], [ -70.883903584805068, -33.302376652092732 ] ] ] } },
{ "type": "Feature", "properties": { "capa": "ds19", "popup": "<strong>VALLE NORTE 6 DS19 AÑO 2018</strong><br><br><strong>Programa:</strong> DS19<br><strong>Comuna:</strong> Lampa<br><strong>Región:</strong> Metropolitana<br><strong>Año de inicio:</strong> 2019", "etiqueta": "VALLE NORTE 6 DS19 AÑO 2018" }, "geometry": { "type": "Polygon", "coordinates": [ [ [ -70.740354748153678, -33.327511346632875 ], [ -70.73997177389019, -33.327412789204935 ], [ -70.740062238730857, -33.327176720188561 ], [ -70.739928357414186, -33.327143363456017 ], [ -70.739799261423016, -33.327331932670276 ], [ -70.739619108784353, -33.327573933108702 ], [ -70.739414920821972, -33.327755472214221 ], [ -70.739157826580907, -33.327935749219925 ], [ -70.738928984355539, -33.328051551314516 ], [ -70.738692745402119, -33.32807261925705 ], [ -70.738267662609672, -33.328596338643791 ], [ -70.740112077262836, -33.329029763034399 ], [ -70.742386210015283, -33.329518212910799 ], [ -70.742910176659265, -33.327991454847343 ], [ -70.741656715122517, -33.327669584858185 ], [ -70.74149878949892, -33.328119332141689 ], [ -70.741583730598933, -33.328139291466726 ], [ -70.741390351166032, -33.328772166027491 ], [ -70.741032577341201, -33.32872638870451 ], [ -70.741002430778565, -33.328757597447712 ], [ -70.740923557798325, -33.328739065099889 ], [ -70.740892083525722, -33.328676965080767 ], [ -70.740622473057812, -33.328602671221873 ], [ -70.740303377994152, -33.3285003381446 ], [ -70.740091976560038, -33.328467071987589 ], [ -70.740354748153678, -33.327511346632875 ] ] ] } },
{ "type": "Feature", "properties": { "capa": "ds19", "popup": "<strong>CONDOMINIO SAN JOSÉ 7</strong><br><br><strong>Programa:</strong> DS19<br><strong>Comuna:</strong> Lampa<br><strong>Región:</strong> Metropolitana<br><strong>Año de inicio:</strong> 2022", "etiqueta": "CONDOMINIO SAN JOSÉ 7" }, "geometry": { "type": "Polygon", "coordinates": [ [ [ -70.770389920576534, -33.330748504518887 ], [ -70.770792615555465, -33.329813081369416 ], [ -70.768913823274715, -33.329397726985945 ], [ -70.768705872269578, -33.330025164356321 ], [ -70.770389920576534, -33.330748504518887 ] ] ] } },
{ "type": "Feature", "properties": { "capa": "ds19", "popup": "<strong>CONDOMINIO LAS PATAGUAS 9</strong><br><br><strong>Programa:</strong> DS19<br><strong>Comuna:</strong> Lampa<br><strong>Región:</strong> Metropolitana<br><strong>Año de inicio:</strong> 2022", "etiqueta": "CONDOMINIO LAS PATAGUAS 9" }, "geometry": { "type": "Polygon", "coordinates": [ [ [ -70.881452757927804, -33.30264972518161 ], [ -70.878093773824148, -33.302141757843444 ], [ -70.877966968536981, -33.302710545619924 ], [ -70.878004298926911, -33.302742457413018 ], [ -70.878269432191459, -33.302781546040194 ], [ -70.87847836775012, -33.302823371294778 ], [ -70.878688537594002, -33.302860359915108 ], [ -70.878836162236212, -33.302888865302656 ], [ -70.879004073532485, -33.302923044426493 ], [ -70.879139345441232, -33.302950835038502 ], [ -70.879436230557801, -33.30302120159422 ], [ -70.879648697393833, -33.303066331720942 ], [ -70.879863747784668, -33.303111903289846 ], [ -70.880103143417983, -33.303156310357537 ], [ -70.880442987768063, -33.303216114622572 ], [ -70.880842959055059, -33.30326731403823 ], [ -70.881006609641943, -33.303296112100881 ], [ -70.881310197987148, -33.303333062230493 ], [ -70.881452757927804, -33.30264972518161 ] ] ] } },
{ "type": "Feature", "properties": { "capa": "ds19", "popup": "<strong>CONDOMINIO LAS PATAGUAS 10</strong><br><br><strong>Programa:</strong> DS19<br><strong>Comuna:</strong> Lampa<br><strong>Región:</strong> Metropolitana<br><strong>Año de inicio:</strong> 2022", "etiqueta": "CONDOMINIO LAS PATAGUAS 10" }, "geometry": { "type": "Polygon", "coordinates": [ [ [ -70.882854679539975, -33.30355359445317 ], [ -70.882951192737494, -33.303565727185372 ], [ -70.883074039149221, -33.303566267001806 ], [ -70.883186933125913, -33.303544413817804 ], [ -70.883318789639958, -33.303495539756632 ], [ -70.883430282244802, -33.3034216516321 ], [ -70.883491552737084, -33.303361167292643 ], [ -70.883513747412792, -33.303318086975125 ], [ -70.883539792267825, -33.303269778883077 ], [ -70.883558542802746, -33.303235785340405 ], [ -70.883574175285332, -33.303151890448682 ], [ -70.883769168092471, -33.302347513614805 ], [ -70.883689103047828, -33.302325199135112 ], [ -70.883508113179332, -33.302279173672602 ], [ -70.88338614531996, -33.30225121091361 ], [ -70.88322595953511, -33.302243670637438 ], [ -70.883056373779141, -33.302221296067195 ], [ -70.882927690114713, -33.30218607831236 ], [ -70.88275264080518, -33.302132884887506 ], [ -70.882608003959589, -33.302072877914327 ], [ -70.882522823907721, -33.302047787653471 ], [ -70.882448330214473, -33.302019374339594 ], [ -70.882258835096863, -33.30196470548794 ], [ -70.882138421322921, -33.301946768084719 ], [ -70.881997998474333, -33.301922077965017 ], [ -70.881830090771331, -33.301908131066313 ], [ -70.881709307789791, -33.301914595472176 ], [ -70.881609012684947, -33.301905406405439 ], [ -70.881442695, -33.302683613841339 ], [ -70.881308125573796, -33.303314128810342 ], [ -70.881473222448292, -33.303338400346043 ], [ -70.881644872532775, -33.30336242561598 ], [ -70.881739569336787, -33.303365268856119 ], [ -70.881864878030697, -33.303387327801325 ], [ -70.881988196956272, -33.303404978106784 ], [ -70.882057575642307, -33.303411741966578 ], [ -70.882234238326078, -33.303440304984612 ], [ -70.882379650417747, -33.303465716182444 ], [ -70.882509103938375, -33.303490014704366 ], [ -70.882696667678147, -33.303525379087141 ], [ -70.882854679539975, -33.30355359445317 ] ] ] } },
{ "type": "Feature", "properties": { "capa": "ds19", "popup": "<strong>CONDOMINIO LOS BOLDOS</strong><br><br><strong>Programa:</strong> DS19<br><strong>Comuna:</strong> Lampa<br><strong>Región:</strong> Metropolitana<br><strong>Año de inicio:</strong> 2022", "etiqueta": "CONDOMINIO LOS BOLDOS" }, "geometry": { "type": "Polygon", "coordinates": [ [ [ -70.884561145304843, -33.299113923730985 ], [ -70.88453074901058, -33.299092874317218 ], [ -70.88449794433302, -33.299080941433438 ], [ -70.884446780786007, -33.299058303262562 ], [ -70.884385013525403, -33.299029123131405 ], [ -70.884342843911014, -33.299010062638018 ], [ -70.884306905011442, -33.298997773100041 ], [ -70.884266785352537, -33.298984648640406 ], [ -70.884220447555236, -33.298972955255756 ], [ -70.884179011864433, -33.298963500837019 ], [ -70.884128916414312, -33.298959703902518 ], [ -70.884087085464785, -33.298957803558146 ], [ -70.884039888878078, -33.298954944407015 ], [ -70.883990106939976, -33.298955904715378 ], [ -70.883935984342415, -33.298957820076346 ], [ -70.88388825056316, -33.298960393912992 ], [ -70.883837856872361, -33.29896490413352 ], [ -70.883792901582282, -33.298968502098525 ], [ -70.8837294841165, -33.29897209330592 ], [ -70.883675666946132, -33.298973887032531 ], [ -70.883591225309416, -33.298972106820834 ], [ -70.883498391611326, -33.298971220844507 ], [ -70.883447617034832, -33.29896555960584 ], [ -70.883331283408921, -33.298952490702639 ], [ -70.883236505756557, -33.29893818218094 ], [ -70.883157262670409, -33.298921880959931 ], [ -70.883101446748526, -33.298905307936174 ], [ -70.883022824398225, -33.298885208269624 ], [ -70.882960593606924, -33.298862048973078 ], [ -70.882903131971474, -33.298840248669997 ], [ -70.882834023678328, -33.298816734970401 ], [ -70.882729114826205, -33.298778528292161 ], [ -70.882650682020426, -33.298757668757226 ], [ -70.882552492566603, -33.298725121806093 ], [ -70.882380042981524, -33.298689195357881 ], [ -70.882282415873064, -33.298676023549532 ], [ -70.88216368015209, -33.298663504210502 ], [ -70.882072232554478, -33.298658276180845 ], [ -70.881982903184308, -33.298655492853676 ], [ -70.88190337443389, -33.29865968323638 ], [ -70.881803753065498, -33.298662474071691 ], [ -70.881688833387841, -33.298662482330805 ], [ -70.881579913557957, -33.298666657696558 ], [ -70.881465902077039, -33.298659958040197 ], [ -70.881332128558185, -33.298642343565156 ], [ -70.881219255242755, -33.29862458567797 ], [ -70.881069947157684, -33.298585212875487 ], [ -70.880974264003513, -33.298557848846137 ], [ -70.880855915456394, -33.298507452307994 ], [ -70.880727318928535, -33.298439046287122 ], [ -70.88057782758716, -33.298388838890105 ], [ -70.880460360287344, -33.298340710520257 ], [ -70.880325010225178, -33.298314949442734 ], [ -70.880040215534024, -33.298231839694878 ], [ -70.879891862358093, -33.298235927233677 ], [ -70.879757426780898, -33.298235932489533 ], [ -70.879601162142265, -33.298227772428341 ], [ -70.879435437345393, -33.298223690144987 ], [ -70.879229172478063, -33.298219606359766 ], [ -70.879139022047724, -33.298235953512872 ], [ -70.878919718134057, -33.298877065538235 ], [ -70.879767245366963, -33.29899065826163 ], [ -70.881142009111457, -33.299220899874221 ], [ -70.882452531635053, -33.29943969532868 ], [ -70.884405702624719, -33.299746743997339 ], [ -70.884561145304843, -33.299113923730985 ] ] ] } },
{ "type": "Feature", "properties": { "capa": "ds19", "popup": "<strong>CONJUNTO SAN JOSE 4</strong><br><br><strong>Programa:</strong> DS19<br><strong>Comuna:</strong> Lampa<br><strong>Región:</strong> Metropolitana de Santiago<br><strong>Año de inicio:</strong> 2023", "etiqueta": "CONJUNTO SAN JOSE 4" }, "geometry": { "type": "Polygon", "coordinates": [ [ [ -70.742503636890916, -33.325480550070729 ], [ -70.742372332840759, -33.325396016806309 ], [ -70.742053569255461, -33.325570650441243 ], [ -70.741636406010571, -33.32566190663885 ], [ -70.741814117926594, -33.325944551947181 ], [ -70.742210583987344, -33.325786995883774 ], [ -70.74259064681101, -33.326392837726267 ], [ -70.74253094567554, -33.326542350123049 ], [ -70.743286501593033, -33.326759800270501 ], [ -70.743563637248073, -33.325976699179762 ], [ -70.743186791291436, -33.325875942271828 ], [ -70.74296478255043, -33.325767977268065 ], [ -70.742758103559751, -33.325639493042303 ], [ -70.742503636890916, -33.325480550070729 ] ] ] } },
{ "type": "Feature", "properties": { "capa": "colegios", "popup": "<strong>ESCUELA BASICA G-N°320 LIPANGUE</strong><br><br><strong>Dirección:</strong> FUNDO LA PALOMA 0", "etiqueta": "" }, "geometry": { "type": "Point", "coordinates": [ -70.85672157, -33.33643358 ] } },
{ "type": "Feature", "properties": { "capa": "colegios", "popup": "<strong>COLEGIO WESTON ACADEMY</strong><br><br><strong>Dirección:</strong> AVENIDA LA MONTAÑA SUR 4065", "etiqueta": "" }, "geometry": { "type": "Point", "coordinates": [ -70.76225039, -33.32978689 ] } },
{ "type": "Feature", "properties": { "capa": "colegios", "popup": "<strong>ESCUELA ESPECIAL N° 2458 KIMUNTUWE</strong><br><br><strong>Dirección:</strong> RIO CLARO 2676", "etiqueta": "" }, "geometry": { "type": "Point", "coordinates": [ -70.74764, -33.32874 ] } },
{ "type": "Feature", "properties": { "capa": "colegios", "popup": "<strong>ESCUELA  ESPECIAL  2438 `PEQUEÑOS  GENIOS  DE  VALLE  GRANDE`</strong><br><br><strong>Dirección:</strong> AVENIDA LA MONTAÑA SUR 2693", "etiqueta": "" }, "geometry": { "type": "Point", "coordinates": [ -70.748346, -33.32533 ] } },
{ "type": "Feature", "properties": { "capa": "colegios", "popup": "<strong>ESCUELA ESPECIAL SEMILLITAS DEL VALLE</strong><br><br><strong>Dirección:</strong> RIO LOA 343", "etiqueta": "" }, "geometry": { "type": "Point", "coordinates": [ -70.750848, -33.322542 ] } },
{ "type": "Feature", "properties": { "capa": "colegios", "popup": "<strong>ESCUELA  SAN PEDRO VALLE GRANDE</strong><br><br><strong>Dirección:</strong> SAN MARTIN 245", "etiqueta": "" }, "geometry": { "type": "Point", "coordinates": [ -70.74706347, -33.32204578 ] } },
{ "type": "Feature", "properties": { "capa": "colegios", "popup": "<strong>ESC. BAS. PART.  JERUSALEN</strong><br><br><strong>Dirección:</strong> COLCHAGUA 118", "etiqueta": "" }, "geometry": { "type": "Point", "coordinates": [ -70.85536319, -33.30479161 ] } },
{ "type": "Feature", "properties": { "capa": "colegios", "popup": "<strong>COLEGIO PUMAHUE CHICAUMA</strong><br><br><strong>Dirección:</strong> CALLE LA SIEMBRA 5605", "etiqueta": "" }, "geometry": { "type": "Point", "coordinates": [ -70.738062, -33.304008 ] } },
{ "type": "Feature", "properties": { "capa": "colegios", "popup": "<strong>NORMA GONZÁLEZ GUERRA</strong><br><br><strong>Dirección:</strong> NUEVO AMANECER 121", "etiqueta": "" }, "geometry": { "type": "Point", "coordinates": [ -70.85862428, -33.30157752 ] } },
{ "type": "Feature", "properties": { "capa": "colegios", "popup": "<strong>ESC.ESPECIAL Nº 2279 SAN EXPEDITO DE LAMPA</strong><br><br><strong>Dirección:</strong> AVENIDA LOS HALCONES 759", "etiqueta": "" }, "geometry": { "type": "Point", "coordinates": [ -70.87471, -33.299477 ] } },
{ "type": "Feature", "properties": { "capa": "colegios", "popup": "<strong>ESCUELA BASICA CACIQUE COLIN</strong><br><br><strong>Dirección:</strong> EL TAQUERAL 0", "etiqueta": "" }, "geometry": { "type": "Point", "coordinates": [ -70.79783365, -33.29814343 ] } },
{ "type": "Feature", "properties": { "capa": "colegios", "popup": "<strong>ESCUELA ESPECIAL KITARI</strong><br><br><strong>Dirección:</strong> AVENIDA LA HACIENDA 2120", "etiqueta": "" }, "geometry": { "type": "Point", "coordinates": [ -70.87256, -33.29719 ] } },
{ "type": "Feature", "properties": { "capa": "colegios", "popup": "<strong>ESCUELA DE PARVILOS N° 2467 LARAPINTA EL SOL</strong><br><br><strong>Dirección:</strong> LOS TULIPANES 1875", "etiqueta": "" }, "geometry": { "type": "Point", "coordinates": [ -70.86985, -33.2968 ] } },
{ "type": "Feature", "properties": { "capa": "colegios", "popup": "<strong>ESC.BAS. EMPRENDER LARAPINTA</strong><br><br><strong>Dirección:</strong> AVENIDA LOS HALCONES 1000", "etiqueta": "" }, "geometry": { "type": "Point", "coordinates": [ -70.877529559999985, -33.295504550000011 ] } },
{ "type": "Feature", "properties": { "capa": "colegios", "popup": "<strong>ESCUELA BASICA COLEGIO SAN JUAN DE LAMPA</strong><br><br><strong>Dirección:</strong> CALLE LOS MAITENES 0", "etiqueta": "" }, "geometry": { "type": "Point", "coordinates": [ -70.88867, -33.294804 ] } },
{ "type": "Feature", "properties": { "capa": "colegios", "popup": "<strong>ESCUEL ESPECIAL BAMBÚ</strong><br><br><strong>Dirección:</strong> CALLE CHAGUAL 719", "etiqueta": "" }, "geometry": { "type": "Point", "coordinates": [ -70.88207, -33.29477 ] } },
{ "type": "Feature", "properties": { "capa": "colegios", "popup": "<strong>ESCUELA BASICA N° 2469 COLEGIO NEHUEN</strong><br><br><strong>Dirección:</strong> CALLE ISABEL RIQUELME 1776", "etiqueta": "" }, "geometry": { "type": "Point", "coordinates": [ -70.88568, -33.29314 ] } },
{ "type": "Feature", "properties": { "capa": "colegios", "popup": "<strong>COLEGIO SOL DEL VALLE</strong><br><br><strong>Dirección:</strong> AVENIDA COSTANERA PONIENTE DE FERROCARRILES 573", "etiqueta": "" }, "geometry": { "type": "Point", "coordinates": [ -70.73427, -33.2925 ] } },
{ "type": "Feature", "properties": { "capa": "colegios", "popup": "<strong>ESCUELA DE LENGUAJE N°2399 GRANDES SUEÑOS</strong><br><br><strong>Dirección:</strong> EL MARAI 1580", "etiqueta": "" }, "geometry": { "type": "Point", "coordinates": [ -70.87263, -33.29209 ] } },
{ "type": "Feature", "properties": { "capa": "colegios", "popup": "<strong>ESCUELA BASICA CRISTIANO JERUSALEN</strong><br><br><strong>Dirección:</strong> ISABEL RIQUELME 1811", "etiqueta": "" }, "geometry": { "type": "Point", "coordinates": [ -70.88589, -33.291363 ] } },
{ "type": "Feature", "properties": { "capa": "colegios", "popup": "<strong>ESCUELA ESPECIAL PARAISO</strong><br><br><strong>Dirección:</strong> IGNACIO SERRANO 1474", "etiqueta": "" }, "geometry": { "type": "Point", "coordinates": [ -70.87761, -33.289227 ] } },
{ "type": "Feature", "properties": { "capa": "colegios", "popup": "<strong>ESCUELA PART. SAN JOSE DE LAMPA</strong><br><br><strong>Dirección:</strong> ARTURO PRAT 1601", "etiqueta": "" }, "geometry": { "type": "Point", "coordinates": [ -70.870865370000018, -33.28825837 ] } },
{ "type": "Feature", "properties": { "capa": "colegios", "popup": "<strong>ESCUELA BASICA PARTICULAR PAICAVI DE LAMPA</strong><br><br><strong>Dirección:</strong> SERRANO 1131", "etiqueta": "" }, "geometry": { "type": "Point", "coordinates": [ -70.87739588, -33.287105150000016 ] } },
{ "type": "Feature", "properties": { "capa": "colegios", "popup": "<strong>COMPLEJO EDUCACIONAL DE LAMPA</strong><br><br><strong>Dirección:</strong> IGNACIO CARRERA PINTO 1066", "etiqueta": "" }, "geometry": { "type": "Point", "coordinates": [ -70.87187869, -33.28672949 ] } },
{ "type": "Feature", "properties": { "capa": "colegios", "popup": "<strong>ESCUELA ESPECIAL N° 2413, PEUMAYEN</strong><br><br><strong>Dirección:</strong> IGNACIO CARRERA PINTO 1367", "etiqueta": "" }, "geometry": { "type": "Point", "coordinates": [ -70.86986061, -33.286531 ] } },
{ "type": "Feature", "properties": { "capa": "colegios", "popup": "<strong>ESCUELA MANUEL SEGOVIA MONTENEGRO</strong><br><br><strong>Dirección:</strong> PEDRO AGUIRRE CERDA 1002", "etiqueta": "" }, "geometry": { "type": "Point", "coordinates": [ -70.873512049999988, -33.28608011 ] } },
{ "type": "Feature", "properties": { "capa": "colegios", "popup": "<strong>ESCUELA ESPECIAL MI MUNDO EN PALABRAS</strong><br><br><strong>Dirección:</strong> MANUEL RODRIGUEZ 90", "etiqueta": "" }, "geometry": { "type": "Point", "coordinates": [ -70.88498, -33.286003 ] } },
{ "type": "Feature", "properties": { "capa": "colegios", "popup": "<strong>ESCUELA ESPECIAL SAGRADA FAMILIA</strong><br><br><strong>Dirección:</strong> SARGENTO ALDEA 1143", "etiqueta": "" }, "geometry": { "type": "Point", "coordinates": [ -70.87283, -33.285908 ] } },
{ "type": "Feature", "properties": { "capa": "colegios", "popup": "<strong>COLEGIO ALBORADA DE LAMPA</strong><br><br><strong>Dirección:</strong> ISABEL RIQUELME 811", "etiqueta": "" }, "geometry": { "type": "Point", "coordinates": [ -70.88729, -33.285637 ] } },
{ "type": "Feature", "properties": { "capa": "colegios", "popup": "<strong>ESCUELA ESPECIAL EL PORVENIR</strong><br><br><strong>Dirección:</strong> NUEVO PORVENIR 0", "etiqueta": "" }, "geometry": { "type": "Point", "coordinates": [ -70.833725, -33.28515 ] } },
{ "type": "Feature", "properties": { "capa": "colegios", "popup": "<strong>ESC. ESPECIAL 1775 SAN ANTONIO II</strong><br><br><strong>Dirección:</strong> CALLE ISABEL RIQUELME 804", "etiqueta": "" }, "geometry": { "type": "Point", "coordinates": [ -70.88761, -33.284187 ] } },
{ "type": "Feature", "properties": { "capa": "colegios", "popup": "<strong>ESC PART. SIGLO XXI DE LAMPA</strong><br><br><strong>Dirección:</strong> BARROS LUCO 1975", "etiqueta": "" }, "geometry": { "type": "Point", "coordinates": [ -70.87251151, -33.282200869999983 ] } },
{ "type": "Feature", "properties": { "capa": "colegios", "popup": "<strong>ESCUELA BAS. INTEGRAL ENLACES DE LAMPA</strong><br><br><strong>Dirección:</strong> BALMACEDA 1007", "etiqueta": "" }, "geometry": { "type": "Point", "coordinates": [ -70.87702428, -33.28182782 ] } },
{ "type": "Feature", "properties": { "capa": "colegios", "popup": "<strong>COLEGIO POLIV. JERUSALEN DE LAMPA</strong><br><br><strong>Dirección:</strong> BALMACEDA 1057", "etiqueta": "" }, "geometry": { "type": "Point", "coordinates": [ -70.87669963, -33.28161332 ] } },
{ "type": "Feature", "properties": { "capa": "colegios", "popup": "<strong>ESCUELA POLONIA GUTIERREZ C.</strong><br><br><strong>Dirección:</strong> BALMACEDA 765", "etiqueta": "" }, "geometry": { "type": "Point", "coordinates": [ -70.88011593, -33.2807056 ] } },
{ "type": "Feature", "properties": { "capa": "colegios", "popup": "<strong>ESCUELA BASICA Nº 2286 LAMPA</strong><br><br><strong>Dirección:</strong> MANUEL RODRIGUEZ 375", "etiqueta": "" }, "geometry": { "type": "Point", "coordinates": [ -70.885721839999988, -33.27713856 ] } },
{ "type": "Feature", "properties": { "capa": "colegios", "popup": "<strong>ESCUELA BASICA MIRAFLORES DE LAMPA</strong><br><br><strong>Dirección:</strong> CAMINO A LAMPA 1125", "etiqueta": "" }, "geometry": { "type": "Point", "coordinates": [ -70.878459239999984, -33.277011699999989 ] } },
{ "type": "Feature", "properties": { "capa": "colegios", "popup": "<strong>ESCUELA BASICA N° 2468, RONALDO MUÑOZ GIBBS</strong><br><br><strong>Dirección:</strong> MANUEL RODRIGUEZ 216", "etiqueta": "" }, "geometry": { "type": "Point", "coordinates": [ -70.88730439, -33.27697139 ] } },
{ "type": "Feature", "properties": { "capa": "colegios", "popup": "<strong>ESCUELA BASICA G-N°373 EL LUCERO</strong><br><br><strong>Dirección:</strong> JUAN DE DIOS MARTICORENA 0", "etiqueta": "" }, "geometry": { "type": "Point", "coordinates": [ -70.88231539, -33.264093640000013 ] } },
{ "type": "Feature", "properties": { "capa": "colegios", "popup": "<strong>ESCUELA BASICA F-N°371 SANTA ROSA DE LAMPA</strong><br><br><strong>Dirección:</strong> CAMINO SANTA ROSA 0", "etiqueta": "" }, "geometry": { "type": "Point", "coordinates": [ -70.75796278, -33.26135131 ] } },
{ "type": "Feature", "properties": { "capa": "colegios", "popup": "<strong>LICEO POLIVALENTE SAINT ANDREWS</strong><br><br><strong>Dirección:</strong> LA UNION 72", "etiqueta": "" }, "geometry": { "type": "Point", "coordinates": [ -70.77617399, -33.24623934 ] } },
{ "type": "Feature", "properties": { "capa": "colegios", "popup": "<strong>ESCUELA SANTA  BARBARA</strong><br><br><strong>Dirección:</strong> AVENIDA ESPAÑA 900", "etiqueta": "" }, "geometry": { "type": "Point", "coordinates": [ -70.82385077, -33.24309135 ] } },
{ "type": "Feature", "properties": { "capa": "colegios", "popup": "<strong>ESC. ESPECIAL PADRE LUIS GUANELLA</strong><br><br><strong>Dirección:</strong> PANAMERICANA NORTE 25", "etiqueta": "" }, "geometry": { "type": "Point", "coordinates": [ -70.765278, -33.242644 ] } },
{ "type": "Feature", "properties": { "capa": "colegios", "popup": "<strong>ESCUELA REPUBLICA DE POLONIA</strong><br><br><strong>Dirección:</strong> AVENIDA ESPAÑA 163", "etiqueta": "" }, "geometry": { "type": "Point", "coordinates": [ -70.81209358, -33.23969409 ] } },
{ "type": "Feature", "properties": { "capa": "colegios", "popup": "<strong>ESCUELA BAS. AMANKAY DE LAMPA</strong><br><br><strong>Dirección:</strong> AVENIDA ESPAÑA 2291", "etiqueta": "" }, "geometry": { "type": "Point", "coordinates": [ -70.80914831, -33.23859871 ] } },
{ "type": "Feature", "properties": { "capa": "colegios", "popup": "<strong>ESCUELA ESP. PART. ACONCAGUA DE BATUCO</strong><br><br><strong>Dirección:</strong> ACEVEDO 724", "etiqueta": "" }, "geometry": { "type": "Point", "coordinates": [ -70.807434, -33.23767 ] } },
{ "type": "Feature", "properties": { "capa": "colegios", "popup": "<strong>ESCUELA ESPECIAL DE  LENGUAJE LOS  CHAVITOS</strong><br><br><strong>Dirección:</strong> AVENIDA ESPAÑA 2484", "etiqueta": "" }, "geometry": { "type": "Point", "coordinates": [ -70.80696, -33.23749 ] } },
{ "type": "Feature", "properties": { "capa": "colegios", "popup": "<strong>ESCUELA ESPECIAL DE LENGUAJE PUCALEN</strong><br><br><strong>Dirección:</strong> AVENIDA CHILE 203", "etiqueta": "" }, "geometry": { "type": "Point", "coordinates": [ -70.808134, -33.236132 ] } },
{ "type": "Feature", "properties": { "capa": "colegios", "popup": "<strong>ESC. BAS. Y ESP. CENTRO INTEGRAL ALTAIR DE BA</strong><br><br><strong>Dirección:</strong> AVENIDA ITALIA 372", "etiqueta": "" }, "geometry": { "type": "Point", "coordinates": [ -70.81352708, -33.23598319 ] } },
{ "type": "Feature", "properties": { "capa": "colegios", "popup": "<strong>ESCUELA PART. MASTER SCHOOL DE LAMPA</strong><br><br><strong>Dirección:</strong> JOSE MANUEL BALMACEDA 309", "etiqueta": "" }, "geometry": { "type": "Point", "coordinates": [ -70.81049832, -33.23564788 ] } },
{ "type": "Feature", "properties": { "capa": "colegios", "popup": "<strong>LICEO MUNICIP. DE ADULTOS PEDRO J. RODRIGUEZ</strong><br><br><strong>Dirección:</strong> AVENIIDA ESPAÑA 163", "etiqueta": "" }, "geometry": { "type": "Point", "coordinates": [ -70.805145, -33.235577 ] } },
{ "type": "Feature", "properties": { "capa": "colegios", "popup": "<strong>ESCUELA ESPECIAL N°1832 EXPLORADORES DE BATUCO</strong><br><br><strong>Dirección:</strong> FIGUEROA 154", "etiqueta": "" }, "geometry": { "type": "Point", "coordinates": [ -70.80998, -33.232918 ] } },
{ "type": "Feature", "properties": { "capa": "colegios", "popup": "<strong>ESCUELA ESPECIAL N° 2462 SAN ANDRES DE BATUCO</strong><br><br><strong>Dirección:</strong> CALLE GARIBARDI 1027", "etiqueta": "" }, "geometry": { "type": "Point", "coordinates": [ -70.80412, -33.22982 ] } },
{ "type": "Feature", "properties": { "capa": "colegios", "popup": "<strong>COLEGIO ADULTOS MANQUEHUE</strong><br><br><strong>Dirección:</strong> GARIBALDI 944", "etiqueta": "" }, "geometry": { "type": "Point", "coordinates": [ -70.805176, -33.22977 ] } },
{ "type": "Feature", "properties": { "capa": "colegios", "popup": "<strong>LICEO MUNICIPAL DE BATUCO</strong><br><br><strong>Dirección:</strong> LATORRE 1026", "etiqueta": "" }, "geometry": { "type": "Point", "coordinates": [ -70.80329, -33.227146 ] } },
{ "type": "Feature", "properties": { "capa": "colegios", "popup": "<strong>ESCUELA BASICA SAN SEBASTIAN DE BATUCO</strong><br><br><strong>Dirección:</strong> AVENIDA CHILE BATUCO 1370", "etiqueta": "" }, "geometry": { "type": "Point", "coordinates": [ -70.8101331, -33.22571238 ] } },
{ "type": "Feature", "properties": { "capa": "colegios", "popup": "<strong>ESCUELA BASICA F - N°372 SANTA SARA</strong><br><br><strong>Dirección:</strong> CAMINO INTERIOR SANTA SARA 0", "etiqueta": "" }, "geometry": { "type": "Point", "coordinates": [ -70.77227636, -33.2254176 ] } },
{ "type": "Feature", "properties": { "capa": "jardines", "popup": "<strong>SOLCITO</strong><br><br><strong>Dirección:</strong> NUEVO AMANECER S/N SOL DE SEPT ", "etiqueta": "" }, "geometry": { "type": "MultiPoint", "coordinates": [ [ -70.877541, -33.297316 ] ] } },
{ "type": "Feature", "properties": { "capa": "jardines", "popup": "<strong>NIDO DE ANGELITO</strong><br><br><strong>Dirección:</strong> CALLE VILLA ESPERANZA  SITIO 67 ESTACION COLINA ", "etiqueta": "" }, "geometry": { "type": "MultiPoint", "coordinates": [ [ -70.865854, -33.28805 ] ] } },
{ "type": "Feature", "properties": { "capa": "jardines", "popup": "<strong>SALA CUNA HUELEMU</strong><br><br><strong>Dirección:</strong> AVENIDA ARGENTINA 1069 ", "etiqueta": "" }, "geometry": { "type": "MultiPoint", "coordinates": [ [ -70.81281, -33.229765 ] ] } },
{ "type": "Feature", "properties": { "capa": "jardines", "popup": "<strong>MI PEQUEÑO LUCERO</strong><br><br><strong>Dirección:</strong> JUNA DE DIOS MARTICORENO RC NRO 1 ", "etiqueta": "" }, "geometry": { "type": "MultiPoint", "coordinates": [ [ -70.867631, -33.281296 ] ] } },
{ "type": "Feature", "properties": { "capa": "jardines", "popup": "<strong>LARAPINTA</strong><br><br><strong>Dirección:</strong> GUAYACAN 792 LARAPINTA ", "etiqueta": "" }, "geometry": { "type": "MultiPoint", "coordinates": [ [ -70.82754, -33.277175 ] ] } },
{ "type": "Feature", "properties": { "capa": "jardines", "popup": "<strong>NUESTRO FUTURO</strong><br><br><strong>Dirección:</strong> EL ROBLE 241 LOTE 2 POB NUESTRO FUTURO ", "etiqueta": "" }, "geometry": { "type": "MultiPoint", "coordinates": [ [ -70.821492, -33.244681 ] ] } },
{ "type": "Feature", "properties": { "capa": "jardines", "popup": "<strong>RICARDO LEVI</strong><br><br><strong>Dirección:</strong> AV BATUCO 397 ", "etiqueta": "" }, "geometry": { "type": "MultiPoint", "coordinates": [ [ -70.803264, -33.231519 ] ] } },
{ "type": "Feature", "properties": { "capa": "jardines", "popup": "<strong>KIM AYELEN</strong><br><br><strong>Dirección:</strong> MANUEL PLAZA 278 ", "etiqueta": "" }, "geometry": { "type": "MultiPoint", "coordinates": [ [ -70.889601, -33.281506 ] ] } },
{ "type": "Feature", "properties": { "capa": "jardines", "popup": "<strong>TRENCITO DE ALEGRIA</strong><br><br><strong>Dirección:</strong> DOÑA INES SITIO 1Y 2 LOTEO COSMETICA. ", "etiqueta": "" }, "geometry": { "type": "MultiPoint", "coordinates": [ [ -70.758311, -33.283372 ] ] } },
{ "type": "Feature", "properties": { "capa": "jardines", "popup": "<strong>MIS PRIMEROS PASITOS</strong><br><br><strong>Dirección:</strong> CAMINO INTERIOR N.2 PARCELACION SANTA SARA ", "etiqueta": "" }, "geometry": { "type": "MultiPoint", "coordinates": [ [ -70.816634, -33.240469 ] ] } },
{ "type": "Feature", "properties": { "capa": "jardines", "popup": "<strong>NA</strong><br><br><strong>Dirección:</strong> NA ", "etiqueta": "" }, "geometry": { "type": "MultiPoint", "coordinates": [ [ -70.880660999570168, -33.280072000180063 ] ] } },
{ "type": "Feature", "properties": { "capa": "jardines", "popup": "<strong>NA</strong><br><br><strong>Dirección:</strong> NA ", "etiqueta": "" }, "geometry": { "type": "MultiPoint", "coordinates": [ [ -70.808014000267434, -33.229403000169484 ] ] } },
{ "type": "Feature", "properties": { "capa": "jardines", "popup": "<strong>NA</strong><br><br><strong>Dirección:</strong> NA ", "etiqueta": "" }, "geometry": { "type": "MultiPoint", "coordinates": [ [ -70.888388999982084, -33.293400000179844 ] ] } },
{ "type": "Feature", "properties": { "capa": "jardines", "popup": "<strong>NA</strong><br><br><strong>Dirección:</strong> NA ", "etiqueta": "" }, "geometry": { "type": "MultiPoint", "coordinates": [ [ -70.886120000275199, -33.280268000012676 ] ] } },
{ "type": "Feature", "properties": { "capa": "jardines", "popup": "<strong>NA</strong><br><br><strong>Dirección:</strong> NA ", "etiqueta": "" }, "geometry": { "type": "MultiPoint", "coordinates": [ [ -70.888699999929472, -33.279931999936572 ] ] } },
{ "type": "Feature", "properties": { "capa": "jardines", "popup": "<strong>NA</strong><br><br><strong>Dirección:</strong> NA ", "etiqueta": "" }, "geometry": { "type": "MultiPoint", "coordinates": [ [ -70.880792000077477, -33.291676000064122 ] ] } },
{ "type": "Feature", "properties": { "capa": "comisarias", "popup": "<strong>TCIA. BATUCO</strong><br><br><strong>Dirección:</strong> LAS MERCEDES S/N", "etiqueta": "" }, "geometry": { "type": "Point", "coordinates": [ -70.807077, -33.238707999999896 ] } },
{ "type": "Feature", "properties": { "capa": "comisarias", "popup": "<strong>TCIA. CARRET. LAMPA</strong><br><br><strong>Dirección:</strong> RUTA 5 NORTE KM 27", "etiqueta": "" }, "geometry": { "type": "Point", "coordinates": [ -70.760788909999917, -33.232305553999929 ] } },
{ "type": "Feature", "properties": { "capa": "comisarias", "popup": "<strong>59A. COMISARIA LAMPA</strong><br><br><strong>Dirección:</strong> PEDRO AGUIRRE CERDA 1100", "etiqueta": "" }, "geometry": { "type": "Point", "coordinates": [ -70.872898465258771, -33.285618981969584 ] } },
{ "type": "Feature", "properties": { "capa": "salud", "popup": "<strong>Centro Comunitario de Salud Familiar Sol de Septiembre</strong><br><br><strong>Tipo de atención:</strong> Centro Comunitario de Salud Familiar (CECOSF)<br><strong>Dirección:</strong>  367", "etiqueta": "" }, "geometry": { "type": "Point", "coordinates": [ -70.85303, -33.30489 ] } },
{ "type": "Feature", "properties": { "capa": "salud", "popup": "<strong>SAPU José Bauzá Frau</strong><br><br><strong>Tipo de atención:</strong> Servicio de Atención Primaria de Urgencia (SAPU)<br><strong>Dirección:</strong>  898", "etiqueta": "" }, "geometry": { "type": "Point", "coordinates": [ -70.876254, -33.285726 ] } },
{ "type": "Feature", "properties": { "capa": "salud", "popup": "<strong>Centro de Salud Familiar José Bauza Frau</strong><br><br><strong>Tipo de atención:</strong> Centro de Salud Familiar (CESFAM)<br><strong>Dirección:</strong>  1239", "etiqueta": "" }, "geometry": { "type": "Point", "coordinates": [ -70.875532, -33.277449 ] } },
{ "type": "Feature", "properties": { "capa": "salud", "popup": "<strong>SUR Batuco</strong><br><br><strong>Tipo de atención:</strong> Servicio de Urgencia Rural (SUR)<br><strong>Dirección:</strong>  180", "etiqueta": "" }, "geometry": { "type": "Point", "coordinates": [ -70.814087, -33.241886 ] } },
{ "type": "Feature", "properties": { "capa": "salud", "popup": "<strong>Centro de Salud Familiar Batuco</strong><br><br><strong>Tipo de atención:</strong> Centro de Salud Familiar (CESFAM)<br><strong>Dirección:</strong>  180", "etiqueta": "" }, "geometry": { "type": "Point", "coordinates": [ -70.81415, -33.24185 ] } },
{ "type": "Feature", "properties": { "capa": "salud", "popup": "<strong>Centro Comunitario de Salud Familiar Batuco</strong><br><br><strong>Tipo de atención:</strong> Centro Comunitario de Salud Familiar (CECOSF)<br><strong>Dirección:</strong>  NA", "etiqueta": "" }, "geometry": { "type": "Point", "coordinates": [ -70.81273, -33.22992 ] } },
{ "type": "Feature", "properties": { "capa": "salud", "popup": "<strong>Centro de Salud Familiar Juan Pablo II de Lampa</strong><br><br><strong>Tipo de atención:</strong> Centro de Salud Familiar (CESFAM)<br><strong>Dirección:</strong>  2049", "etiqueta": "" }, "geometry": { "type": "Point", "coordinates": [ -70.75783, -33.28311 ] } },
{ "type": "Feature", "properties": { "capa": "salud", "popup": "<strong>SUR Juan Pablo II</strong><br><br><strong>Tipo de atención:</strong> Servicio de Urgencia Rural (SUR)<br><strong>Dirección:</strong>  2049", "etiqueta": "" }, "geometry": { "type": "Point", "coordinates": [ -70.757781125999941, -33.283181316 ] } }
]
}
