{
"type": "FeatureCollection",
"name": "13603",
"crs": { "type": "name", "properties": { "name": "urn:ogc:def:crs:OGC:1.3:CRS84" } },
"features": [
{ "type": "Feature", "properties": { "capa": "comuna", "popup": "", "etiqueta": "" }, "geometry": { "type": "Polygon", "coordinates": [ [ [ -70.828686196940666, -33.764806662898494 ], [ -70.828710274485232, -33.764829039050106 ], [ -70.829657823735133, -33.765144889199043 ], [ -70.830606124874919, -33.765227059947549 ], [ -70.83171353112624, -33.765174326158849 ], [ -70.832820936479266, -33.765191904838829 ], [ -70.833822875126359, -33.765561039855804 ], [ -70.834553493811555, -33.766388547506338 ], [ -70.835382599292927, -33.767316355744974 ], [ -70.835969809129537, -33.768102191951833 ], [ -70.836646967275541, -33.768489138867508 ], [ -70.837297439169404, -33.769033789345713 ], [ -70.837462721995166, -33.769777423690897 ], [ -70.837351976788597, -33.770395026649837 ], [ -70.837325340842128, -33.771407200272918 ], [ -70.837684930162141, -33.772419373886528 ], [ -70.838007001344337, -33.773054675252496 ], [ -70.838604109717053, -33.773616659353856 ], [ -70.838846386247496, -33.774008028787158 ], [ -70.838902678276469, -33.774197405365577 ], [ -70.839040684656936, -33.774213496986611 ], [ -70.83966596060371, -33.774357013204401 ], [ -70.840349006308088, -33.774637213295023 ], [ -70.840869686016433, -33.775026724000618 ], [ -70.841426982852397, -33.775415758780504 ], [ -70.84191245848308, -33.775866881121047 ], [ -70.842397286428437, -33.776287575599724 ], [ -70.842882030830481, -33.77670819633024 ], [ -70.843366781520729, -33.777128888917275 ], [ -70.843815099238, -33.777550049847832 ], [ -70.844227379241019, -33.778002330246352 ], [ -70.844639662837295, -33.778454609003504 ], [ -70.84515982062446, -33.778813599362273 ], [ -70.845681204611992, -33.779233734302274 ], [ -70.846202593091107, -33.779653791768538 ], [ -70.846651507289721, -33.78010551599759 ], [ -70.847099771108063, -33.780526738451549 ], [ -70.847620517291745, -33.7809162178973 ], [ -70.848104657127607, -33.781306316783997 ], [ -70.848589635091614, -33.781726909883581 ], [ -70.849074438782466, -33.782147503904262 ], [ -70.849612526942721, -33.782490913609053 ], [ -70.85002485994633, -33.782943173144709 ], [ -70.850652758973737, -33.783208923197954 ], [ -70.85120826636566, -33.783506191412606 ], [ -70.851799645283506, -33.783772335431387 ], [ -70.852424919433645, -33.783915712440809 ], [ -70.853015647072894, -33.784151351858519 ], [ -70.853642244441446, -33.784355866929317 ], [ -70.854234297095758, -33.78465271977521 ], [ -70.854646094703469, -33.785074388740242 ], [ -70.855057808767853, -33.785496055628933 ], [ -70.855650441733829, -33.78582332737885 ], [ -70.856206643523464, -33.786151144394239 ], [ -70.856762759973151, -33.786478960154625 ], [ -70.857318132617763, -33.786776201339578 ], [ -70.857873599585488, -33.787073513166227 ], [ -70.858394522737285, -33.787463015847337 ], [ -70.858625260407905, -33.787979070723431 ], [ -70.858820135535737, -33.788526322328487 ], [ -70.859087583758779, -33.789041898210073 ], [ -70.859571820612658, -33.789431873480183 ], [ -70.860127398073175, -33.789729099188584 ], [ -70.860394681904509, -33.79024467380021 ], [ -70.860835004615751, -33.791139620511089 ], [ -70.861174956763662, -33.791623514611445 ], [ -70.861442340307988, -33.792139010625363 ], [ -70.861601288214331, -33.792717381695333 ], [ -70.861796192088292, -33.793264479088492 ], [ -70.862026967488148, -33.793780601274008 ], [ -70.862294364507193, -33.794296168657922 ], [ -70.862597720188759, -33.794780610041336 ], [ -70.863118711612486, -33.795170016446029 ], [ -70.863710869369683, -33.795466671297639 ], [ -70.864371452700397, -33.795548434473474 ], [ -70.865032876854201, -33.795660689345098 ], [ -70.865659009793745, -33.79583456652793 ], [ -70.86628704806003, -33.796100157875443 ], [ -70.8668066479934, -33.796428478262101 ], [ -70.867255184001294, -33.796849545773256 ], [ -70.86770496507414, -33.797331830224884 ], [ -70.868117464266106, -33.797783947921623 ], [ -70.86863708216579, -33.798112259610406 ], [ -70.869122078994423, -33.798532841079449 ], [ -70.869951886060022, -33.798810645695106 ], [ -70.870510131516909, -33.799230036808908 ], [ -70.870921991108389, -33.799651646672821 ], [ -70.871443626624213, -33.800071588304412 ], [ -70.871964601878275, -33.800461029611192 ], [ -70.872376474944488, -33.800882633411163 ], [ -70.872788353400551, -33.80130430903526 ], [ -70.873309431960905, -33.801693743239838 ], [ -70.873866377555586, -33.802051973309275 ], [ -70.874459286304358, -33.802379219842635 ], [ -70.875054197397887, -33.802798031384192 ], [ -70.875573872789744, -33.80312631189593 ], [ -70.876166126666689, -33.803422977987999 ], [ -70.876829535198951, -33.803626737892522 ], [ -70.877420463162508, -33.803862252894163 ], [ -70.878081965469747, -33.803974434160239 ], [ -70.87870074749533, -33.803812172644086 ], [ -70.879319616657497, -33.803649978747622 ], [ -70.880012974123019, -33.803547738345863 ], [ -70.880631749860399, -33.803385465570216 ], [ -70.88121198338051, -33.803132105908809 ], [ -70.881866124892312, -33.802908197855061 ], [ -70.882520175674273, -33.802684286976117 ], [ -70.883194786198118, -33.802567023587258 ], [ -70.883890225958496, -33.802556401408715 ], [ -70.884659399437353, -33.80257515705491 ], [ -70.885318221171801, -33.802565161160388 ], [ -70.886011558874387, -33.802462811971694 ], [ -70.886668945999304, -33.802391593250519 ], [ -70.887327675207246, -33.802381587630514 ], [ -70.887984476630592, -33.802279786874891 ], [ -70.88860054304908, -33.801995335765952 ], [ -70.889215348232895, -33.80164973650735 ], [ -70.889794782252409, -33.801365767019526 ], [ -70.890413610092068, -33.801203445317995 ], [ -70.891071654783786, -33.80116277433428 ], [ -70.891697204716706, -33.801306091616773 ], [ -70.89228949811951, -33.801602604273747 ], [ -70.89284853858544, -33.802052460752968 ], [ -70.893367599529654, -33.802350092015296 ], [ -70.893958558035948, -33.802585527672932 ], [ -70.894514246887539, -33.802882592010413 ], [ -70.895069939332416, -33.803179726976722 ], [ -70.895625635370536, -33.803476785519337 ], [ -70.896251206863028, -33.803620004126984 ], [ -70.896910704130562, -33.803640443540942 ], [ -70.897570786201314, -33.803691378581171 ], [ -70.898230871865337, -33.803742383757708 ], [ -70.898888930930113, -33.803701670686301 ], [ -70.899581582319826, -33.803568674169604 ], [ -70.90019972923649, -33.803375806422309 ], [ -70.90085440704253, -33.803182371678496 ], [ -70.901210298896842, -33.802718449578322 ], [ -70.901676546088865, -33.802283407235706 ], [ -70.901958513781821, -33.801790040966246 ], [ -70.902314303228181, -33.801326043389111 ], [ -70.902614236328503, -33.800817181417827 ], [ -70.902637917716035, -33.800236126224235 ], [ -70.902698983392412, -33.799685075940616 ], [ -70.902833196187444, -33.799132823240384 ], [ -70.903188384660893, -33.798638398190654 ], [ -70.903579422202384, -33.798112763499603 ], [ -70.903935190089186, -33.797648836313769 ], [ -70.904439457577311, -33.797274287027577 ], [ -70.904943633437256, -33.796899810753779 ], [ -70.905336681408343, -33.796465737673884 ], [ -70.9054335790848, -33.79588355032628 ], [ -70.905129307121641, -33.79536872559158 ], [ -70.904753247190882, -33.794916097948679 ], [ -70.904377189955056, -33.794463469405542 ], [ -70.904218629222584, -33.793915736157999 ], [ -70.904205685397656, -33.793335319440985 ], [ -70.90388287310536, -33.792805484949966 ], [ -70.903797462186461, -33.792256621264002 ], [ -70.904042094997877, -33.791733318453566 ], [ -70.904213581589005, -33.791211070323811 ], [ -70.904385065485172, -33.790688822741238 ], [ -70.904408825924421, -33.790107838402434 ], [ -70.904176367980043, -33.789530662891849 ], [ -70.903872803889328, -33.789046331411534 ], [ -70.903933856091001, -33.788495280019127 ], [ -70.90406737179336, -33.787912528545746 ], [ -70.904311992028369, -33.787389224568116 ], [ -70.904593898635895, -33.786895853830792 ], [ -70.904765285513989, -33.786373606805277 ], [ -70.904899470461245, -33.785821425017396 ], [ -70.904996449884379, -33.785239236959761 ], [ -70.905074695840582, -33.784641972928 ], [ -70.905319301702548, -33.784118666882428 ], [ -70.905637804776418, -33.783624728529603 ], [ -70.905662144629048, -33.783074244034246 ], [ -70.905759795991997, -33.782522626336515 ], [ -70.905674387768045, -33.78197383635711 ], [ -70.905587626681282, -33.78136390356628 ], [ -70.905612143502012, -33.780813415738976 ], [ -70.905599193388881, -33.780232850471251 ], [ -70.905733364861405, -33.779680668662223 ], [ -70.906015240027884, -33.779187294581376 ], [ -70.906223304220731, -33.778664552543972 ], [ -70.906503820236196, -33.778110108647056 ], [ -70.906858140038764, -33.777585030389595 ], [ -70.9072510963817, -33.77715102813859 ], [ -70.907624819794407, -33.776671595860996 ], [ -70.908241311116015, -33.776417551570717 ], [ -70.908670188392222, -33.77595248012156 ], [ -70.90891483647502, -33.775429094101952 ], [ -70.908828739243233, -33.774849734857746 ], [ -70.90874196647836, -33.774239803606918 ], [ -70.908729176265354, -33.773659310272528 ], [ -70.908716889108888, -33.773109390468242 ], [ -70.908888314614558, -33.772587137035657 ], [ -70.909096347366372, -33.772064391311609 ], [ -70.9093408975328, -33.771541078613872 ], [ -70.909512228715357, -33.771018826075739 ], [ -70.909756180603821, -33.77046486736262 ], [ -70.909927509989757, -33.769942688166701 ], [ -70.910245258478781, -33.76941816695917 ], [ -70.910638161821112, -33.768984154698607 ], [ -70.910919978597093, -33.768490844469092 ], [ -70.911145186238826, -33.767921956502313 ], [ -70.911723731824523, -33.767607319632631 ], [ -70.912190871941959, -33.767183305694346 ], [ -70.912202566210311, -33.767709595485876 ], [ -70.912423077459749, -33.768494001026745 ], [ -70.912465933386997, -33.768671215378944 ], [ -70.91251825576073, -33.768916169216986 ], [ -70.912559537839599, -33.769169789191857 ], [ -70.912590553971427, -33.769423126143543 ], [ -70.912612782783128, -33.769667142900481 ], [ -70.912626360818649, -33.769919863061119 ], [ -70.912636663596629, -33.770172486146159 ], [ -70.91264857166405, -33.770429664370802 ], [ -70.912662237734452, -33.770682383029197 ], [ -70.912674488958302, -33.770935124091118 ], [ -70.912682757950506, -33.771187704605758 ], [ -70.912692263922835, -33.771440265707412 ], [ -70.9127005320167, -33.771692846973124 ], [ -70.912700653289264, -33.771945036954094 ], [ -70.912686616214629, -33.772196928994823 ], [ -70.912658667829518, -33.77244379184021 ], [ -70.912622333671223, -33.772699354056954 ], [ -70.912582258029772, -33.772945814465018 ], [ -70.912542382712616, -33.773201284084472 ], [ -70.912508502751692, -33.773447943168911 ], [ -70.912466590055487, -33.773703296296958 ], [ -70.912421036487416, -33.77395405264464 ], [ -70.912386560943446, -33.774209732816935 ], [ -70.912379249555343, -33.774461816077121 ], [ -70.912419793219073, -33.774701930382598 ], [ -70.912522463469514, -33.774939529114178 ], [ -70.912650886622529, -33.775173551975222 ], [ -70.912767272350749, -33.77540724490207 ], [ -70.91286907393031, -33.775649362936207 ], [ -70.912955644574254, -33.775854929496496 ], [ -70.913797235739736, -33.777612831577123 ], [ -70.914380930468653, -33.779037735451787 ], [ -70.915130862932457, -33.780184373660113 ], [ -70.915322676601804, -33.780988126471804 ], [ -70.9153751094683, -33.781503440120701 ], [ -70.915312278602386, -33.782014929350986 ], [ -70.915139763440294, -33.782423669805603 ], [ -70.915043296056865, -33.78283499764224 ], [ -70.915101681160451, -33.783224270973577 ], [ -70.915353861616893, -33.783552547409172 ], [ -70.916047586493363, -33.784278328657635 ], [ -70.916653389659743, -33.78522648925825 ], [ -70.917211007194254, -33.786393680768263 ], [ -70.917408465876861, -33.787076048615617 ], [ -70.917528403543699, -33.787602572328083 ], [ -70.917668788663022, -33.787827982994031 ], [ -70.917792554051303, -33.788061850440272 ], [ -70.917892567983458, -33.788285892894159 ], [ -70.917944389097258, -33.788530851866255 ], [ -70.917922763953428, -33.78878692453187 ], [ -70.917849876447903, -33.789041356938398 ], [ -70.917744813085534, -33.789281145925898 ], [ -70.917610671257421, -33.789506465569943 ], [ -70.917456055027344, -33.789722056740487 ], [ -70.917293999848411, -33.789937468937026 ], [ -70.917135940375843, -33.790157471262248 ], [ -70.916992322219798, -33.790382420541206 ], [ -70.916846303765311, -33.790602901019767 ], [ -70.916716266339733, -33.790841821110703 ], [ -70.916637822754168, -33.791073440633411 ], [ -70.916620430471951, -33.791325162198881 ], [ -70.916637227171151, -33.791582558369385 ], [ -70.916677905582148, -33.791831679672065 ], [ -70.916731876364423, -33.792085764841225 ], [ -70.916794866232138, -33.792335646910175 ], [ -70.916877841818305, -33.792577092972877 ], [ -70.91697187566561, -33.792814525655402 ], [ -70.917066894964805, -33.793056449650464 ], [ -70.917152529564206, -33.793298075090625 ], [ -70.917216394391019, -33.793543437786482 ], [ -70.917258491241867, -33.793792609373732 ], [ -70.917292986548773, -33.794046036995425 ], [ -70.917335793966998, -33.794295272814971 ], [ -70.91740144194965, -33.794545187254485 ], [ -70.917488406055668, -33.794786792069033 ], [ -70.917580064757374, -33.795028618667445 ], [ -70.917657646858572, -33.795270001145518 ], [ -70.917715241444682, -33.795519670118729 ], [ -70.917763449534419, -33.795768968834885 ], [ -70.917813441678291, -33.796022967666232 ], [ -70.917875364347466, -33.796268286719126 ], [ -70.917960917200162, -33.796509912798477 ], [ -70.918075473958453, -33.796738899706391 ], [ -70.918213221624129, -33.796964275120715 ], [ -70.918366629620152, -33.797185639686816 ], [ -70.918530460768395, -33.797398273261145 ], [ -70.918699948608008, -33.79760660866701 ], [ -70.91886839709683, -33.79782389640107 ], [ -70.919038595503821, -33.798032293477249 ], [ -70.91921506954138, -33.798236381986428 ], [ -70.919397816514561, -33.798436087309362 ], [ -70.91958455110931, -33.798636027313187 ], [ -70.919773576408048, -33.798831498323629 ], [ -70.9199778982194, -33.79901853125947 ], [ -70.920200333660148, -33.799192577047265 ], [ -70.920423644060023, -33.799362100981575 ], [ -70.920647321870803, -33.799536200564539 ], [ -70.920873631745394, -33.799701319535266 ], [ -70.921102423665104, -33.799866621076873 ], [ -70.921334557317678, -33.80002300627266 ], [ -70.921565930097202, -33.800192846564507 ], [ -70.921796849227505, -33.800358187466855 ], [ -70.922031753284415, -33.800523613895109 ], [ -70.922273074007393, -33.800671284974051 ], [ -70.922524110908483, -33.800810235431179 ], [ -70.922791444147151, -33.80091820085778 ], [ -70.923083763127124, -33.800999922995281 ], [ -70.923388722301453, -33.801041556265176 ], [ -70.923692024982415, -33.801060537679334 ], [ -70.923989600903425, -33.801056929956871 ], [ -70.924289898719763, -33.801012797488788 ], [ -70.924588740367, -33.800955096273505 ], [ -70.924882145410166, -33.800883738945615 ], [ -70.92516674426858, -33.800798557513183 ], [ -70.925444046111963, -33.800699601202595 ], [ -70.925715817926431, -33.800586916994405 ], [ -70.925985804788453, -33.800469681337489 ], [ -70.926257578399557, -33.800357143883687 ], [ -70.926534166980588, -33.800258122865145 ], [ -70.926820547198218, -33.800177489140225 ], [ -70.927111997507325, -33.800106010233421 ], [ -70.927403195389815, -33.800039113196306 ], [ -70.927695264638146, -33.799967622976652 ], [ -70.927988662494784, -33.799896258107054 ], [ -70.928284967299675, -33.799851957827279 ], [ -70.928583625690592, -33.799825791202494 ], [ -70.9288849035689, -33.799817755263469 ], [ -70.929187254933964, -33.799814281109931 ], [ -70.929490884601677, -33.799824304945759 ], [ -70.929794691237518, -33.799834325047996 ], [ -70.93009770016937, -33.799844357092837 ], [ -70.930400596811808, -33.7998453782876 ], [ -70.930702896972917, -33.79985534538676 ], [ -70.931005995736314, -33.799865373696711 ], [ -70.931308473763821, -33.79987533706111 ], [ -70.93161077392493, -33.79988530266381 ], [ -70.931912708471685, -33.799890766948863 ], [ -70.932214895445057, -33.799891720959238 ], [ -70.932516662905201, -33.799870149721841 ], [ -70.932817534744984, -33.799844086864411 ], [ -70.933118936590816, -33.799818014294665 ], [ -70.933421246633372, -33.799800865232456 ], [ -70.93372417920844, -33.799783852774127 ], [ -70.934027198920063, -33.799766839565905 ], [ -70.93432880288681, -33.799749772607171 ], [ -70.934628877920957, -33.799723717177969 ], [ -70.934926416112731, -33.799679381723877 ], [ -70.935225993480202, -33.799635235108632 ], [ -70.935524114678586, -33.799577518034795 ], [ -70.935815100558685, -33.799501519374196 ], [ -70.936094533205917, -33.79941159186825 ], [ -70.936356700233375, -33.799289654686341 ], [ -70.936602743399803, -33.799135541223592 ], [ -70.936840072009673, -33.79896767629905 ], [ -70.937075981281367, -33.798799760283579 ], [ -70.93731758497367, -33.798641060948697 ], [ -70.9375727613116, -33.798523294105173 ], [ -70.937847081646524, -33.798442233241076 ], [ -70.938137798032031, -33.798397776190228 ], [ -70.938438068898918, -33.798380720155961 ], [ -70.938746359026311, -33.798381857075718 ], [ -70.939057760019566, -33.798387525251272 ], [ -70.939366127402081, -33.798384227213695 ], [ -70.93967037960229, -33.798367180881264 ], [ -70.939970243532329, -33.798332102825427 ], [ -70.940269394200058, -33.798296815734936 ], [ -70.940568711056102, -33.798257165330256 ], [ -70.94086670020215, -33.79821746190553 ], [ -70.941164850146635, -33.798173175686884 ], [ -70.941463799591716, -33.798129023815733 ], [ -70.941762405880368, -33.798089309134049 ], [ -70.942061100203901, -33.798049517544115 ], [ -70.942359796324084, -33.798009873743354 ], [ -70.942659653965919, -33.797974642507832 ], [ -70.942959791882117, -33.797943986580826 ], [ -70.943261474900623, -33.797926896116955 ], [ -70.943563614263283, -33.797914379481298 ], [ -70.94386612013858, -33.797906287374971 ], [ -70.944169007797882, -33.797907274253639 ], [ -70.944471552300726, -33.797912698353727 ], [ -70.944774023141733, -33.797922629099247 ], [ -70.945077278211969, -33.797928114411711 ], [ -70.94537904118053, -33.797938054859983 ], [ -70.94568117245835, -33.797952493739771 ], [ -70.94598330283786, -33.797966932617136 ], [ -70.946285684745646, -33.797976861116858 ], [ -70.946587699242485, -33.797982288198554 ], [ -70.946890410831969, -33.797983272090342 ], [ -70.947193298491257, -33.797984251503124 ], [ -70.947496260710722, -33.79798072427338 ], [ -70.947798146748468, -33.797972632173312 ], [ -70.948100740658674, -33.797964602778798 ], [ -70.948403129752975, -33.797947489177439 ], [ -70.948707833805784, -33.797934918049968 ], [ -70.949012422874219, -33.797913410518802 ], [ -70.94931344383437, -33.7978827986136 ], [ -70.949604362340807, -33.797820286302681 ], [ -70.949886356084917, -33.797734942069106 ], [ -70.950162730866907, -33.797635945637602 ], [ -70.950436330752993, -33.797527759583382 ], [ -70.950707349779265, -33.797415033127251 ], [ -70.950977128232111, -33.797302252027464 ], [ -70.951247321706646, -33.797180526089093 ], [ -70.95151833713966, -33.797067723778007 ], [ -70.951791934330799, -33.796959608670782 ], [ -70.95206615315611, -33.796851556134186 ], [ -70.952340987327403, -33.796743419851516 ], [ -70.952616456607601, -33.796639852852891 ], [ -70.952892454995478, -33.796536276024213 ], [ -70.953170237437519, -33.796437251331774 ], [ -70.953449273927717, -33.796342785509985 ], [ -70.953729094647144, -33.796243948716423 ], [ -70.954008836314827, -33.796149469990439 ], [ -70.954289110683476, -33.79605505760054 ], [ -70.954570341757901, -33.795956121933941 ], [ -70.95485132399898, -33.795861769799068 ], [ -70.955132141848367, -33.795771925812275 ], [ -70.955413120496203, -33.795677498821981 ], [ -70.955694719879887, -33.795583135928659 ], [ -70.955975697629398, -33.795488707237077 ], [ -70.956257219757987, -33.795398848674715 ], [ -70.956538197507498, -33.795304493685997 ], [ -70.956819261495269, -33.795210061700956 ], [ -70.957099985919882, -33.79512014163074 ], [ -70.957379796757834, -33.795021222053776 ], [ -70.957660150178214, -33.794926800954173 ], [ -70.957940504496932, -33.794832377510829 ], [ -70.9582232609107, -33.794742496610084 ], [ -70.958506728790184, -33.79465274999086 ], [ -70.958790193974721, -33.794562929370734 ], [ -70.959074366133379, -33.794473097458336 ], [ -70.959358538292037, -33.794383338612093 ], [ -70.959643330288259, -33.794293568473705 ], [ -70.959929124804319, -33.794212868660395 ], [ -70.96021652371148, -33.794136647994257 ], [ -70.960505976167383, -33.794065122236631 ], [ -70.96079936504087, -33.794007125187676 ], [ -70.96109890647574, -33.7939629159238 ], [ -70.961402310666301, -33.793936816926845 ], [ -70.961704798575312, -33.793928681891757 ], [ -70.962005926434941, -33.793938518289053 ], [ -70.962307424400478, -33.793952927235388 ], [ -70.962609378710212, -33.793971834821193 ], [ -70.962910758098147, -33.794004267438964 ], [ -70.963212046756226, -33.794036628376809 ], [ -70.963512717373405, -33.794068998260869 ], [ -70.963812428589833, -33.794105888417072 ], [ -70.964110648602926, -33.794147159237163 ], [ -70.964407746620211, -33.794197459398674 ], [ -70.964702483864926, -33.794256661228047 ], [ -70.964993812003129, -33.794329286472411 ], [ -70.96528106807817, -33.794401754882855 ], [ -70.965565710055728, -33.794487633972018 ], [ -70.965849027018251, -33.79457353313142 ], [ -70.966132091554158, -33.794663942008114 ], [ -70.966414625185735, -33.794754211934432 ], [ -70.966696024245124, -33.794849078156837 ], [ -70.966977850902595, -33.794939356846271 ], [ -70.967260919930084, -33.795029763843559 ], [ -70.967543987160951, -33.795120095345979 ], [ -70.967828014690838, -33.795205978940182 ], [ -70.96811399246323, -33.795291978906455 ], [ -70.96839951029817, -33.795373331659626 ], [ -70.968684870029648, -33.795459339669542 ], [ -70.968969519193735, -33.795545210978993 ], [ -70.969254420784409, -33.795626644862615 ], [ -70.969539071745132, -33.795712514511209 ], [ -70.969823723604136, -33.79579845797943 ], [ -70.970108372768223, -33.795884252056915 ], [ -70.970392157753011, -33.795974713298847 ], [ -70.97067548100371, -33.796060527355742 ], [ -70.970957227711125, -33.796150873447338 ], [ -70.971236614544253, -33.796250118694147 ], [ -70.971513875065128, -33.79634925110166 ], [ -70.971792466889241, -33.796448508809249 ], [ -70.972073344925761, -33.796543297009357 ], [ -70.972354222063956, -33.796638011199498 ], [ -70.972635101897112, -33.796732797696713 ], [ -70.972916851299445, -33.796823064694841 ], [ -70.973198693228269, -33.796913402516516 ], [ -70.973480815431458, -33.797008314869352 ], [ -70.973762654665322, -33.79709857859087 ], [ -70.974044407660912, -33.797188842217224 ], [ -70.974326618797321, -33.797283677374111 ], [ -70.974609244057064, -33.797369494597845 ], [ -70.974891705823424, -33.797459818405635 ], [ -70.97517487725888, -33.797550130174038 ], [ -70.97545858229357, -33.797640581443886 ], [ -70.975741295588207, -33.797726319180136 ], [ -70.9760243816837, -33.79781670531785 ], [ -70.976307554915778, -33.797907015216666 ], [ -70.976590642807892, -33.797997398924053 ], [ -70.976872239496643, -33.79809223915715 ], [ -70.977152168013887, -33.798191388093805 ], [ -70.977430609819351, -33.798295141333405 ], [ -70.977709302254794, -33.79839438409406 ], [ -70.977990811806961, -33.798489147744334 ], [ -70.978275981095578, -33.798566051313657 ], [ -70.978568246176636, -33.798620604664258 ], [ -70.978867931341938, -33.79864386628779 ], [ -70.979039027165896, -33.798735081561325 ], [ -70.979471331514915, -33.798807773176812 ], [ -70.980298885605777, -33.799069056239219 ], [ -70.980714291745997, -33.799491117776377 ], [ -70.981079287127386, -33.79865098414475 ], [ -70.981898493174342, -33.796182360892608 ], [ -70.982108877715561, -33.794454963392901 ], [ -70.981947700190645, -33.792890212223746 ], [ -70.981786443613998, -33.791325534733154 ], [ -70.981461688265753, -33.790808354793796 ], [ -70.981258376160753, -33.790132399881571 ], [ -70.981248750712496, -33.789714679825877 ], [ -70.981548315503545, -33.789135170839728 ], [ -70.981848992408914, -33.78860794132256 ], [ -70.981962003166615, -33.788083653109844 ], [ -70.981948850932525, -33.787509167374786 ], [ -70.981749068308289, -33.786989979175019 ], [ -70.981545854119673, -33.786314095656493 ], [ -70.980997285314999, -33.784233164665082 ], [ -70.980984141165777, -33.783658678482993 ], [ -70.981097154618396, -33.783134464496108 ], [ -70.981271570615647, -33.78255696572527 ], [ -70.981384669408243, -33.782032750221305 ], [ -70.981367737063451, -33.781301574815707 ], [ -70.981142890544447, -33.779685616799284 ], [ -70.981313604584429, -33.778951501131793 ], [ -70.981488013395136, -33.77837407495732 ], [ -70.981971483087804, -33.777634934832697 ], [ -70.982580062048385, -33.776893708058715 ], [ -70.982754367552857, -33.776316135101311 ], [ -70.983215405414541, -33.774685460272991 ], [ -70.986308000408897, -33.776231192060891 ], [ -70.987696339493979, -33.776783232582119 ], [ -70.988840749148494, -33.776700890723411 ], [ -70.992027220784976, -33.775692215198035 ], [ -70.993173178236731, -33.775673779222615 ], [ -70.993942973349775, -33.775916553595941 ], [ -70.994333833024839, -33.776293170568707 ], [ -70.994729132174058, -33.776861106181997 ], [ -70.994895243246503, -33.777432821471862 ], [ -70.995287506988362, -33.777873233281085 ], [ -70.995910539841859, -33.778373732980342 ], [ -70.996446815201864, -33.778428877123247 ], [ -70.997134409076509, -33.7784177471978 ], [ -70.997739587913756, -33.778152658020588 ], [ -70.998410875569391, -33.777439739487903 ], [ -71.000260296533611, -33.776452505694074 ], [ -71.002669279884941, -33.77488176104363 ], [ -71.005976969287545, -33.772530494934472 ], [ -71.006733466639432, -33.772199154992329 ], [ -71.007495909041893, -33.772122854246511 ], [ -71.008110032404417, -33.772240503576171 ], [ -71.008951760113845, -33.772290622456644 ], [ -71.014911651730941, -33.772257246711511 ], [ -71.015826871512076, -33.77217847359902 ], [ -71.017872930997058, -33.771442981582773 ], [ -71.019306327780157, -33.770653737267665 ], [ -71.020730706376128, -33.769481618510532 ], [ -71.021779184941451, -33.768571006958581 ], [ -71.024013759482074, -33.766109205375841 ], [ -71.024531961636868, -33.765398736157351 ], [ -71.025131043608255, -33.764878328845526 ], [ -71.025809419869802, -33.764484333050824 ], [ -71.026950605470759, -33.764274051561465 ], [ -71.028395823184695, -33.76399501171376 ], [ -71.030140728758866, -33.763455811503221 ], [ -71.034125009470543, -33.762305217564816 ], [ -71.035329039412147, -33.761519573158132 ], [ -71.036071737742958, -33.760613887479558 ], [ -71.03711683594787, -33.759575488104595 ], [ -71.037937302331173, -33.758732328748302 ], [ -71.038527190943952, -33.757829079730151 ], [ -71.039033133790056, -33.756608104218188 ], [ -71.03992993092136, -33.755763672133646 ], [ -71.041294041544916, -33.755294361349385 ], [ -71.042283912224477, -33.755150338191761 ], [ -71.044420849775165, -33.755051129716136 ], [ -71.047161203668509, -33.754622767305626 ], [ -71.048228949300054, -33.754541300410445 ], [ -71.049059970887924, -33.754144573539186 ], [ -71.049657215804572, -33.753560259666429 ], [ -71.050185676719906, -33.753296266955424 ], [ -71.051024273800564, -33.753218436172759 ], [ -71.051714682995325, -33.753334601984541 ], [ -71.052712025861439, -33.753509480783329 ], [ -71.054091333284646, -33.753677992736833 ], [ -71.054928319685999, -33.753536415172817 ], [ -71.055837197361242, -33.753202167329903 ], [ -71.056677314391351, -33.753188242237655 ], [ -71.057520386878764, -33.753301757366771 ], [ -71.058905711217747, -33.753725401555187 ], [ -71.061048685447147, -33.753881018063048 ], [ -71.062493689362043, -33.753601662056781 ], [ -71.063254284828261, -33.753461304040911 ], [ -71.064095927197741, -33.753511050001933 ], [ -71.065018447587192, -33.753750901849592 ], [ -71.065796051755015, -33.754312205908512 ], [ -71.066303118393549, -33.754750539231864 ], [ -71.067383090994426, -33.755179200501516 ], [ -71.068612669921038, -33.755477627282218 ], [ -71.069984272494054, -33.755326982634941 ], [ -71.07066858212805, -33.75518785829631 ], [ -71.071585082906765, -33.755172474876154 ], [ -71.072351817459648, -33.755287242876392 ], [ -71.073124695590764, -33.755657114394999 ], [ -71.073899209553986, -33.756090922286049 ], [ -71.074823405301458, -33.756394418608146 ], [ -71.076129402112642, -33.75669155804713 ], [ -71.077504173043678, -33.756668418716913 ], [ -71.078339601766345, -33.756462886042073 ], [ -71.079399618293166, -33.756062099867293 ], [ -71.080839872815162, -33.755591146102041 ], [ -71.081974698343913, -33.755125255817937 ], [ -71.083178168635101, -33.754339089257684 ], [ -71.08445172458643, -33.753296517911494 ], [ -71.086244394482591, -33.75160694606469 ], [ -71.089846553431954, -33.748929401649328 ], [ -71.090826956766733, -33.748402299654309 ], [ -71.091959992851457, -33.747872529336071 ], [ -71.094162154379973, -33.747324610208132 ], [ -71.096292490211624, -33.746969409409942 ], [ -71.099789796902726, -33.746271741213178 ], [ -71.102824001403619, -33.745390405265312 ], [ -71.104262376650013, -33.744855320347654 ], [ -71.107912072647594, -33.744154901032672 ], [ -71.110584707043245, -33.744109222888568 ], [ -71.111645974923263, -33.743771964586678 ], [ -71.112546597081021, -33.743118416268018 ], [ -71.114195163730869, -33.741813769021618 ], [ -71.115395009319897, -33.740899718670256 ], [ -71.116760090123961, -33.740493462643158 ], [ -71.117593598248533, -33.74022388093762 ], [ -71.11850843355073, -33.74014435976401 ], [ -71.119265662131269, -33.739876076758826 ], [ -71.119413672150756, -33.739682072804527 ], [ -71.119558454523414, -33.739360556115102 ], [ -71.119625484114962, -33.738976480726144 ], [ -71.119922980085931, -33.738652267635615 ], [ -71.120217509819796, -33.73820046310265 ], [ -71.120278080524471, -33.737561289270367 ], [ -71.120319984237526, -33.736156511399457 ], [ -71.120301146566007, -33.735391060677152 ], [ -71.120357003810383, -33.734560429957028 ], [ -71.120564087941247, -33.7336634556615 ], [ -71.120545336508016, -33.732897928161066 ], [ -71.120443778371893, -33.731878614230183 ], [ -71.120351816937941, -33.731241985685941 ], [ -71.119795386077911, -33.7303580515742 ], [ -71.119318455222199, -33.72960046464236 ], [ -71.117083873495076, -33.728018912886277 ], [ -71.116440303357535, -33.727554984921333 ], [ -71.113592201037463, -33.725352174647803 ], [ -71.112872460052031, -33.724978023569086 ], [ -71.111844880791793, -33.724418559022055 ], [ -71.110813484589912, -33.72394446755748 ], [ -71.109673810853565, -33.723557090981046 ], [ -71.108152404325438, -33.722279106916147 ], [ -71.107597138580331, -33.720860369681979 ], [ -71.106600810810505, -33.719702519158488 ], [ -71.103826569769708, -33.718114630331549 ], [ -71.102870982394649, -33.717710458718393 ], [ -71.101242723060125, -33.717280501343325 ], [ -71.099688808298481, -33.716857456500612 ], [ -71.09828799969894, -33.716376093975761 ], [ -71.097191622064358, -33.715778226800531 ], [ -71.096779722048694, -33.714949709205115 ], [ -71.095667480166185, -33.710951983675116 ], [ -71.096256590837939, -33.710705164984105 ], [ -71.097165748787546, -33.709996998686584 ], [ -71.097739809085013, -33.709538946284553 ], [ -71.098366509759828, -33.709243022237111 ], [ -71.099385158867847, -33.709021980497646 ], [ -71.100301215878829, -33.708598876284306 ], [ -71.100873178610101, -33.708059368907954 ], [ -71.101247264043877, -33.707400978152435 ], [ -71.101828171300454, -33.706830142516509 ], [ -71.102363786398712, -33.706301442725398 ], [ -71.102692895881134, -33.705426642482905 ], [ -71.102016922613004, -33.705573919201136 ], [ -71.101400715159031, -33.705798326716341 ], [ -71.100747363266365, -33.705992783162017 ], [ -71.10020653344786, -33.706307646081406 ], [ -71.09966560840796, -33.706622433863885 ], [ -71.099088193801222, -33.706937840001679 ], [ -71.098472057314154, -33.707162231996698 ], [ -71.097893148809078, -33.707416569666201 ], [ -71.097278404710693, -33.707702096234918 ], [ -71.09677709717144, -33.708138523003647 ], [ -71.09638542272441, -33.708573013587554 ], [ -71.095884103507075, -33.709009362697394 ], [ -71.09538203958634, -33.709415217031555 ], [ -71.094917199156043, -33.70985094461615 ], [ -71.094525419606143, -33.710285430273039 ], [ -71.094023341312379, -33.710691279323967 ], [ -71.093521257628723, -33.71109712645692 ], [ -71.092983332063554, -33.711534085206857 ], [ -71.092517728963585, -33.71193930963107 ], [ -71.091979793516941, -33.71237626559013 ], [ -71.091517143179303, -33.712903612833699 ], [ -71.090959057622527, -33.713264600076265 ], [ -71.090418884472498, -33.713609917701888 ], [ -71.089990574931576, -33.714045009028503 ], [ -71.089598839399102, -33.714479479443114 ], [ -71.089133204858101, -33.714884691462345 ], [ -71.088853418274653, -33.715408935775166 ], [ -71.088388515860601, -33.715844714394173 ], [ -71.087811084185873, -33.716160069475578 ], [ -71.087270142077955, -33.716474879427075 ], [ -71.086729844960431, -33.716820183394866 ], [ -71.086151576055855, -33.717105038340435 ], [ -71.085574866626615, -33.717450952482118 ], [ -71.084915300188811, -33.717400930064173 ], [ -71.084260254971838, -33.717534241170426 ], [ -71.083603730229598, -33.717606411384587 ], [ -71.082945730453645, -33.717617588807059 ], [ -71.082329295725899, -33.717841907317066 ], [ -71.081939067566481, -33.718337417282292 ], [ -71.08151142996536, -33.718803050102551 ], [ -71.081045732542293, -33.719208234244761 ], [ -71.080543537467548, -33.719614031409058 ], [ -71.079892151088728, -33.719900016540386 ], [ -71.079274308700917, -33.720063255903213 ], [ -71.078658671677161, -33.720318123967026 ], [ -71.078080350670291, -33.720602943396898 ], [ -71.077405872198767, -33.720690673983803 ], [ -71.076709790142999, -33.720641222802797 ], [ -71.076015182222591, -33.720652978892673 ], [ -71.075320570708911, -33.720664584051129 ], [ -71.074660336822859, -33.720584010655834 ], [ -71.073964994080569, -33.720565186998634 ], [ -71.073305494118102, -33.720515101390731 ], [ -71.072644441866814, -33.720404025002296 ], [ -71.071984944599293, -33.720353932575691 ], [ -71.071293271474929, -33.720487790514504 ], [ -71.070714919925337, -33.720772501788083 ], [ -71.070139502273477, -33.72117948554024 ], [ -71.069560411410407, -33.72143369726291 ], [ -71.068945554124284, -33.72171901284694 ], [ -71.068216548813339, -33.721822896796951 ], [ -71.067590609011589, -33.721650116447613 ], [ -71.066999872389161, -33.721415432675776 ], [ -71.066408320096485, -33.721150325622091 ], [ -71.065782384786289, -33.720977387012347 ], [ -71.065157273231208, -33.72083508749796 ], [ -71.064496222776555, -33.720723818004743 ], [ -71.063782309162377, -33.720689956693818 ], [ -71.063125735911115, -33.72076201965038 ], [ -71.062469076421564, -33.720834153528202 ], [ -71.061809579154058, -33.720784007555913 ], [ -71.061253898387292, -33.720487694875608 ], [ -71.060662278720955, -33.7202224878233 ], [ -71.060105875708686, -33.719895600683174 ], [ -71.059408432705254, -33.719784985253426 ], [ -71.058750317944956, -33.719796035370869 ], [ -71.058090829660586, -33.719745867871033 ], [ -71.057358180782856, -33.71969699073157 ], [ -71.056697965761416, -33.719616321535447 ], [ -71.05610718152829, -33.719381584383449 ], [ -71.055480639855304, -33.719178169556841 ], [ -71.05481961185852, -33.719066848601386 ], [ -71.054160130760678, -33.719016660501254 ], [ -71.053502106730221, -33.719027680829925 ], [ -71.052844719605304, -33.719069120809777 ], [ -71.052151567853983, -33.71914180678953 ], [ -71.051452596816233, -33.718970008831725 ], [ -71.050931361949054, -33.718581406074748 ], [ -71.05028400271766, -33.71827127607731 ], [ -71.049657390077741, -33.718067758495096 ], [ -71.049029329353587, -33.717803098390995 ], [ -71.048437940554265, -33.717537827004925 ], [ -71.04788159772913, -33.717210882568381 ], [ -71.047503633369985, -33.716697637008345 ], [ -71.046945847850495, -33.716309548510829 ], [ -71.046353661347212, -33.716013698606062 ], [ -71.045656178817907, -33.715903079669125 ], [ -71.044995998830785, -33.715822271661388 ], [ -71.044299967080647, -33.715772708582001 ], [ -71.043640425795672, -33.715722464756283 ], [ -71.042944482080443, -33.715672893399848 ], [ -71.042285665735903, -33.715653211603424 ], [ -71.041592529255951, -33.715725838455896 ], [ -71.040899389182727, -33.715798386041648 ], [ -71.040206973151598, -33.715901574770569 ], [ -71.039513107239628, -33.715943546037224 ], [ -71.038895204664698, -33.716106584449427 ], [ -71.038278831920721, -33.716330684984413 ], [ -71.037625874388482, -33.716555385693738 ], [ -71.037084643921361, -33.716869909508645 ], [ -71.036507729676231, -33.717215675903383 ], [ -71.035968744099023, -33.717621829188616 ], [ -71.035431198521209, -33.718089193415729 ], [ -71.034965996069857, -33.718524633400648 ], [ -71.034500792720195, -33.718960219868286 ], [ -71.033959714068374, -33.719274728895677 ], [ -71.033343216458562, -33.719498806964523 ], [ -71.03268797091728, -33.719631848067763 ], [ -71.032030653860943, -33.719673250396667 ], [ -71.031372615457443, -33.719684079361492 ], [ -71.031071822669389, -33.719579998554607 ], [ -71.030782526520355, -33.719479864266539 ], [ -71.029971055866341, -33.719187616282369 ], [ -71.029346004498365, -33.719045057514556 ], [ -71.028683568841558, -33.718872603327824 ], [ -71.028199012187414, -33.718483225287414 ], [ -71.027967393269506, -33.717967439378988 ], [ -71.027555291132913, -33.717546361574342 ], [ -71.027142385902437, -33.717094714163125 ], [ -71.026765977425356, -33.71664246511174 ], [ -71.026173136948557, -33.716316020141385 ], [ -71.025513685495099, -33.716265678001136 ], [ -71.024816218237163, -33.71615486511255 ], [ -71.024158115154961, -33.716165656413118 ], [ -71.023500100107654, -33.716176442481853 ], [ -71.02284208416205, -33.716187224813133 ], [ -71.022183980181524, -33.716198005648636 ], [ -71.021526768228085, -33.716239349856309 ], [ -71.020833514967137, -33.716311861889032 ], [ -71.020140347046137, -33.716384294655789 ], [ -71.01948518864144, -33.716517191142742 ], [ -71.018792018923804, -33.716589690238216 ], [ -71.018136055628602, -33.716692085971573 ], [ -71.017479463512714, -33.716763978931056 ], [ -71.016825012980462, -33.716927431981233 ], [ -71.016170474413329, -33.717091030425863 ], [ -71.015515394162037, -33.717223978870564 ], [ -71.014824266315046, -33.717388020590391 ], [ -71.014206299061442, -33.717550937454135 ], [ -71.013515255656074, -33.717715044303105 ], [ -71.01278842696307, -33.717910237405349 ], [ -71.012133958464503, -33.718073666604447 ], [ -71.01144290697431, -33.718237834471687 ], [ -71.010824926245974, -33.718400662300795 ], [ -71.010207745018235, -33.71859412857026 ], [ -71.009552466239271, -33.71872704928284 ], [ -71.008935902154136, -33.71895100698886 ], [ -71.00835458077421, -33.719113225252038 ], [ -71.007700718638475, -33.719307276459205 ], [ -71.007044804750606, -33.719409538940631 ], [ -71.006355152835624, -33.71963474640328 ], [ -71.005717794548289, -33.719752064278374 ], [ -71.005061254534681, -33.719823891911936 ], [ -71.004443160618621, -33.719986689087079 ], [ -71.003790168052078, -33.720211287577293 ], [ -71.003172156780991, -33.720374077293172 ], [ -71.00255494321388, -33.720567506239618 ], [ -71.001901762001125, -33.72079202400954 ], [ -71.001435663031117, -33.721196848340227 ], [ -71.000858568224629, -33.721542453104497 ], [ -71.000279960655163, -33.721826844081235 ], [ -70.999664058628397, -33.722081327349201 ], [ -70.999086239779757, -33.722396281458067 ], [ -70.998657323876003, -33.722831148193428 ], [ -70.998116081730799, -33.723145504815179 ], [ -70.997461455128743, -33.723308933760798 ], [ -70.996770326383427, -33.723472874194925 ], [ -70.996042611951552, -33.723637477786433 ], [ -70.995345116845826, -33.723526573547531 ], [ -70.994685618679995, -33.723476067526143 ], [ -70.994022589236792, -33.723272853673343 ], [ -70.993361593579351, -33.723161275776143 ], [ -70.992682746600622, -33.723065197494783 ], [ -70.992064782940275, -33.723228080422999 ], [ -70.991448223346708, -33.723451877703091 ], [ -70.990868777649069, -33.72370573004094 ], [ -70.990328117612194, -33.724050700088426 ], [ -70.989669323725536, -33.72403073779072 ], [ -70.989078764969534, -33.723795747471627 ], [ -70.988594264010942, -33.723406284171666 ], [ -70.988145644459749, -33.722985586449639 ], [ -70.987841873756523, -33.722501537870961 ], [ -70.987464319029129, -33.721988021338376 ], [ -70.987085976479236, -33.721443934246636 ], [ -70.986600792801013, -33.721023891892024 ], [ -70.986081142561972, -33.720696073832272 ], [ -70.985456142397993, -33.720553291174397 ], [ -70.984792450896421, -33.720319456189479 ], [ -70.984095695104173, -33.720238983339712 ], [ -70.983467892196515, -33.719974055712775 ], [ -70.982948347060358, -33.719646222436175 ], [ -70.982608030196431, -33.719162599605482 ], [ -70.982376678976479, -33.718646791626831 ], [ -70.981963294045684, -33.718164413977135 ], [ -70.981336211586864, -33.717929971735629 ], [ -70.980675972310905, -33.717848893654143 ], [ -70.980048897038643, -33.717614444573421 ], [ -70.97942243801063, -33.717410563039451 ], [ -70.97881400996701, -33.717191100251519 ], [ -70.978148783244606, -33.716896162739118 ], [ -70.977522419438031, -33.716692195811724 ], [ -70.976930541955198, -33.716396076733872 ], [ -70.976446134421394, -33.716006489448738 ], [ -70.975855576563717, -33.71577143307767 ], [ -70.975158165001318, -33.715660411823798 ], [ -70.97449864437759, -33.715609796563385 ], [ -70.973804120000523, -33.715620901018163 ], [ -70.973108718867721, -33.715601433662371 ], [ -70.972450687650749, -33.71561194781345 ], [ -70.971792045579377, -33.715591885667372 ], [ -70.971131132566967, -33.715480259678372 ], [ -70.97043512147809, -33.715430204728904 ], [ -70.969775607142566, -33.715379637902338 ], [ -70.969043714646304, -33.715360729414961 ], [ -70.968385073473257, -33.715340649276811 ], [ -70.967688977044432, -33.715290580795944 ], [ -70.966995151556631, -33.715332292327354 ], [ -70.966337028711493, -33.715342701152892 ], [ -70.965643111595554, -33.715384331958873 ], [ -70.964931251530118, -33.715441535615412 ], [ -70.964237332617543, -33.715483158901293 ], [ -70.963619357279086, -33.715645751349605 ], [ -70.963001987405136, -33.715838912236613 ], [ -70.962423979910284, -33.716153698707501 ], [ -70.961768025598261, -33.71625586930174 ], [ -70.961070534085792, -33.716144694747626 ], [ -70.960410498727413, -33.716063505139225 ], [ -70.959784785301082, -33.715890019031924 ], [ -70.959194270562548, -33.715654956364226 ], [ -70.958602368825225, -33.715358674550465 ], [ -70.957938002688863, -33.715094194396222 ], [ -70.957418577926958, -33.714766175106305 ], [ -70.956862577359956, -33.714438806896375 ], [ -70.956236971731471, -33.714265375790482 ], [ -70.955577470870693, -33.714214732060086 ], [ -70.954921520151899, -33.714316792129466 ], [ -70.954304832099254, -33.714540481128438 ], [ -70.953687535887155, -33.71473366841326 ], [ -70.953070236980111, -33.714926779793487 ], [ -70.952414881844362, -33.71505939832668 ], [ -70.951722338252495, -33.715162020052631 ], [ -70.951086393913386, -33.71534012472582 ], [ -70.950393847626572, -33.71544281336628 ], [ -70.94970060604372, -33.715514852332916 ], [ -70.94904394655417, -33.715586309153572 ], [ -70.948352086580215, -33.715719558069267 ], [ -70.947696026266996, -33.715821581230621 ], [ -70.946966285235817, -33.715894180293574 ], [ -70.946310911235443, -33.716026768191078 ], [ -70.945656310684541, -33.716189848289389 ], [ -70.94500231380151, -33.716383645326339 ], [ -70.944425697797044, -33.716759417953533 ], [ -70.94381102915716, -33.717074770422478 ], [ -70.943158392323454, -33.717329478489781 ], [ -70.942541050297265, -33.717522611678255 ], [ -70.941849161577224, -33.717655750738793 ], [ -70.941195916584093, -33.717879949596814 ], [ -70.940691665265675, -33.718224059120651 ], [ -70.94015082646402, -33.718568815831006 ], [ -70.939647764515016, -33.71897399285961 ], [ -70.938994504250516, -33.719198180803183 ], [ -70.938339866868674, -33.719361297467238 ], [ -70.937722496096399, -33.719554333433784 ], [ -70.937029806079138, -33.719656876562908 ], [ -70.936336518682197, -33.719728915729561 ], [ -70.935711683808236, -33.719585875925247 ], [ -70.935085302933672, -33.719381767444624 ], [ -70.934389183148639, -33.719331511534378 ], [ -70.93369521123546, -33.719373038788646 ], [ -70.933039097023297, -33.719411678887667 ], [ -70.930786242664979, -33.718148293156098 ], [ -70.930063284812505, -33.717933184700293 ], [ -70.929558685846075, -33.717857007518084 ], [ -70.928954377476344, -33.71782434358839 ], [ -70.92875932987198, -33.717751305307985 ], [ -70.92858577985065, -33.717754090132203 ], [ -70.928070059741003, -33.717666703993892 ], [ -70.927611160767995, -33.71757842859369 ], [ -70.927093222717886, -33.717395633122813 ], [ -70.926805667503857, -33.717304680202929 ], [ -70.926404032536965, -33.717215507781731 ], [ -70.925889208047636, -33.717175892335469 ], [ -70.925375446265278, -33.717183830669228 ], [ -70.924747605628383, -33.717193619835257 ], [ -70.924440433903499, -33.717134585192014 ], [ -70.924288800080163, -33.717105331246088 ], [ -70.923958013443098, -33.717041713163326 ], [ -70.923829996328578, -33.717017114298166 ], [ -70.923425171444123, -33.716784746917718 ], [ -70.923022390226905, -33.716647859984342 ], [ -70.922449422280806, -33.716561415702877 ], [ -70.922051959090098, -33.716663044830348 ], [ -70.92188610942739, -33.716904152656205 ], [ -70.921776196060804, -33.717096818301869 ], [ -70.921548920497287, -33.717148076778827 ], [ -70.921149326502714, -33.717154221069144 ], [ -70.920634592743241, -33.717114581683937 ], [ -70.920345982907065, -33.716975910193241 ], [ -70.920057373070904, -33.716837239225725 ], [ -70.919835952726402, -33.716718721828805 ], [ -70.919795605793738, -33.716697187934024 ], [ -70.919347609673338, -33.716657318943682 ], [ -70.919283280417531, -33.71665839268757 ], [ -70.918968610454968, -33.716663283938196 ], [ -70.918570169897222, -33.716717196769856 ], [ -70.918478684570374, -33.716757177814088 ], [ -70.918230846569998, -33.716865629487813 ], [ -70.917318555296688, -33.716927519404756 ], [ -70.916916928414636, -33.716838240487903 ], [ -70.91667600744195, -33.716673408661777 ], [ -70.916446527412731, -33.716613663808943 ], [ -70.916344427592506, -33.716597594254374 ], [ -70.915940220748922, -33.716567152804103 ], [ -70.915442711286701, -33.716387462098162 ], [ -70.915076566960039, -33.715917489781148 ], [ -70.914937014578967, -33.715588198129474 ], [ -70.915063572829467, -33.715328427686302 ], [ -70.91532378332623, -33.715140232458047 ], [ -70.915627268365199, -33.714914577571996 ], [ -70.915708823714894, -33.71461864290697 ], [ -70.915612547672637, -33.714251892717485 ], [ -70.915342436843105, -33.713998200727069 ], [ -70.915027509064075, -33.71370849038405 ], [ -70.914531482720378, -33.713200566669983 ], [ -70.913269350644498, -33.711931015867094 ], [ -70.911853066767563, -33.710663837540572 ], [ -70.900733871995996, -33.69805525526354 ], [ -70.899484861611498, -33.696535074835786 ], [ -70.885518823957867, -33.701492710135739 ], [ -70.873230806915643, -33.705841686185089 ], [ -70.858642016682893, -33.710850097454987 ], [ -70.855561315382914, -33.712075048819401 ], [ -70.852762257484073, -33.713074674939691 ], [ -70.851058303408749, -33.713763227032096 ], [ -70.850448526993887, -33.714103828350865 ], [ -70.849534384292795, -33.714633220614076 ], [ -70.849097819234373, -33.714823847686731 ], [ -70.847435199340211, -33.711276157195606 ], [ -70.846838681160648, -33.710180108068698 ], [ -70.846114109035625, -33.709270207411429 ], [ -70.845486313314481, -33.708763966476887 ], [ -70.844997801378128, -33.708587103598248 ], [ -70.844468256196237, -33.708558078397886 ], [ -70.843851496278361, -33.708567363384276 ], [ -70.842975074734355, -33.708801397019514 ], [ -70.842145101480426, -33.709145243268736 ], [ -70.841318354974987, -33.709636410202648 ], [ -70.840883191288412, -33.709900709887719 ], [ -70.840410482514542, -33.710460242892324 ], [ -70.839938375611922, -33.711056553188293 ], [ -70.839505644563161, -33.711431324638681 ], [ -70.83889435808031, -33.711698315644163 ], [ -70.837567850036237, -33.712528287372692 ], [ -70.836828272452692, -33.712981266481727 ], [ -70.836172084578692, -33.713211975563944 ], [ -70.835603996281222, -33.713441520573376 ], [ -70.834950934544395, -33.713819477547183 ], [ -70.834604010571567, -33.714082519465137 ], [ -70.833822743074009, -33.714646537742198 ], [ -70.833309690960732, -33.715390731925737 ], [ -70.833101130897845, -33.71594638920309 ], [ -70.832800545620643, -33.716319101656545 ], [ -70.832368450579082, -33.716730627898144 ], [ -70.83193262034257, -33.716958193109434 ], [ -70.8315840192151, -33.717147452860232 ], [ -70.831150526394964, -33.717485344838913 ], [ -70.830896195371736, -33.717967880227427 ], [ -70.830774244580326, -33.718448598710602 ], [ -70.83047589880313, -33.718931786214426 ], [ -70.829822950254027, -33.719309789256123 ], [ -70.829429367785323, -33.719462921038811 ], [ -70.827565409384846, -33.719895638789552 ], [ -70.827171998494393, -33.720048835279307 ], [ -70.826647068856417, -33.720240765366363 ], [ -70.82607899493199, -33.720470192209739 ], [ -70.825596598726108, -33.720587765225169 ], [ -70.825115850030471, -33.72077903435067 ], [ -70.82459099944424, -33.720970954586242 ], [ -70.82438778615392, -33.721047312062979 ], [ -70.824284908392656, -33.721085989514251 ], [ -70.823808736613358, -33.721498137713979 ], [ -70.823552194836211, -33.721870251494401 ], [ -70.823345111603643, -33.722499448060766 ], [ -70.823182126668385, -33.723127992978164 ], [ -70.823060036638111, -33.723608634001245 ], [ -70.822851388540343, -33.724164127512118 ], [ -70.822206840137468, -33.724947155484983 ], [ -70.821951747342865, -33.725392895071025 ], [ -70.821653330598735, -33.725876136131703 ], [ -70.821488770018476, -33.726430977668102 ], [ -70.821324209438203, -33.726985893318371 ], [ -70.821235090273817, -33.727981596811517 ], [ -70.821109322540778, -33.730050460171668 ], [ -70.821071545688127, -33.73067272204802 ], [ -70.821084379918602, -33.730815696310088 ], [ -70.821244232428469, -33.732585448796094 ], [ -70.821263685445942, -33.733505899691679 ], [ -70.821124922684007, -33.734244595627871 ], [ -70.821135907283292, -33.734760132820277 ], [ -70.820972795685591, -33.735388602138563 ], [ -70.820757888126906, -33.7356496587999 ], [ -70.820587859501515, -33.735946767777008 ], [ -70.820512182727029, -33.736537231761304 ], [ -70.820521516222826, -33.736978995188842 ], [ -70.820710219924663, -33.737565560041865 ], [ -70.820964824934066, -33.738488082788834 ], [ -70.821044477651995, -33.738776041404648 ], [ -70.821544797942749, -33.739505307985233 ], [ -70.821682484522981, -33.739761087933189 ], [ -70.82230639862378, -33.740083341165544 ], [ -70.822794359892853, -33.740223436468462 ], [ -70.823229669106482, -33.740361573640406 ], [ -70.823238212983156, -33.740364180690619 ], [ -70.823242050586046, -33.7403658973099 ], [ -70.823727649285928, -33.740578048926864 ], [ -70.824575932001977, -33.741081062711466 ], [ -70.824981924696317, -33.741517108392088 ], [ -70.825075605505731, -33.741773535213589 ], [ -70.825739272752813, -33.745004836801016 ], [ -70.82593661645106, -33.745996376802637 ], [ -70.825950667898724, -33.746659166130634 ], [ -70.826013513137667, -33.747542108413036 ], [ -70.826029231858527, -33.747787204051832 ], [ -70.826079396478931, -33.748572455190292 ], [ -70.825895157404062, -33.749238104018339 ], [ -70.825555782872868, -33.749869260010605 ], [ -70.825349350020574, -33.750535310323528 ], [ -70.824754124516687, -33.751575358578435 ], [ -70.824016777450012, -33.752148125412106 ], [ -70.823062432444999, -33.752889492297591 ], [ -70.821078234543748, -33.754249953079714 ], [ -70.821296282612664, -33.754595187951558 ], [ -70.821563305932543, -33.755110859011523 ], [ -70.821975356865167, -33.755563149557211 ], [ -70.82245997370643, -33.755983930275967 ], [ -70.822763522525776, -33.756499058974164 ], [ -70.822957533474323, -33.757015806011729 ], [ -70.823297690438125, -33.757530319074817 ], [ -70.823528218801272, -33.758046450465031 ], [ -70.823831225038177, -33.758531075977295 ], [ -70.824098923891171, -33.759077239364068 ], [ -70.824365888820566, -33.759592830438322 ], [ -70.824742111346382, -33.760076297083607 ], [ -70.825117600846951, -33.760529189515935 ], [ -70.825602259909033, -33.760949883872357 ], [ -70.825905196975668, -33.761434430236619 ], [ -70.826280876919057, -33.761887316986588 ], [ -70.826871297334506, -33.762123164868513 ], [ -70.827284797249661, -33.762636579335165 ], [ -70.827660311903045, -33.763089464213898 ], [ -70.828071788812196, -33.76351130504392 ], [ -70.828302275852849, -33.764027428052387 ], [ -70.828605327005519, -33.764511890553443 ], [ -70.828686196940666, -33.764806662898494 ] ] ] } },
{ "type": "Feature", "properties": { "capa": "ds19", "popup": "<strong>PINTORA ROSER BRU LLOP</strong><br><br><strong>Programa:</strong> DS19<br><strong>Comuna:</strong> Isla de Maipo<br><strong>Región:</strong> Metropolitana de Santiago<br><strong>Año de inicio:</strong> 2023", "etiqueta": "PINTORA ROSER BRU LLOP" }, "geometry": { "type": "Polygon", "coordinates": [ [ [ -70.904357285084998, -33.746330525752235 ], [ -70.903969803973709, -33.745597912554786 ], [ -70.901050072687809, -33.746875189304909 ], [ -70.901170949992448, -33.747159225932052 ], [ -70.901297228866866, -33.74737113815673 ], [ -70.901409146374874, -33.747697925119255 ], [ -70.902294427104209, -33.747594419075092 ], [ -70.902783894848014, -33.747492376168779 ], [ -70.903036442715418, -33.747429581335624 ], [ -70.903564553287808, -33.747050019281112 ], [ -70.903837235095665, -33.746825245287155 ], [ -70.904059469313793, -33.746594799101395 ], [ -70.904003469237296, -33.746486848852676 ], [ -70.904357285084998, -33.746330525752235 ] ] ] } },
{ "type": "Feature", "properties": { "capa": "colegios", "popup": "<strong>ESCUELA ESPECIAL JESUS DE PRAGA</strong><br><br><strong>Dirección:</strong> LO HERRERA 395", "etiqueta": "" }, "geometry": { "type": "Point", "coordinates": [ -70.89983, -33.781208 ] } },
{ "type": "Feature", "properties": { "capa": "colegios", "popup": "<strong>ESCUELA BASICA FUTURO LAS MERCEDES</strong><br><br><strong>Dirección:</strong> LAS MERCEDES 0", "etiqueta": "" }, "geometry": { "type": "Point", "coordinates": [ -70.89529337, -33.77876091 ] } },
{ "type": "Feature", "properties": { "capa": "colegios", "popup": "<strong>ESCUELA ESPECIAL CAPULLITO DE SOL DE ISLA DE</strong><br><br><strong>Dirección:</strong> 21 DE MAYO 110", "etiqueta": "" }, "geometry": { "type": "Point", "coordinates": [ -70.90072, -33.77218 ] } },
{ "type": "Feature", "properties": { "capa": "colegios", "popup": "<strong>ESCUELA ESP. MI ISLITA</strong><br><br><strong>Dirección:</strong> CALLE DOCTOR LAGOS 4470", "etiqueta": "" }, "geometry": { "type": "Point", "coordinates": [ -70.92267, -33.755226 ] } },
{ "type": "Feature", "properties": { "capa": "colegios", "popup": "<strong>CENTRO EDUC. PART. MARIA REINA INMACULADA</strong><br><br><strong>Dirección:</strong> AVENIDA SANTELICES 432", "etiqueta": "" }, "geometry": { "type": "Point", "coordinates": [ -70.90035304, -33.7551027 ] } },
{ "type": "Feature", "properties": { "capa": "colegios", "popup": "<strong>ESCUELA BASICA JOSE MARIA DE LA CRUZ</strong><br><br><strong>Dirección:</strong> AVENIDA SANTELICES 335", "etiqueta": "" }, "geometry": { "type": "Point", "coordinates": [ -70.899441759999988, -33.75494395 ] } },
{ "type": "Feature", "properties": { "capa": "colegios", "popup": "<strong>ESC. BAS Y ESP. N° 113 SAN LORENZO DE ISLA DE MAIPO</strong><br><br><strong>Dirección:</strong> AVENIDA SANTELICES 680", "etiqueta": "" }, "geometry": { "type": "Point", "coordinates": [ -70.90289071, -33.75423882 ] } },
{ "type": "Feature", "properties": { "capa": "colegios", "popup": "<strong>CENTRO EDUCACIONAL ISLA DE MAIPO</strong><br><br><strong>Dirección:</strong> CORTES 175", "etiqueta": "" }, "geometry": { "type": "Point", "coordinates": [ -70.90198072, -33.75255507 ] } },
{ "type": "Feature", "properties": { "capa": "colegios", "popup": "<strong>COLEGIO VILLA EL SOL</strong><br><br><strong>Dirección:</strong> CORTES 228", "etiqueta": "" }, "geometry": { "type": "Point", "coordinates": [ -70.901665, -33.752037 ] } },
{ "type": "Feature", "properties": { "capa": "colegios", "popup": "<strong>LICEO BICENTENARIO MARIO BERTERO CEVASCO</strong><br><br><strong>Dirección:</strong> ROGELIO OLAVE 989", "etiqueta": "" }, "geometry": { "type": "Point", "coordinates": [ -70.90325841, -33.749934180000011 ] } },
{ "type": "Feature", "properties": { "capa": "colegios", "popup": "<strong>ESCUELA BASICA EFRAIN MALDONADO TORRES</strong><br><br><strong>Dirección:</strong> AVENIDA JAIME GUZMAN 283", "etiqueta": "" }, "geometry": { "type": "Point", "coordinates": [ -70.90611597, -33.74967404 ] } },
{ "type": "Feature", "properties": { "capa": "colegios", "popup": "<strong>COLEGIO SCHULHAUS MONTESSORI</strong><br><br><strong>Dirección:</strong> LOS MUÑOCES 2629", "etiqueta": "" }, "geometry": { "type": "Point", "coordinates": [ -70.9213, -33.74967 ] } },
{ "type": "Feature", "properties": { "capa": "colegios", "popup": "<strong>COLEGIO ALTO DEL MAIPO</strong><br><br><strong>Dirección:</strong> AVENIDA BALMACEDA 3792", "etiqueta": "" }, "geometry": { "type": "Point", "coordinates": [ -70.87273, -33.747704 ] } },
{ "type": "Feature", "properties": { "capa": "colegios", "popup": "<strong>ESCUELA BAS. Y ESP. SAN JOSE DE ISLA DE MAIPO</strong><br><br><strong>Dirección:</strong> PASAJE SAN JOSE 1205", "etiqueta": "" }, "geometry": { "type": "Point", "coordinates": [ -70.90569424, -33.7468503 ] } },
{ "type": "Feature", "properties": { "capa": "colegios", "popup": "<strong>LICEO REPUBLICA DE ITALIA</strong><br><br><strong>Dirección:</strong> BALMACEDA 4380", "etiqueta": "" }, "geometry": { "type": "Point", "coordinates": [ -70.86003492, -33.73871364 ] } },
{ "type": "Feature", "properties": { "capa": "colegios", "popup": "<strong>ESCUELA BASICA  PETRA  COLLEGE</strong><br><br><strong>Dirección:</strong> CALLE 5 DE ABRIL 4816", "etiqueta": "" }, "geometry": { "type": "Point", "coordinates": [ -70.85516, -33.73823 ] } },
{ "type": "Feature", "properties": { "capa": "colegios", "popup": "<strong>ESC.BASICA SAN ANTONIO DE NALTAGUA</strong><br><br><strong>Dirección:</strong> AVENIDA PRINCIPAL 0", "etiqueta": "" }, "geometry": { "type": "Point", "coordinates": [ -71.02308368, -33.73389107 ] } },
{ "type": "Feature", "properties": { "capa": "jardines", "popup": "<strong>LOS ISLENITOS</strong><br><br><strong>Dirección:</strong> IGNACIO CARRERA PINTO N 541 ", "etiqueta": "" }, "geometry": { "type": "MultiPoint", "coordinates": [ [ -70.896839, -33.749688 ] ] } },
{ "type": "Feature", "properties": { "capa": "jardines", "popup": "<strong>REPUBLICA DE ITALIA</strong><br><br><strong>Dirección:</strong> LAURA ESPEJO N 07 SECTOR LA ISLITA ", "etiqueta": "" }, "geometry": { "type": "MultiPoint", "coordinates": [ [ -70.857576, -33.739718 ] ] } },
{ "type": "Feature", "properties": { "capa": "jardines", "popup": "<strong>SAN ANTONIO DE NALTAHUA</strong><br><br><strong>Dirección:</strong> CAMINO SAN ANTONIO DE NALTAHUA S/N ", "etiqueta": "" }, "geometry": { "type": "MultiPoint", "coordinates": [ [ -70.863962, -33.741671 ] ] } },
{ "type": "Feature", "properties": { "capa": "jardines", "popup": "<strong>HARAWY</strong><br><br><strong>Dirección:</strong> BALMACEDA 7242 ", "etiqueta": "" }, "geometry": { "type": "MultiPoint", "coordinates": [ [ -70.872858, -33.747696 ] ] } },
{ "type": "Feature", "properties": { "capa": "jardines", "popup": "<strong>NA</strong><br><br><strong>Dirección:</strong> NA ", "etiqueta": "" }, "geometry": { "type": "MultiPoint", "coordinates": [ [ -70.863103999785579, -33.741395999853225 ] ] } },
{ "type": "Feature", "properties": { "capa": "bomberos", "popup": "<strong>Cuerpo de Bomberos</strong><br><br><strong>Dirección:</strong> Santelices 154", "etiqueta": "" }, "geometry": { "type": "Point", "coordinates": [ -70.897827048054012, -33.756061549956385 ] } },
{ "type": "Feature", "properties": { "capa": "comisarias", "popup": "<strong>RETEN LA ISLITA</strong><br><br><strong>Dirección:</strong> BALMACEDA 3156", "etiqueta": "" }, "geometry": { "type": "Point", "coordinates": [ -70.865866, -33.747324 ] } },
{ "type": "Feature", "properties": { "capa": "comisarias", "popup": "<strong>TCIA. ISLA DE MAIPO</strong><br><br><strong>Dirección:</strong> MANUEL RODRIGUEZ 949", "etiqueta": "" }, "geometry": { "type": "Point", "coordinates": [ -70.902729999999892, -33.74985 ] } },
{ "type": "Feature", "properties": { "capa": "salud", "popup": "<strong>Posta de Salud Rural Gacitúa</strong><br><br><strong>Tipo de atención:</strong> Posta de Salud Rural (PSR)<br><strong>Dirección:</strong>  NA", "etiqueta": "" }, "geometry": { "type": "Point", "coordinates": [ -70.90713, -33.732562 ] } },
{ "type": "Feature", "properties": { "capa": "salud", "popup": "<strong>Posta de Salud Rural Las Mercedes ( Isla de Maipo )</strong><br><br><strong>Tipo de atención:</strong> Posta de Salud Rural (PSR)<br><strong>Dirección:</strong>  NA", "etiqueta": "" }, "geometry": { "type": "Point", "coordinates": [ -70.88618, -33.78438 ] } },
{ "type": "Feature", "properties": { "capa": "salud", "popup": "<strong>Centro de Salud Familiar Isla de Maipo</strong><br><br><strong>Tipo de atención:</strong> Centro de Salud Familiar (CESFAM)<br><strong>Dirección:</strong>  1001", "etiqueta": "" }, "geometry": { "type": "Point", "coordinates": [ -70.90331, -33.74904 ] } },
{ "type": "Feature", "properties": { "capa": "salud", "popup": "<strong>SUR Isla de Maipo</strong><br><br><strong>Tipo de atención:</strong> Servicio de Urgencia Rural (SUR)<br><strong>Dirección:</strong>  1001", "etiqueta": "" }, "geometry": { "type": "Point", "coordinates": [ -70.903306, -33.749042 ] } },
{ "type": "Feature", "properties": { "capa": "salud", "popup": "<strong>SAPU Isla de Maipo</strong><br><br><strong>Tipo de atención:</strong> Servicio de Atención Primaria de Urgencia (SAPU)<br><strong>Dirección:</strong>  1001", "etiqueta": "" }, "geometry": { "type": "Point", "coordinates": [ -70.903463, -33.748954 ] } },
{ "type": "Feature", "properties": { "capa": "salud", "popup": "<strong>Centro Comunitario de Salud Familiar La Islita</strong><br><br><strong>Tipo de atención:</strong> Centro Comunitario de Salud Familiar (CECOSF)<br><strong>Dirección:</strong>  279", "etiqueta": "" }, "geometry": { "type": "Point", "coordinates": [ -70.862, -33.73582 ] } },
{ "type": "Feature", "properties": { "capa": "salud", "popup": "<strong>Centro de Salud Familiar La Islita</strong><br><br><strong>Tipo de atención:</strong> Centro de Salud Familiar (CESFAM)<br><strong>Dirección:</strong>  4517", "etiqueta": "" }, "geometry": { "type": "Point", "coordinates": [ -70.8617, -33.7348 ] } },
{ "type": "Feature", "properties": { "capa": "salud", "popup": "<strong>Centro Comunitario de Salud Familiar San Vicente de Naltagua</strong><br><br><strong>Tipo de atención:</strong> Centro Comunitario de Salud Familiar (CECOSF)<br><strong>Dirección:</strong>  7603", "etiqueta": "" }, "geometry": { "type": "Point", "coordinates": [ -70.98703, -33.72834 ] } },
{ "type": "Feature", "properties": { "capa": "salud", "popup": "<strong>Posta de Salud Rural San Antonio de Naltagua</strong><br><br><strong>Tipo de atención:</strong> Posta de Salud Rural (PSR)<br><strong>Dirección:</strong>  NA", "etiqueta": "" }, "geometry": { "type": "Point", "coordinates": [ -71.022697, -33.733259 ] } }
]
}
