{
"type": "FeatureCollection",
"name": "13605",
"crs": { "type": "name", "properties": { "name": "urn:ogc:def:crs:OGC:1.3:CRS84" } },
"features": [
{ "type": "Feature", "properties": { "capa": "comuna", "popup": "", "etiqueta": "" }, "geometry": { "type": "Polygon", "coordinates": [ [ [ -70.861493502956662, -33.575387824420588 ], [ -70.858941597643636, -33.575567118121349 ], [ -70.858131780788028, -33.575603955473632 ], [ -70.857170628349792, -33.57562525749865 ], [ -70.85635747964281, -33.575696189117515 ], [ -70.849466336011687, -33.576865008035497 ], [ -70.849160531522671, -33.578068834013258 ], [ -70.848024742999939, -33.580594658761939 ], [ -70.847780497362393, -33.581021307515172 ], [ -70.847136912851809, -33.581094684927947 ], [ -70.844535585825113, -33.581222072764035 ], [ -70.838610644062442, -33.581800415934865 ], [ -70.834419490324009, -33.582249210025239 ], [ -70.833494290260049, -33.582392721472559 ], [ -70.833245591673631, -33.582556415668122 ], [ -70.832111392270647, -33.583589639242042 ], [ -70.833224819031017, -33.584428844072015 ], [ -70.833351456333247, -33.584474182760196 ], [ -70.835021004034871, -33.585687690269133 ], [ -70.819085645479433, -33.598617284241207 ], [ -70.819150242433196, -33.598696117051517 ], [ -70.820239432647185, -33.600263860998282 ], [ -70.820880292567523, -33.601433149215588 ], [ -70.821711863026025, -33.603299277359341 ], [ -70.822691693235654, -33.605936739333096 ], [ -70.822214573733746, -33.606275238938608 ], [ -70.823004005120595, -33.607184433015298 ], [ -70.823588505638298, -33.607765101731964 ], [ -70.824128197291344, -33.608309638199366 ], [ -70.824450189421768, -33.608967825467147 ], [ -70.824594643011039, -33.609555053859964 ], [ -70.824959911480278, -33.610175812029887 ], [ -70.825035639458733, -33.610304488605053 ], [ -70.825325097304543, -33.610796570218561 ], [ -70.829609227573187, -33.615631922679242 ], [ -70.834063614639348, -33.62016991076176 ], [ -70.835161907482131, -33.621262150065569 ], [ -70.837601627589223, -33.624147063123154 ], [ -70.839000794068426, -33.625692729955347 ], [ -70.839680595956324, -33.626728283610859 ], [ -70.840125315920858, -33.627305998498372 ], [ -70.840957020228373, -33.628386635189287 ], [ -70.841294063631381, -33.628655092839828 ], [ -70.842138995631444, -33.62905752156599 ], [ -70.84289250249175, -33.629528827462202 ], [ -70.843365648745163, -33.629909604469447 ], [ -70.843621909349622, -33.630319247419301 ], [ -70.843637916429671, -33.631049608223037 ], [ -70.843681544009769, -33.631654712526711 ], [ -70.844158581764972, -33.632233849130721 ], [ -70.845712465085569, -33.633907953861296 ], [ -70.847431940252363, -33.634983928949573 ], [ -70.848623013792633, -33.635668945183518 ], [ -70.848902254200397, -33.635829578000234 ], [ -70.84924319180017, -33.636025632439839 ], [ -70.84952069935774, -33.63620830405236 ], [ -70.856631712841178, -33.634786706873051 ], [ -70.867720200501367, -33.632581984422153 ], [ -70.867855706870401, -33.632555116059173 ], [ -70.873733113381491, -33.631508570233684 ], [ -70.886091887125389, -33.632904372710428 ], [ -70.903688155182678, -33.635175980947821 ], [ -70.911968972795407, -33.63630044596114 ], [ -70.913827392183833, -33.640691407168632 ], [ -70.92179896386169, -33.64075188461613 ], [ -70.92158764776751, -33.639171447318574 ], [ -70.931777812058741, -33.639012539380246 ], [ -70.932487151451483, -33.639466172918027 ], [ -70.933949500936194, -33.640157043031842 ], [ -70.934326638845306, -33.640430447834198 ], [ -70.934556152112179, -33.640737188180019 ], [ -70.934637253812653, -33.641046250315945 ], [ -70.934608500537053, -33.641419083422775 ], [ -70.934441744474228, -33.642259536723763 ], [ -70.934237298695336, -33.643069553972595 ], [ -70.934210625019617, -33.643535432339085 ], [ -70.934335751355547, -33.644154137425971 ], [ -70.9345302743438, -33.644554501488351 ], [ -70.934611983305416, -33.644894506603819 ], [ -70.934621096713968, -33.645297846588392 ], [ -70.934889699272119, -33.645696976648672 ], [ -70.935154922368184, -33.645941104383539 ], [ -70.935527229137691, -33.645997326001911 ], [ -70.935971618522217, -33.645959339396121 ], [ -70.936712669342796, -33.645916704279486 ], [ -70.937527279608759, -33.645841885626275 ], [ -70.93841387996325, -33.645672854667943 ], [ -70.939043766962371, -33.645631949139648 ], [ -70.940267670333014, -33.645612667843707 ], [ -70.940824000581742, -33.645604007225323 ], [ -70.941418805674061, -33.645656717256522 ], [ -70.941719734107735, -33.645838143495403 ], [ -70.941947891816852, -33.64608276439494 ], [ -70.942177357473028, -33.646389489838185 ], [ -70.942437723378347, -33.646416424180117 ], [ -70.942882110966238, -33.646378413081074 ], [ -70.943770794513895, -33.646302388589206 ], [ -70.945031180264849, -33.646251535053366 ], [ -70.945882866697531, -33.646176077300801 ], [ -70.946472177693579, -33.64598064423344 ], [ -70.947173343315541, -33.645814396963971 ], [ -70.947619121495507, -33.645838398504722 ], [ -70.948364358465327, -33.645981854964859 ], [ -70.949109684368352, -33.646125231916443 ], [ -70.949705892629154, -33.646239931062276 ], [ -70.950481220466045, -33.646072569285124 ], [ -70.950769658723999, -33.645695635790993 ], [ -70.951169164683677, -33.645316947727203 ], [ -70.952013829884081, -33.644931229089146 ], [ -70.953752749085211, -33.644717599055099 ], [ -70.954678660614846, -33.6446409082683 ], [ -70.955343417518364, -33.644506217244427 ], [ -70.956193582204932, -33.644368661779986 ], [ -70.957895480934894, -33.64415548653394 ], [ -70.95859248017058, -33.643803162231357 ], [ -70.959177348997557, -33.643421437802878 ], [ -70.959765202027896, -33.643163913396791 ], [ -70.960171074347997, -33.643064401272262 ], [ -70.960722454879502, -33.6428384023368 ], [ -70.960814675028246, -33.64277673427474 ], [ -70.961197562155164, -33.642520608675966 ], [ -70.961998736319416, -33.641856208680139 ], [ -70.962356167886128, -33.641260974615783 ], [ -70.962536023182423, -33.641009766239812 ], [ -70.962595400026075, -33.640357212900888 ], [ -70.962585543710773, -33.639922936932471 ], [ -70.962574277938785, -33.639426559027356 ], [ -70.962641397361878, -33.639115236948427 ], [ -70.962856834926569, -33.63880156013709 ], [ -70.963364058770281, -33.638265921827696 ], [ -70.963497071416086, -33.638075735240243 ], [ -70.963849531706018, -33.637830499255855 ], [ -70.964108221355019, -33.637446251855067 ], [ -70.964286660008113, -33.63706320611756 ], [ -70.964408638647285, -33.636546833594608 ], [ -70.964422691891585, -33.635987485120623 ], [ -70.964439285571515, -33.635539935515595 ], [ -70.964615093059138, -33.635045164310633 ], [ -70.964873262583581, -33.634638466728624 ], [ -70.965211588780846, -33.634230569044263 ], [ -70.965724479197362, -33.633868278327128 ], [ -70.965962683664628, -33.633492774560416 ], [ -70.966183293728733, -33.63315529658118 ], [ -70.966513441663622, -33.632625122027676 ], [ -70.966729622135077, -33.632096833525559 ], [ -70.966773633295787, -33.631523488890728 ], [ -70.966705761084484, -33.631047365849831 ], [ -70.966650457202348, -33.62861473123457 ], [ -70.966634193204129, -33.627899258598845 ], [ -70.966679286834761, -33.627373542615643 ], [ -70.96672538118861, -33.626895754045151 ], [ -70.966712457126619, -33.626323315772424 ], [ -70.966814574913172, -33.625796767369899 ], [ -70.966860664775453, -33.62531883017747 ], [ -70.96702088918785, -33.62483915120977 ], [ -70.967299494486696, -33.624548470178055 ], [ -70.967858861939376, -33.624062290393574 ], [ -70.967236569297668, -33.6240722681923 ], [ -70.966594631399019, -33.623652996936855 ], [ -70.966075025177432, -33.623375012586862 ], [ -70.965382191429711, -33.623004266153565 ], [ -70.96474746700278, -33.622680311094236 ], [ -70.964224447183113, -33.622259137550486 ], [ -70.96375971005908, -33.621884756845418 ], [ -70.963349746811176, -33.62141413772126 ], [ -70.962939876089763, -33.62094351453063 ], [ -70.962532084069906, -33.620568225216196 ], [ -70.962123213173399, -33.6201452303171 ], [ -70.961946749915597, -33.619909501904601 ], [ -70.961594993006543, -33.619485599371352 ], [ -70.961475548514784, -33.619248892189582 ], [ -70.961181810196663, -33.618871861486809 ], [ -70.960947251991144, -33.618589258871005 ], [ -70.960367432594381, -33.61816896899736 ], [ -70.959844548420335, -33.61774777340316 ], [ -70.959380849748754, -33.617421153389657 ], [ -70.958912920910521, -33.616903642739558 ], [ -70.958611644828835, -33.61619268105833 ], [ -70.958312530093735, -33.615577052488042 ], [ -70.958190944018355, -33.61524500730232 ], [ -70.958126375810679, -33.614912060877273 ], [ -70.957833741522037, -33.614582576866006 ], [ -70.957487422115378, -33.614397250767148 ], [ -70.956909717352801, -33.614072351412176 ], [ -70.956159893585152, -33.613702452209893 ], [ -70.9557489341056, -33.613184100048258 ], [ -70.955207964149935, -33.611951994291999 ], [ -70.954963661020201, -33.611240047627014 ], [ -70.954782927171564, -33.61081349371522 ], [ -70.95459582157261, -33.610100716191305 ], [ -70.954581445833114, -33.609968418317465 ], [ -70.954523730872737, -33.609433766333041 ], [ -70.954681478629908, -33.607810102705898 ], [ -70.954757010775623, -33.607139712276272 ], [ -70.954795800927897, -33.606327848093024 ], [ -70.954671013256828, -33.605852688635515 ], [ -70.95451252349126, -33.605104664417773 ], [ -70.95447943674273, -33.604949024550649 ], [ -70.953472701091997, -33.603294856261648 ], [ -70.952945639751874, -33.602682811495818 ], [ -70.95229283133996, -33.601547895901575 ], [ -70.951853318909102, -33.60116117394719 ], [ -70.950536592620168, -33.599523764428397 ], [ -70.950357968015794, -33.599192609160525 ], [ -70.950181668251417, -33.59895678603467 ], [ -70.949834264578215, -33.598723659658219 ], [ -70.949316920314516, -33.598540931769676 ], [ -70.948459781108056, -33.59845899661763 ], [ -70.947718801254382, -33.598470741728356 ], [ -70.947147887755349, -33.598484680674353 ], [ -70.946568809468687, -33.598414236934033 ], [ -70.945830207455572, -33.598166423350627 ], [ -70.94548183360186, -33.597885505240406 ], [ -70.944959060818903, -33.597464313795506 ], [ -70.944723633044163, -33.597134044779274 ], [ -70.944375268173616, -33.596853196635166 ], [ -70.9440267290299, -33.596572350569595 ], [ -70.942873982111237, -33.5960178876322 ], [ -70.942467466597407, -33.59569022676078 ], [ -70.941945876895659, -33.595316650275322 ], [ -70.941197347600337, -33.594994354075858 ], [ -70.940451049720167, -33.594767533895073 ], [ -70.93981769432574, -33.594491144490739 ], [ -70.939070249296947, -33.594216612918508 ], [ -70.938262689907674, -33.593799782489512 ], [ -70.937510985966128, -33.593334349781244 ], [ -70.936988453033351, -33.592913046316752 ], [ -70.93669597774651, -33.592583653331459 ], [ -70.936627245847504, -33.592059799946725 ], [ -70.936619782644101, -33.591725943101046 ], [ -70.936525838628341, -33.591400977018367 ], [ -70.936372586040861, -33.590870837423843 ], [ -70.936369323359756, -33.590720929337003 ], [ -70.936360859433137, -33.590346163966672 ], [ -70.935962427858541, -33.589536638061681 ], [ -70.935758970226487, -33.588924104284402 ], [ -70.935479512426426, -33.588449494738633 ], [ -70.935369300819161, -33.588115029747776 ], [ -70.934550240299288, -33.588322124307098 ], [ -70.933875016226096, -33.588385500113318 ], [ -70.933091418498705, -33.588350691692717 ], [ -70.932328853925384, -33.588483313084318 ], [ -70.931565049676962, -33.588615800321925 ], [ -70.930799542222758, -33.588739296997169 ], [ -70.930019169447249, -33.588821652959901 ], [ -70.929264437284871, -33.588715749496217 ], [ -70.928554738566021, -33.588440120457285 ], [ -70.927860681312879, -33.588133365302575 ], [ -70.927182924888896, -33.587809214838437 ], [ -70.926502345059973, -33.587484955396235 ], [ -70.925790973678048, -33.587204682736704 ], [ -70.925032901579456, -33.587098583468709 ], [ -70.924247627595747, -33.587126756885588 ], [ -70.923560218774028, -33.587022946689125 ], [ -70.922884551831402, -33.58671233179053 ], [ -70.922257986802194, -33.586398806961128 ], [ -70.921592745706747, -33.585881255279098 ], [ -70.920740396317399, -33.585650420184223 ], [ -70.920052932698454, -33.585587220476462 ], [ -70.919194829599704, -33.585694057979367 ], [ -70.918429438926495, -33.585758823155835 ], [ -70.917727065070466, -33.585771707486849 ], [ -70.917006988115133, -33.585874026233689 ], [ -70.916235032553828, -33.586033212517833 ], [ -70.915481277758488, -33.586337123947324 ], [ -70.914790542475274, -33.586872897963225 ], [ -70.914063660781665, -33.587119280993079 ], [ -70.913295415262468, -33.587215453548751 ], [ -70.912525460249284, -33.58733417859483 ], [ -70.911765323822195, -33.587245906360522 ], [ -70.911138625842312, -33.586936833095024 ], [ -70.910416915749806, -33.586561556632269 ], [ -70.909637201439381, -33.586373551100188 ], [ -70.908850686882261, -33.586401646177741 ], [ -70.908067627245714, -33.586398214272805 ], [ -70.907291412771642, -33.586449114363056 ], [ -70.906518027990714, -33.586540522219913 ], [ -70.906359502292531, -33.586560326357286 ], [ -70.905991454435792, -33.586681237461818 ], [ -70.905475045318298, -33.586842772044363 ], [ -70.904287623429653, -33.587091464530921 ], [ -70.902578630703928, -33.587271340818489 ], [ -70.900871874783221, -33.587553619544565 ], [ -70.899467562754054, -33.587677504628303 ], [ -70.898826599527496, -33.587738611964681 ], [ -70.898340697197042, -33.587899649920914 ], [ -70.897793175827999, -33.588036070527316 ], [ -70.89727600673578, -33.588172023960993 ], [ -70.896822485078076, -33.58840931261193 ], [ -70.896462794248421, -33.588747695432176 ], [ -70.895918063046651, -33.589012011865897 ], [ -70.895553886928795, -33.589145614036767 ], [ -70.894917943488011, -33.589436957736034 ], [ -70.894294189287336, -33.589632004231476 ], [ -70.894239515124184, -33.589662612588249 ], [ -70.894163573346717, -33.589693398284915 ], [ -70.893633818857353, -33.589908571589149 ], [ -70.893421864959336, -33.589782244965583 ], [ -70.893303910772644, -33.589768832175032 ], [ -70.893087609926937, -33.589669756008291 ], [ -70.892869633723251, -33.589493951824295 ], [ -70.892802894287541, -33.589238931740809 ], [ -70.892748883979408, -33.588164549655737 ], [ -70.892635317164547, -33.587167830879217 ], [ -70.892496815812365, -33.58642760771847 ], [ -70.892332257927038, -33.585892556835269 ], [ -70.89194924503596, -33.585470326488718 ], [ -70.891938775171354, -33.585451649119427 ], [ -70.891662202759974, -33.585154405404765 ], [ -70.891251459774409, -33.584896962036744 ], [ -70.890843183562609, -33.584752503591019 ], [ -70.890347377306171, -33.584722406117791 ], [ -70.88998237024667, -33.584501860122757 ], [ -70.889839249757301, -33.584127298233696 ], [ -70.889785950016531, -33.583751363710697 ], [ -70.889642743288888, -33.583376803054115 ], [ -70.889499538357867, -33.583002241520063 ], [ -70.889267160363531, -33.582666716667035 ], [ -70.88898978396, -33.582331804180328 ], [ -70.888668236495619, -33.582035315313021 ], [ -70.888347423853148, -33.581776487857901 ], [ -70.88793752618227, -33.581556694693589 ], [ -70.887723648092916, -33.581292023136797 ], [ -70.886350727691351, -33.583053323971512 ], [ -70.88437325368001, -33.581587987694427 ], [ -70.884011679083201, -33.581394112950314 ], [ -70.883575118516376, -33.58140076012581 ], [ -70.88325974517295, -33.581505215459849 ], [ -70.882623225912099, -33.581448492249258 ], [ -70.88138171107029, -33.580705458453075 ], [ -70.878564747951216, -33.583631876386399 ], [ -70.878467183724837, -33.583565026155711 ], [ -70.878460454445047, -33.583572220221278 ], [ -70.874989829514519, -33.581234722778447 ], [ -70.875000612891185, -33.581190719759441 ], [ -70.873775749221508, -33.580145216935037 ], [ -70.871777508855743, -33.578412495528639 ], [ -70.868622242895597, -33.575647467372598 ], [ -70.868392561643759, -33.575444926582421 ], [ -70.86833023473271, -33.575561881301887 ], [ -70.868303608667702, -33.575539089121094 ], [ -70.868221803586351, -33.57562568560477 ], [ -70.867792876004486, -33.575776435712925 ], [ -70.866603360142932, -33.575803398863584 ], [ -70.865381588474449, -33.575848937424972 ], [ -70.863507539298382, -33.575935759625061 ], [ -70.863418318624383, -33.575430712978829 ], [ -70.863405542784392, -33.575431789982503 ], [ -70.863389174581613, -33.575265742648632 ], [ -70.862560540715762, -33.575305579877387 ], [ -70.861493502956662, -33.575387824420588 ] ] ] } },
{ "type": "Feature", "properties": { "capa": "ds19", "popup": "<strong>COMPOSITOR VICENTE BIANCHI ALARCON</strong><br><br><strong>Programa:</strong> DS19<br><strong>Comuna:</strong> Peñaflor<br><strong>Región:</strong> Metropolitana<br><strong>Año de inicio:</strong> 2021", "etiqueta": "COMPOSITOR VICENTE BIANCHI ALARCON" }, "geometry": { "type": "Polygon", "coordinates": [ [ [ -70.888929484546551, -33.606390480455147 ], [ -70.887157975365241, -33.606477289130112 ], [ -70.887112958989718, -33.606238131124023 ], [ -70.886095645676534, -33.606407272390655 ], [ -70.886450279889459, -33.607610686167995 ], [ -70.889490972921621, -33.607428615293117 ], [ -70.888929484546551, -33.606390480455147 ] ] ] } },
{ "type": "Feature", "properties": { "capa": "ds19", "popup": "<strong>PINTOR ALFREDO HELSBY</strong><br><br><strong>Programa:</strong> DS19<br><strong>Comuna:</strong> Peñaflor<br><strong>Región:</strong> Metropolitana de Santiago<br><strong>Año de inicio:</strong> 2023", "etiqueta": "PINTOR ALFREDO HELSBY" }, "geometry": { "type": "Polygon", "coordinates": [ [ [ -70.886101252062218, -33.606394975462976 ], [ -70.887103624595611, -33.606224503922661 ], [ -70.886718437781553, -33.604577330206489 ], [ -70.884486221318568, -33.604981916162714 ], [ -70.884940319694692, -33.605942076808901 ], [ -70.885942738940457, -33.60580171395474 ], [ -70.886101252062218, -33.606394975462976 ] ] ] } },
{ "type": "Feature", "properties": { "capa": "colegios", "popup": "<strong>ESCUELA DOLORES CATTIN FAUNDEZ</strong><br><br><strong>Dirección:</strong> AVENIDA BERLIN 0", "etiqueta": "" }, "geometry": { "type": "Point", "coordinates": [ -70.88849648, -33.62773255 ] } },
{ "type": "Feature", "properties": { "capa": "colegios", "popup": "<strong>ESCUELA DE PARV. Y ESPECIAL MI PEQUEÑO DELFIN</strong><br><br><strong>Dirección:</strong> SAN JAVIER 345", "etiqueta": "" }, "geometry": { "type": "Point", "coordinates": [ -70.86401, -33.621944 ] } },
{ "type": "Feature", "properties": { "capa": "colegios", "popup": "<strong>ESCUELA TERESA DE CALCUTA</strong><br><br><strong>Dirección:</strong> AVENIDA CENTRAL 48", "etiqueta": "" }, "geometry": { "type": "Point", "coordinates": [ -70.89137467, -33.61202962 ] } },
{ "type": "Feature", "properties": { "capa": "colegios", "popup": "<strong>COLEGIO JOSE MANUEL BALMACEDA</strong><br><br><strong>Dirección:</strong> VICUÑA MACKENNA 3568", "etiqueta": "" }, "geometry": { "type": "Point", "coordinates": [ -70.89874843, -33.61201409 ] } },
{ "type": "Feature", "properties": { "capa": "colegios", "popup": "<strong>ESCUELA BASICA TERRA DI BIMBI</strong><br><br><strong>Dirección:</strong> AVENIDA VICUÑA MACKENNA 3300", "etiqueta": "" }, "geometry": { "type": "Point", "coordinates": [ -70.8961616, -33.611462690000018 ] } },
{ "type": "Feature", "properties": { "capa": "colegios", "popup": "<strong>COLEGIO COMERCIAL DE PENAFLOR</strong><br><br><strong>Dirección:</strong> VICUÑA MACKENNA 3199", "etiqueta": "" }, "geometry": { "type": "Point", "coordinates": [ -70.89500406, -33.61144107 ] } },
{ "type": "Feature", "properties": { "capa": "colegios", "popup": "<strong>ESCUELA BAS. PARTICULAR MILLARAY</strong><br><br><strong>Dirección:</strong> VICUÑA MACKENNA 3685", "etiqueta": "" }, "geometry": { "type": "Point", "coordinates": [ -70.90023048, -33.611429350000016 ] } },
{ "type": "Feature", "properties": { "capa": "colegios", "popup": "<strong>INSTITUTO SEMBRADOR DE PEÑAFLOR</strong><br><br><strong>Dirección:</strong> VICUÑA MACKENNA 2648", "etiqueta": "" }, "geometry": { "type": "Point", "coordinates": [ -70.88789259, -33.61134893 ] } },
{ "type": "Feature", "properties": { "capa": "colegios", "popup": "<strong>ESCUELA BAS. PART. COLEGIO CLAUDIO GAY</strong><br><br><strong>Dirección:</strong> VICUÑA MACKENNA 3081", "etiqueta": "" }, "geometry": { "type": "Point", "coordinates": [ -70.89386146, -33.61132992 ] } },
{ "type": "Feature", "properties": { "capa": "colegios", "popup": "<strong>ESC. BAS. Y ESP. SAN ANDRES DE PENAFLOR</strong><br><br><strong>Dirección:</strong> VICUÑA MACKENNA 2460", "etiqueta": "" }, "geometry": { "type": "Point", "coordinates": [ -70.885510879999984, -33.61122303 ] } },
{ "type": "Feature", "properties": { "capa": "colegios", "popup": "<strong>ESCUELA BASICA ACADEMIA MALLOCO</strong><br><br><strong>Dirección:</strong> MARIANO LATORRE 111", "etiqueta": "" }, "geometry": { "type": "Point", "coordinates": [ -70.87683776999998, -33.61118889 ] } },
{ "type": "Feature", "properties": { "capa": "colegios", "popup": "<strong>ESCUELA PREMILITAR  GENERAL BERNARDO OHIGGINS RIQUELME</strong><br><br><strong>Dirección:</strong> BALMACEDA 1075", "etiqueta": "" }, "geometry": { "type": "Point", "coordinates": [ -70.858376, -33.610928 ] } },
{ "type": "Feature", "properties": { "capa": "colegios", "popup": "<strong>ESCUELA PATRONA DE LOURDES</strong><br><br><strong>Dirección:</strong> AVENIDA VICUÑA MACKENNA 2291", "etiqueta": "" }, "geometry": { "type": "Point", "coordinates": [ -70.883702679999985, -33.610876260000012 ] } },
{ "type": "Feature", "properties": { "capa": "colegios", "popup": "<strong>ESCUELA BAS. Y ESP. EDUCAR</strong><br><br><strong>Dirección:</strong> AVENIDA VICUÑA MACKENNA 1314", "etiqueta": "" }, "geometry": { "type": "Point", "coordinates": [ -70.87279211, -33.610654340000011 ] } },
{ "type": "Feature", "properties": { "capa": "colegios", "popup": "<strong>ESCUELA BASICA ACADEMIA MALLOCO</strong><br><br><strong>Dirección:</strong> MARIANO LATORRE 49", "etiqueta": "" }, "geometry": { "type": "Point", "coordinates": [ -70.87653, -33.61061 ] } },
{ "type": "Feature", "properties": { "capa": "colegios", "popup": "<strong>COLEGIO PREMILITAR CAPITAN IGNACIO CARRERA PINTO</strong><br><br><strong>Dirección:</strong> VICUÑA MACKENNA 760", "etiqueta": "" }, "geometry": { "type": "Point", "coordinates": [ -70.86579618, -33.61032789 ] } },
{ "type": "Feature", "properties": { "capa": "colegios", "popup": "<strong>ESC. DE PARV. Y ESP. KIMANTU DE PENAFLOR</strong><br><br><strong>Dirección:</strong> LO MARQUEZ 1073", "etiqueta": "" }, "geometry": { "type": "Point", "coordinates": [ -70.89648, -33.61016 ] } },
{ "type": "Feature", "properties": { "capa": "colegios", "popup": "<strong>ESCUELA PART. PARTHENON COLLEGE</strong><br><br><strong>Dirección:</strong> AVENIDA VICUÑA MACKENNA 699", "etiqueta": "" }, "geometry": { "type": "Point", "coordinates": [ -70.86609189, -33.61007142 ] } },
{ "type": "Feature", "properties": { "capa": "colegios", "popup": "<strong>COLEGIO ANTIMANQUE</strong><br><br><strong>Dirección:</strong> CARRERA 127", "etiqueta": "" }, "geometry": { "type": "Point", "coordinates": [ -70.903323, -33.609965 ] } },
{ "type": "Feature", "properties": { "capa": "colegios", "popup": "<strong>COLEGIO PARTICULAR FORJADORES</strong><br><br><strong>Dirección:</strong> ALCADE LUIS ARAYA CERECEDA 4539", "etiqueta": "" }, "geometry": { "type": "Point", "coordinates": [ -70.90185207, -33.60894006 ] } },
{ "type": "Feature", "properties": { "capa": "colegios", "popup": "<strong>CENTRO EDUCACIONAL ADULTOS KAIROS</strong><br><br><strong>Dirección:</strong> AVENIDA VICUÑA MACKENNA 2648", "etiqueta": "" }, "geometry": { "type": "Point", "coordinates": [ -70.87407, -33.608627 ] } },
{ "type": "Feature", "properties": { "capa": "colegios", "popup": "<strong>ESCUELA PARTICULAR EL REFUGIO</strong><br><br><strong>Dirección:</strong> LOS GUINDOS 1000", "etiqueta": "" }, "geometry": { "type": "Point", "coordinates": [ -70.87406753, -33.60862542000001 ] } },
{ "type": "Feature", "properties": { "capa": "colegios", "popup": "<strong>ESCUELA REPUBLICA DE ISRAEL</strong><br><br><strong>Dirección:</strong> SANTA ROSA 300", "etiqueta": "" }, "geometry": { "type": "Point", "coordinates": [ -70.883536719999981, -33.60810377 ] } },
{ "type": "Feature", "properties": { "capa": "colegios", "popup": "<strong>COLEGIO TERRANOVA</strong><br><br><strong>Dirección:</strong> BENJAMIN LABBE 122", "etiqueta": "" }, "geometry": { "type": "Point", "coordinates": [ -70.90301, -33.608074 ] } },
{ "type": "Feature", "properties": { "capa": "colegios", "popup": "<strong>LICEO MUNICIPALIZADO PENAFLOR</strong><br><br><strong>Dirección:</strong> LUIS ARAYA CERECEDA 1261", "etiqueta": "" }, "geometry": { "type": "Point", "coordinates": [ -70.901242179999983, -33.60802701 ] } },
{ "type": "Feature", "properties": { "capa": "colegios", "popup": "<strong>ESCUELA ESP. BILBAO</strong><br><br><strong>Dirección:</strong> AVENIDA BILBAO 1054", "etiqueta": "" }, "geometry": { "type": "Point", "coordinates": [ -70.87913, -33.607956 ] } },
{ "type": "Feature", "properties": { "capa": "colegios", "popup": "<strong>COLEGIO POLIV. FRANCISCO DE VILLAGRA</strong><br><br><strong>Dirección:</strong> AVENIDA ROSALES 834", "etiqueta": "" }, "geometry": { "type": "Point", "coordinates": [ -70.86602428, -33.60772047 ] } },
{ "type": "Feature", "properties": { "capa": "colegios", "popup": "<strong>ESCUELA ESPECIAL N°194 DE LENGUAJE NUEVO MUNDO</strong><br><br><strong>Dirección:</strong> AVENIDA 21 DE MAYO 4112", "etiqueta": "" }, "geometry": { "type": "Point", "coordinates": [ -70.8986, -33.607506 ] } },
{ "type": "Feature", "properties": { "capa": "colegios", "popup": "<strong>ESCUELA SONIA PLAZA CASTRO</strong><br><br><strong>Dirección:</strong> EL GUERRILLERO 2934", "etiqueta": "" }, "geometry": { "type": "Point", "coordinates": [ -70.89257942, -33.60725716 ] } },
{ "type": "Feature", "properties": { "capa": "colegios", "popup": "<strong>ESCUELA ESPECIAL PARTICULAR MILLANTU</strong><br><br><strong>Dirección:</strong> PASAJE SENDERO 148", "etiqueta": "" }, "geometry": { "type": "Point", "coordinates": [ -70.897934, -33.606865 ] } },
{ "type": "Feature", "properties": { "capa": "colegios", "popup": "<strong>ESCUELA BASICA N 41 AUGUSTO D`HALMAR</strong><br><br><strong>Dirección:</strong> 21 DE MAYO 4036", "etiqueta": "" }, "geometry": { "type": "Point", "coordinates": [ -70.89602806, -33.606818470000015 ] } },
{ "type": "Feature", "properties": { "capa": "colegios", "popup": "<strong>ESCUELA MAND EDUARDO FREI MONTALVA</strong><br><br><strong>Dirección:</strong> ROSALES 1298", "etiqueta": "" }, "geometry": { "type": "Point", "coordinates": [ -70.865604369999986, -33.60676415 ] } },
{ "type": "Feature", "properties": { "capa": "colegios", "popup": "<strong>ESC. BAS. Y ESP. NUEVA INTEGRAL ALTAZOR</strong><br><br><strong>Dirección:</strong> ROSALES 1201", "etiqueta": "" }, "geometry": { "type": "Point", "coordinates": [ -70.865604369999986, -33.60676415 ] } },
{ "type": "Feature", "properties": { "capa": "colegios", "popup": "<strong>ESC. ESP. ANTILAF DE PEÑAFLOR</strong><br><br><strong>Dirección:</strong> AVENIDA ROSALES 870", "etiqueta": "" }, "geometry": { "type": "Point", "coordinates": [ -70.862976, -33.60608 ] } },
{ "type": "Feature", "properties": { "capa": "colegios", "popup": "<strong>ESCUELA EMILIA LASCAR</strong><br><br><strong>Dirección:</strong> EMILIA LASCAR 160", "etiqueta": "" }, "geometry": { "type": "Point", "coordinates": [ -70.899042099999988, -33.606050120000013 ] } },
{ "type": "Feature", "properties": { "capa": "colegios", "popup": "<strong>COLEGIO DE AD. INSTITUTO NUEVA IMAGEN</strong><br><br><strong>Dirección:</strong> CALLE 21 DE MAYO 3664", "etiqueta": "" }, "geometry": { "type": "Point", "coordinates": [ -70.89175, -33.605843 ] } },
{ "type": "Feature", "properties": { "capa": "colegios", "popup": "<strong>ESCUELA BASICA ALBORADA SCHOOL</strong><br><br><strong>Dirección:</strong> 21 DE MAYO 3664", "etiqueta": "" }, "geometry": { "type": "Point", "coordinates": [ -70.89150981, -33.6057299 ] } },
{ "type": "Feature", "properties": { "capa": "colegios", "popup": "<strong>ESCUELA MALLOCO</strong><br><br><strong>Dirección:</strong> BALMACEDA 201", "etiqueta": "" }, "geometry": { "type": "Point", "coordinates": [ -70.85228044, -33.604666349999988 ] } },
{ "type": "Feature", "properties": { "capa": "colegios", "popup": "<strong>COLEGIO EMMANUEL MOUNIER</strong><br><br><strong>Dirección:</strong> PROGRESO 700", "etiqueta": "" }, "geometry": { "type": "Point", "coordinates": [ -70.88448, -33.604225 ] } },
{ "type": "Feature", "properties": { "capa": "colegios", "popup": "<strong>ESCUELA ESPECIAL NAZARETH</strong><br><br><strong>Dirección:</strong> MALLOQUITO 1827", "etiqueta": "" }, "geometry": { "type": "Point", "coordinates": [ -70.87258, -33.60415 ] } },
{ "type": "Feature", "properties": { "capa": "colegios", "popup": "<strong>ESCUELA BASICA G-N°673 PELVIN SAN FRANCISCO DE ASIS</strong><br><br><strong>Dirección:</strong> CAMINO A MALLARAUCO 2", "etiqueta": "" }, "geometry": { "type": "Point", "coordinates": [ -70.91168961, -33.60411088 ] } },
{ "type": "Feature", "properties": { "capa": "colegios", "popup": "<strong>ESCUELA ESPECIAL N° 206, DANTE ALIGHIERI</strong><br><br><strong>Dirección:</strong> CALLE LOS TILOS 505", "etiqueta": "" }, "geometry": { "type": "Point", "coordinates": [ -70.88915569, -33.60391881 ] } },
{ "type": "Feature", "properties": { "capa": "colegios", "popup": "<strong>CENTRO EDUC. NINO DIOS DE MALLOCO</strong><br><br><strong>Dirección:</strong> BALMACEDA 58", "etiqueta": "" }, "geometry": { "type": "Point", "coordinates": [ -70.85112528, -33.60338964 ] } },
{ "type": "Feature", "properties": { "capa": "colegios", "popup": "<strong>ESCUELA REPUBLICA CHECA</strong><br><br><strong>Dirección:</strong> PROGRESO 640", "etiqueta": "" }, "geometry": { "type": "Point", "coordinates": [ -70.88346603, -33.60259871 ] } },
{ "type": "Feature", "properties": { "capa": "colegios", "popup": "<strong>LICEO COMERCIAL REPUBLICA DE BRASIL</strong><br><br><strong>Dirección:</strong> MIRAFLORES 173", "etiqueta": "" }, "geometry": { "type": "Point", "coordinates": [ -70.853233349999982, -33.602440060000021 ] } },
{ "type": "Feature", "properties": { "capa": "colegios", "popup": "<strong>ESCUELA ESPECIAL Nº 192 MONTESSORI DESPERTANDO PALABRAS</strong><br><br><strong>Dirección:</strong> MARIA ESTER GARAY 132", "etiqueta": "" }, "geometry": { "type": "Point", "coordinates": [ -70.89086, -33.60131 ] } },
{ "type": "Feature", "properties": { "capa": "colegios", "popup": "<strong>ESCUELA ESP. ANDALUE</strong><br><br><strong>Dirección:</strong> CALLE MIRAFLORES 1000", "etiqueta": "" }, "geometry": { "type": "Point", "coordinates": [ -70.86084, -33.601208 ] } },
{ "type": "Feature", "properties": { "capa": "colegios", "popup": "<strong>ESCUELA ESPECIAL N°199, MI  POLLITO  AMARILLITO</strong><br><br><strong>Dirección:</strong> CALLE MANUEL OJEDA 45", "etiqueta": "" }, "geometry": { "type": "Point", "coordinates": [ -70.891929809999979, -33.600949610000015 ] } },
{ "type": "Feature", "properties": { "capa": "colegios", "popup": "<strong>COLEGIO AMERICAN SCHOOL</strong><br><br><strong>Dirección:</strong> AVENIDA CAUPOLICAN 4056", "etiqueta": "" }, "geometry": { "type": "Point", "coordinates": [ -70.891986, -33.600411 ] } },
{ "type": "Feature", "properties": { "capa": "colegios", "popup": "<strong>ESCUELA ROSALINA PESCIO VARGAS</strong><br><br><strong>Dirección:</strong> AVENIDA LARRAIN 2487", "etiqueta": "" }, "geometry": { "type": "Point", "coordinates": [ -70.87847403, -33.60028862 ] } },
{ "type": "Feature", "properties": { "capa": "colegios", "popup": "<strong>COL.PART.INMAC.CONC. DE NTRA.SRA. DE LOURDES</strong><br><br><strong>Dirección:</strong> BILBAO 211", "etiqueta": "" }, "geometry": { "type": "Point", "coordinates": [ -70.87509426, -33.60009122000001 ] } },
{ "type": "Feature", "properties": { "capa": "colegios", "popup": "<strong>COLEGIO DREYSE BELSER</strong><br><br><strong>Dirección:</strong> PROGRESO 324", "etiqueta": "" }, "geometry": { "type": "Point", "coordinates": [ -70.88204936, -33.59987247 ] } },
{ "type": "Feature", "properties": { "capa": "colegios", "popup": "<strong>CENTRO EDUCACIONAL DE ADULTOS DREYSE</strong><br><br><strong>Dirección:</strong> PROGRESO 324", "etiqueta": "" }, "geometry": { "type": "Point", "coordinates": [ -70.881775, -33.59923 ] } },
{ "type": "Feature", "properties": { "capa": "colegios", "popup": "<strong>ESCUELA  BASICA  N°200 COLEGIO  INTEGRAL TRABUNCO</strong><br><br><strong>Dirección:</strong> LA CONCORDIA 575", "etiqueta": "" }, "geometry": { "type": "Point", "coordinates": [ -70.892353, -33.598857 ] } },
{ "type": "Feature", "properties": { "capa": "colegios", "popup": "<strong>ESCUELA ESP. PART.  ANTUKUYEN</strong><br><br><strong>Dirección:</strong> 12 DE SEPTIEMBRE 3118", "etiqueta": "" }, "geometry": { "type": "Point", "coordinates": [ -70.88515, -33.59871 ] } },
{ "type": "Feature", "properties": { "capa": "colegios", "popup": "<strong>ESCUELA ESPECIAL SANTA BARBARA DE PEÑAFLOR</strong><br><br><strong>Dirección:</strong> AVENIDA LARRAIN 3032", "etiqueta": "" }, "geometry": { "type": "Point", "coordinates": [ -70.88415, -33.59815 ] } },
{ "type": "Feature", "properties": { "capa": "jardines", "popup": "<strong>NIÑO DIOS DE MALLOCO</strong><br><br><strong>Dirección:</strong> BALMACEDA 058 ", "etiqueta": "" }, "geometry": { "type": "MultiPoint", "coordinates": [ [ -70.851217, -33.603909 ] ] } },
{ "type": "Feature", "properties": { "capa": "jardines", "popup": "<strong>NIÑO DIOS DEL BUEN CONSEJO</strong><br><br><strong>Dirección:</strong> TORIBIO LARRAIN N 1174 ", "etiqueta": "" }, "geometry": { "type": "MultiPoint", "coordinates": [ [ -70.859393, -33.610946 ] ] } },
{ "type": "Feature", "properties": { "capa": "jardines", "popup": "<strong>NIÑO DIOS DE LAS PRADERAS</strong><br><br><strong>Dirección:</strong> LA NINA # 612, POB. LAS PRADERAS ", "etiqueta": "" }, "geometry": { "type": "MultiPoint", "coordinates": [ [ -70.85972, -33.603599 ] ] } },
{ "type": "Feature", "properties": { "capa": "jardines", "popup": "<strong>MI NUEVO MUNDO</strong><br><br><strong>Dirección:</strong> ROSALES 1298 ", "etiqueta": "" }, "geometry": { "type": "MultiPoint", "coordinates": [ [ -70.869246, -33.605149 ] ] } },
{ "type": "Feature", "properties": { "capa": "jardines", "popup": "<strong>CARRUSEL</strong><br><br><strong>Dirección:</strong> PABLO NERUDA 143 ", "etiqueta": "" }, "geometry": { "type": "MultiPoint", "coordinates": [ [ -70.870251, -33.611733 ] ] } },
{ "type": "Feature", "properties": { "capa": "jardines", "popup": "<strong>MALLARAUCO</strong><br><br><strong>Dirección:</strong> CAMINO MALLARAUCO S/N ", "etiqueta": "" }, "geometry": { "type": "MultiPoint", "coordinates": [ [ -70.91885, -33.60772 ] ] } },
{ "type": "Feature", "properties": { "capa": "jardines", "popup": "<strong>PUERTAS DE PEÑAFLOR</strong><br><br><strong>Dirección:</strong> TENIENTE JAIME SAENZ 3906 ", "etiqueta": "" }, "geometry": { "type": "MultiPoint", "coordinates": [ [ -70.905024, -33.616444 ] ] } },
{ "type": "Feature", "properties": { "capa": "jardines", "popup": "<strong>NA</strong><br><br><strong>Dirección:</strong> NA ", "etiqueta": "" }, "geometry": { "type": "MultiPoint", "coordinates": [ [ -70.87067000053618, -33.608434999852797 ] ] } },
{ "type": "Feature", "properties": { "capa": "jardines", "popup": "<strong>NA</strong><br><br><strong>Dirección:</strong> NA ", "etiqueta": "" }, "geometry": { "type": "MultiPoint", "coordinates": [ [ -70.902393999799258, -33.613146000373135 ] ] } },
{ "type": "Feature", "properties": { "capa": "bomberos", "popup": "<strong>Cuerpo de Bomberos</strong><br><br><strong>Dirección:</strong> Veintiuno De Mayo 4234", "etiqueta": "" }, "geometry": { "type": "Point", "coordinates": [ -70.899114617179123, -33.60792887107899 ] } },
{ "type": "Feature", "properties": { "capa": "comisarias", "popup": "<strong>56A. COM. PENAFLOR</strong><br><br><strong>Dirección:</strong> DIECIOCHO 169", "etiqueta": "" }, "geometry": { "type": "Point", "coordinates": [ -70.90167, -33.60772 ] } },
{ "type": "Feature", "properties": { "capa": "comisarias", "popup": "<strong>TCIA. MALLOCO</strong><br><br><strong>Dirección:</strong> BALMACEDA 103", "etiqueta": "" }, "geometry": { "type": "Point", "coordinates": [ -70.85041, -33.60206 ] } },
{ "type": "Feature", "properties": { "capa": "salud", "popup": "<strong>Fundación Vida Nueva (Clínica Psiquiátrica)</strong><br><br><strong>Tipo de atención:</strong> Clínica<br><strong>Dirección:</strong>  26", "etiqueta": "" }, "geometry": { "type": "Point", "coordinates": [ -70.896286, -33.629126 ] } },
{ "type": "Feature", "properties": { "capa": "salud", "popup": "<strong>Centro Asistencial AChS Peñaflor</strong><br><br><strong>Tipo de atención:</strong> Centro de Salud Privado<br><strong>Dirección:</strong>  1294", "etiqueta": "" }, "geometry": { "type": "Point", "coordinates": [ -70.872671, -33.610845 ] } },
{ "type": "Feature", "properties": { "capa": "salud", "popup": "<strong>SAPU Dr. Fernando Monckeberg</strong><br><br><strong>Tipo de atención:</strong> Servicio de Atención Primaria de Urgencia (SAPU)<br><strong>Dirección:</strong>  73", "etiqueta": "" }, "geometry": { "type": "Point", "coordinates": [ -70.87153, -33.610078 ] } },
{ "type": "Feature", "properties": { "capa": "salud", "popup": "<strong>Hospital de Peñaflor</strong><br><br><strong>Tipo de atención:</strong> Hospital<br><strong>Dirección:</strong>  214", "etiqueta": "" }, "geometry": { "type": "Point", "coordinates": [ -70.904125, -33.61001 ] } },
{ "type": "Feature", "properties": { "capa": "salud", "popup": "<strong>Centro de Salud Familiar Dr. Fernando Monckeberg</strong><br><br><strong>Tipo de atención:</strong> Centro de Salud Familiar (CESFAM)<br><strong>Dirección:</strong>  73", "etiqueta": "" }, "geometry": { "type": "Point", "coordinates": [ -70.87164, -33.60998 ] } },
{ "type": "Feature", "properties": { "capa": "salud", "popup": "<strong>Centro Medico de Clínica Maitenes Peñaflor</strong><br><br><strong>Tipo de atención:</strong> Centro de Salud Privado<br><strong>Dirección:</strong>  750", "etiqueta": "" }, "geometry": { "type": "Point", "coordinates": [ -70.856194, -33.608844 ] } },
{ "type": "Feature", "properties": { "capa": "salud", "popup": "<strong>Centro de Salud Familiar Peñaflor</strong><br><br><strong>Tipo de atención:</strong> Centro de Salud Familiar (CESFAM)<br><strong>Dirección:</strong>  1000", "etiqueta": "" }, "geometry": { "type": "Point", "coordinates": [ -70.89626, -33.6088 ] } },
{ "type": "Feature", "properties": { "capa": "salud", "popup": "<strong>SAPU Peñaflor</strong><br><br><strong>Tipo de atención:</strong> Servicio de Atención Primaria de Urgencia (SAPU)<br><strong>Dirección:</strong>  1000", "etiqueta": "" }, "geometry": { "type": "Point", "coordinates": [ -70.895925, -33.608746 ] } },
{ "type": "Feature", "properties": { "capa": "municipios", "popup": "<strong>Municipalidad de Peñaflor</strong><br><br><strong>Dirección:</strong> Alcalde Luis Araya Cereceda Nº 1215<br><strong>Región:</strong> Metropolitana de Santiago", "etiqueta": "" }, "geometry": { "type": "Point", "coordinates": [ -70.900928699999952, -33.607721200999954 ] } }
]
}
