{
"type": "FeatureCollection",
"name": "13604",
"crs": { "type": "name", "properties": { "name": "urn:ogc:def:crs:OGC:1.3:CRS84" } },
"features": [
{ "type": "Feature", "properties": { "capa": "comuna", "popup": "", "etiqueta": "" }, "geometry": { "type": "Polygon", "coordinates": [ [ [ -70.849466336011687, -33.576865008035497 ], [ -70.85635747964281, -33.575696189117515 ], [ -70.857170628349792, -33.57562525749865 ], [ -70.858131780788028, -33.575603955473632 ], [ -70.858941597643636, -33.575567118121349 ], [ -70.861493502956662, -33.575387824420588 ], [ -70.862560540715762, -33.575305579877387 ], [ -70.863389174581613, -33.575265742648632 ], [ -70.863405542784392, -33.575431789982503 ], [ -70.863418318624383, -33.575430712978829 ], [ -70.863507539298382, -33.575935759625061 ], [ -70.865381588474449, -33.575848937424972 ], [ -70.866603360142932, -33.575803398863584 ], [ -70.867792876004486, -33.575776435712925 ], [ -70.868221803586351, -33.57562568560477 ], [ -70.868303608667702, -33.575539089121094 ], [ -70.86833023473271, -33.575561881301887 ], [ -70.868392561643759, -33.575444926582421 ], [ -70.868622242895597, -33.575647467372598 ], [ -70.871777508855743, -33.578412495528639 ], [ -70.873775749221508, -33.580145216935037 ], [ -70.875000612891185, -33.581190719759441 ], [ -70.874989829514519, -33.581234722778447 ], [ -70.878460454445047, -33.583572220221278 ], [ -70.878467183724837, -33.583565026155711 ], [ -70.878564747951216, -33.583631876386399 ], [ -70.88138171107029, -33.580705458453075 ], [ -70.882623225912099, -33.581448492249258 ], [ -70.88325974517295, -33.581505215459849 ], [ -70.883575118516376, -33.58140076012581 ], [ -70.884011679083201, -33.581394112950314 ], [ -70.88437325368001, -33.581587987694427 ], [ -70.886350727691351, -33.583053323971512 ], [ -70.887723648092916, -33.581292023136797 ], [ -70.88793752618227, -33.581556694693589 ], [ -70.888347423853148, -33.581776487857901 ], [ -70.888668236495619, -33.582035315313021 ], [ -70.88898978396, -33.582331804180328 ], [ -70.889267160363531, -33.582666716667035 ], [ -70.889499538357867, -33.583002241520063 ], [ -70.889642743288888, -33.583376803054115 ], [ -70.889785950016531, -33.583751363710697 ], [ -70.889839249757301, -33.584127298233696 ], [ -70.88998237024667, -33.584501860122757 ], [ -70.890347377306171, -33.584722406117791 ], [ -70.890843183562609, -33.584752503591019 ], [ -70.891251459774409, -33.584896962036744 ], [ -70.891662202759974, -33.585154405404765 ], [ -70.891938775171354, -33.585451649119427 ], [ -70.89194924503596, -33.585470326488718 ], [ -70.892332257927038, -33.585892556835269 ], [ -70.892496815812365, -33.58642760771847 ], [ -70.892635317164547, -33.587167830879217 ], [ -70.892748883979408, -33.588164549655737 ], [ -70.892802894287541, -33.589238931740809 ], [ -70.892869633723251, -33.589493951824295 ], [ -70.893087609926937, -33.589669756008291 ], [ -70.893303910772644, -33.589768832175032 ], [ -70.893421864959336, -33.589782244965583 ], [ -70.893633818857353, -33.589908571589149 ], [ -70.894163573346717, -33.589693398284915 ], [ -70.894239515124184, -33.589662612588249 ], [ -70.894294189287336, -33.589632004231476 ], [ -70.894917943488011, -33.589436957736034 ], [ -70.895553886928795, -33.589145614036767 ], [ -70.895918063046651, -33.589012011865897 ], [ -70.896462794248421, -33.588747695432176 ], [ -70.896822485078076, -33.58840931261193 ], [ -70.89727600673578, -33.588172023960993 ], [ -70.897793175827999, -33.588036070527316 ], [ -70.898340697197042, -33.587899649920914 ], [ -70.898826599527496, -33.587738611964681 ], [ -70.899467562754054, -33.587677504628303 ], [ -70.900871874783221, -33.587553619544565 ], [ -70.902578630703928, -33.587271340818489 ], [ -70.904287623429653, -33.587091464530921 ], [ -70.905475045318298, -33.586842772044363 ], [ -70.905991454435792, -33.586681237461818 ], [ -70.906359502292531, -33.586560326357286 ], [ -70.906518027990714, -33.586540522219913 ], [ -70.907291412771642, -33.586449114363056 ], [ -70.908067627245714, -33.586398214272805 ], [ -70.908850686882261, -33.586401646177741 ], [ -70.909637201439381, -33.586373551100188 ], [ -70.910416915749806, -33.586561556632269 ], [ -70.911138625842312, -33.586936833095024 ], [ -70.911765323822195, -33.587245906360522 ], [ -70.912525460249284, -33.58733417859483 ], [ -70.913295415262468, -33.587215453548751 ], [ -70.914063660781665, -33.587119280993079 ], [ -70.914790542475274, -33.586872897963225 ], [ -70.915481277758488, -33.586337123947324 ], [ -70.916235032553828, -33.586033212517833 ], [ -70.917006988115133, -33.585874026233689 ], [ -70.917727065070466, -33.585771707486849 ], [ -70.918429438926495, -33.585758823155835 ], [ -70.919194829599704, -33.585694057979367 ], [ -70.920052932698454, -33.585587220476462 ], [ -70.920740396317399, -33.585650420184223 ], [ -70.921592745706747, -33.585881255279098 ], [ -70.922257986802194, -33.586398806961128 ], [ -70.922884551831402, -33.58671233179053 ], [ -70.923560218774028, -33.587022946689125 ], [ -70.924247627595747, -33.587126756885588 ], [ -70.925032901579456, -33.587098583468709 ], [ -70.925790973678048, -33.587204682736704 ], [ -70.926502345059973, -33.587484955396235 ], [ -70.927182924888896, -33.587809214838437 ], [ -70.927860681312879, -33.588133365302575 ], [ -70.928554738566021, -33.588440120457285 ], [ -70.929264437284871, -33.588715749496217 ], [ -70.930019169447249, -33.588821652959901 ], [ -70.930799542222758, -33.588739296997169 ], [ -70.931565049676962, -33.588615800321925 ], [ -70.932328853925384, -33.588483313084318 ], [ -70.933091418498705, -33.588350691692717 ], [ -70.933875016226096, -33.588385500113318 ], [ -70.934550240299288, -33.588322124307098 ], [ -70.935369300819161, -33.588115029747776 ], [ -70.93527740406391, -33.587786410925446 ], [ -70.935203357731666, -33.587024032528234 ], [ -70.935344521690354, -33.58568571088324 ], [ -70.935499532280858, -33.584967544785144 ], [ -70.93565773817879, -33.584392492430993 ], [ -70.935701948765512, -33.583819148506471 ], [ -70.935978314564338, -33.583433055769483 ], [ -70.936312831006475, -33.583093847605291 ], [ -70.936647342957031, -33.582754564018543 ], [ -70.937039913024407, -33.582462092400242 ], [ -70.937320358971263, -33.582258912021175 ], [ -70.937312094470656, -33.581885251926671 ], [ -70.937001446265612, -33.580744886045402 ], [ -70.936526395583812, -33.579893345430889 ], [ -70.936339430122047, -33.579180530129705 ], [ -70.936359124786321, -33.57751006024673 ], [ -70.936577503435274, -33.577077227116 ], [ -70.937076568779574, -33.576449041287319 ], [ -70.937579805900043, -33.576011671816836 ], [ -70.938027114809245, -33.575622971022696 ], [ -70.938588489098279, -33.57523248269861 ], [ -70.939036943359483, -33.574891407866417 ], [ -70.939343948896052, -33.574712998172821 ], [ -70.940725201171844, -33.573910590826749 ], [ -70.941514419657963, -33.573516441544633 ], [ -70.942132751627582, -33.573124969197565 ], [ -70.942692932953932, -33.57268675957517 ], [ -70.94330902632187, -33.572199874933204 ], [ -70.943586571608691, -33.571861541739509 ], [ -70.944028573271197, -33.571234299204747 ], [ -70.944210191062069, -33.571002369579148 ], [ -70.946197521388726, -33.568466957289445 ], [ -70.94630055096529, -33.568335471300678 ], [ -70.946805924279516, -33.567993474008269 ], [ -70.94753923431729, -33.567647887021316 ], [ -70.947986456089922, -33.567259153806766 ], [ -70.948149908149119, -33.566922534057944 ], [ -70.948307912824461, -33.566347394407437 ], [ -70.948515573673731, -33.565437500437277 ], [ -70.948677862414641, -33.565053250690866 ], [ -70.948780124829952, -33.564526709118411 ], [ -70.948759018014044, -33.564105753052601 ], [ -70.948677865109588, -33.563184080309455 ], [ -70.948626414101696, -33.562763527154914 ], [ -70.948497447467943, -33.562097538473168 ], [ -70.948316948079579, -33.56167096536187 ], [ -70.948194267856167, -33.561037157999628 ], [ -70.948432443577332, -33.56064935019657 ], [ -70.947122375601282, -33.560361408131676 ], [ -70.946910207904224, -33.560268861671233 ], [ -70.946695670451419, -33.560180783333109 ], [ -70.946477033087689, -33.560110499207191 ], [ -70.946245379135476, -33.560057852136723 ], [ -70.946011115577363, -33.560018617958917 ], [ -70.945789742843601, -33.559948300763807 ], [ -70.945584454444983, -33.5598515064517 ], [ -70.945383464484991, -33.559745779286565 ], [ -70.945186623843313, -33.55964013508396 ], [ -70.944990821654073, -33.559525682248598 ], [ -70.944795813575567, -33.559411143175147 ], [ -70.94460009762463, -33.55929654181773 ], [ -70.944401393877044, -33.559186418312748 ], [ -70.944200495545218, -33.559080688087739 ], [ -70.943998274893289, -33.558974977945034 ], [ -70.943795888053046, -33.558873703024432 ], [ -70.943592708898706, -33.55877243921384 ], [ -70.943390490043413, -33.558666728693844 ], [ -70.943188104999791, -33.55856545191466 ], [ -70.942985266306962, -33.55845960190431 ], [ -70.942782254239262, -33.558353902978816 ], [ -70.942697549396186, -33.558310540316178 ], [ -70.942976632598757, -33.557995380704291 ], [ -70.942831944549212, -33.55775180784795 ], [ -70.942454681774279, -33.557406100522826 ], [ -70.941480576527951, -33.556648688755196 ], [ -70.94061572438649, -33.556214886398038 ], [ -70.939768099237213, -33.555686990603029 ], [ -70.938828833352559, -33.555475883035967 ], [ -70.938054892514458, -33.555184688212307 ], [ -70.937583539298359, -33.55470961166089 ], [ -70.937555658286882, -33.55429873061437 ], [ -70.93711800716531, -33.553103982764966 ], [ -70.936557821347392, -33.552067389267584 ], [ -70.935803391917275, -33.551245178597263 ], [ -70.935239676618608, -33.551204130183386 ], [ -70.934612498040067, -33.550940240746947 ], [ -70.933808037838503, -33.550769610227441 ], [ -70.932985623907697, -33.550422627699042 ], [ -70.932412938032613, -33.549669507423978 ], [ -70.931996561711898, -33.548998010900178 ], [ -70.931525211190745, -33.548036390041617 ], [ -70.931165452089118, -33.547303801060558 ], [ -70.930221584135268, -33.546979894829001 ], [ -70.929327948175455, -33.546288202413457 ], [ -70.929222374570003, -33.545658463654981 ], [ -70.929070509879665, -33.544581265342451 ], [ -70.928610207738174, -33.542867588259732 ], [ -70.928565491399951, -33.54094244061352 ], [ -70.927822064535448, -33.539503394842349 ], [ -70.927125392286527, -33.538516304124983 ], [ -70.926560865809165, -33.537592159228865 ], [ -70.926514497469142, -33.537450455723508 ], [ -70.926405125786658, -33.536493002099576 ], [ -70.926636371005415, -33.535421580997124 ], [ -70.926878272040071, -33.534830531713389 ], [ -70.926867610834279, -33.534350160093858 ], [ -70.926856951425123, -33.533869860685002 ], [ -70.9266551197437, -33.533392463215833 ], [ -70.926259665185952, -33.532811333002421 ], [ -70.925799367536058, -33.532177800652491 ], [ -70.924988548160613, -33.530108174327239 ], [ -70.92449861688614, -33.528140299271541 ], [ -70.924483242220049, -33.527446507568719 ], [ -70.924143388886819, -33.526490711219779 ], [ -70.923749166817629, -33.525962961847632 ], [ -70.923012754897172, -33.524372702101935 ], [ -70.922717687072435, -33.522562018976032 ], [ -70.922630313334636, -33.521495476616408 ], [ -70.922712823593486, -33.519465363989696 ], [ -70.922817866294594, -33.518449391089526 ], [ -70.922807233834902, -33.517969016091989 ], [ -70.922600653658904, -33.517278118343555 ], [ -70.922204209157712, -33.516643503804531 ], [ -70.921095092514065, -33.515486217372377 ], [ -70.920060266544425, -33.514808086862253 ], [ -70.919793517210707, -33.514278419997588 ], [ -70.919650796471615, -33.513586452449054 ], [ -70.919699675602857, -33.513455753254121 ], [ -70.919825534964062, -33.51261416686458 ], [ -70.919737128163689, -33.511259015699693 ], [ -70.919448644091659, -33.51111411726545 ], [ -70.918978994081343, -33.5108440041015 ], [ -70.91851302087548, -33.510740267743422 ], [ -70.917649729107652, -33.510642682051397 ], [ -70.916657697979844, -33.510713517973862 ], [ -70.915864282564712, -33.510781273205183 ], [ -70.914872159808723, -33.510852095532194 ], [ -70.914140146039898, -33.510696903661874 ], [ -70.913401941082128, -33.510264409873734 ], [ -70.912863666072298, -33.509884303222734 ], [ -70.91212913612236, -33.509618254837484 ], [ -70.911330843753561, -33.509464068922384 ], [ -70.910535082837214, -33.509420868983696 ], [ -70.909809006034095, -33.509543025076155 ], [ -70.908168241252483, -33.510234205551576 ], [ -70.907053443662988, -33.51075075747972 ], [ -70.906002406695748, -33.511155434881324 ], [ -70.90494779802691, -33.511393575530953 ], [ -70.904360274678268, -33.511791034153674 ], [ -70.903839042506021, -33.512187545729162 ], [ -70.902860340580389, -33.512868476996708 ], [ -70.901947828321511, -33.513548310899616 ], [ -70.901031575477788, -33.514061834427864 ], [ -70.900578948542119, -33.514568162585171 ], [ -70.900327458890118, -33.515182433344428 ], [ -70.899553387796317, -33.516137591478667 ], [ -70.898719151138039, -33.517371208142201 ], [ -70.897548896054474, -33.51838798083422 ], [ -70.89689274590971, -33.518675501061608 ], [ -70.89604019799269, -33.519076907529076 ], [ -70.895516462215738, -33.51936239288478 ], [ -70.894931349945324, -33.519870728580749 ], [ -70.8941402458954, -33.520049342162665 ], [ -70.893809092745698, -33.520054407849486 ], [ -70.893607946478852, -33.519946526779307 ], [ -70.893208162041446, -33.519841682447812 ], [ -70.892748206649671, -33.520015149517583 ], [ -70.892358178814561, -33.520354055730088 ], [ -70.892442430008415, -33.521185094084501 ], [ -70.892257079717538, -33.521798339041773 ], [ -70.891870576871597, -33.522303699274154 ], [ -70.890755524160568, -33.522820111740167 ], [ -70.890300378348826, -33.523215484627165 ], [ -70.889918685082918, -33.52394268060182 ], [ -70.889792286732543, -33.524222076459218 ], [ -70.88947318448237, -33.524781880195683 ], [ -70.889287806343717, -33.52539512061891 ], [ -70.889098717264602, -33.525841907310543 ], [ -70.888648372948069, -33.526459115932639 ], [ -70.888260711275407, -33.526908930756875 ], [ -70.887607906456751, -33.527362861946756 ], [ -70.886628902697183, -33.528043600375213 ], [ -70.885768560996766, -33.528315926596292 ], [ -70.885707676780058, -33.528335174215144 ], [ -70.884682338816461, -33.528406191848291 ], [ -70.88434985885506, -33.52835577349834 ], [ -70.883950045671568, -33.528250900420581 ], [ -70.883421400601591, -33.528314422162147 ], [ -70.882573593992646, -33.528937728928859 ], [ -70.881854608490372, -33.529392561553429 ], [ -70.881327158179715, -33.529511608730203 ], [ -70.880868328376991, -33.529740494918421 ], [ -70.880214436596859, -33.530138850962558 ], [ -70.879686890166468, -33.530257819233483 ], [ -70.878762013496015, -33.530382888802528 ], [ -70.878105619009503, -33.530670314490756 ], [ -70.877451706568081, -33.531068657265187 ], [ -70.876539914758084, -33.531803850465032 ], [ -70.875354913829142, -33.532154678776621 ], [ -70.87442881185666, -33.532224256299848 ], [ -70.873900134447339, -33.532287738430611 ], [ -70.873175004468521, -33.532465221122749 ], [ -70.872846279465023, -33.532581152013343 ], [ -70.872385017922824, -33.532699085813441 ], [ -70.8717226047239, -33.532709102634747 ], [ -70.871321676731128, -33.532548727023048 ], [ -70.870915792732916, -33.532166436653384 ], [ -70.870378746618414, -33.531841531679433 ], [ -70.86977659151043, -33.531573233227491 ], [ -70.869179302576327, -33.531526773486249 ], [ -70.86792080238915, -33.531545768038264 ], [ -70.867253626322579, -33.531333916320378 ], [ -70.866786398170262, -33.531174379085442 ], [ -70.866316790380765, -33.530904064973299 ], [ -70.865650900701681, -33.530747591142095 ], [ -70.864922277174728, -33.530758568933393 ], [ -70.863994900492855, -33.530772607175166 ], [ -70.863267552573603, -33.530838960619604 ], [ -70.862536548511159, -33.530739003602854 ], [ -70.861869478445797, -33.530527121452764 ], [ -70.860010054740883, -33.530333080403729 ], [ -70.85888766189565, -33.530516448405137 ], [ -70.857969775914754, -33.530974130987516 ], [ -70.857324069583484, -33.531760672165696 ], [ -70.856873465653806, -33.532377846778672 ], [ -70.856227651524705, -33.533164383423951 ], [ -70.855187939618219, -33.534123256942195 ], [ -70.854604856642027, -33.534742408721833 ], [ -70.854051280627971, -33.535194605778777 ], [ -70.852911669773704, -33.535686673945307 ], [ -70.852635966033233, -33.535965977945096 ], [ -70.852364452035232, -33.536441722879189 ], [ -70.852278169750505, -33.536796867022133 ], [ -70.852289069908167, -33.537307760615235 ], [ -70.852249700342526, -33.537662128473357 ], [ -70.852017551418584, -33.537783578282742 ], [ -70.851736809027685, -33.537827078537951 ], [ -70.851311128855585, -33.537676167840438 ], [ -70.850789019029278, -33.537408796500564 ], [ -70.850407659038353, -33.537139392918405 ], [ -70.85012114137848, -33.536907723660931 ], [ -70.849785113071718, -33.536558965534191 ], [ -70.849405520965277, -33.536368059676256 ], [ -70.848885935404937, -33.536218617781941 ], [ -70.848367187074444, -33.536108388485623 ], [ -70.847801615856397, -33.535998929544128 ], [ -70.847281197557805, -33.535810118291238 ], [ -70.846711361138802, -33.53550414057279 ], [ -70.846424682680478, -33.535272465435334 ], [ -70.845995684131708, -33.534964456593926 ], [ -70.84561777636641, -33.534852115606448 ], [ -70.844863547260601, -33.534706079592368 ], [ -70.844389311350753, -33.534477341332263 ], [ -70.844058320796108, -33.534364222462678 ], [ -70.843491842279633, -33.53421545626248 ], [ -70.843115610770653, -33.534181757433544 ], [ -70.842599384011166, -33.534189441582384 ], [ -70.842084824524846, -33.534275774018475 ], [ -70.840965293712131, -33.534606832409267 ], [ -70.840266318182813, -33.53485310326132 ], [ -70.839657923376862, -33.534940821044714 ], [ -70.839000948578658, -33.534950582268984 ], [ -70.838436136437025, -33.534880295588984 ], [ -70.837871415025248, -33.534810078489407 ], [ -70.837491767223227, -33.534619209952865 ], [ -70.836973960327157, -33.534548219137768 ], [ -70.83654989532593, -33.534475908889512 ], [ -70.836173576680366, -33.53444218994467 ], [ -70.835658264405851, -33.534489132588838 ], [ -70.835051526093281, -33.534655330954564 ], [ -70.834262112672732, -33.535060184807769 ], [ -70.833563942033919, -33.535345707256319 ], [ -70.832578471302625, -33.535360298855117 ], [ -70.83155188737571, -33.535650670184808 ], [ -70.830572123641417, -33.535940341177465 ], [ -70.830063339424044, -33.536301718711776 ], [ -70.829692069310397, -33.536503710350672 ], [ -70.829226969266983, -33.536707161627987 ], [ -70.828710722744546, -33.536714788645511 ], [ -70.828237253995965, -33.536525203972815 ], [ -70.827999368430625, -33.536371513038048 ], [ -70.827761393932079, -33.536217749947291 ], [ -70.827197407342197, -33.536186773710902 ], [ -70.826636730145822, -33.536313025260199 ], [ -70.825798601087428, -33.53663979510182 ], [ -70.82557054668456, -33.536957713218833 ], [ -70.82529226927079, -33.537119019610415 ], [ -70.824777760988454, -33.537205280982789 ], [ -70.824121500350884, -33.537254252790369 ], [ -70.823561724164733, -33.537419777189911 ], [ -70.823141779735721, -33.53754386524713 ], [ -70.822626439613416, -33.537590754542137 ], [ -70.821592284685281, -33.537527373645119 ], [ -70.821029115562325, -33.537535659505572 ], [ -70.82051542205194, -33.537661116890057 ], [ -70.819909457188828, -33.537866679205678 ], [ -70.819538066700915, -33.538068643976061 ], [ -70.818975716841479, -33.538116208370077 ], [ -70.818647301756755, -33.538121033394681 ], [ -70.818410162691436, -33.538006614198494 ], [ -70.818172198972675, -33.537852831553252 ], [ -70.817983622831591, -33.537816300815656 ], [ -70.817647715797392, -33.537467450512324 ], [ -70.817451000021535, -33.537037880499405 ], [ -70.816962747698312, -33.536140829362814 ], [ -70.816715746029473, -33.53555471873824 ], [ -70.816523153520777, -33.535321739350088 ], [ -70.816377387492864, -33.535087998564876 ], [ -70.816183973025673, -33.534815655484671 ], [ -70.815802726222472, -33.534546067105872 ], [ -70.815422391209268, -33.534315764937816 ], [ -70.815184442761876, -33.534161975726612 ], [ -70.814896385389602, -33.533851717279617 ], [ -70.814655976456635, -33.533580060699954 ], [ -70.814464946118207, -33.533425582778897 ], [ -70.814268991215386, -33.533035370920096 ], [ -70.814143496570196, -33.532644126189062 ], [ -70.814137748250701, -33.532368955383639 ], [ -70.814036532372697, -33.532016655770846 ], [ -70.81389086605779, -33.531782909793797 ], [ -70.813698112750643, -33.531549854344966 ], [ -70.813507176735328, -33.531395372796425 ], [ -70.81331615268509, -33.531240892469491 ], [ -70.812888108147163, -33.530972053749061 ], [ -70.812556348634644, -33.530819634182613 ], [ -70.811799010459637, -33.53051623648674 ], [ -70.811371702540214, -33.530286609512451 ], [ -70.81085221040469, -33.530136930209835 ], [ -70.810519639713462, -33.529945289044242 ], [ -70.810138518674378, -33.52967560610206 ], [ -70.809710399576275, -33.529406683886805 ], [ -70.809328466460187, -33.529097782497558 ], [ -70.808899623319974, -33.528789566694002 ], [ -70.807845398231763, -33.528332982339677 ], [ -70.807853088708924, -33.528706673461564 ], [ -70.807816337732319, -33.529081012962166 ], [ -70.807556312288497, -33.52945861352665 ], [ -70.807290928393996, -33.529574628574139 ], [ -70.806846289277814, -33.529655878777959 ], [ -70.806445404404187, -33.529699183183872 ], [ -70.805956921213919, -33.529818449346926 ], [ -70.805603160163457, -33.52997313065601 ], [ -70.805248445102194, -33.530090444236521 ], [ -70.804852303333234, -33.530357882391478 ], [ -70.804459267040244, -33.530774868629564 ], [ -70.804355233147191, -33.531201900554358 ], [ -70.804163525479041, -33.532244917556866 ], [ -70.804202631838294, -33.532653905644096 ], [ -70.80442454356124, -33.533034670786122 ], [ -70.804800258538947, -33.533464460621957 ], [ -70.805358956746744, -33.533865873329447 ], [ -70.805546993898645, -33.53409354467378 ], [ -70.805587175541319, -33.534553785666816 ], [ -70.805656890197241, -33.534962327784861 ], [ -70.805634806014297, -33.53537228168053 ], [ -70.805584870464301, -33.535910666223906 ], [ -70.805806708525381, -33.53629142825389 ], [ -70.806088244128688, -33.536594563828857 ], [ -70.807208098334911, -33.537525435086124 ], [ -70.80851087827908, -33.53842806284284 ], [ -70.809561131017091, -33.53895029717512 ], [ -70.81091768680912, -33.539493676062193 ], [ -70.811879540831598, -33.540170841060977 ], [ -70.812858150230767, -33.540813179905136 ], [ -70.813727121147807, -33.541299469548768 ], [ -70.813879399961493, -33.54151117779687 ], [ -70.814720135032545, -33.542241288932843 ], [ -70.815628960605494, -33.543303196906365 ], [ -70.815989248814788, -33.543720322856075 ], [ -70.804642765903324, -33.550945294891484 ], [ -70.799816073864307, -33.55494568297474 ], [ -70.799855880011165, -33.555019862609022 ], [ -70.798677092729051, -33.556221898586024 ], [ -70.793609102424924, -33.560675073953462 ], [ -70.788710393347898, -33.564910702964923 ], [ -70.785559397978616, -33.567431658204107 ], [ -70.783789692614391, -33.568060176120298 ], [ -70.783747231945853, -33.568046706809817 ], [ -70.783702265875988, -33.568074586296675 ], [ -70.783185821724217, -33.568082103509575 ], [ -70.778664158029784, -33.569180828118235 ], [ -70.778843004518023, -33.569153435509264 ], [ -70.784404852632747, -33.574303569232235 ], [ -70.788667388300297, -33.578293567361584 ], [ -70.790889626277107, -33.577230141374727 ], [ -70.798069358184819, -33.57333229058824 ], [ -70.798913710771515, -33.57479328460137 ], [ -70.799801267831796, -33.57634864456265 ], [ -70.799872613828285, -33.576473635447137 ], [ -70.801786028976707, -33.579613345228516 ], [ -70.803501500352311, -33.582755907352507 ], [ -70.804831732811564, -33.585351635547227 ], [ -70.805821529829259, -33.587390471385362 ], [ -70.80602570791018, -33.58889451263552 ], [ -70.806516736027646, -33.589207510558737 ], [ -70.806599245388156, -33.58962561211748 ], [ -70.807820424168554, -33.592416812885688 ], [ -70.808285508042275, -33.593036838399755 ], [ -70.80831855257, -33.593219664002241 ], [ -70.808592486629379, -33.593694433626695 ], [ -70.809673052118356, -33.594857354087559 ], [ -70.811109513054888, -33.596199072718832 ], [ -70.81417874825857, -33.59353897595004 ], [ -70.816823904986308, -33.595857378138135 ], [ -70.819085645479433, -33.598617284241207 ], [ -70.835021004034871, -33.585687690269133 ], [ -70.833351456333247, -33.584474182760196 ], [ -70.833224819031017, -33.584428844072015 ], [ -70.832111392270647, -33.583589639242042 ], [ -70.833245591673631, -33.582556415668122 ], [ -70.833494290260049, -33.582392721472559 ], [ -70.834419490324009, -33.582249210025239 ], [ -70.838610644062442, -33.581800415934865 ], [ -70.844535585825113, -33.581222072764035 ], [ -70.84713691375012, -33.581094690166672 ], [ -70.847780499159015, -33.581021315747471 ], [ -70.848024742999939, -33.580594658761939 ], [ -70.849160531522671, -33.578068834013258 ], [ -70.849466336011687, -33.576865008035497 ] ] ] } },
{ "type": "Feature", "properties": { "capa": "ds19", "popup": "<strong>CONDOMINIO MIRADOR DEL SOL III</strong><br><br><strong>Programa:</strong> DS19<br><strong>Comuna:</strong> Padre Hurtado<br><strong>Región:</strong> Metropolitana<br><strong>Año de inicio:</strong> 2020", "etiqueta": "CONDOMINIO MIRADOR DEL SOL III" }, "geometry": { "type": "Polygon", "coordinates": [ [ [ -70.826741328180873, -33.560530006057263 ], [ -70.826775444398734, -33.560087409507041 ], [ -70.8269320297359, -33.559859736274291 ], [ -70.826434225626272, -33.559635922098863 ], [ -70.826579532615057, -33.559306548070644 ], [ -70.826464659649773, -33.559257080474559 ], [ -70.826326417012382, -33.559585712852289 ], [ -70.826286689917268, -33.559660562968538 ], [ -70.826335293265728, -33.559679445039826 ], [ -70.825885238206666, -33.560375038086256 ], [ -70.825497519041861, -33.560863210319674 ], [ -70.826214032380463, -33.561277399474342 ], [ -70.826741328180873, -33.560530006057263 ] ] ] } },
{ "type": "Feature", "properties": { "capa": "ds19", "popup": "<strong>CONDOMINIO MIRADOR DEL SOL II</strong><br><br><strong>Programa:</strong> DS19<br><strong>Comuna:</strong> Padre Hurtado<br><strong>Región:</strong> Metropolitana<br><strong>Año de inicio:</strong> 2020", "etiqueta": "CONDOMINIO MIRADOR DEL SOL II" }, "geometry": { "type": "Polygon", "coordinates": [ [ [ -70.825885899366739, -33.560368975421646 ], [ -70.826340552901712, -33.559679176301202 ], [ -70.82639562501852, -33.559704478899143 ], [ -70.826434225626272, -33.559635922098863 ], [ -70.826579532615057, -33.559306548070644 ], [ -70.826464659649773, -33.559257080474559 ], [ -70.826326417012382, -33.559585712852289 ], [ -70.825488486481674, -33.559200156248252 ], [ -70.824598058405755, -33.560351371309594 ], [ -70.825497519041861, -33.560863210319674 ], [ -70.825885899366739, -33.560368975421646 ] ] ] } },
{ "type": "Feature", "properties": { "capa": "ds19", "popup": "<strong>CONDOMINIO MIRADOR DEL SOL I</strong><br><br><strong>Programa:</strong> DS19<br><strong>Comuna:</strong> Padre Hurtado<br><strong>Región:</strong> Metropolitana<br><strong>Año de inicio:</strong> 2020", "etiqueta": "CONDOMINIO MIRADOR DEL SOL I" }, "geometry": { "type": "Polygon", "coordinates": [ [ [ -70.823958758859078, -33.561148610838003 ], [ -70.825566962406583, -33.562104690163238 ], [ -70.825935719932403, -33.561669797610911 ], [ -70.826279284206066, -33.561862625260289 ], [ -70.826350510726627, -33.561770703956824 ], [ -70.826002639031159, -33.561569547633525 ], [ -70.826215287326903, -33.561275102138502 ], [ -70.824597680215007, -33.560350511951583 ], [ -70.823958758859078, -33.561148610838003 ] ] ] } },
{ "type": "Feature", "properties": { "capa": "ds19", "popup": "<strong>ESCULTOR VIRGINIO ARIAS</strong><br><br><strong>Programa:</strong> DS19<br><strong>Comuna:</strong> Padre Hurtado<br><strong>Región:</strong> Metropolitana<br><strong>Año de inicio:</strong> 2020", "etiqueta": "ESCULTOR VIRGINIO ARIAS" }, "geometry": { "type": "Polygon", "coordinates": [ [ [ -70.810949912073298, -33.59063480371951 ], [ -70.809507401881632, -33.590284430644992 ], [ -70.807755201089037, -33.59205434637429 ], [ -70.808328766414789, -33.593226766720342 ], [ -70.810949912073298, -33.59063480371951 ] ] ] } },
{ "type": "Feature", "properties": { "capa": "ds19", "popup": "<strong>CONDOMINIO EL TRÉBOL</strong><br><br><strong>Programa:</strong> DS19<br><strong>Comuna:</strong> Padre Hurtado<br><strong>Región:</strong> Metropolitana<br><strong>Año de inicio:</strong> 2021", "etiqueta": "CONDOMINIO EL TRÉBOL" }, "geometry": { "type": "Polygon", "coordinates": [ [ [ -70.798786467106467, -33.572009300055974 ], [ -70.797583666060149, -33.571052087923242 ], [ -70.797054016673698, -33.571435725667165 ], [ -70.792960605926382, -33.568247131729457 ], [ -70.792697098612507, -33.568548757003292 ], [ -70.797234281601774, -33.572212804699639 ], [ -70.797668885637904, -33.57300006103393 ], [ -70.798786467106467, -33.572009300055974 ] ] ] } },
{ "type": "Feature", "properties": { "capa": "ds19", "popup": "<strong>CONDOMINIO PARQUE CURAMAPU</strong><br><br><strong>Programa:</strong> DS19<br><strong>Comuna:</strong> Padre Hurtado<br><strong>Región:</strong> Metropolitana<br><strong>Año de inicio:</strong> 2021", "etiqueta": "CONDOMINIO PARQUE CURAMAPU" }, "geometry": { "type": "Polygon", "coordinates": [ [ [ -70.805193894906537, -33.572640431962277 ], [ -70.804771199836125, -33.572201103167551 ], [ -70.804458280690042, -33.571929613555938 ], [ -70.803972898484176, -33.572417054334807 ], [ -70.803800581849742, -33.572976609531686 ], [ -70.804304799032181, -33.573409504390114 ], [ -70.805193894906537, -33.572640431962277 ] ] ] } },
{ "type": "Feature", "properties": { "capa": "ds19", "popup": "<strong>ESCRITOR MIGUEL ARTECHE ETAPA 3</strong><br><br><strong>Programa:</strong> DS19<br><strong>Comuna:</strong> Padre Hurtado<br><strong>Región:</strong> Metropolitana<br><strong>Año de inicio:</strong> 2017", "etiqueta": "ESCRITOR MIGUEL ARTECHE ETAPA 3" }, "geometry": { "type": "Polygon", "coordinates": [ [ [ -70.799858785162812, -33.574245755288572 ], [ -70.800052018170319, -33.574553727388768 ], [ -70.801567087084109, -33.573250737158531 ], [ -70.801724785433919, -33.573399115813132 ], [ -70.801808176041746, -33.573312768577416 ], [ -70.800674662951621, -33.572293058275633 ], [ -70.800575428757128, -33.572354156297543 ], [ -70.800600283344409, -33.572396307627784 ], [ -70.800267020950415, -33.572651105794989 ], [ -70.800095953872543, -33.572545328436199 ], [ -70.799570373854323, -33.573017472458517 ], [ -70.799615680385656, -33.573239853831716 ], [ -70.799631073018062, -33.57351971079855 ], [ -70.79967415891403, -33.573764703155902 ], [ -70.799755649585023, -33.574041509980184 ], [ -70.799858785162812, -33.574245755288572 ] ] ] } },
{ "type": "Feature", "properties": { "capa": "ds19", "popup": "<strong>ESCRITOR MIGUEL ARTECHE ETAPA 4</strong><br><br><strong>Programa:</strong> DS19<br><strong>Comuna:</strong> Padre Hurtado<br><strong>Región:</strong> Metropolitana<br><strong>Año de inicio:</strong> 2017", "etiqueta": "ESCRITOR MIGUEL ARTECHE ETAPA 4" }, "geometry": { "type": "Polygon", "coordinates": [ [ [ -70.800568164081426, -33.572344723384319 ], [ -70.800674468017206, -33.572286607245296 ], [ -70.799546866739959, -33.571327697653146 ], [ -70.79940607917537, -33.571460372900034 ], [ -70.798849360854447, -33.571056554085096 ], [ -70.798340363736372, -33.571428944495864 ], [ -70.798325250480048, -33.571518425975071 ], [ -70.798827256010256, -33.571919904411111 ], [ -70.799094633266364, -33.572152534382631 ], [ -70.799236519470554, -33.572327332781072 ], [ -70.799398927687392, -33.572533711525644 ], [ -70.799491712876474, -33.572719417993753 ], [ -70.799571711445765, -33.573007758196837 ], [ -70.800097290565674, -33.572535317729596 ], [ -70.800264833552703, -33.572640592133389 ], [ -70.800591998182526, -33.572391060137456 ], [ -70.800568164081426, -33.572344723384319 ] ] ] } },
{ "type": "Feature", "properties": { "capa": "ds19", "popup": "<strong>LOS ALAMOS 3</strong><br><br><strong>Programa:</strong> DS19<br><strong>Comuna:</strong> Padre Hurtado<br><strong>Región:</strong> Metropolitana<br><strong>Año de inicio:</strong> 2018", "etiqueta": "LOS ALAMOS 3" }, "geometry": { "type": "Polygon", "coordinates": [ [ [ -70.801255202797236, -33.579334559527695 ], [ -70.80308109598586, -33.577921963962559 ], [ -70.801148427245948, -33.576311874886976 ], [ -70.800543752363566, -33.575827859985864 ], [ -70.799844238743404, -33.576302007567563 ], [ -70.800591195088685, -33.577596020092663 ], [ -70.800389637393437, -33.577724435433488 ], [ -70.801255202797236, -33.579334559527695 ] ] ] } },
{ "type": "Feature", "properties": { "capa": "ds19", "popup": "<strong>Los Alamos 4 (EX Los Álamos 3 Etapa 2)</strong><br><br><strong>Programa:</strong> DS19<br><strong>Comuna:</strong> Padre Hurtado<br><strong>Región:</strong> Metropolitana<br><strong>Año de inicio:</strong> 2018", "etiqueta": "Los Alamos 4 (EX Los Álamos 3 Etapa 2)" }, "geometry": { "type": "Polygon", "coordinates": [ [ [ -70.801255202797236, -33.579334559527695 ], [ -70.80308109598586, -33.577921963962559 ], [ -70.801148427245948, -33.576311874886976 ], [ -70.800543752363566, -33.575827859985864 ], [ -70.799844238743404, -33.576302007567563 ], [ -70.800591195088685, -33.577596020092663 ], [ -70.800389637393437, -33.577724435433488 ], [ -70.801255202797236, -33.579334559527695 ] ] ] } },
{ "type": "Feature", "properties": { "capa": "ds19", "popup": "<strong>PINTOR PABLO BURCHARD ETAPA I</strong><br><br><strong>Programa:</strong> DS19<br><strong>Comuna:</strong> Padre Hurtado<br><strong>Región:</strong> Metropolitana<br><strong>Año de inicio:</strong> 2018", "etiqueta": "PINTOR PABLO BURCHARD ETAPA I" }, "geometry": { "type": "Polygon", "coordinates": [ [ [ -70.809647964867409, -33.590195739381848 ], [ -70.806653279950808, -33.589249193441873 ], [ -70.80654675143623, -33.589288632845125 ], [ -70.80765940923871, -33.591783255948243 ], [ -70.809647964867409, -33.590195739381848 ] ] ] } },
{ "type": "Feature", "properties": { "capa": "ds19", "popup": "<strong>SAN IGNACIO I</strong><br><br><strong>Programa:</strong> DS19<br><strong>Comuna:</strong> Padre Hurtado<br><strong>Región:</strong> Metropolitana de Santiago<br><strong>Año de inicio:</strong> 2023", "etiqueta": "SAN IGNACIO I" }, "geometry": { "type": "Polygon", "coordinates": [ [ [ -70.813753147138215, -33.577446424983172 ], [ -70.813123976096378, -33.577517684410665 ], [ -70.812991877037206, -33.577629401124391 ], [ -70.814278964311669, -33.5777496915806 ], [ -70.816068812599511, -33.576564918405111 ], [ -70.815486029660633, -33.575601725878357 ], [ -70.813753147138215, -33.577446424983172 ] ] ] } },
{ "type": "Feature", "properties": { "capa": "ds19", "popup": "<strong>SAN IGNACIO II</strong><br><br><strong>Programa:</strong> DS19<br><strong>Comuna:</strong> Padre Hurtado<br><strong>Región:</strong> Metropolitana de Santiago<br><strong>Año de inicio:</strong> 2023", "etiqueta": "SAN IGNACIO II" }, "geometry": { "type": "Polygon", "coordinates": [ [ [ -70.816073026596527, -33.576563273357827 ], [ -70.814278836750887, -33.577755246345333 ], [ -70.812991877037206, -33.577629401124391 ], [ -70.812884645141736, -33.57775524035798 ], [ -70.814906456402241, -33.578484171772708 ], [ -70.816479611280613, -33.577220976929965 ], [ -70.816073026596527, -33.576563273357827 ] ] ] } },
{ "type": "Feature", "properties": { "capa": "colegios", "popup": "<strong>ESCUELA BÁSICA Y ESPECIAL N°90 AMANECER</strong><br><br><strong>Dirección:</strong> SAN IGNACIO 727", "etiqueta": "" }, "geometry": { "type": "Point", "coordinates": [ -70.81392447, -33.57670014 ] } },
{ "type": "Feature", "properties": { "capa": "colegios", "popup": "<strong>LICEO BICENTENARIO DE EXCELENCIA PATRICIO MEKIS DE PADRE HURTADO</strong><br><br><strong>Dirección:</strong> PRIMERA TRANSVERSAL 2378", "etiqueta": "" }, "geometry": { "type": "Point", "coordinates": [ -70.8104399, -33.57483402 ] } },
{ "type": "Feature", "properties": { "capa": "colegios", "popup": "<strong>ESCUELA ESPECIAL ANTAY</strong><br><br><strong>Dirección:</strong> LOS SILOS 428", "etiqueta": "" }, "geometry": { "type": "Point", "coordinates": [ -70.80918, -33.574375 ] } },
{ "type": "Feature", "properties": { "capa": "colegios", "popup": "<strong>ESC. DE PARV. Y ESP. AMANECER DE PADRE HURTA</strong><br><br><strong>Dirección:</strong> LOS SILOS 691", "etiqueta": "" }, "geometry": { "type": "Point", "coordinates": [ -70.80985, -33.573837 ] } },
{ "type": "Feature", "properties": { "capa": "colegios", "popup": "<strong>ESC. BAS.PART.FRANCISCO DE AGUIRRE</strong><br><br><strong>Dirección:</strong> SAN IGNACIO 181", "etiqueta": "" }, "geometry": { "type": "Point", "coordinates": [ -70.817281600000015, -33.57296094 ] } },
{ "type": "Feature", "properties": { "capa": "colegios", "popup": "<strong>ESCUELA ESPECIAL TERRA BAMBINI</strong><br><br><strong>Dirección:</strong> BUENOS AIRES 2300", "etiqueta": "" }, "geometry": { "type": "Point", "coordinates": [ -70.81188, -33.572926 ] } },
{ "type": "Feature", "properties": { "capa": "colegios", "popup": "<strong>ESCUELA REPUBLICA ARGENTINA</strong><br><br><strong>Dirección:</strong> FRANCISCO DE BORJA 101", "etiqueta": "" }, "geometry": { "type": "Point", "coordinates": [ -70.82072865, -33.57234732 ] } },
{ "type": "Feature", "properties": { "capa": "colegios", "popup": "<strong>CENTRO EDUCACIONAL DE ADULTOS PADRE ALBERTO HURTADO</strong><br><br><strong>Dirección:</strong> LOS SILOS 403", "etiqueta": "" }, "geometry": { "type": "Point", "coordinates": [ -70.813126, -33.572292 ] } },
{ "type": "Feature", "properties": { "capa": "colegios", "popup": "<strong>COLEGIO ALBERTO HURTADO CRUCHAGA</strong><br><br><strong>Dirección:</strong> AVENIDA LOS SILOS 403", "etiqueta": "" }, "geometry": { "type": "Point", "coordinates": [ -70.81313369, -33.572287810000013 ] } },
{ "type": "Feature", "properties": { "capa": "colegios", "popup": "<strong>COLEGIO BOSTON COLLEGE LAGUNA DEL SOL</strong><br><br><strong>Dirección:</strong> SANTA HERMINIA PONIENTE 701", "etiqueta": "" }, "geometry": { "type": "Point", "coordinates": [ -70.82861, -33.56979 ] } },
{ "type": "Feature", "properties": { "capa": "colegios", "popup": "<strong>JARDIN INFANTIL ARBOL DE LOS SUEÑOS</strong><br><br><strong>Dirección:</strong> BAJOS DE SANTA CRUZ 324", "etiqueta": "" }, "geometry": { "type": "Point", "coordinates": [ -70.816797, -33.569698 ] } },
{ "type": "Feature", "properties": { "capa": "colegios", "popup": "<strong>ESCUELA BASICA PARTICULAR BRASILIA</strong><br><br><strong>Dirección:</strong> MALAGA 321", "etiqueta": "" }, "geometry": { "type": "Point", "coordinates": [ -70.81033128, -33.569338600000016 ] } },
{ "type": "Feature", "properties": { "capa": "colegios", "popup": "<strong>ESC.BASICA PART.BENJAMIN VERGARA</strong><br><br><strong>Dirección:</strong> JOSE LUIS CARO 171", "etiqueta": "" }, "geometry": { "type": "Point", "coordinates": [ -70.81639839, -33.567420079999984 ] } },
{ "type": "Feature", "properties": { "capa": "colegios", "popup": "<strong>ESC ESP STA MARTA DE PADRE HURTADO</strong><br><br><strong>Dirección:</strong> AVENIDA EL TREBOL 590", "etiqueta": "" }, "geometry": { "type": "Point", "coordinates": [ -70.7951, -33.566578 ] } },
{ "type": "Feature", "properties": { "capa": "colegios", "popup": "<strong>COLEGIO PEUMAYEN</strong><br><br><strong>Dirección:</strong> CAMINO MELIPILLA 25.5", "etiqueta": "" }, "geometry": { "type": "Point", "coordinates": [ -70.80999994, -33.56575727 ] } },
{ "type": "Feature", "properties": { "capa": "colegios", "popup": "<strong>COMPLEJO EDUC.PART. LUIS PASTEUR</strong><br><br><strong>Dirección:</strong> EL TREBOL 885", "etiqueta": "" }, "geometry": { "type": "Point", "coordinates": [ -70.79661397, -33.56570172 ] } },
{ "type": "Feature", "properties": { "capa": "colegios", "popup": "<strong>COMPLEJO EDUC. LUIS PASTEUR, ANEXO</strong><br><br><strong>Dirección:</strong> LUIS PASTEUR 417", "etiqueta": "" }, "geometry": { "type": "Point", "coordinates": [ -70.80379269, -33.56555219 ] } },
{ "type": "Feature", "properties": { "capa": "colegios", "popup": "<strong>ESCUELA ESPECIAL KAYROS KIDS</strong><br><br><strong>Dirección:</strong> TERCERA AVENIDA 945", "etiqueta": "" }, "geometry": { "type": "Point", "coordinates": [ -70.7931, -33.565357 ] } },
{ "type": "Feature", "properties": { "capa": "colegios", "popup": "<strong>ESCUELA ESPECIAL ALIANZA MISIONERA</strong><br><br><strong>Dirección:</strong> EL PARRONAL 265", "etiqueta": "" }, "geometry": { "type": "Point", "coordinates": [ -70.80532, -33.565285 ] } },
{ "type": "Feature", "properties": { "capa": "colegios", "popup": "<strong>ESCUELA ESPECIAL EL TREBOL</strong><br><br><strong>Dirección:</strong> CALLE ALBERTO BLEST GANA 738", "etiqueta": "" }, "geometry": { "type": "Point", "coordinates": [ -70.798096, -33.5651 ] } },
{ "type": "Feature", "properties": { "capa": "colegios", "popup": "<strong>ESCUELA DE PARVULOS MUNDO MAGICO</strong><br><br><strong>Dirección:</strong> TERCERA AVENIDA 406", "etiqueta": "" }, "geometry": { "type": "Point", "coordinates": [ -70.79365, -33.564884 ] } },
{ "type": "Feature", "properties": { "capa": "colegios", "popup": "<strong>ESCUELA ESP SANTA MARCELA CRECER</strong><br><br><strong>Dirección:</strong> LUIS PASTEUR 123", "etiqueta": "" }, "geometry": { "type": "Point", "coordinates": [ -70.80485, -33.564583 ] } },
{ "type": "Feature", "properties": { "capa": "colegios", "popup": "<strong>INSTITUTO PREMILITAR DE CHILE</strong><br><br><strong>Dirección:</strong> AVENIDA EL TREBOL 794", "etiqueta": "" }, "geometry": { "type": "Point", "coordinates": [ -70.796595, -33.564502 ] } },
{ "type": "Feature", "properties": { "capa": "colegios", "popup": "<strong>ESCUELA ESP. PART. S.M. CRECER</strong><br><br><strong>Dirección:</strong> EL PARRONAL 277", "etiqueta": "" }, "geometry": { "type": "Point", "coordinates": [ -70.80464, -33.563984 ] } },
{ "type": "Feature", "properties": { "capa": "colegios", "popup": "<strong>COLEGIO SANTA MARIA GORETTI DE PADRE HUR</strong><br><br><strong>Dirección:</strong> AVENIDA TREBOL 84", "etiqueta": "" }, "geometry": { "type": "Point", "coordinates": [ -70.79833526, -33.56367888 ] } },
{ "type": "Feature", "properties": { "capa": "colegios", "popup": "<strong>LICEO BICENTENARIO DE EXCELENCIA PAUL HARRIS</strong><br><br><strong>Dirección:</strong> PRIMERA TRANSVERSAL 420", "etiqueta": "" }, "geometry": { "type": "Point", "coordinates": [ -70.796467, -33.563123220000016 ] } },
{ "type": "Feature", "properties": { "capa": "colegios", "popup": "<strong>COLEGIO POLIV. SAN CRISTOBAL APOSTOL</strong><br><br><strong>Dirección:</strong> PRIMERA AVENIDA 871", "etiqueta": "" }, "geometry": { "type": "Point", "coordinates": [ -70.79226818, -33.56217887 ] } },
{ "type": "Feature", "properties": { "capa": "colegios", "popup": "<strong>ESCUELA CRISTAL CHILE</strong><br><br><strong>Dirección:</strong> PEDRO AGUIRRE CERDA 2156", "etiqueta": "" }, "geometry": { "type": "Point", "coordinates": [ -70.81898755, -33.56195335 ] } },
{ "type": "Feature", "properties": { "capa": "colegios", "popup": "<strong>ESCUELA ESPECIAL MIS ANGELITOS</strong><br><br><strong>Dirección:</strong> SEGUNDA AVENIDA 470", "etiqueta": "" }, "geometry": { "type": "Point", "coordinates": [ -70.79673, -33.560482 ] } },
{ "type": "Feature", "properties": { "capa": "colegios", "popup": "<strong>ESCUELA LA ESPERANZA</strong><br><br><strong>Dirección:</strong> VILLORRIO SANTA LUISA 0", "etiqueta": "" }, "geometry": { "type": "Point", "coordinates": [ -70.864156679999979, -33.55413916 ] } },
{ "type": "Feature", "properties": { "capa": "jardines", "popup": "<strong>RENATO POBLETE</strong><br><br><strong>Dirección:</strong> IGNACIO CARRERA PINTO 669 ", "etiqueta": "" }, "geometry": { "type": "MultiPoint", "coordinates": [ [ -70.799432, -33.565669 ] ] } },
{ "type": "Feature", "properties": { "capa": "jardines", "popup": "<strong>LOS CHIQUITINES</strong><br><br><strong>Dirección:</strong> PASAJE ALSACIA 2242, VILLA FRANCIA ", "etiqueta": "" }, "geometry": { "type": "MultiPoint", "coordinates": [ [ -70.807481, -33.575305 ] ] } },
{ "type": "Feature", "properties": { "capa": "jardines", "popup": "<strong>CRISTAL CHILE</strong><br><br><strong>Dirección:</strong> PRESIDENTE RIOS N:796 ", "etiqueta": "" }, "geometry": { "type": "MultiPoint", "coordinates": [ [ -70.820492, -33.562328 ] ] } },
{ "type": "Feature", "properties": { "capa": "jardines", "popup": "<strong>ÑUBLE</strong><br><br><strong>Dirección:</strong> ÑUBLE 1100 ", "etiqueta": "" }, "geometry": { "type": "MultiPoint", "coordinates": [ [ -70.805992, -33.575298 ] ] } },
{ "type": "Feature", "properties": { "capa": "jardines", "popup": "<strong>NA</strong><br><br><strong>Dirección:</strong> NA ", "etiqueta": "" }, "geometry": { "type": "MultiPoint", "coordinates": [ [ -70.814255999529379, -33.5741790003459 ] ] } },
{ "type": "Feature", "properties": { "capa": "comisarias", "popup": "<strong>SCOM. PADRE HURTADO (M.C.)</strong><br><br><strong>Dirección:</strong> MELIPILLA 2333", "etiqueta": "" }, "geometry": { "type": "Point", "coordinates": [ -70.81537, -33.569 ] } },
{ "type": "Feature", "properties": { "capa": "comisarias", "popup": "<strong>TCIA. SANTA ROSA CHENA</strong><br><br><strong>Dirección:</strong> TENIENTE DE CARABINEROS JAIME SAENZ NEIRA 835", "etiqueta": "" }, "geometry": { "type": "Point", "coordinates": [ -70.795659, -33.56417 ] } },
{ "type": "Feature", "properties": { "capa": "salud", "popup": "<strong>Centro de Salud Familiar Juan Pablo II ( Padre Hurtado)</strong><br><br><strong>Tipo de atención:</strong> Centro de Salud Familiar (CESFAM)<br><strong>Dirección:</strong>  1657", "etiqueta": "" }, "geometry": { "type": "Point", "coordinates": [ -70.80515, -33.56978 ] } },
{ "type": "Feature", "properties": { "capa": "salud", "popup": "<strong>SAPU Santa Rosa de Chena</strong><br><br><strong>Tipo de atención:</strong> Servicio de Atención Primaria de Urgencia (SAPU)<br><strong>Dirección:</strong>  823", "etiqueta": "" }, "geometry": { "type": "Point", "coordinates": [ -70.795882, -33.564063 ] } },
{ "type": "Feature", "properties": { "capa": "salud", "popup": "<strong>Centro Médico MAGNAVIDA</strong><br><br><strong>Tipo de atención:</strong> Centro de Salud Privado<br><strong>Dirección:</strong>  956", "etiqueta": "" }, "geometry": { "type": "Point", "coordinates": [ -70.798519, -33.56355 ] } }
]
}
