{
"type": "FeatureCollection",
"name": "1402",
"crs": { "type": "name", "properties": { "name": "urn:ogc:def:crs:OGC:1.3:CRS84" } },
"features": [
{ "type": "Feature", "properties": { "capa": "comuna", "popup": "", "etiqueta": "" }, "geometry": { "type": "Polygon", "coordinates": [ [ [ -69.316177242756936, -19.131054246555824 ], [ -69.31680717018024, -19.131766754622159 ], [ -69.316860445666507, -19.131849035964557 ], [ -69.317561282505068, -19.13293143111353 ], [ -69.318145102099791, -19.134208227876847 ], [ -69.318197114554749, -19.134321978973311 ], [ -69.31820128992419, -19.134405913979187 ], [ -69.318238274462757, -19.135149375130215 ], [ -69.318188732374836, -19.135604658214291 ], [ -69.318160497427129, -19.135864139985742 ], [ -69.317890000322052, -19.136509999570659 ], [ -69.317138795843789, -19.13561447064318 ], [ -69.316883140703823, -19.135309696940563 ], [ -69.308588303982788, -19.155043572897025 ], [ -69.295242246707332, -19.184879968785108 ], [ -69.286059691229269, -19.203159104274473 ], [ -69.279595789940529, -19.220403452285172 ], [ -69.274095718967899, -19.231148135265439 ], [ -69.271617883343296, -19.236266996335324 ], [ -69.26889817093857, -19.238792467426791 ], [ -69.201850212429122, -19.268991243255986 ], [ -69.175060473464725, -19.281237320306158 ], [ -69.163812517773607, -19.286064711865659 ], [ -69.147057461792784, -19.293995740046864 ], [ -69.142158450881794, -19.296186662501057 ], [ -69.147839893506927, -19.300492936429528 ], [ -69.166698534388601, -19.314050826326749 ], [ -69.170140439281155, -19.318180789093045 ], [ -69.169963797258646, -19.319240636930392 ], [ -69.170468167154695, -19.320305416743949 ], [ -69.171140658552801, -19.321033949605088 ], [ -69.171925232748904, -19.322378932640913 ], [ -69.172485642247324, -19.323835998667153 ], [ -69.173046052644068, -19.325124941749088 ], [ -69.173998749240539, -19.327422622147452 ], [ -69.175455814834734, -19.328151154638988 ], [ -69.177137044228317, -19.328599483515024 ], [ -69.178717127812504, -19.329635673768387 ], [ -69.179098477921968, -19.330953203700734 ], [ -69.17943472541765, -19.332802557212776 ], [ -69.179995134916069, -19.333475048290978 ], [ -69.180331380615115, -19.334259622660081 ], [ -69.180667626314175, -19.335324400369956 ], [ -69.181340118610592, -19.336669384415188 ], [ -69.181788446209325, -19.337622081383785 ], [ -69.182012610008698, -19.338518738458692 ], [ -69.183245511803548, -19.340536213280874 ], [ -69.183805922200264, -19.341657033342855 ], [ -69.184198209298344, -19.342833893838279 ], [ -69.184814660195755, -19.343786590430668 ], [ -69.185599232595223, -19.344739287395168 ], [ -69.185543192992853, -19.346084271001303 ], [ -69.185599232595223, -19.347093009695385 ], [ -69.185487151593847, -19.348213829651186 ], [ -69.185823397292907, -19.349670894000511 ], [ -69.185823397292907, -19.351184000770118 ], [ -69.186215683492648, -19.35247294408828 ], [ -69.186551929191694, -19.353145436338654 ], [ -69.187448586185809, -19.353481680576671 ], [ -69.188121077583901, -19.354378337812577 ], [ -69.189297937979745, -19.355443116486786 ], [ -69.190474799273915, -19.356227690348842 ], [ -69.191427496768696, -19.357740797321394 ], [ -69.192828521862225, -19.3583572479581 ], [ -69.194117464157756, -19.35880557607943 ], [ -69.194902037455535, -19.35970223116696 ], [ -69.195966815951692, -19.360935133078517 ], [ -69.196919513446488, -19.361831789168583 ], [ -69.197704086744281, -19.362784485840383 ], [ -69.198432620439718, -19.36351301897102 ], [ -69.199721562735235, -19.364521757514151 ], [ -69.200898423131079, -19.364914043416412 ], [ -69.202019243924553, -19.364970083940385 ], [ -69.203027981021719, -19.364577796477999 ], [ -69.204092760416188, -19.36412946982044 ], [ -69.205157538014021, -19.363793223806312 ], [ -69.20599815360913, -19.36356905997658 ], [ -69.207455219203354, -19.363625100962903 ], [ -69.208295834798449, -19.363625100962903 ], [ -69.209472695194307, -19.363456977098643 ], [ -69.210985801289183, -19.363344895838654 ], [ -69.211714334984606, -19.363681141929966 ], [ -69.213266046178845, -19.363732865712674 ], [ -69.213395563479878, -19.363737182877781 ], [ -69.214292219575654, -19.364017387327795 ], [ -69.214964711872085, -19.363905305605556 ], [ -69.215805326568884, -19.363793224653801 ], [ -69.217206350764087, -19.36356905997658 ], [ -69.21827113015857, -19.36356905997658 ], [ -69.219728195752779, -19.363905305605556 ], [ -69.22101713804831, -19.364577797325477 ], [ -69.221745670845408, -19.365362371306247 ], [ -69.222362122641144, -19.366595273637369 ], [ -69.222978573538569, -19.367660051351226 ], [ -69.22328359828991, -19.368829319867142 ], [ -69.223314818339304, -19.368948994951044 ], [ -69.223595023537669, -19.370350019284608 ], [ -69.224435638234453, -19.371751044285769 ], [ -69.224883966731511, -19.37253561848269 ], [ -69.225052089131879, -19.374104765713028 ], [ -69.225052089131879, -19.375449750342707 ], [ -69.224996047732873, -19.376402446226198 ], [ -69.225220212430571, -19.377411183800866 ], [ -69.225836663327982, -19.378251798900767 ], [ -69.227069566021143, -19.379484699471451 ], [ -69.227742057419249, -19.380045110513183 ], [ -69.22841454971568, -19.380885724731662 ], [ -69.229087041113772, -19.38161425829044 ], [ -69.230039737710243, -19.382735078196944 ], [ -69.230319942908622, -19.383575692937274 ], [ -69.230824311008035, -19.384640472384319 ], [ -69.23138472140478, -19.385761291800087 ], [ -69.232001173200516, -19.386657946862236 ], [ -69.232729705997613, -19.387890849890411 ], [ -69.233906565495147, -19.389908324766498 ], [ -69.234354894890515, -19.390973102626241 ], [ -69.235139467289997, -19.391701636809245 ], [ -69.236316328584138, -19.392262046478098 ], [ -69.2374716312098, -19.392635823864119 ], [ -69.238654606437791, -19.393367912847125 ], [ -69.239532630576264, -19.393504361741609 ], [ -69.242344946710389, -19.393941377722623 ], [ -69.247367109460285, -19.393645441258961 ], [ -69.250158078928308, -19.392781534048851 ], [ -69.250550739725512, -19.39259829220066 ], [ -69.251391353523999, -19.391813718049999 ], [ -69.252680296717827, -19.391253308532285 ], [ -69.254417568408741, -19.391029144354462 ], [ -69.255594427906274, -19.390917062573457 ], [ -69.257219617697459, -19.390861021654015 ], [ -69.258396478093303, -19.391365390081766 ], [ -69.258429126464009, -19.391374459335875 ], [ -69.259405216088794, -19.391645595312543 ], [ -69.260245829887268, -19.391645595312543 ], [ -69.261142485983044, -19.391645595312543 ], [ -69.261646854980796, -19.391757677439244 ], [ -69.2624314291769, -19.391869759488788 ], [ -69.263103920575006, -19.391869759488788 ], [ -69.263720371472417, -19.392037882842089 ], [ -69.264560987067526, -19.39220600517438 ], [ -69.265345561263644, -19.392206004327001 ], [ -69.265849929363057, -19.391813718049999 ], [ -69.266018052661735, -19.391309349316671 ], [ -69.266578462160169, -19.390804979867934 ], [ -69.267061098216246, -19.39032234453331 ], [ -69.267082830259582, -19.390300611398516 ], [ -69.267755322556013, -19.38996436601392 ], [ -69.268483855353111, -19.389459996634763 ], [ -69.269268429549228, -19.389011668963086 ], [ -69.270165084746694, -19.38856334090416 ], [ -69.270725495143424, -19.38817105432274 ], [ -69.271790274537906, -19.387442520439787 ], [ -69.272574847835685, -19.386713988381128 ], [ -69.273359422031803, -19.386545865461351 ], [ -69.274087955727211, -19.386826069666306 ], [ -69.27464836522563, -19.387554602918158 ], [ -69.275320856623736, -19.388283135452223 ], [ -69.275682295574939, -19.389096373595017 ], [ -69.275769184222483, -19.389291873161124 ], [ -69.276273553220207, -19.390468733830382 ], [ -69.276609799817592, -19.391365390081766 ], [ -69.27733833261469, -19.392374128180336 ], [ -69.278178947311488, -19.39276641480145 ], [ -69.278963520609267, -19.39355098859664 ], [ -69.27956521577984, -19.393643557612322 ], [ -69.279692053406379, -19.393663071105991 ], [ -69.28046283666626, -19.393474727536894 ], [ -69.28113212287542, -19.393501452805676 ], [ -69.281933694095002, -19.393719111908034 ], [ -69.283166594093217, -19.393887235045792 ], [ -69.28423583991129, -19.394065066857468 ], [ -69.285146657049225, -19.394065066857468 ], [ -69.286114399528387, -19.394065066857468 ], [ -69.287082142905874, -19.394121992993419 ], [ -69.28770028263601, -19.394353817956237 ], [ -69.287982482992632, -19.394582703167959 ], [ -69.288334515684497, -19.394634327321167 ], [ -69.288776670060614, -19.394501680541136 ], [ -69.289205575184582, -19.394353817956237 ], [ -69.289542760521428, -19.394365859514888 ], [ -69.290156149960353, -19.394463550238456 ], [ -69.290782335900502, -19.394463549391105 ], [ -69.291920857098333, -19.394463549391105 ], [ -69.292831674236268, -19.394463550238456 ], [ -69.293856342954996, -19.394691254105354 ], [ -69.294994864152812, -19.394691254105354 ], [ -69.295962605733664, -19.394862031796453 ], [ -69.297044202488578, -19.39526051407346 ], [ -69.297841167147396, -19.395374365489211 ], [ -69.299378170225481, -19.395658995374774 ], [ -69.299878785163656, -19.395730323082425 ], [ -69.300149825749486, -19.395880900965604 ], [ -69.30036063519384, -19.396069123971003 ], [ -69.30042169997192, -19.396369574839682 ], [ -69.30057897341861, -19.396754255532979 ], [ -69.30078978286295, -19.396980121731691 ], [ -69.301199803603026, -19.397309851942751 ], [ -69.302110620740976, -19.397765260713342 ], [ -69.303192215699241, -19.398562225325101 ], [ -69.304330735998747, -19.399131485308921 ], [ -69.305526183436129, -19.399928450007366 ], [ -69.307233965232896, -19.400782340539205 ], [ -69.308436934264137, -19.401688726310269 ], [ -69.314969999541546, -19.407929999729319 ], [ -69.314975908659491, -19.408239654599218 ], [ -69.314989336676348, -19.408674465388149 ], [ -69.314948130954278, -19.409045421806923 ], [ -69.314910001063737, -19.409359999690345 ], [ -69.314789222573779, -19.409787034717432 ], [ -69.31463825709703, -19.410320807013751 ], [ -69.314390000481737, -19.41075999932583 ], [ -69.314469999949367, -19.411229999109285 ], [ -69.314760000377575, -19.411630000234339 ], [ -69.315146690971432, -19.412004349072873 ], [ -69.315631177556966, -19.412473373467801 ], [ -69.31586592890028, -19.412720050750259 ], [ -69.316639999994081, -19.413559999713275 ], [ -69.316840000010629, -19.414059999731126 ], [ -69.316959999661222, -19.414549999985017 ], [ -69.31684000090894, -19.415309999825787 ], [ -69.3169171877514, -19.415975738625889 ], [ -69.31692000037657, -19.416549999830625 ], [ -69.316880000193592, -19.416980000739077 ], [ -69.31689000023934, -19.41742999999882 ], [ -69.317553505789647, -19.418847314108369 ], [ -69.318045328017817, -19.41985821160285 ], [ -69.318229283225065, -19.420256780052455 ], [ -69.318302648634329, -19.420357467039839 ], [ -69.318402532310785, -19.420518977322867 ], [ -69.318507813963748, -19.420689216183614 ], [ -69.318696264340687, -19.421011889424296 ], [ -69.318876720609907, -19.421316659836577 ], [ -69.319052299027135, -19.421601007104858 ], [ -69.319220379206683, -19.421880850174762 ], [ -69.31937725919127, -19.422178850710544 ], [ -69.31952350222457, -19.422503817736473 ], [ -69.319663386084002, -19.422849303110571 ], [ -69.319804052376014, -19.423194786902915 ], [ -69.319954371065762, -19.423528852398647 ], [ -69.320123448375284, -19.423838083613639 ], [ -69.320316903266672, -19.424122397665453 ], [ -69.320530857712825, -19.424395420796252 ], [ -69.320749351346123, -19.424675100630459 ], [ -69.320942214247737, -19.424975257200888 ], [ -69.321071741430245, -19.425289072293229 ], [ -69.321110681601169, -19.425607565742954 ], [ -69.321063151739494, -19.42592176931505 ], [ -69.320964680214672, -19.426242725108111 ], [ -69.320859402154952, -19.426595378932479 ], [ -69.320770288380459, -19.426993165014537 ], [ -69.320691913066852, -19.427415731496172 ], [ -69.320607276495736, -19.427829426200603 ], [ -69.320506819694145, -19.42821360888588 ], [ -69.32038899037326, -19.428573096727021 ], [ -69.320253652887516, -19.428918992775433 ], [ -69.320098090731435, -19.429258112510944 ], [ -69.319931430788358, -19.42958829487818 ], [ -69.319787082301985, -19.429916141813909 ], [ -69.319707980251323, -19.430248464448081 ], [ -69.319719867657483, -19.430580478886135 ], [ -69.319813224175078, -19.430912423179219 ], [ -69.319948718866002, -19.431244293091964 ], [ -69.320080010339723, -19.431580761486302 ], [ -69.320167606859712, -19.431919452092 ], [ -69.320182863846497, -19.432258345305719 ], [ -69.320115078771778, -19.432550977106377 ], [ -69.319909999680618, -19.432800000140521 ], [ -69.319160323236673, -19.433171591910941 ], [ -69.318418161200071, -19.433706463226248 ], [ -69.318415038656156, -19.433707380674129 ], [ -69.318074613994398, -19.433814140061163 ], [ -69.317755870172022, -19.433954767812896 ], [ -69.317469526785331, -19.43414286626248 ], [ -69.317220181411912, -19.434375985338701 ], [ -69.317003992855632, -19.434645174911598 ], [ -69.316813523065946, -19.434936973071814 ], [ -69.316641660080734, -19.435246800972727 ], [ -69.316484570788688, -19.435570152648445 ], [ -69.316336704499662, -19.435900224763792 ], [ -69.31618545785021, -19.436219123509435 ], [ -69.316010588203724, -19.436508597729603 ], [ -69.315795921393558, -19.436759718940159 ], [ -69.315543330407024, -19.436972557629808 ], [ -69.315272765029974, -19.437171878586003 ], [ -69.315005875559038, -19.437377575543451 ], [ -69.31500252663966, -19.437380155860293 ], [ -69.314734114524356, -19.437604273924499 ], [ -69.314453552694829, -19.437841959058911 ], [ -69.314149500818914, -19.438079759899789 ], [ -69.313824612520008, -19.438317594276846 ], [ -69.313498468376309, -19.438553063173377 ], [ -69.313194959981175, -19.438790786732884 ], [ -69.312925411497019, -19.439035262241074 ], [ -69.312686239544192, -19.439291012369161 ], [ -69.312470650164215, -19.439553457613538 ], [ -69.31227761568438, -19.439818085420036 ], [ -69.312114718784017, -19.440089546369926 ], [ -69.311990250913198, -19.440378929826323 ], [ -69.311908037098391, -19.440686379700217 ], [ -69.311867604825778, -19.441009525710037 ], [ -69.311864107684372, -19.441343862059608 ], [ -69.311894791439542, -19.441678213815287 ], [ -69.311958782030487, -19.442003401037432 ], [ -69.312059501140141, -19.442312757177103 ], [ -69.312199674257073, -19.44260398163048 ], [ -69.312379678673693, -19.442870260520785 ], [ -69.312602525542857, -19.443093529001434 ], [ -69.312868949686475, -19.443251203095901 ], [ -69.313173917843955, -19.4433229326152 ], [ -69.313499885019525, -19.443315632432451 ], [ -69.313829320590415, -19.443245028687056 ], [ -69.314153314167314, -19.443145042027691 ], [ -69.314473171002291, -19.443045062930548 ], [ -69.314793721336727, -19.442981283202496 ], [ -69.315113682376293, -19.442976212538124 ], [ -69.315426673387591, -19.443038891902201 ], [ -69.315725890530629, -19.443162671588862 ], [ -69.31601378351121, -19.443322598016458 ], [ -69.316302472399101, -19.443489260303302 ], [ -69.316604908205832, -19.443622064478731 ], [ -69.316924528783915, -19.44368243529064 ], [ -69.317253435247096, -19.443661575855771 ], [ -69.317581906925682, -19.44357741891519 ], [ -69.317912505814846, -19.443463866399117 ], [ -69.31825670968901, -19.443363837520341 ], [ -69.318615925309871, -19.443318047473227 ], [ -69.318969125811606, -19.443349038940216 ], [ -69.319282549810865, -19.443472787048229 ], [ -69.319537753996556, -19.443675631515049 ], [ -69.319736587999856, -19.443946387170975 ], [ -69.319889320462778, -19.44426689904688 ], [ -69.320005526527936, -19.44462597270379 ], [ -69.320097970357182, -19.445005372866824 ], [ -69.320188403756845, -19.44539380873567 ], [ -69.320303411469411, -19.445777684729816 ], [ -69.32046399251297, -19.446159184629828 ], [ -69.320670449619769, -19.446533867271214 ], [ -69.320902550034688, -19.44689044045338 ], [ -69.321127369604199, -19.447235699451703 ], [ -69.321319165307258, -19.447574278621577 ], [ -69.321469268401344, -19.447903826561994 ], [ -69.321586034116905, -19.448226770154466 ], [ -69.321688123157386, -19.448547370141242 ], [ -69.321802210096763, -19.448856696865921 ], [ -69.321955196782923, -19.449143299902662 ], [ -69.32216140325977, -19.449386944104479 ], [ -69.322420472896113, -19.449565048930616 ], [ -69.322720750949529, -19.449663940631009 ], [ -69.323046540258673, -19.449679129973433 ], [ -69.323383966344011, -19.449619746514571 ], [ -69.323724953351132, -19.449506165191387 ], [ -69.324064389866052, -19.449358753303937 ], [ -69.324400144186654, -19.449204536891735 ], [ -69.324733049949486, -19.449070682700654 ], [ -69.325061849513148, -19.448990953585074 ], [ -69.325376303880034, -19.448997200622102 ], [ -69.325663144933401, -19.449089300131728 ], [ -69.325926299209371, -19.449240148764449 ], [ -69.326196011186909, -19.449391060785992 ], [ -69.326508640177138, -19.449498955074425 ], [ -69.326875484291392, -19.449554780955207 ], [ -69.327279904933988, -19.449590178446705 ], [ -69.32769380190453, -19.449641402259971 ], [ -69.328086635178266, -19.449735602092851 ], [ -69.328430867798502, -19.449879563598238 ], [ -69.32871496988858, -19.450082341610408 ], [ -69.328953704361851, -19.450350792768873 ], [ -69.329173785318247, -19.450696124026624 ], [ -69.32939112102315, -19.451111419619092 ], [ -69.329601874771967, -19.451551527413827 ], [ -69.329797979693438, -19.451964641381792 ], [ -69.329983270695507, -19.452316770923868 ], [ -69.330172910441874, -19.452619217604415 ], [ -69.330376617805598, -19.452892172488195 ], [ -69.330592964465353, -19.453162957658357 ], [ -69.330815343312267, -19.453444910502174 ], [ -69.331039249295159, -19.453747219554458 ], [ -69.331263759844219, -19.454078917422301 ], [ -69.331489011503393, -19.454428678321225 ], [ -69.331717156636088, -19.454780801667567 ], [ -69.331953061416229, -19.455110182505496 ], [ -69.332199599554372, -19.455410153213545 ], [ -69.332456142229844, -19.45567856760378 ], [ -69.332717249245277, -19.455926614963158 ], [ -69.332974661489928, -19.456161119812791 ], [ -69.33322401225324, -19.456384386945508 ], [ -69.333466798128455, -19.456603074801698 ], [ -69.333706004217262, -19.456826285423045 ], [ -69.333942032964899, -19.457060828781536 ], [ -69.334174491807602, -19.457304410271224 ], [ -69.334404857575706, -19.457554658220101 ], [ -69.33463695529565, -19.457811862274728 ], [ -69.334872120762299, -19.458080311652658 ], [ -69.335106378032208, -19.458362237314386 ], [ -69.335331839897165, -19.458655579272438 ], [ -69.33553725316159, -19.458953400503376 ], [ -69.33570339926834, -19.459246777813203 ], [ -69.335807662231801, -19.459544785992591 ], [ -69.335836534983343, -19.459845228747042 ], [ -69.335799707649954, -19.460154824448036 ], [ -69.335730344235287, -19.460468996724114 ], [ -69.335669666631105, -19.460794405464547 ], [ -69.335647408175006, -19.461128849268167 ], [ -69.335678173676854, -19.461476742594616 ], [ -69.335762559618004, -19.461824536923924 ], [ -69.335893059675968, -19.462165434338491 ], [ -69.336056088628681, -19.462497166655073 ], [ -69.336240388788994, -19.462810941392192 ], [ -69.33643815559374, -19.463106554531429 ], [ -69.336643530230617, -19.463381795552394 ], [ -69.336851600711668, -19.463638891267646 ], [ -69.337059867923784, -19.463878071294655 ], [ -69.337265238069079, -19.464112593442763 ], [ -69.337464061292607, -19.464351716870489 ], [ -69.337653929211058, -19.464599888172938 ], [ -69.337837264580756, -19.464859398370557 ], [ -69.338015560401729, -19.465134688080937 ], [ -69.338185302464552, -19.465425761458476 ], [ -69.338334228765618, -19.465728274316927 ], [ -69.338446505599705, -19.466046623197045 ], [ -69.338515402788744, -19.466374085643647 ], [ -69.338551850134763, -19.466710642121324 ], [ -69.338578697185341, -19.467047214839432 ], [ -69.338619900212493, -19.467381539027325 ], [ -69.338693009601869, -19.467706699285845 ], [ -69.33880526846967, -19.468016016571188 ], [ -69.338957448468705, -19.468304901324842 ], [ -69.339142003750567, -19.468584692670621 ], [ -69.339344120197907, -19.468864525034068 ], [ -69.33954274938533, -19.469155543437807 ], [ -69.339715493617831, -19.469460231075988 ], [ -69.339842444432108, -19.469776330756915 ], [ -69.339916971363024, -19.470106078350163 ], [ -69.339951622078473, -19.470440340330249 ], [ -69.33997847721389, -19.470779208138957 ], [ -69.340034281457662, -19.471113432312237 ], [ -69.340141811593796, -19.4714363051249 ], [ -69.34030206565059, -19.47173879490818 ], [ -69.340503628735718, -19.472011741320628 ], [ -69.340732211347984, -19.47225310085885 ], [ -69.340971753406691, -19.472471784248832 ], [ -69.34120863645218, -19.472688251769263 ], [ -69.341436017118582, -19.472913769304679 ], [ -69.341649156792784, -19.473159596747141 ], [ -69.341838477637225, -19.473437081148482 ], [ -69.341998117246362, -19.473741792073117 ], [ -69.342143515863299, -19.474066887061326 ], [ -69.342308008171614, -19.47441445196198 ], [ -69.342519771626797, -19.474820783125928 ], [ -69.342777387789027, -19.475317345671858 ], [ -69.343053083444673, -19.475872581009416 ], [ -69.343317092916791, -19.476400742882067 ], [ -69.343566463443025, -19.476834021991255 ], [ -69.343817591972268, -19.477174758259903 ], [ -69.344076972425725, -19.477467950147055 ], [ -69.344326183051848, -19.477749834466778 ], [ -69.344540912744094, -19.478040889421006 ], [ -69.344715997986228, -19.478336535758121 ], [ -69.344863382778271, -19.47863674973976 ], [ -69.344998054612418, -19.478941505086645 ], [ -69.345127658151711, -19.479248489742101 ], [ -69.345258447467188, -19.479562282861149 ], [ -69.345399394033578, -19.479880573229075 ], [ -69.345552206446555, -19.480198840952312 ], [ -69.345706496588193, -19.480514884113969 ], [ -69.345848928968053, -19.480833097236854 ], [ -69.345980354290759, -19.481151404585951 ], [ -69.346117079673633, -19.481465260075638 ], [ -69.346277037286384, -19.481765375101151 ], [ -69.346468504206044, -19.482051956378367 ], [ -69.346690917188923, -19.482318119677508 ], [ -69.34693983406595, -19.482566167767139 ], [ -69.347207461053699, -19.482802852051815 ], [ -69.347483364220167, -19.483039521593682 ], [ -69.347758734685684, -19.483283075050633 ], [ -69.348031697666215, -19.483531075931065 ], [ -69.348305284077597, -19.483779074737935 ], [ -69.348584878421562, -19.484024766283451 ], [ -69.348871909019451, -19.484279474944238 ], [ -69.349161934600517, -19.484547800029294 ], [ -69.349444487995044, -19.484825169227129 ], [ -69.349708628621173, -19.485107016183591 ], [ -69.34994988825872, -19.485384465722706 ], [ -69.350173790648327, -19.485648326001741 ], [ -69.350399455532539, -19.485896414721104 ], [ -69.350651192221235, -19.486108323428684 ], [ -69.35094279704056, -19.486272701787939 ], [ -69.351268509094595, -19.486398590178819 ], [ -69.351608777449499, -19.486504092015522 ], [ -69.351943135788147, -19.486620930688709 ], [ -69.352258594471508, -19.486769416382106 ], [ -69.352553456582058, -19.486958660348613 ], [ -69.352830051451292, -19.487184066556203 ], [ -69.353088191331352, -19.487429792737601 ], [ -69.353324254214968, -19.487682372980114 ], [ -69.353528795215269, -19.487941750512508 ], [ -69.35368120697963, -19.488208115843637 ], [ -69.353756843329933, -19.488492619406284 ], [ -69.353745620677074, -19.488788545600976 ], [ -69.353671264426055, -19.489093701879906 ], [ -69.353586140069737, -19.489401173704003 ], [ -69.353548057789908, -19.489694931166309 ], [ -69.353596250608277, -19.489959204454298 ], [ -69.353740909911735, -19.490178055325242 ], [ -69.353968424427109, -19.490337963319487 ], [ -69.354253676360756, -19.490448156619124 ], [ -69.35456449883894, -19.490542382700028 ], [ -69.35486522335502, -19.490659355646745 ], [ -69.355120797646634, -19.490835050752523 ], [ -69.355308610219708, -19.491080911120438 ], [ -69.355429896257775, -19.49139019901715 ], [ -69.355507573580411, -19.491749247897918 ], [ -69.35556938485847, -19.49213557239209 ], [ -69.355633734775537, -19.492539807230525 ], [ -69.355712053495267, -19.492941792735898 ], [ -69.355812660315522, -19.493325670449249 ], [ -69.355937880974551, -19.493684626120466 ], [ -69.356080692443484, -19.494018746290994 ], [ -69.35623649085646, -19.494330187115636 ], [ -69.356408106804963, -19.494628122298167 ], [ -69.356600474734861, -19.494919205345333 ], [ -69.356813530865736, -19.495210175242711 ], [ -69.357044318842014, -19.4955056979293 ], [ -69.357290081734064, -19.495794380381813 ], [ -69.357547657472125, -19.496058165263829 ], [ -69.357813526456866, -19.496294910271175 ], [ -69.358085284796616, -19.496511211306412 ], [ -69.358363617007626, -19.496734383886228 ], [ -69.358647088480367, -19.496986863236089 ], [ -69.358927644021691, -19.497261926445319 ], [ -69.359195651895135, -19.497546045735703 ], [ -69.359448486325093, -19.49781664704852 ], [ -69.359690034321844, -19.498066986541378 ], [ -69.359936887768654, -19.498315020662638 ], [ -69.360235583888837, -19.498601372800191 ], [ -69.360663455950231, -19.498980006438913 ], [ -69.361262513667143, -19.499455574053687 ], [ -69.36196826249369, -19.499951211723779 ], [ -69.362641634240759, -19.500349708684848 ], [ -69.363184150197057, -19.500601660773395 ], [ -69.363594911148923, -19.500759040976099 ], [ -69.36392216561029, -19.500893860992502 ], [ -69.364207865803266, -19.501053712672764 ], [ -69.364472090871033, -19.501245218630611 ], [ -69.364724583042872, -19.501461622283369 ], [ -69.364975232770092, -19.501691503004128 ], [ -69.365235715456393, -19.501919216490268 ], [ -69.365509377326219, -19.502140091923255 ], [ -69.365789737933156, -19.502354142879437 ], [ -69.366068371978088, -19.502563606567758 ], [ -69.366344951575982, -19.50276189594496 ], [ -69.36662610809023, -19.502946627383789 ], [ -69.366918361493177, -19.503101871437345 ], [ -69.367223235327572, -19.503209709639496 ], [ -69.367539368645723, -19.503256520907819 ], [ -69.367860356459687, -19.503240100300225 ], [ -69.368180701079879, -19.503180667881878 ], [ -69.368499775482292, -19.503112279970996 ], [ -69.368820071593461, -19.503066394184074 ], [ -69.369140241042203, -19.503068036924081 ], [ -69.369453444055893, -19.503130693894953 ], [ -69.369752639639373, -19.503247496856073 ], [ -69.370039895714399, -19.503400524620019 ], [ -69.370322838079446, -19.50357850995567 ], [ -69.370606528741092, -19.503776630428483 ], [ -69.370883094864254, -19.503999786212844 ], [ -69.371142443876664, -19.50423874659754 ], [ -69.37138540851663, -19.504482255455162 ], [ -69.371628759432156, -19.504723468367587 ], [ -69.371888626772474, -19.504948878623338 ], [ -69.372168459170027, -19.505165215508011 ], [ -69.372457265737239, -19.50537923875202 ], [ -69.372742736859806, -19.505602373696735 ], [ -69.373015186003983, -19.505832197727784 ], [ -69.373270075779345, -19.506064353402451 ], [ -69.37350795146321, -19.506298838170483 ], [ -69.373733128562208, -19.50654460137557 ], [ -69.373946980600437, -19.506822147104813 ], [ -69.37414929827041, -19.50714243301087 ], [ -69.374341104753242, -19.507508047354492 ], [ -69.374528142978548, -19.507905282674169 ], [ -69.374715515377162, -19.508311549255364 ], [ -69.374902253565153, -19.508713374492331 ], [ -69.375081847451696, -19.509097076767382 ], [ -69.37524860081956, -19.509464963575212 ], [ -69.375406023386574, -19.509814805562911 ], [ -69.375567631204518, -19.510151164215124 ], [ -69.375745307187941, -19.510480606041309 ], [ -69.37594052277727, -19.51079875601582 ], [ -69.376149377487565, -19.511105626059493 ], [ -69.376370209435549, -19.51139203853446 ], [ -69.37660667117116, -19.511651323024282 ], [ -69.376863714208241, -19.511897089102707 ], [ -69.37714269769782, -19.512142736265986 ], [ -69.377437222940145, -19.512390645503693 ], [ -69.377736589203508, -19.512638617865463 ], [ -69.37803313655354, -19.512881932030318 ], [ -69.378328278938454, -19.513125322033844 ], [ -69.378625202682557, -19.513361970938732 ], [ -69.378924118889984, -19.513582697809969 ], [ -69.379228689093793, -19.513783203083332 ], [ -69.379546563346992, -19.513963247213503 ], [ -69.379888292362523, -19.514127471115316 ], [ -69.380254979271626, -19.514280315854624 ], [ -69.380628771854589, -19.514433144361885 ], [ -69.380977077436341, -19.514604164350171 ], [ -69.381274244623896, -19.514809049243258 ], [ -69.381516616375762, -19.51505254472459 ], [ -69.381726020855027, -19.515320984736231 ], [ -69.381943452679636, -19.515582595604872 ], [ -69.382212324732393, -19.515805676675207 ], [ -69.382558526459746, -19.51597662324156 ], [ -69.382975275581288, -19.516100039850929 ], [ -69.383426632299177, -19.516198507374739 ], [ -69.383870941733633, -19.516287883778205 ], [ -69.384283412179499, -19.51638421072121 ], [ -69.384666637072968, -19.516494072153275 ], [ -69.38503422319566, -19.516626620897846 ], [ -69.385390161762359, -19.516786214871157 ], [ -69.385729899212919, -19.516961757984081 ], [ -69.386051373015448, -19.517139561594121 ], [ -69.38636176879389, -19.517287998112071 ], [ -69.386672638882786, -19.517373136188223 ], [ -69.386991362942226, -19.517379264590367 ], [ -69.387318202381934, -19.517317563982733 ], [ -69.38765101022841, -19.517237785482099 ], [ -69.3879821229539, -19.517200874481468 ], [ -69.388300308922496, -19.517243203508958 ], [ -69.38859908768768, -19.517364490551696 ], [ -69.388885944012415, -19.517528889651476 ], [ -69.389175550978536, -19.517699946159439 ], [ -69.389475587385121, -19.517857430800618 ], [ -69.389785352546227, -19.518001345308093 ], [ -69.390100805839722, -19.51814073241319 ], [ -69.390420704895547, -19.518277888360601 ], [ -69.390741553470619, -19.518419557064398 ], [ -69.39105546884835, -19.518567978013138 ], [ -69.391359100312712, -19.518725451648272 ], [ -69.391658850156688, -19.518891891580974 ], [ -69.391971100057887, -19.519060746947279 ], [ -69.392310118856216, -19.519224878461586 ], [ -69.39267802657578, -19.519389021662818 ], [ -69.393062732791151, -19.519557642824207 ], [ -69.393447598008322, -19.519726263809652 ], [ -69.393831012446299, -19.519876822285241 ], [ -69.394224819493829, -19.519997893987252 ], [ -69.394636017925237, -19.520078431447903 ], [ -69.395053396765817, -19.520131637069532 ], [ -69.395456789735732, -19.520180503420274 ], [ -69.395835770987773, -19.520240676365106 ], [ -69.396192774058093, -19.520316738985823 ], [ -69.396538249048376, -19.520404078534259 ], [ -69.396891916674065, -19.520489104900388 ], [ -69.397277263388233, -19.520565103056384 ], [ -69.397697749501376, -19.520643244126699 ], [ -69.398120310722803, -19.52073944316539 ], [ -69.398493857167409, -19.520874245677266 ], [ -69.398793651028853, -19.521054294609478 ], [ -69.399040955429939, -19.52125703854508 ], [ -69.399279197626456, -19.521457655373997 ], [ -69.399538772116003, -19.521633276387558 ], [ -69.399822959546029, -19.521783966861268 ], [ -69.400113142332245, -19.521927982860014 ], [ -69.400380756743616, -19.522101289403754 ], [ -69.400603765309512, -19.5223290325684 ], [ -69.40078519175924, -19.522601953777841 ], [ -69.400956657689107, -19.522888517757639 ], [ -69.401155630032946, -19.523152441328008 ], [ -69.401400726375059, -19.523375545817004 ], [ -69.401689764707626, -19.523560129244842 ], [ -69.40201150261484, -19.523706292496751 ], [ -69.402354087724859, -19.523820796293261 ], [ -69.402707231632718, -19.52391032765447 ], [ -69.403063413642869, -19.523997631394185 ], [ -69.403415731999004, -19.524100785466437 ], [ -69.403753847092148, -19.524237802583045 ], [ -69.404063090332087, -19.524413379935375 ], [ -69.404333227212746, -19.524625096795983 ], [ -69.404568531019962, -19.524864060563043 ], [ -69.404791906996806, -19.525109861584916 ], [ -69.405033111837113, -19.525335190078021 ], [ -69.405312649587231, -19.525526674896987 ], [ -69.405633586197226, -19.525693117138033 ], [ -69.40598931365983, -19.52584593316028 ], [ -69.406372976931166, -19.525991947873429 ], [ -69.406778493518388, -19.526133398151625 ], [ -69.40719603405573, -19.526274745861109 ], [ -69.407609308493761, -19.526427429255701 ], [ -69.407991571291547, -19.526605130166583 ], [ -69.408313558032091, -19.526814428666107 ], [ -69.408565267771337, -19.527053350249268 ], [ -69.408768480163346, -19.527319476763218 ], [ -69.408965385483725, -19.527592353137511 ], [ -69.409195336230141, -19.52784042917278 ], [ -69.409474977286536, -19.528038569018584 ], [ -69.409794884427185, -19.528164363099553 ], [ -69.410133666070294, -19.528220080583861 ], [ -69.410480978115331, -19.528221587605653 ], [ -69.410845561170021, -19.528198105156562 ], [ -69.41124277103583, -19.528170106717134 ], [ -69.41167078592936, -19.528157880363512 ], [ -69.412105637900524, -19.528163700179057 ], [ -69.41252155697876, -19.528185257370083 ], [ -69.412912447196547, -19.528220565709425 ], [ -69.413291418567141, -19.528267153842346 ], [ -69.413674629985863, -19.528322762921192 ], [ -69.414068507101973, -19.528396410505174 ], [ -69.4144718174269, -19.528494910328735 ], [ -69.414877227114602, -19.528620424663409 ], [ -69.415277626897989, -19.528770972311865 ], [ -69.415665267011079, -19.528939464306948 ], [ -69.416030282155418, -19.529114818117456 ], [ -69.416365860406202, -19.529290313125824 ], [ -69.416677017956005, -19.529472601342071 ], [ -69.416983681234456, -19.52966837115099 ], [ -69.41730744394431, -19.529893566291186 ], [ -69.417653590874437, -19.530139068419569 ], [ -69.418010123227546, -19.530384471119138 ], [ -69.418358947137207, -19.530607310785868 ], [ -69.418685622185208, -19.53080991743316 ], [ -69.418984013776509, -19.531005777903573 ], [ -69.419251460202901, -19.531222068909877 ], [ -69.419485022176772, -19.531469974279112 ], [ -69.419682293111478, -19.53175423834066 ], [ -69.419852393602113, -19.532070104584307 ], [ -69.420016446634236, -19.532401899357748 ], [ -69.420199000469651, -19.532731282282004 ], [ -69.420415763049391, -19.533033490695573 ], [ -69.420673180683934, -19.533294961134775 ], [ -69.420973007783061, -19.533499846881345 ], [ -69.421311821765514, -19.533652745259271 ], [ -69.421674900142094, -19.533767089615491 ], [ -69.422042459315335, -19.533863360421286 ], [ -69.422398625155807, -19.533961952578068 ], [ -69.422736783368094, -19.534071911271532 ], [ -69.423054548026812, -19.534206718744581 ], [ -69.423349283474906, -19.534373190139306 ], [ -69.42361850227735, -19.534575921593447 ], [ -69.423861969075546, -19.534814840162266 ], [ -69.424084803368274, -19.535076312796971 ], [ -69.424297590004571, -19.53534698759518 ], [ -69.4245154215795, -19.535606251428291 ], [ -69.424755210674917, -19.535840661166297 ], [ -69.42502473939615, -19.536041020296889 ], [ -69.425320099173362, -19.536205340284237 ], [ -69.425630759056489, -19.536337864392259 ], [ -69.425951030014843, -19.536443270155196 ], [ -69.426277976354086, -19.536532965533091 ], [ -69.426614275053737, -19.536615678125511 ], [ -69.426967428843056, -19.536693983291414 ], [ -69.427344164306916, -19.536772157196857 ], [ -69.427739641322546, -19.536850287041464 ], [ -69.428141051710611, -19.536928401609526 ], [ -69.428537790859238, -19.537011041192184 ], [ -69.42892581455294, -19.537105028490807 ], [ -69.429304083440982, -19.537201258363282 ], [ -69.429673114952962, -19.537288477879493 ], [ -69.430035125232678, -19.537348618207609 ], [ -69.430394180055117, -19.537383890679966 ], [ -69.430752323087546, -19.537398878769316 ], [ -69.431110058284801, -19.537407058554006 ], [ -69.431468423201096, -19.537417456412633 ], [ -69.43182829010054, -19.537434733686766 ], [ -69.432194092169084, -19.537451922066762 ], [ -69.432574002279154, -19.53746004597366 ], [ -69.432975171020431, -19.537445536215124 ], [ -69.433414372634189, -19.537403766999212 ], [ -69.433947078089247, -19.537346076733574 ], [ -69.434668144089699, -19.537294669867364 ], [ -69.435615008823362, -19.537262999633267 ], [ -69.436672113012037, -19.537253637149281 ], [ -69.437641479645251, -19.537255882316853 ], [ -69.438417120994174, -19.53726066472683 ], [ -69.439034653463196, -19.537270566490808 ], [ -69.439562488252761, -19.537289568292476 ], [ -69.440028179387639, -19.537313308477422 ], [ -69.440439950045899, -19.537350653418649 ], [ -69.440816319895418, -19.53740622127324 ], [ -69.441177236027116, -19.537493510945936 ], [ -69.441531146197931, -19.537616870482939 ], [ -69.441874113091927, -19.537765129874654 ], [ -69.442198931322253, -19.537929274556404 ], [ -69.44250440163799, -19.538100278987518 ], [ -69.442802545294271, -19.538275740527329 ], [ -69.443116747234569, -19.538469227423523 ], [ -69.44346670212316, -19.538687499605363 ], [ -69.443850135425777, -19.538926047212275 ], [ -69.444241005880627, -19.539171386610757 ], [ -69.44461257154002, -19.539409887787219 ], [ -69.444959895263153, -19.539634974526123 ], [ -69.445297979813603, -19.539851050795278 ], [ -69.445643237411574, -19.540062519690355 ], [ -69.44600067706314, -19.5402740314839 ], [ -69.446361399158747, -19.540485534534557 ], [ -69.446712274820499, -19.540694765944551 ], [ -69.44704620645939, -19.540904038565554 ], [ -69.447370535107879, -19.541113335465866 ], [ -69.447706199596936, -19.541327118083917 ], [ -69.448070567055964, -19.541556672047477 ], [ -69.44845909470456, -19.5417974926889 ], [ -69.448845534668408, -19.542044978855369 ], [ -69.449205172497471, -19.542285869033421 ], [ -69.449532848268717, -19.542517731913591 ], [ -69.449837320556171, -19.542745136447852 ], [ -69.450126007647441, -19.542968137681683 ], [ -69.450397125488408, -19.543191108131179 ], [ -69.450645298560389, -19.543418651399453 ], [ -69.450867897494518, -19.543659806194057 ], [ -69.451074981625382, -19.543910104314545 ], [ -69.451287532903081, -19.544160314851407 ], [ -69.451527079453371, -19.544401499860481 ], [ -69.451807992524181, -19.544635770691375 ], [ -69.452138405462094, -19.544865400372249 ], [ -69.452523356917524, -19.545079051884503 ], [ -69.452962884619765, -19.545260879529895 ], [ -69.4534473640188, -19.545404320103401 ], [ -69.453945739456941, -19.545518259104441 ], [ -69.454412893049096, -19.545636865902605 ], [ -69.454812437636335, -19.545789399775224 ], [ -69.455134717227651, -19.545985212445679 ], [ -69.455394849570993, -19.546212794102168 ], [ -69.455622215864352, -19.546451634498183 ], [ -69.455846302408602, -19.546690557502085 ], [ -69.45608857983737, -19.546927213955676 ], [ -69.456357016207193, -19.547163655040499 ], [ -69.456650484132425, -19.547386634085026 ], [ -69.456962617252614, -19.547582394871625 ], [ -69.457289362369224, -19.547753245164788 ], [ -69.457638006615838, -19.547908270092172 ], [ -69.458021766905219, -19.548054099780956 ], [ -69.458441320567076, -19.548181848159562 ], [ -69.458880633571951, -19.548282451407378 ], [ -69.459323189494967, -19.548342326906432 ], [ -69.459761191857837, -19.548366012980651 ], [ -69.460188081162315, -19.548353598532231 ], [ -69.460593373170752, -19.548325470681672 ], [ -69.460971365377688, -19.54830866355422 ], [ -69.461323870583371, -19.548337154571669 ], [ -69.461655916658472, -19.548419885665233 ], [ -69.461978315725744, -19.54854335875309 ], [ -69.462306664335131, -19.548671331922474 ], [ -69.462654599810961, -19.548767568444244 ], [ -69.463020266233883, -19.548809568362834 ], [ -69.463391685467911, -19.548788257727097 ], [ -69.463758759550856, -19.548721798899027 ], [ -69.46411863633179, -19.548650842406737 ], [ -69.464468646017608, -19.54862506882036 ], [ -69.464800913976589, -19.548676183410031 ], [ -69.465107217030607, -19.548795101104655 ], [ -69.465388895466035, -19.548959315837081 ], [ -69.46565989472937, -19.54913029419178 ], [ -69.465939732516787, -19.549278668295035 ], [ -69.466245079763326, -19.549390925044186 ], [ -69.466588198472635, -19.54946680886254 ], [ -69.466973799410013, -19.549515561367478 ], [ -69.467395472197651, -19.549561923258221 ], [ -69.467828488012373, -19.549614993033806 ], [ -69.46824157739745, -19.54969069220348 ], [ -69.468614189594149, -19.54978463233234 ], [ -69.468950503565168, -19.549883182597338 ], [ -69.46927010617695, -19.54995467947878 ], [ -69.469590097759252, -19.549971911391513 ], [ -69.469916102664072, -19.54993493676335 ], [ -69.470251698881157, -19.549866176698078 ], [ -69.470609017260159, -19.54980202510362 ], [ -69.471012195532708, -19.549771583943265 ], [ -69.471489813599604, -19.549774927730628 ], [ -69.472047496711141, -19.549811818589163 ], [ -69.47264653017352, -19.549862220872903 ], [ -69.473219688562452, -19.549903658412124 ], [ -69.473723293093869, -19.549927212198831 ], [ -69.47415945930031, -19.549935099296654 ], [ -69.474558043588502, -19.549936346231817 ], [ -69.474947015903155, -19.549935250825108 ], [ -69.475339424273784, -19.549934218907936 ], [ -69.475734416199131, -19.549935473461836 ], [ -69.47612676078937, -19.549938955229806 ], [ -69.476514912942164, -19.5499514796048 ], [ -69.476905292916882, -19.549977543338244 ], [ -69.477303066924677, -19.550021725288879 ], [ -69.477701498499272, -19.55007715672312 ], [ -69.478082178465542, -19.550150624232227 ], [ -69.478432496273527, -19.55025593039716 ], [ -69.478756468290854, -19.550404168867821 ], [ -69.47906864722512, -19.550604481139771 ], [ -69.479377673072747, -19.550847590822325 ], [ -69.47968524993783, -19.551102104476271 ], [ -69.479995161524329, -19.551327221467758 ], [ -69.480316229288348, -19.551495822826315 ], [ -69.480654389297271, -19.551607818998122 ], [ -69.481009674788766, -19.551674685505887 ], [ -69.481380062756827, -19.551725667072649 ], [ -69.481765166027543, -19.551787862445988 ], [ -69.48215504923391, -19.551881727706778 ], [ -69.482527852771753, -19.552009470515355 ], [ -69.482863189375749, -19.552168998204063 ], [ -69.483158285946573, -19.552346695332758 ], [ -69.48342934180377, -19.552528972752956 ], [ -69.483694691562278, -19.552708970307656 ], [ -69.483966581954377, -19.552882212494808 ], [ -69.484253388871764, -19.553055414709878 ], [ -69.484564652422776, -19.553232992350782 ], [ -69.484905115712081, -19.55340841881592 ], [ -69.485272872514685, -19.553570074936705 ], [ -69.485659329546536, -19.553691037573387 ], [ -69.486053921721592, -19.553764450953359 ], [ -69.486446980472493, -19.553795076745434 ], [ -69.486838181507366, -19.553805275465603 ], [ -69.48723708739243, -19.553806420789957 ], [ -69.487651774880405, -19.553809891469776 ], [ -69.488080709648784, -19.553824574984134 ], [ -69.488516094320929, -19.553855008607695 ], [ -69.490183456421462, -19.554263948016374 ], [ -69.490300616497436, -19.55427036706277 ], [ -69.49047644554463, -19.554283437097112 ], [ -69.490755027487296, -19.554316585374394 ], [ -69.491111445754356, -19.554367585575861 ], [ -69.491506483493808, -19.554432027398796 ], [ -69.491909989651447, -19.554507771712512 ], [ -69.492299701279563, -19.554592584579254 ], [ -69.492650292175398, -19.554704450779308 ], [ -69.492944553313023, -19.554859629016512 ], [ -69.493190584801354, -19.555050990783176 ], [ -69.493426464428651, -19.555242381103788 ], [ -69.493695013087901, -19.555390743660432 ], [ -69.494017332205104, -19.555475662721708 ], [ -69.494383865502272, -19.555513081338116 ], [ -69.494773898727274, -19.555523339204516 ], [ -69.495172183876477, -19.555524542925053 ], [ -69.49557827089393, -19.555523354441497 ], [ -69.496000694673128, -19.555526784452464 ], [ -69.496443434750802, -19.555534525678837 ], [ -69.496899564217784, -19.555553628602908 ], [ -69.497351503942269, -19.555581775509278 ], [ -69.497779199035563, -19.555623533248578 ], [ -69.49816691460714, -19.555692496558891 ], [ -69.498513118131115, -19.555797700912702 ], [ -69.498825177589481, -19.555948229988452 ], [ -69.499113927562803, -19.556137171180797 ], [ -69.499391650716049, -19.556346500806459 ], [ -69.499676682562438, -19.556544556568245 ], [ -69.499983794998514, -19.556710866945391 ], [ -69.500316631591062, -19.556836535411918 ], [ -69.500665999879786, -19.556928179082398 ], [ -69.501023078408608, -19.5569881148595 ], [ -69.50138428469613, -19.557018797600861 ], [ -69.501747692754435, -19.557029113779343 ], [ -69.502108835261595, -19.557039362237941 ], [ -69.502456345834304, -19.557085848940023 ], [ -69.50278135001588, -19.557177555955526 ], [ -69.50308820643211, -19.557285155751185 ], [ -69.50339408548129, -19.557354261407589 ], [ -69.50371709091138, -19.557355655574423 ], [ -69.50407051958517, -19.557295962876211 ], [ -69.504456054047239, -19.557213527526738 ], [ -69.504862998955787, -19.557135547211047 ], [ -69.505276417124264, -19.557080200311649 ], [ -69.505691262715743, -19.557056459648475 ], [ -69.505914281163115, -19.557057054731121 ], [ -69.507990459362944, -19.556490815263622 ], [ -69.509790000472691, -19.555999999985207 ], [ -69.510859999977285, -19.556020000139593 ], [ -69.511193386338789, -19.556242257581843 ], [ -69.511310001137389, -19.556319999618076 ], [ -69.511780000592367, -19.556739999812844 ], [ -69.512327015311584, -19.556754825271113 ], [ -69.513684593386401, -19.556717263885609 ], [ -69.51486063721363, -19.556692296601891 ], [ -69.515746093114473, -19.556702964095489 ], [ -69.51578704730828, -19.55670345844684 ], [ -69.51632999984578, -19.556710000137524 ], [ -69.51667164891127, -19.556960101944075 ], [ -69.517069999637471, -19.557330000194149 ], [ -69.517479999716301, -19.557430000116593 ], [ -69.518049999628701, -19.55711999973191 ], [ -69.518390000285635, -19.556799999993256 ], [ -69.518909999969324, -19.556799999993256 ], [ -69.519521758067711, -19.557084865318551 ], [ -69.52022000057174, -19.557410000137086 ], [ -69.521439299178226, -19.557691376859022 ], [ -69.522087943898811, -19.557854897728664 ], [ -69.522489086588934, -19.557978654786286 ], [ -69.522732672863057, -19.558053803202053 ], [ -69.523709999468011, -19.558320000504146 ], [ -69.524451277562363, -19.558805199939133 ], [ -69.525655803373994, -19.55961870765336 ], [ -69.526140000702043, -19.559949999702056 ], [ -69.526863588273514, -19.560107301775055 ], [ -69.527702370407113, -19.560272345540039 ], [ -69.52843000039735, -19.560399999595774 ], [ -69.529293004704286, -19.56066151711768 ], [ -69.530390000379796, -19.561040000234861 ], [ -69.531228115065147, -19.561662313119552 ], [ -69.53205999993402, -19.562279999376269 ], [ -69.533253527671647, -19.562961052603317 ], [ -69.534281875889761, -19.563566604169917 ], [ -69.535480000306691, -19.564299999960951 ], [ -69.537230588623345, -19.564851223083917 ], [ -69.538370000051628, -19.565210000382347 ], [ -69.539441010160928, -19.565314684733856 ], [ -69.539699999847215, -19.565339999418619 ], [ -69.540380000262786, -19.565620000372647 ], [ -69.541152957445647, -19.565959881649736 ], [ -69.541789999526003, -19.566240000028991 ], [ -69.541859787843805, -19.566308301960333 ], [ -69.542259999879278, -19.566699999980646 ], [ -69.542679234639238, -19.567230207183322 ], [ -69.542939999396538, -19.567559999791698 ], [ -69.544349999558065, -19.568350000269614 ], [ -69.545142535522544, -19.569157488284343 ], [ -69.545769196671486, -19.569795973764251 ], [ -69.545940000542956, -19.569970000003014 ], [ -69.546700000426156, -19.57052000097508 ], [ -69.547617548640517, -19.570637445876034 ], [ -69.547950000754113, -19.570679999581955 ], [ -69.548759999967714, -19.570999999704796 ], [ -69.549171920644625, -19.571380502642423 ], [ -69.549682382016627, -19.571852031298373 ], [ -69.549939999975493, -19.572090000010405 ], [ -69.550477386551478, -19.572327689902163 ], [ -69.551031651573354, -19.572572845615202 ], [ -69.55150000082314, -19.572779999794438 ], [ -69.552599999566652, -19.573079999404634 ], [ -69.553102284472928, -19.573443259564282 ], [ -69.553699878834223, -19.57387544735295 ], [ -69.55437811226362, -19.574365956832523 ], [ -69.554839999931573, -19.57469999899029 ], [ -69.555705235653676, -19.57494620485755 ], [ -69.556341579743062, -19.575115065061961 ], [ -69.557030000067797, -19.575280000357971 ], [ -69.557994692766556, -19.575336955929433 ], [ -69.559369263373284, -19.575418112420959 ], [ -69.559739999887682, -19.575440000163557 ], [ -69.560431772725039, -19.57565763661459 ], [ -69.561203242297779, -19.57588122374958 ], [ -69.561799224183133, -19.576048843858381 ], [ -69.562047336169655, -19.576096924756527 ], [ -69.563361295647539, -19.576258856057862 ], [ -69.564749999448637, -19.576430000135552 ], [ -69.565450000853986, -19.576869999675171 ], [ -69.565972582295814, -19.57744240963812 ], [ -69.56633473450934, -19.577768645166199 ], [ -69.567079999326921, -19.578440000318938 ], [ -69.567549570285507, -19.578654123639176 ], [ -69.568938163593828, -19.579305085121572 ], [ -69.570019999300584, -19.579829999121905 ], [ -69.570630000294258, -19.580310000586653 ], [ -69.570914612627405, -19.580952202273586 ], [ -69.571218782182626, -19.58153921270501 ], [ -69.571389999279148, -19.581839999200742 ], [ -69.572089999786215, -19.581970000056021 ], [ -69.572811210415409, -19.582305108091987 ], [ -69.573777510200244, -19.582754095958393 ], [ -69.574198573031794, -19.582926234372703 ], [ -69.575169999501952, -19.58320000015582 ], [ -69.575922089719057, -19.583189698347628 ], [ -69.576798955030824, -19.583158403596663 ], [ -69.577268225952096, -19.583098421691503 ], [ -69.577959999687764, -19.583009999735477 ], [ -69.579470000306728, -19.583000000063517 ], [ -69.580539999811307, -19.58358999996004 ], [ -69.581514578469807, -19.58435453990322 ], [ -69.582581550651881, -19.585191561233472 ], [ -69.582859999643858, -19.585409999536143 ], [ -69.583130236237537, -19.585674149214803 ], [ -69.583931969153866, -19.586457825073225 ], [ -69.584787758192448, -19.587294340367073 ], [ -69.585079999917298, -19.58757999981605 ], [ -69.585760000332883, -19.587920000649859 ], [ -69.586225316870269, -19.588235954940103 ], [ -69.586569999546455, -19.588469999582518 ], [ -69.587020000706588, -19.589090000173638 ], [ -69.587330802523525, -19.590359660932325 ], [ -69.587490000161552, -19.591009999608005 ], [ -69.587781711880382, -19.591874718987803 ], [ -69.588050000028204, -19.592669999641757 ], [ -69.588423761170134, -19.593031162492277 ], [ -69.588939999607732, -19.593529999606368 ], [ -69.589383646085523, -19.593738551996665 ], [ -69.58984364908801, -19.593954792719696 ], [ -69.590110000468059, -19.594080000530443 ], [ -69.590467443712882, -19.594265341729567 ], [ -69.59091999968166, -19.594499999632085 ], [ -69.591082089894897, -19.594790732510315 ], [ -69.591373690222639, -19.595313763814183 ], [ -69.591549999868491, -19.595629999793545 ], [ -69.591770139215413, -19.596257695152335 ], [ -69.592126642822421, -19.5972742097007 ], [ -69.592290000558535, -19.597739999264501 ], [ -69.592358207841414, -19.597855535428817 ], [ -69.592593255628771, -19.598253678121129 ], [ -69.59278000010498, -19.598569999720986 ], [ -69.593017277510853, -19.598784679352654 ], [ -69.593410000291826, -19.599140000226313 ], [ -69.593780000187692, -19.599679999421593 ], [ -69.593780001086003, -19.600299999992679 ], [ -69.593988359027946, -19.600732154630293 ], [ -69.59432000086116, -19.601419999827581 ], [ -69.594704053103015, -19.601938284946751 ], [ -69.595166580371455, -19.602562472528895 ], [ -69.595575984867239, -19.6031579453436 ], [ -69.595979999471325, -19.603779999888211 ], [ -69.596407312780627, -19.604574119902747 ], [ -69.596780163929182, -19.605267030326438 ], [ -69.597110000148675, -19.605880000013226 ], [ -69.597604031334129, -19.606374033014848 ], [ -69.598188046761592, -19.606904883896053 ], [ -69.598765190077117, -19.607398663267002 ], [ -69.599233627361812, -19.607799436100102 ], [ -69.599619999952026, -19.608130000308666 ], [ -69.600315488221412, -19.608454075868131 ], [ -69.601065783604582, -19.608803690491005 ], [ -69.601732963264425, -19.60909137229817 ], [ -69.602285879016733, -19.609285804025891 ], [ -69.602440000275095, -19.609340000751274 ], [ -69.603200000158296, -19.609410000526303 ], [ -69.604106375127131, -19.609874423861275 ], [ -69.60480793510952, -19.610233899675713 ], [ -69.605620000448255, -19.610650000436184 ], [ -69.606659999815633, -19.610989999914999 ], [ -69.607011471060417, -19.611290132259892 ], [ -69.607505151004602, -19.611711700989783 ], [ -69.607943667203813, -19.612017856095413 ], [ -69.608816129872366, -19.612605013008057 ], [ -69.609423301172896, -19.613004856435985 ], [ -69.609886028765644, -19.613323118123397 ], [ -69.610403258943307, -19.61371521287386 ], [ -69.611039485353388, -19.614197513076618 ], [ -69.611610000000439, -19.614630000158989 ], [ -69.612452471514928, -19.614845672087984 ], [ -69.612860000328411, -19.614950000080196 ], [ -69.613620204129163, -19.615327551730918 ], [ -69.614349999957554, -19.615689999838359 ], [ -69.61511593500984, -19.61609312384946 ], [ -69.615489999782341, -19.616290000183454 ], [ -69.616125380877747, -19.616368568721182 ], [ -69.617059484144477, -19.616484076273775 ], [ -69.617684990958281, -19.616597576610893 ], [ -69.619054980157046, -19.616914837776168 ], [ -69.619597641640411, -19.61707422502732 ], [ -69.61994999952239, -19.617189999463907 ], [ -69.62040575169695, -19.61743769052741 ], [ -69.620870000137472, -19.617690000459682 ], [ -69.621583796970668, -19.61778537750148 ], [ -69.622829035329303, -19.61795176763998 ], [ -69.623189999970023, -19.618000000177556 ], [ -69.624179999108662, -19.617989999295208 ], [ -69.624539999857106, -19.6178300003244 ], [ -69.624986579334305, -19.617787059689462 ], [ -69.625060000439092, -19.617779999238333 ], [ -69.625494467032993, -19.618066911894427 ], [ -69.62568722034014, -19.618131994165662 ], [ -69.62657921597625, -19.618150291727449 ], [ -69.626953605040569, -19.618157971558077 ], [ -69.627539999206903, -19.618169999850874 ], [ -69.628350001115436, -19.618459999476016 ], [ -69.628980000403956, -19.618400000267595 ], [ -69.629730000241423, -19.618679999484556 ], [ -69.630249999925113, -19.618840000147788 ], [ -69.63059544706762, -19.619143754650853 ], [ -69.630829999883247, -19.619350000194142 ], [ -69.631808495196367, -19.619463823433943 ], [ -69.632774985424021, -19.619591578643185 ], [ -69.633194248031742, -19.619684840846421 ], [ -69.633619999170762, -19.619820000629076 ], [ -69.633803419880408, -19.620013333760411 ], [ -69.6339899990666, -19.620209999676579 ], [ -69.634559999877325, -19.620500000698062 ], [ -69.635529999822808, -19.620750000049913 ], [ -69.635992286342727, -19.621055819789433 ], [ -69.636688643282994, -19.621516488109716 ], [ -69.637216061254293, -19.621865394023789 ], [ -69.637425479208275, -19.622003932337261 ], [ -69.637657434096099, -19.622113930799884 ], [ -69.638320000008633, -19.622389999964209 ], [ -69.638999102108897, -19.623005436035154 ], [ -69.639599999575509, -19.623550000406137 ], [ -69.640910000177911, -19.623909999861905 ], [ -69.641579999649437, -19.624190000479313 ], [ -69.642616739928926, -19.624312772417415 ], [ -69.643100000314135, -19.624370000014189 ], [ -69.643824163705688, -19.624778983734164 ], [ -69.644501442225959, -19.62513498838431 ], [ -69.645317472728365, -19.62521176218312 ], [ -69.645884706727998, -19.625266095689529 ], [ -69.646570000017221, -19.625340000194647 ], [ -69.647228910684845, -19.625853828652634 ], [ -69.647660000511607, -19.626190000249302 ], [ -69.648030000407459, -19.626050000051887 ], [ -69.648500000760748, -19.626170000349461 ], [ -69.649129999150958, -19.626840000293079 ], [ -69.649569999367017, -19.627269999605808 ], [ -69.650539999312485, -19.627400000135655 ], [ -69.651339999378663, -19.627489999399486 ], [ -69.652049999931464, -19.627670000314211 ], [ -69.652773076361527, -19.627640000316763 ], [ -69.653895621920327, -19.627640000316763 ], [ -69.654189999838948, -19.627640000316763 ], [ -69.654920000483216, -19.627820000217351 ], [ -69.656240000233083, -19.627560000578271 ], [ -69.656780362927606, -19.627589209469011 ], [ -69.65734999992064, -19.627619999751296 ], [ -69.65784999951282, -19.627779999974837 ], [ -69.65836814327713, -19.628084790149035 ], [ -69.658832501312119, -19.628334452792405 ], [ -69.659429999553666, -19.628580000394525 ], [ -69.660032819414965, -19.628969321598664 ], [ -69.661180000372141, -19.629680000072295 ], [ -69.662169999510795, -19.629549999695229 ], [ -69.662849999926351, -19.629810000344186 ], [ -69.663190000583285, -19.630129999654049 ], [ -69.663609999809552, -19.63091000006057 ], [ -69.664428246455756, -19.631287103858025 ], [ -69.664870897600224, -19.631474758559865 ], [ -69.665430000049895, -19.631649999938919 ], [ -69.666089999475673, -19.632079999914346 ], [ -69.666518162591217, -19.632793603949207 ], [ -69.66666000028637, -19.633029999340412 ], [ -69.666893500276487, -19.633250810260353 ], [ -69.667304519943173, -19.633639491500887 ], [ -69.667721529576141, -19.634069020803125 ], [ -69.668424652627138, -19.634908721862921 ], [ -69.668970000073188, -19.635560000585375 ], [ -69.669527250196751, -19.635876518682785 ], [ -69.670320382642586, -19.636340639635367 ], [ -69.671030000513042, -19.63683999978619 ], [ -69.671592618070434, -19.636944801680716 ], [ -69.672050000687236, -19.637029999227568 ], [ -69.672550000279443, -19.637350000227695 ], [ -69.673098578965551, -19.637915202262704 ], [ -69.673540000316393, -19.63837000048153 ], [ -69.674582534729495, -19.638496112833341 ], [ -69.675071259566565, -19.638599176682899 ], [ -69.675809999920233, -19.638800000231264 ], [ -69.676173954154223, -19.639167263610265 ], [ -69.676519709418869, -19.639516160800138 ], [ -69.676910000460381, -19.639909999653181 ], [ -69.677854921239742, -19.640245118106872 ], [ -69.678630000243288, -19.640520000404994 ], [ -69.679799999306994, -19.640540000210091 ], [ -69.680609999418905, -19.640260000173782 ], [ -69.681129999102581, -19.640300000692321 ], [ -69.682086130856703, -19.640242916677629 ], [ -69.682795266331894, -19.640200581038691 ], [ -69.683140000212063, -19.640179999952824 ], [ -69.683537450826364, -19.640120381965588 ], [ -69.684340000311309, -19.639999999521478 ], [ -69.68499650169737, -19.640315911553827 ], [ -69.685670000106896, -19.640640000044286 ], [ -69.686836070837856, -19.640875630900766 ], [ -69.687600000850423, -19.641029999310128 ], [ -69.688149999773032, -19.641370000500284 ], [ -69.688990000022144, -19.643219999781977 ], [ -69.690013083214396, -19.644259323329855 ], [ -69.690250000395864, -19.644500000520804 ], [ -69.691759999218192, -19.645210000277068 ], [ -69.692812046790124, -19.646101318094068 ], [ -69.694720000181633, -19.64765000018491 ], [ -69.695580000522256, -19.647649999338924 ], [ -69.696360000496952, -19.647730000066989 ], [ -69.69740999991005, -19.648670000135461 ], [ -69.698109999518778, -19.649499999839616 ], [ -69.698835512179897, -19.650140421015575 ], [ -69.69968065258908, -19.65088644035524 ], [ -69.700047000833322, -19.651165608852462 ], [ -69.700470000432617, -19.65147999980779 ], [ -69.701563660663481, -19.651683308840013 ], [ -69.702030000381967, -19.651769999354016 ], [ -69.702609999441805, -19.652129999841009 ], [ -69.703134652398646, -19.652681696099062 ], [ -69.703579999387273, -19.653149999231143 ], [ -69.704359999361941, -19.654370000136588 ], [ -69.705459999902075, -19.655830000563427 ], [ -69.706196350737116, -19.656656148765858 ], [ -69.706605527959141, -19.657093364660344 ], [ -69.707009999805692, -19.657519999766855 ], [ -69.708179999767722, -19.657650000334588 ], [ -69.709020000915174, -19.658390000453196 ], [ -69.709460000232909, -19.658480000109023 ], [ -69.710509999646007, -19.659429999787395 ], [ -69.711585852572981, -19.660060471884922 ], [ -69.712370000069342, -19.660519999627653 ], [ -69.71311999990678, -19.661069999676226 ], [ -69.714076112796292, -19.661684642871045 ], [ -69.715400000454693, -19.662540000668123 ], [ -69.715839999772427, -19.66317000035168 ], [ -69.716649999884325, -19.663740000067481 ], [ -69.717250476041059, -19.664273259193401 ], [ -69.717990000623985, -19.664930000140771 ], [ -69.71828526607807, -19.665258749847101 ], [ -69.71992999961661, -19.667090000661076 ], [ -69.721427491195243, -19.668448996037078 ], [ -69.721913035097884, -19.668904693181272 ], [ -69.722570000014613, -19.669539999551223 ], [ -69.723230000338702, -19.669929999617484 ], [ -69.723719999885148, -19.670300000104564 ], [ -69.723960000084659, -19.671370000295838 ], [ -69.724849999664187, -19.672590000462591 ], [ -69.725202577633425, -19.673215155213004 ], [ -69.725364614846072, -19.673539227990311 ], [ -69.725620000491446, -19.674049999936408 ], [ -69.725959999351758, -19.67524999945169 ], [ -69.726219999642751, -19.675969999076703 ], [ -69.727500859795683, -19.677124423758823 ], [ -69.728550000419361, -19.678069999944761 ], [ -69.729428632717301, -19.678908390547427 ], [ -69.729873079594, -19.679344021539251 ], [ -69.730409999944371, -19.680329999772631 ], [ -69.73114999973609, -19.68107000007808 ], [ -69.731468370757625, -19.681399162432143 ], [ -69.73232999974384, -19.682290000821848 ], [ -69.733059999489797, -19.682710000161915 ], [ -69.733432466159428, -19.683433851134087 ], [ -69.733590000117545, -19.683739999701359 ], [ -69.734132066017878, -19.684141238310154 ], [ -69.735056842975325, -19.684825750611175 ], [ -69.735630000465918, -19.685250000290239 ], [ -69.735811251744181, -19.685427476772215 ], [ -69.736242142144931, -19.685849388724144 ], [ -69.736590000365666, -19.686190000294985 ], [ -69.736905563253615, -19.686601604065782 ], [ -69.737279999030349, -19.687090000869798 ], [ -69.737879999079965, -19.688200000984168 ], [ -69.738258667718313, -19.688635188034706 ], [ -69.738573623345133, -19.688997149172391 ], [ -69.73899389476091, -19.689480147585638 ], [ -69.739238194297371, -19.689764492778419 ], [ -69.739740000401625, -19.690440000466836 ], [ -69.740759999677479, -19.690709999417123 ], [ -69.741350647366687, -19.691150641719592 ], [ -69.741665541908063, -19.691409415934412 ], [ -69.741697993547703, -19.691436084308823 ], [ -69.742279999443866, -19.69191999980206 ], [ -69.743254644577675, -19.692333891050648 ], [ -69.743772624848603, -19.692550064966905 ], [ -69.744680000540683, -19.692829999064081 ], [ -69.746430000460848, -19.693390000267705 ], [ -69.747239999674434, -19.693810000096267 ], [ -69.74843999977368, -19.69489000003227 ], [ -69.749270230844104, -19.695474236932824 ], [ -69.749520000222319, -19.695650000411725 ], [ -69.749685490558903, -19.695671224766762 ], [ -69.749597889547346, -19.500000045220904 ], [ -69.749497739969584, -19.276301139053405 ], [ -69.746206181614525, -19.274372426814224 ], [ -69.74407151230993, -19.273124715795849 ], [ -69.742656612736852, -19.272297707228923 ], [ -69.741265148412893, -19.271484398668992 ], [ -69.739809000896898, -19.270633281303859 ], [ -69.738728085064963, -19.270001487892394 ], [ -69.73773148241068, -19.26882631393698 ], [ -69.736817708917144, -19.267872810885233 ], [ -69.736221768354298, -19.267237141646412 ], [ -69.735625828689763, -19.266760390007502 ], [ -69.734910701451625, -19.26608499159877 ], [ -69.73411611463338, -19.265052029181629 ], [ -69.733559904758891, -19.264058795788255 ], [ -69.733083152667945, -19.263224480718332 ], [ -69.732660197984401, -19.2625533638349 ], [ -69.732196625975305, -19.262060587821111 ], [ -69.731237706748843, -19.261906834474985 ], [ -69.730939783179821, -19.261865742423552 ], [ -69.720467357446537, -19.261531865731918 ], [ -69.717109798070936, -19.261424695061351 ], [ -69.716846548573542, -19.261524205477006 ], [ -69.704694245411176, -19.266117329472348 ], [ -69.704547830799669, -19.266172662718912 ], [ -69.699105441549747, -19.267769073662656 ], [ -69.698991162370859, -19.267802593312574 ], [ -69.694877560190889, -19.266950712281414 ], [ -69.691547239531346, -19.266253296194286 ], [ -69.688646977432583, -19.265645885654994 ], [ -69.682722004228879, -19.265550618635057 ], [ -69.678551854898402, -19.267105667602653 ], [ -69.677501835722381, -19.266720660217661 ], [ -69.676190767921412, -19.26660147333439 ], [ -69.675714016728762, -19.266164449780934 ], [ -69.67487970191705, -19.265528781549126 ], [ -69.673568635014405, -19.265091758527852 ], [ -69.671979460479562, -19.264853382305958 ], [ -69.67054920510499, -19.264893111700324 ], [ -69.669158679520535, -19.264734194065007 ], [ -69.667092755589664, -19.264694464632115 ], [ -69.665463853061382, -19.26465473518957 ], [ -69.663954139005, -19.264376631366286 ], [ -69.662647664290063, -19.264237645846993 ], [ -69.662086861329556, -19.264177983672234 ], [ -69.660020936500388, -19.263780690954036 ], [ -69.657756365415807, -19.263264209659457 ], [ -69.655332876967577, -19.262707998519545 ], [ -69.653425869502087, -19.262310704783232 ], [ -69.652829929837537, -19.261754495496767 ], [ -69.65187642655394, -19.261436660771611 ], [ -69.64961185546936, -19.260761262479161 ], [ -69.646989720765731, -19.260205051328764 ], [ -69.645559464492862, -19.259768030229463 ], [ -69.64472514968115, -19.259450195046014 ], [ -69.643692186817404, -19.25917209002721 ], [ -69.642897599999145, -19.258417232381642 ], [ -69.642341390124685, -19.257384270843247 ], [ -69.641745449561839, -19.255914285846714 ], [ -69.641500044199262, -19.255439835997187 ], [ -69.6411495107956, -19.254762135104389 ], [ -69.640672758704653, -19.253927820226433 ], [ -69.640156277721943, -19.253053774788231 ], [ -69.639242503330081, -19.252100271607393 ], [ -69.638527375193647, -19.25078920278737 ], [ -69.637813345696799, -19.250000012367128 ], [ -69.637772518165477, -19.249954888057744 ], [ -69.637136848710838, -19.249239761041107 ], [ -69.636580638836392, -19.248365715221162 ], [ -69.635944968483471, -19.247730045847714 ], [ -69.635698111443389, -19.247483187959975 ], [ -69.635428488399057, -19.247213565742978 ], [ -69.634713361160948, -19.246617624879679 ], [ -69.634196880178237, -19.245743580358674 ], [ -69.633879044552614, -19.244829806267109 ], [ -69.632885811478957, -19.243439279748074 ], [ -69.632846082587179, -19.242763881142988 ], [ -69.632726895013604, -19.242088483151253 ], [ -69.632329601604468, -19.241254167440932 ], [ -69.631574744576284, -19.240777414914152 ], [ -69.630621240394376, -19.24038012319399 ], [ -69.629349903281764, -19.240062287768499 ], [ -69.627760730543571, -19.239506076837664 ], [ -69.626727767679824, -19.239029325171121 ], [ -69.625376970987105, -19.238512843979567 ], [ -69.623469963521586, -19.237916904603352 ], [ -69.622079437937103, -19.23740042330488 ], [ -69.62132458001058, -19.237281235473649 ], [ -69.620331347835233, -19.237042859551629 ], [ -69.618901091562364, -19.236645566427367 ], [ -69.618066775852341, -19.236526378048161 ], [ -69.61699408499517, -19.236486649417383 ], [ -69.615643288302422, -19.2361290853705 ], [ -69.614808972592414, -19.235572875533471 ], [ -69.613934927990641, -19.235255040131491 ], [ -69.612941694916984, -19.235175581396888 ], [ -69.612067649416886, -19.2347385580935 ], [ -69.61099495766139, -19.234182349483582 ], [ -69.609604431178582, -19.23382478465987 ], [ -69.609208551717714, -19.233644840381608 ], [ -69.608416163975264, -19.233469377662981 ], [ -69.608208577686156, -19.233367283653564 ], [ -69.607697424611388, -19.233308304060671 ], [ -69.607101484946853, -19.233228845232293 ], [ -69.606767695241771, -19.232878257141707 ], [ -69.606444956611341, -19.23257450394043 ], [ -69.606171535490006, -19.232365416501956 ], [ -69.605991497835689, -19.232276868956422 ], [ -69.605780496151866, -19.232194811648764 ], [ -69.60499583032761, -19.232156153223631 ], [ -69.603684763424965, -19.232156153223631 ], [ -69.602175049368569, -19.232156153223631 ], [ -69.60131911570123, -19.231872073995028 ], [ -69.600939424780108, -19.231264566701487 ], [ -69.600730594324304, -19.230827921460723 ], [ -69.600673640236977, -19.230258383847037 ], [ -69.600677248769486, -19.230093091579171 ], [ -69.600705064203936, -19.228818891231811 ], [ -69.600863981567585, -19.227666740286235 ], [ -69.601022899829559, -19.227031071347007 ], [ -69.600983170039498, -19.226514590590259 ], [ -69.600903710459349, -19.225918650086157 ], [ -69.600863981567585, -19.225402170073366 ], [ -69.601142087403147, -19.224647312336668 ], [ -69.601221546084957, -19.223534891052079 ], [ -69.601221546084957, -19.222700576083835 ], [ -69.600983170039498, -19.221747072195921 ], [ -69.600943440249409, -19.220436004434983 ], [ -69.601022898931248, -19.218846830915158 ], [ -69.600863981567585, -19.217416576793195 ], [ -69.600665334413861, -19.216502802018184 ], [ -69.600268041903064, -19.215946591896532 ], [ -69.599672102238515, -19.214913629490383 ], [ -69.599274807931067, -19.214079313171176 ], [ -69.598877515420256, -19.213483374228701 ], [ -69.597963741926719, -19.212331223496591 ], [ -69.597208884898535, -19.21129826127849 ], [ -69.596851321279487, -19.210384487276286 ], [ -69.596454026972026, -19.209589900084154 ], [ -69.596096463352964, -19.209113148979807 ], [ -69.595579983268564, -19.208517209004007 ], [ -69.59418945678577, -19.207921269413578 ], [ -69.592640012041002, -19.207126682195977 ], [ -69.591408403820154, -19.206570472592016 ], [ -69.590256253382833, -19.206053991167213 ], [ -69.588627352651187, -19.205616969309769 ], [ -69.587793036042854, -19.205219675704466 ], [ -69.587236826168393, -19.205021028541925 ], [ -69.586243593094707, -19.204623736890511 ], [ -69.585806569895524, -19.20434563063656 ], [ -69.585051713765651, -19.204504548189945 ], [ -69.584376314520966, -19.204742923808034 ], [ -69.583581728601018, -19.20486211148754 ], [ -69.583065245821686, -19.205219674856124 ], [ -69.582588495527347, -19.205855345012306 ], [ -69.58171445092556, -19.206848577629128 ], [ -69.581356886408187, -19.207722622120773 ], [ -69.580999321890815, -19.20859666705703 ], [ -69.580641759170064, -19.209391254806942 ], [ -69.580284195551016, -19.2101063822806 ], [ -69.579171774005445, -19.21042421712891 ], [ -69.577701788840812, -19.21109961467188 ], [ -69.576311263256315, -19.211933929994466 ], [ -69.575119383028948, -19.212529870311805 ], [ -69.573927503699863, -19.212847704716939 ], [ -69.572854811944367, -19.213244997707566 ], [ -69.571066993849072, -19.213642291434695 ], [ -69.570272407030785, -19.213761479450437 ], [ -69.569080527701729, -19.213920397235892 ], [ -69.567491354065197, -19.214039584201771 ], [ -69.566100828480714, -19.214079313171176 ], [ -69.565147324298806, -19.214039584201771 ], [ -69.563518423567146, -19.213880667379783 ], [ -69.562684106060502, -19.213840938362374 ], [ -69.56181006235704, -19.213840938362374 ], [ -69.560856558175132, -19.214039583353479 ], [ -69.560141430038684, -19.214397147974005 ], [ -69.559505761482399, -19.214913630338675 ], [ -69.559029008493127, -19.215350651240335 ], [ -69.5585534331952, -19.215516069461565 ], [ -69.558115235897901, -19.215668486978249 ], [ -69.557241190397818, -19.215509569186104 ], [ -69.556526063159694, -19.214993087845457 ], [ -69.555572558079476, -19.214595794837845 ], [ -69.554301220966877, -19.214595794837845 ], [ -69.552473672183211, -19.214556065993239 ], [ -69.5515201688996, -19.214436877705257 ], [ -69.549811806791169, -19.214039584201771 ], [ -69.547865071332211, -19.21340391514396 ], [ -69.546554003531242, -19.212688788439436 ], [ -69.54619643991218, -19.212172306719921 ], [ -69.544964830793049, -19.211933930842772 ], [ -69.543296200271314, -19.211616096367809 ], [ -69.54246188366298, -19.211576367651471 ], [ -69.541548110169458, -19.211020156131688 ], [ -69.541071357180186, -19.210185840414038 ], [ -69.540554876197461, -19.209192607593167 ], [ -69.539879477851102, -19.208000727754541 ], [ -69.539720561385764, -19.207047224281041 ], [ -69.539640585274327, -19.206784447743445 ], [ -69.539442455550216, -19.206133449561982 ], [ -69.538330034004645, -19.205060757993618 ], [ -69.537138154675574, -19.204146984115113 ], [ -69.53638329764739, -19.203590774614892 ], [ -69.535390065472015, -19.203272939285633 ], [ -69.535140438027611, -19.203272940133974 ], [ -69.533761162045437, -19.203272939285633 ], [ -69.532569283614663, -19.203471586862552 ], [ -69.531576050540991, -19.203709961432569 ], [ -69.530106066274683, -19.203829149860539 ], [ -69.529033374519202, -19.204146984115113 ], [ -69.52811960012734, -19.204623736042169 ], [ -69.527126366155358, -19.204981299928981 ], [ -69.525219360486474, -19.206212907918378 ], [ -69.524226127412817, -19.207007495309153 ], [ -69.523232894339131, -19.207603434817564 ], [ -69.522438307520872, -19.208278832069681 ], [ -69.520769676100841, -19.208715855337037 ], [ -69.519895630600743, -19.208874772909304 ], [ -69.518862668635322, -19.20895423163789 ], [ -69.518107811607138, -19.209033690328038 ], [ -69.51719403721529, -19.208517209004007 ], [ -69.515882970312617, -19.207643164493753 ], [ -69.514452714039763, -19.206729390540797 ], [ -69.513658129018125, -19.206093720369399 ], [ -69.512784083518042, -19.205418322627047 ], [ -69.512029226489844, -19.20470319512788 ], [ -69.510916804944273, -19.203709961432569 ], [ -69.509645466933378, -19.202796186836942 ], [ -69.508652233859706, -19.202120789128415 ], [ -69.507698730576109, -19.20164403673407 ], [ -69.506983603337972, -19.201246743713444 ], [ -69.505910911582475, -19.20104809769169 ], [ -69.503407964452421, -19.200968638537152 ], [ -69.501381769413328, -19.200809720961324 ], [ -69.499999960182038, -19.200681180744407 ], [ -69.499673408203236, -19.200650804080304 ], [ -69.49808423456669, -19.200452157338994 ], [ -69.497130731283107, -19.200174053364609 ], [ -69.494190762750478, -19.199657571368807 ], [ -69.492164567711384, -19.199419195168804 ], [ -69.490297289137615, -19.199260276944713 ], [ -69.487992988262988, -19.198425961809363 ], [ -69.48660246178018, -19.197869752479605 ], [ -69.485291394877507, -19.197194353211732 ], [ -69.484218703122039, -19.196360037781972 ], [ -69.482152778292857, -19.194492758961797 ], [ -69.480960899862112, -19.194174925570579 ], [ -69.480126583253764, -19.193578984929086 ], [ -69.479570374277614, -19.192824128719437 ], [ -69.478855245242869, -19.191830895430424 ], [ -69.478418223840293, -19.190599286686005 ], [ -69.477703094805534, -19.189288219204133 ], [ -69.476908508885586, -19.188175797989565 ], [ -69.475994734493753, -19.185672851197893 ], [ -69.475359065937454, -19.183924761744358 ], [ -69.47472339648283, -19.182454777086694 ], [ -69.473849351881057, -19.180865603184831 ], [ -69.473112658787926, -19.179797399839895 ], [ -69.473054765062798, -19.179713453144782 ], [ -69.47110802870553, -19.177250236083026 ], [ -69.467254284882756, -19.172800551681629 ], [ -69.465784299718123, -19.170655168363641 ], [ -69.46510890137175, -19.169979771170823 ], [ -69.464155398088153, -19.168946807900223 ], [ -69.463440270850043, -19.16819195079615 ], [ -69.462725141815284, -19.167516552843011 ], [ -69.46197028568541, -19.166880883150515 ], [ -69.460659217884441, -19.16612602591912 ], [ -69.460023549328142, -19.165490357652605 ], [ -69.459149503828058, -19.164775228983505 ], [ -69.458950856674335, -19.163503890613146 ], [ -69.458831669999071, -19.162192824715991 ], [ -69.458315188118036, -19.16052419227163 ], [ -69.4577192484535, -19.159173395262787 ], [ -69.457321955044364, -19.157981515694612 ], [ -69.456726015379829, -19.157067741946385 ], [ -69.455812240089671, -19.155836132998139 ], [ -69.455256031113521, -19.154803170215096 ], [ -69.454734789059785, -19.15370307696271 ], [ -69.454293287758915, -19.153040823716058 ], [ -69.453557449861904, -19.152452153534465 ], [ -69.452792812875217, -19.152220765082394 ], [ -69.451055604066397, -19.151937068054309 ], [ -69.449289596167873, -19.151348398177181 ], [ -69.449214919218306, -19.151317650064371 ], [ -69.448749952125567, -19.150434926276443 ], [ -69.44657187802305, -19.147855565492172 ], [ -69.443729474615139, -19.144988532199843 ], [ -69.442155134858879, -19.141892528455781 ], [ -69.441245676871986, -19.138903376058106 ], [ -69.440155432035851, -19.136551711071871 ], [ -69.438399704457424, -19.13276025899 ], [ -69.437549186732952, -19.127882113716282 ], [ -69.434824455440719, -19.121390754849152 ], [ -69.431499476163836, -19.118813828715869 ], [ -69.429925457106151, -19.115654478653706 ], [ -69.42950067614764, -19.113124982870588 ], [ -69.42883304373693, -19.110948527389951 ], [ -69.427134950270514, -19.103822015393661 ], [ -69.425677659199167, -19.095664661694045 ], [ -69.422771582305586, -19.088260659754681 ], [ -69.421682528635486, -19.086139329512484 ], [ -69.42149935586086, -19.083609250891815 ], [ -69.420227076415543, -19.079247081690763 ], [ -69.417869332069699, -19.0767219407368 ], [ -69.411284045029873, -19.07328443880251 ], [ -69.40633073185829, -19.071623569360142 ], [ -69.400471981559022, -19.069621011699798 ], [ -69.398845600601732, -19.0679526086425 ], [ -69.397750726746935, -19.065198510756883 ], [ -69.396359817581825, -19.062327695096752 ], [ -69.396053455238999, -19.061383061678928 ], [ -69.395766659101412, -19.061774955035741 ], [ -69.395210375565071, -19.061883793193712 ], [ -69.393845588510118, -19.062158477472444 ], [ -69.390071965427509, -19.062058958739321 ], [ -69.388380391035128, -19.06168268448447 ], [ -69.38672841168551, -19.061912126237083 ], [ -69.385160980872143, -19.063032641154329 ], [ -69.383723142818255, -19.064300112316914 ], [ -69.381588922671298, -19.065445524454066 ], [ -69.379548280925803, -19.066617003337285 ], [ -69.377082877086423, -19.068032327950647 ], [ -69.375485986921618, -19.069010778194698 ], [ -69.372946308577909, -19.070605391409757 ], [ -69.370161523112287, -19.072159248094991 ], [ -69.368414460683113, -19.073677888251947 ], [ -69.368038769959938, -19.074004452928751 ], [ -69.366922224248896, -19.075016416612051 ], [ -69.364279166883975, -19.077411832626037 ], [ -69.360085942528812, -19.081041689425383 ], [ -69.354249166818022, -19.084821831830556 ], [ -69.348099260857069, -19.087047114146735 ], [ -69.34493474584275, -19.087890041953575 ], [ -69.342183491791758, -19.088592916557531 ], [ -69.337099166522506, -19.089891831221475 ], [ -69.335002704363575, -19.090466830165134 ], [ -69.333218594513767, -19.091058450427209 ], [ -69.332254574653149, -19.09149075961308 ], [ -69.331600824806813, -19.091783927237842 ], [ -69.329904676192982, -19.09276711157159 ], [ -69.329752407260756, -19.092855374988339 ], [ -69.328168832823394, -19.094177657612668 ], [ -69.326374949303286, -19.096045066680272 ], [ -69.325992248127633, -19.096443445833376 ], [ -69.324689190604047, -19.097608124175217 ], [ -69.323261708328772, -19.098762470382852 ], [ -69.322742501857505, -19.099182326102532 ], [ -69.320891606757883, -19.100556044889196 ], [ -69.32036652620296, -19.100945748048222 ], [ -69.319492769960391, -19.101465033926722 ], [ -69.318617019457903, -19.101985496381733 ], [ -69.317295983052205, -19.102593788450989 ], [ -69.316767985667568, -19.102836907889614 ], [ -69.315644789728466, -19.103058747242965 ], [ -69.314936889436808, -19.103097957149231 ], [ -69.314922369068555, -19.103241174410652 ], [ -69.315137803938313, -19.10460078405757 ], [ -69.315238195162877, -19.105538063719344 ], [ -69.31525072486447, -19.105655047382989 ], [ -69.315224549753722, -19.106456373535398 ], [ -69.315245739214632, -19.106588031941779 ], [ -69.31526210831575, -19.108793713559816 ], [ -69.315317484063129, -19.109760645627283 ], [ -69.315622179132774, -19.111128699068885 ], [ -69.315723708522796, -19.113021502881999 ], [ -69.315628134064781, -19.115219423983365 ], [ -69.31519515597931, -19.116423759129344 ], [ -69.314946014523457, -19.11691941998162 ], [ -69.314825402221842, -19.117159371106148 ], [ -69.314722107642254, -19.117364871890484 ], [ -69.313539278839684, -19.119623623695226 ], [ -69.313323780189535, -19.120224571084041 ], [ -69.312668595733697, -19.122051607307402 ], [ -69.312594551198089, -19.122258084010131 ], [ -69.312260363539352, -19.123610036112265 ], [ -69.312241104557984, -19.12368794795788 ], [ -69.312164433348485, -19.125004502111391 ], [ -69.312174828652942, -19.125101564965032 ], [ -69.312244989771571, -19.125756610001705 ], [ -69.312563042789506, -19.126545924307774 ], [ -69.312648847170493, -19.126738655389534 ], [ -69.312880961958442, -19.12726001601493 ], [ -69.313532886428121, -19.128197285181471 ], [ -69.313952314325846, -19.128800290074903 ], [ -69.314959527880276, -19.129754175869508 ], [ -69.315379477699196, -19.130151884806615 ], [ -69.316177242756936, -19.131054246555824 ] ] ] } },
{ "type": "Feature", "properties": { "capa": "colegios", "popup": "<strong>ESCUELA FRANCIA</strong><br><br><strong>Dirección:</strong> CAMINO PUBLICO 0", "etiqueta": "" }, "geometry": { "type": "Point", "coordinates": [ -69.571472, -19.381559 ] } },
{ "type": "Feature", "properties": { "capa": "colegios", "popup": "<strong>ESCUELA MOQUELLA</strong><br><br><strong>Dirección:</strong> LOCALIDAD DE MOQUELLA 0", "etiqueta": "" }, "geometry": { "type": "Point", "coordinates": [ -69.514977, -19.350691 ] } },
{ "type": "Feature", "properties": { "capa": "colegios", "popup": "<strong>ESCUELA QUISTAGAMA</strong><br><br><strong>Dirección:</strong> PUEBLO QUISTAGAMA 0", "etiqueta": "" }, "geometry": { "type": "Point", "coordinates": [ -69.497017, -19.34207 ] } },
{ "type": "Feature", "properties": { "capa": "colegios", "popup": "<strong>ESCUELA CUISAMA</strong><br><br><strong>Dirección:</strong> CAMINO PUBLICO 217", "etiqueta": "" }, "geometry": { "type": "Point", "coordinates": [ -69.456703, -19.323589 ] } },
{ "type": "Feature", "properties": { "capa": "colegios", "popup": "<strong>ESCUELA CHAPIQUILTA</strong><br><br><strong>Dirección:</strong> CHAPIQUILTA 0", "etiqueta": "" }, "geometry": { "type": "Point", "coordinates": [ -69.41053, -19.31773 ] } },
{ "type": "Feature", "properties": { "capa": "colegios", "popup": "<strong>ESCUELA YALA YALA</strong><br><br><strong>Dirección:</strong> LOS OLIVOS 0", "etiqueta": "" }, "geometry": { "type": "Point", "coordinates": [ -69.400093, -19.31469 ] } },
{ "type": "Feature", "properties": { "capa": "colegios", "popup": "<strong>ESCUELA CAMINA</strong><br><br><strong>Dirección:</strong> ELEUTERIO RAMIREZ 0", "etiqueta": "" }, "geometry": { "type": "Point", "coordinates": [ -69.424637, -19.3118 ] } },
{ "type": "Feature", "properties": { "capa": "colegios", "popup": "<strong>LICEO CAMIÑA</strong><br><br><strong>Dirección:</strong> CAMINO FISCAL 0", "etiqueta": "" }, "geometry": { "type": "Point", "coordinates": [ -69.427757, -19.31144 ] } },
{ "type": "Feature", "properties": { "capa": "colegios", "popup": "<strong>ESCUELA APAMILCA</strong><br><br><strong>Dirección:</strong> ESMERALDA 0", "etiqueta": "" }, "geometry": { "type": "Point", "coordinates": [ -69.392776, -19.309509 ] } },
{ "type": "Feature", "properties": { "capa": "colegios", "popup": "<strong>ESCUELA NAMA</strong><br><br><strong>Dirección:</strong> AVENIDA TRINIDAD 12", "etiqueta": "" }, "geometry": { "type": "Point", "coordinates": [ -69.411568, -19.18918 ] } },
{ "type": "Feature", "properties": { "capa": "jardines", "popup": "<strong>CARANGUITOS</strong><br><br><strong>Dirección:</strong> SARGENTO ALDES S/N CAMIÑA ", "etiqueta": "" }, "geometry": { "type": "MultiPoint", "coordinates": [ [ -69.426476, -19.311779 ] ] } },
{ "type": "Feature", "properties": { "capa": "jardines", "popup": "<strong>VIZCACHITAS</strong><br><br><strong>Dirección:</strong> PJE. CARLOS BRAVO S/N MOQUELLA ", "etiqueta": "" }, "geometry": { "type": "MultiPoint", "coordinates": [ [ -69.515352, -19.350956 ] ] } },
{ "type": "Feature", "properties": { "capa": "jardines", "popup": "<strong>INGACOYO</strong><br><br><strong>Dirección:</strong> CHAPIQUILTA S/N ", "etiqueta": "" }, "geometry": { "type": "MultiPoint", "coordinates": [ [ -69.410329, -19.316965 ] ] } },
{ "type": "Feature", "properties": { "capa": "jardines", "popup": "<strong>LOS TUMBITOS</strong><br><br><strong>Dirección:</strong> PUEBLO DE NAMA S/N ", "etiqueta": "" }, "geometry": { "type": "MultiPoint", "coordinates": [ [ -69.411477, -19.189664 ] ] } },
{ "type": "Feature", "properties": { "capa": "jardines", "popup": "<strong>SEMILLITA DE CAMIÑA</strong><br><br><strong>Dirección:</strong> ROTONDA ACCESO A CAMIÑA ", "etiqueta": "" }, "geometry": { "type": "MultiPoint", "coordinates": [ [ -69.427467, -19.311138 ] ] } },
{ "type": "Feature", "properties": { "capa": "bomberos", "popup": "<strong>Cuerpo de Bomberos</strong><br><br><strong>Dirección:</strong> Arturo Prat S/n", "etiqueta": "" }, "geometry": { "type": "Point", "coordinates": [ -69.425429886180552, -19.3127233077014 ] } },
{ "type": "Feature", "properties": { "capa": "comisarias", "popup": "<strong>RETEN CAMINA</strong><br><br><strong>Dirección:</strong> ARTURO PRAT S/N", "etiqueta": "" }, "geometry": { "type": "Point", "coordinates": [ -69.427209899999923, -19.312741802999952 ] } },
{ "type": "Feature", "properties": { "capa": "salud", "popup": "<strong>Posta de Salud Rural Moquella</strong><br><br><strong>Tipo de atención:</strong> Posta de Salud Rural (PSR)<br><strong>Dirección:</strong>  NA", "etiqueta": "" }, "geometry": { "type": "Point", "coordinates": [ -69.5144, -19.35076 ] } },
{ "type": "Feature", "properties": { "capa": "salud", "popup": "<strong>Centro de Salud Familiar Camiña</strong><br><br><strong>Tipo de atención:</strong> Centro de Salud Familiar (CESFAM)<br><strong>Dirección:</strong>  NA", "etiqueta": "" }, "geometry": { "type": "Point", "coordinates": [ -69.42739, -19.31296 ] } },
{ "type": "Feature", "properties": { "capa": "salud", "popup": "<strong>SUR Camiña</strong><br><br><strong>Tipo de atención:</strong> Servicio de Urgencia Rural (SUR)<br><strong>Dirección:</strong>  NA", "etiqueta": "" }, "geometry": { "type": "Point", "coordinates": [ -69.426272, -19.312365 ] } },
{ "type": "Feature", "properties": { "capa": "municipios", "popup": "<strong>Municipalidad de Camiña</strong><br><br><strong>Dirección:</strong> Arturo Prat  s/n, Camiña  /  Casilla 487, Iquique<br><strong>Región:</strong> Tarapacá", "etiqueta": "" }, "geometry": { "type": "Point", "coordinates": [ -69.426754, -19.312635000999936 ] } }
]
}
