{
"type": "FeatureCollection",
"name": "1403",
"crs": { "type": "name", "properties": { "name": "urn:ogc:def:crs:OGC:1.3:CRS84" } },
"features": [
{ "type": "Feature", "properties": { "capa": "comuna", "popup": "", "etiqueta": "" }, "geometry": { "type": "Polygon", "coordinates": [ [ [ -69.007471684052774, -18.952720706365493 ], [ -69.007400248224755, -18.953469392073444 ], [ -69.006928249119966, -18.954055223331814 ], [ -69.006572286298734, -18.954322631299934 ], [ -69.006515635841978, -18.954365188942493 ], [ -69.005929288388046, -18.954675158225271 ], [ -69.004756579107138, -18.955274429349444 ], [ -69.004475922954484, -18.955403648639823 ], [ -69.004083354683758, -18.955584395243623 ], [ -69.001998512233001, -18.956576268301202 ], [ -69.000456584590552, -18.957299495690158 ], [ -68.999841344622126, -18.957628769849102 ], [ -68.999761624530549, -18.957671436245256 ], [ -68.998762618882878, -18.957981381543167 ], [ -68.997698455732674, -18.958188004625089 ], [ -68.996873187854192, -18.958249983683569 ], [ -68.996221662236508, -18.958187981686265 ], [ -68.995570141110392, -18.957940006600428 ], [ -68.994766608868531, -18.957444066367501 ], [ -68.994310560249943, -18.956906805534196 ], [ -68.993963098186228, -18.956452201018759 ], [ -68.993550483111619, -18.956059585331911 ], [ -68.992856275839841, -18.955876079746233 ], [ -68.992768670336702, -18.955852922231131 ], [ -68.991639373938526, -18.955832210708287 ], [ -68.991627340106973, -18.955831346666105 ], [ -68.990488364361596, -18.955749503075982 ], [ -68.989902007026203, -18.955604828128376 ], [ -68.989334317580742, -18.955416561727528 ], [ -68.988468702769566, -18.955129488064212 ], [ -68.986709659509444, -18.954571460519002 ], [ -68.985971294651563, -18.954344109355311 ], [ -68.985254660040397, -18.954034103773907 ], [ -68.984581470651307, -18.953600118271499 ], [ -68.983995169011465, -18.953021496083316 ], [ -68.98364775276184, -18.952442890579984 ], [ -68.983300332020661, -18.951967605228305 ], [ -68.9828660432932, -18.951533634741551 ], [ -68.98230146561184, -18.950975669936291 ], [ -68.982119621445506, -18.950784394038909 ], [ -68.981888897249618, -18.950541701117853 ], [ -68.981128931502411, -18.949529122360556 ], [ -68.980434963182489, -18.948723676946337 ], [ -68.980238679496281, -18.948495860710278 ], [ -68.979804424006474, -18.947896577135086 ], [ -68.979778968446254, -18.947831959497652 ], [ -68.979674168290273, -18.947565949832523 ], [ -68.979413657756197, -18.946884029058626 ], [ -68.978726706176957, -18.946907295723381 ], [ -68.978197549965586, -18.946925217272401 ], [ -68.977111728433897, -18.94704906648338 ], [ -68.97613448537227, -18.947172923249244 ], [ -68.97520065699004, -18.947400098961946 ], [ -68.974701173030809, -18.94748268498607 ], [ -68.974501379626787, -18.947482656947905 ], [ -68.974201701647999, -18.94748261616509 ], [ -68.973376507431396, -18.947358519180327 ], [ -68.973054863847267, -18.94727500018724 ], [ -68.972421034142371, -18.947110418394782 ], [ -68.972076992863279, -18.946949760946666 ], [ -68.971270175482431, -18.946572996839421 ], [ -68.971219948878257, -18.946546701139169 ], [ -68.970408354256733, -18.946121797597911 ], [ -68.970401611502183, -18.946118268158287 ], [ -68.969598207719415, -18.945622214618624 ], [ -68.969523028611619, -18.945568002629464 ], [ -68.968881677312822, -18.945105513873099 ], [ -68.968624579478515, -18.944918368215816 ], [ -68.968512561359219, -18.944836827697799 ], [ -68.967839437547156, -18.944485434671819 ], [ -68.967274872442218, -18.94425804002864 ], [ -68.966645126478582, -18.944195936820591 ], [ -68.966210796428626, -18.944278511685219 ], [ -68.966027174496332, -18.944399423046182 ], [ -68.965928454138194, -18.944464430305725 ], [ -68.965646089389878, -18.944753665147804 ], [ -68.96542887855081, -18.945001585061604 ], [ -68.965037830229534, -18.945786719710807 ], [ -68.964538119894854, -18.946943771804484 ], [ -68.964233966509326, -18.947542950896608 ], [ -68.963929892175543, -18.947770188978957 ], [ -68.963604121731024, -18.947894105534072 ], [ -68.963584286929546, -18.947893345956434 ], [ -68.963061221295803, -18.947873333548525 ], [ -68.962564556249944, -18.947800526223453 ], [ -68.962496616665007, -18.947790567594058 ], [ -68.96158462183574, -18.947418441030759 ], [ -68.961385901918476, -18.947310336817576 ], [ -68.960672659345818, -18.946922328481616 ], [ -68.960337901256864, -18.946766859635474 ], [ -68.959782397458227, -18.946508871484475 ], [ -68.95916576869439, -18.946235805084648 ], [ -68.958848708314861, -18.946095398169437 ], [ -68.958153871324043, -18.945805956638427 ], [ -68.957981636436315, -18.945698744363586 ], [ -68.957589342151721, -18.94545455205818 ], [ -68.957036439874145, -18.944928191921502 ], [ -68.956899327317387, -18.944598761851971 ], [ -68.952842209405858, -18.939229414299074 ], [ -68.950201162470549, -18.936666032874761 ], [ -68.950208332823152, -18.936736110733605 ], [ -68.934827777380434, -18.957077777645363 ], [ -68.921029448902146, -18.975326703578929 ], [ -68.919997222656946, -18.97669166638433 ], [ -68.909392248706865, -19.000007659772461 ], [ -68.901137568475647, -19.018159366199789 ], [ -68.89970574015102, -19.021307454788001 ], [ -68.889644444577172, -19.043425000993025 ], [ -68.875210205895812, -19.056475961580638 ], [ -68.870897221740208, -19.06037499942445 ], [ -68.865899139229825, -19.061415938976005 ], [ -68.852327778192901, -19.064241666593411 ], [ -68.813321997901809, -19.080486202560824 ], [ -68.809968241993118, -19.081882388731014 ], [ -68.805955556552178, -19.083552778138323 ], [ -68.785781785687817, -19.103827605869867 ], [ -68.752422345453795, -19.132040156820704 ], [ -68.74895512513821, -19.135911406245373 ], [ -68.737817298409354, -19.153136400331785 ], [ -68.73102534495527, -19.158368398549417 ], [ -68.724753408252866, -19.162326557502627 ], [ -68.719792707336367, -19.164798341220003 ], [ -68.715813871313657, -19.168527024293873 ], [ -68.713058332298743, -19.170255556281095 ], [ -68.692547222485629, -19.189816667339837 ], [ -68.686019443793683, -19.196044443446922 ], [ -68.676886110603292, -19.204738888334173 ], [ -68.662156566941917, -19.218785633871107 ], [ -68.630565029153345, -19.248354164973467 ], [ -68.629757631460819, -19.24965826243503 ], [ -68.629391690153426, -19.250006557922493 ], [ -68.628275000711938, -19.251069443926291 ], [ -68.627076921210772, -19.254652208885137 ], [ -68.621275000132997, -19.27200000015042 ], [ -68.619775000458091, -19.276486110689429 ], [ -68.616129123198789, -19.277444735254999 ], [ -68.612724027673323, -19.278339973027698 ], [ -68.6125176056008, -19.27839418879833 ], [ -68.605493915549502, -19.28014528460594 ], [ -68.598830687082383, -19.281865964441472 ], [ -68.59163776341471, -19.283720696053194 ], [ -68.589571541243188, -19.284419246063781 ], [ -68.560216666578256, -19.292122222384538 ], [ -68.542749999365327, -19.296700000459502 ], [ -68.535353742931406, -19.302485808216868 ], [ -68.499895943296579, -19.330213093458472 ], [ -68.486362545063557, -19.34079741412522 ], [ -68.477183333114979, -19.347974999888617 ], [ -68.473838355543236, -19.350592234726975 ], [ -68.451461111610058, -19.368097221429515 ], [ -68.404870666728925, -19.416181306532803 ], [ -68.405608515055533, -19.416726579238389 ], [ -68.405704965370958, -19.416797856193444 ], [ -68.412572317121771, -19.421713882747373 ], [ -68.412574646453308, -19.421874259826705 ], [ -68.412582614509887, -19.422422860698273 ], [ -68.412391665918136, -19.431041666906907 ], [ -68.423442380318946, -19.43470530339394 ], [ -68.429149999851461, -19.436597220966025 ], [ -68.440636110602483, -19.440411111183803 ], [ -68.458455556108973, -19.464252779072041 ], [ -68.485072425076694, -19.500006805986189 ], [ -68.493068995072278, -19.510749233997942 ], [ -68.49522967958751, -19.513651552915135 ], [ -68.500003733944141, -19.520063804132338 ], [ -68.501908333026364, -19.522622221384665 ], [ -68.555022664199342, -19.593928582071825 ], [ -68.556866666525778, -19.596402777833998 ], [ -68.56245457656351, -19.599657938950397 ], [ -68.572474999690229, -19.605494444486137 ], [ -68.587501771624602, -19.625616121353534 ], [ -68.589349414822877, -19.62808978985311 ], [ -68.598625228003854, -19.640507046513228 ], [ -68.59875277799442, -19.640677777893618 ], [ -68.598838771021633, -19.640949316711314 ], [ -68.599050863260203, -19.641476535524848 ], [ -68.599367859859342, -19.64187175708129 ], [ -68.599897060986493, -19.642181376796394 ], [ -68.600289914023151, -19.642519383122071 ], [ -68.600751120768138, -19.642771462457411 ], [ -68.601197062441472, -19.643073719908273 ], [ -68.601581783928197, -19.643641241925717 ], [ -68.601958548138143, -19.644366553566456 ], [ -68.602153132211853, -19.645285131648812 ], [ -68.602037462440904, -19.646138466910077 ], [ -68.601869181937047, -19.646833879144658 ], [ -68.601647989764643, -19.647493309064025 ], [ -68.601188696431237, -19.647912355588634 ], [ -68.600674731629624, -19.648407283032189 ], [ -68.600141732425485, -19.648730890727304 ], [ -68.599684417182303, -19.649153197064646 ], [ -68.599607039897009, -19.649224650696969 ], [ -68.598980555716182, -19.649701708205168 ], [ -68.598466590914583, -19.6502727802891 ], [ -68.59816202071076, -19.651129387565138 ], [ -68.597971664108783, -19.651795634601072 ], [ -68.597819882063433, -19.652408644199586 ], [ -68.597781610239068, -19.652563208783306 ], [ -68.597696160692621, -19.653430954736347 ], [ -68.597641300578218, -19.654176825957276 ], [ -68.597533618626784, -19.654850849236944 ], [ -68.597486274716374, -19.655618256526797 ], [ -68.597686130104151, -19.656592629379837 ], [ -68.597766275997159, -19.656782067404041 ], [ -68.598104913909836, -19.657582485020892 ], [ -68.598409485910267, -19.658115484610317 ], [ -68.598675984614047, -19.658648484120416 ], [ -68.599256166031864, -19.659416739495736 ], [ -68.600056066385022, -19.660508821298983 ], [ -68.60077313128923, -19.661421388760019 ], [ -68.601173178034699, -19.661931561480365 ], [ -68.601541837644149, -19.662459643573207 ], [ -68.601998845663488, -19.662959164386468 ], [ -68.602196666367135, -19.663175385553792 ], [ -68.602493622450595, -19.663556100105442 ], [ -68.603057079034471, -19.664355599074948 ], [ -68.603689064498113, -19.66539875391425 ], [ -68.604291666068804, -19.666280555518945 ], [ -68.60457704735984, -19.666967077877398 ], [ -68.604919690860342, -19.667899827449695 ], [ -68.605814367069243, -19.668946790314727 ], [ -68.606333171993583, -19.669790221978552 ], [ -68.607101552260076, -19.671427351531904 ], [ -68.607349342649712, -19.672288655509341 ], [ -68.607509559875595, -19.672744252919511 ], [ -68.607633222855924, -19.673095904860105 ], [ -68.60780089160707, -19.673437325138934 ], [ -68.608050204641131, -19.67367457927185 ], [ -68.608352769805236, -19.673811525760655 ], [ -68.608807427831778, -19.673683401762737 ], [ -68.609131544477876, -19.673501693033742 ], [ -68.609449300153429, -19.673100255218205 ], [ -68.60983994962271, -19.672581002813899 ], [ -68.610136172680924, -19.672208649267596 ], [ -68.610689404640226, -19.672023350621721 ], [ -68.611121285882746, -19.671916690391228 ], [ -68.611871018022228, -19.671889619508772 ], [ -68.612628284332018, -19.671876907535783 ], [ -68.613158416113777, -19.671849357029227 ], [ -68.613726306781885, -19.671864924715489 ], [ -68.614346979761152, -19.671973853645074 ], [ -68.615179926438671, -19.672487428760281 ], [ -68.615655818841901, -19.672887178041524 ], [ -68.615865211643055, -19.673210785402794 ], [ -68.616245924847007, -19.673610533725544 ], [ -68.616588568347495, -19.673972211611975 ], [ -68.616836031750381, -19.674295818473965 ], [ -68.617254815556066, -19.674828818328276 ], [ -68.617711671760105, -19.675266639368264 ], [ -68.618139762112122, -19.675582811834595 ], [ -68.618201826715094, -19.675597252464332 ], [ -68.618699822165894, -19.675713115801443 ], [ -68.618986916544173, -19.675993472655392 ], [ -68.619053780845732, -19.676538764840807 ], [ -68.61890124421555, -19.676997513679741 ], [ -68.61855180226496, -19.677463018752324 ], [ -68.618495773442376, -19.67755360149139 ], [ -68.618889183434518, -19.680171851057018 ], [ -68.620053858183553, -19.681801199450874 ], [ -68.620313091313292, -19.682007272276529 ], [ -68.620872501885117, -19.682424488730664 ], [ -68.621325742370146, -19.68290603861066 ], [ -68.621681596495208, -19.683223773466022 ], [ -68.622050481581809, -19.68386874917805 ], [ -68.622660952394384, -19.68478448316765 ], [ -68.622970245939953, -19.685635245016933 ], [ -68.623104579109224, -19.68648194331028 ], [ -68.62326905524786, -19.687393261639507 ], [ -68.623296865292431, -19.688454925664743 ], [ -68.623332952414003, -19.689215340584671 ], [ -68.62311889106833, -19.690075654080498 ], [ -68.62292050801932, -19.690706461492304 ], [ -68.622282322383583, -19.691573055364369 ], [ -68.6217735839803, -19.692138652409461 ], [ -68.621030000808943, -19.69273244393187 ], [ -68.62024830840825, -19.693426573995513 ], [ -68.61973969217587, -19.693934780737873 ], [ -68.619425563897423, -19.694248742729286 ], [ -68.619360124323919, -19.694314145937735 ], [ -68.619116690763377, -19.69477270177266 ], [ -68.619040140826456, -19.695116844028448 ], [ -68.619076347423984, -19.6955082593689 ], [ -68.619287860249202, -19.696049860190566 ], [ -68.619726477059714, -19.696323364644435 ], [ -68.620422915746673, -19.696461125683125 ], [ -68.621232353513207, -19.696830483007258 ], [ -68.621326143917074, -19.696892999448849 ], [ -68.62192053039449, -19.697289183022669 ], [ -68.622471782466917, -19.697978952100982 ], [ -68.622780904434265, -19.698574961490209 ], [ -68.623014510425577, -19.69907756237513 ], [ -68.623277957552318, -19.69977389767141 ], [ -68.62351888840648, -19.700384108730098 ], [ -68.623684738069187, -19.70071441540447 ], [ -68.623918400654361, -19.701195495864482 ], [ -68.624218552045306, -19.702073756406538 ], [ -68.62467064897497, -19.702383086465446 ], [ -68.625336898878473, -19.702502059600953 ], [ -68.626618987926705, -19.702592698370196 ], [ -68.627326572011384, -19.702666503812676 ], [ -68.627671495436076, -19.702702480877203 ], [ -68.628943612286335, -19.70282705668647 ], [ -68.629844760856855, -19.702886302069423 ], [ -68.631222847469601, -19.703039773498269 ], [ -68.632464691094782, -19.703157089378635 ], [ -68.633502237163114, -19.703187903209123 ], [ -68.634555483087652, -19.703178940262667 ], [ -68.635189319979077, -19.703295001838296 ], [ -68.635926746097496, -19.703348974831577 ], [ -68.636613282655063, -19.703469673361411 ], [ -68.637401688165866, -19.703669244324715 ], [ -68.638029945621071, -19.703835492097081 ], [ -68.638695945792918, -19.704059197646924 ], [ -68.639164834930199, -19.704368580530033 ], [ -68.639701793908145, -19.70472113728573 ], [ -68.640125320818498, -19.704994561799094 ], [ -68.64048885553926, -19.705206185608962 ], [ -68.64109038452149, -19.705723956256314 ], [ -68.641822493511739, -19.706086210264054 ], [ -68.642613238235541, -19.706432083023504 ], [ -68.643100551819288, -19.706531070036394 ], [ -68.643590029444553, -19.706662657963946 ], [ -68.64399906922435, -19.706852926460087 ], [ -68.644513879340636, -19.706954369972831 ], [ -68.645089423654966, -19.706991374444851 ], [ -68.645687644142001, -19.707049941725518 ], [ -68.64596837126156, -19.707042188346691 ], [ -68.646172412798563, -19.707036552600758 ], [ -68.646417788516743, -19.706978439456353 ], [ -68.646664032007465, -19.707041225939914 ], [ -68.647096441459368, -19.707038372547544 ], [ -68.647611270440279, -19.707132632569838 ], [ -68.648088167159997, -19.70725551099418 ], [ -68.648678704356428, -19.70736426277784 ], [ -68.649306709385016, -19.707659586324429 ], [ -68.650237192441153, -19.708177858984172 ], [ -68.65102413369803, -19.708530869938073 ], [ -68.65177358017327, -19.708711650938287 ], [ -68.652651493818965, -19.709028965849313 ], [ -68.653325124280855, -19.70924545971609 ], [ -68.654142960396996, -19.709325941333805 ], [ -68.6548320212205, -19.709413344864327 ], [ -68.655740640180937, -19.709544204821334 ], [ -68.656414508696372, -19.709653092050072 ], [ -68.657073245090842, -19.709754774807372 ], [ -68.657747266319873, -19.709791927472146 ], [ -68.658162509865022, -19.709607020742453 ], [ -68.658581295467314, -19.709492805653134 ], [ -68.659019116370501, -19.709473770078876 ], [ -68.659610553678831, -19.709773954960426 ], [ -68.659913792579403, -19.710006768684401 ], [ -68.66018029307979, -19.71031134081402 ], [ -68.660313542880829, -19.710673018671773 ], [ -68.660797033234729, -19.711038653489453 ], [ -68.661372175103821, -19.71127644979719 ], [ -68.661970402777385, -19.711342134421422 ], [ -68.662426504396592, -19.711282160659028 ], [ -68.662978539799937, -19.711282160659028 ], [ -68.663485082720655, -19.711423886036556 ], [ -68.66418165705322, -19.711547133261661 ], [ -68.664916029797979, -19.711706313147477 ], [ -68.665657947492832, -19.711879849892753 ], [ -68.666513318814793, -19.712132498355086 ], [ -68.667321561822007, -19.712401675074741 ], [ -68.668022075267075, -19.712759546073048 ], [ -68.668562689489903, -19.713041273994236 ], [ -68.66927935194883, -19.713280906650112 ], [ -68.669835506127754, -19.713558902575741 ], [ -68.670388124537709, -19.713710552350314 ], [ -68.670910650283986, -19.713761722679127 ], [ -68.671471342751701, -19.713779858801598 ], [ -68.672179469418836, -19.714130114905938 ], [ -68.673124559979797, -19.714556298727601 ], [ -68.673924058786028, -19.714841834022174 ], [ -68.674495130388564, -19.714937012058513 ], [ -68.675301321643659, -19.715340785531097 ], [ -68.675746956991489, -19.715606826235639 ], [ -68.676284048920095, -19.715952101669806 ], [ -68.676775826232472, -19.716232736457979 ], [ -68.67716933773427, -19.716412771344043 ], [ -68.677600853362449, -19.716528316772173 ], [ -68.677964284776962, -19.71660069932101 ], [ -68.678282184182962, -19.716716038274971 ], [ -68.678751371560907, -19.716932069313053 ], [ -68.679311326511794, -19.717212819925866 ], [ -68.679961893627095, -19.717637190925696 ], [ -68.680567515333763, -19.717773329424023 ], [ -68.68091015703763, -19.717906579936624 ], [ -68.681290871139865, -19.718211151394971 ], [ -68.681747728242243, -19.718477650733579 ], [ -68.681837794230944, -19.718946020267946 ], [ -68.68205673432692, -19.719312232340268 ], [ -68.682169815153202, -19.719585007828865 ], [ -68.682275393250237, -19.719821905203077 ], [ -68.682343040882714, -19.720087426843588 ], [ -68.682463442978545, -19.720489328615312 ], [ -68.682644242404223, -19.720991760854474 ], [ -68.68290824019823, -19.721558897782636 ], [ -68.683376954164018, -19.722025972099097 ], [ -68.683558324019884, -19.722241482669922 ], [ -68.683792733105079, -19.722449913430861 ], [ -68.684032010160777, -19.722627430675793 ], [ -68.68424140206362, -19.722817788413963 ], [ -68.684260437364472, -19.72335078650687 ], [ -68.684304732392832, -19.724021707002958 ], [ -68.684379382392933, -19.724581336024283 ], [ -68.684408935169145, -19.72496155785926 ], [ -68.684622117064166, -19.72531146306056 ], [ -68.68479343656864, -19.725920604235142 ], [ -68.684812473666142, -19.726396497227366 ], [ -68.684765866374249, -19.727325654278761 ], [ -68.684803937874307, -19.727858655093566 ], [ -68.685078973268219, -19.728490422069608 ], [ -68.6854977579722, -19.729289921447268 ], [ -68.685535829472272, -19.72974677800854 ], [ -68.685611971574062, -19.730222669751466 ], [ -68.685669078374971, -19.730622419411155 ], [ -68.685707148976718, -19.731022168916105 ], [ -68.685764257574277, -19.731459990104256 ], [ -68.685573900074019, -19.73178359655553 ], [ -68.685421614972086, -19.732012025238845 ], [ -68.684831508068683, -19.732621167079298 ], [ -68.684769385973553, -19.732705031023134 ], [ -68.684450794864759, -19.733135130153627 ], [ -68.684225834259721, -19.73358087690114 ], [ -68.683883697409058, -19.733969944682489 ], [ -68.683594931266015, -19.734428506873087 ], [ -68.683351729470829, -19.734829766312011 ], [ -68.683078451181629, -19.735116203946625 ], [ -68.682927939354087, -19.735476520145692 ], [ -68.683156368354432, -19.735762055265983 ], [ -68.683441904155686, -19.735895305997854 ], [ -68.683898760359739, -19.736104698089356 ], [ -68.684298510661165, -19.736142769656684 ], [ -68.684850544267888, -19.736218912764119 ], [ -68.685478721773023, -19.736371197179018 ], [ -68.686144970778216, -19.736732875253203 ], [ -68.686490487989332, -19.737403223771746 ], [ -68.686697006181561, -19.737741766443648 ], [ -68.686830255982599, -19.738179587814042 ], [ -68.686906399881025, -19.738560301514546 ], [ -68.686868327482657, -19.738941015152868 ], [ -68.686667850460694, -19.739684551728953 ], [ -68.686560841347429, -19.740172130300074 ], [ -68.686658933783193, -19.740501942994328 ], [ -68.686697006181561, -19.740730370199596 ], [ -68.686906399881025, -19.740882654539739 ], [ -68.687115791783867, -19.740958797923618 ], [ -68.687325183686696, -19.740958797923618 ], [ -68.687534575589538, -19.740901690600474 ], [ -68.687877219090026, -19.740787477584025 ], [ -68.688296003794036, -19.740616156215069 ], [ -68.688886109799114, -19.740368691878832 ], [ -68.689419109901579, -19.740254478481074 ], [ -68.69003811201442, -19.740142314554284 ], [ -68.690674559410056, -19.740093203917375 ], [ -68.691489271185631, -19.739980579911212 ], [ -68.691999428028751, -19.73992728048805 ], [ -68.692819555747164, -19.739697637111007 ], [ -68.693584643688126, -19.739545881786842 ], [ -68.693740302862238, -19.73949638540552 ], [ -68.694145577802672, -19.739367514982764 ], [ -68.694957022405561, -19.738916998677905 ], [ -68.695494380235473, -19.738564324562365 ], [ -68.696290992754697, -19.73804633814262 ], [ -68.695834136550658, -19.738845837039761 ], [ -68.695472458647615, -19.739359801220481 ], [ -68.695510529249347, -19.739854728409032 ], [ -68.695586673147758, -19.740425798547076 ], [ -68.695681851448754, -19.740787476738483 ], [ -68.695738958249677, -19.741092048546612 ], [ -68.695865826418938, -19.741557017910232 ], [ -68.695808239019343, -19.74196339171538 ], [ -68.69578216002833, -19.742399704951854 ], [ -68.695693244781495, -19.742680497055233 ], [ -68.695554073286104, -19.742829699339495 ], [ -68.695402399038585, -19.742913126712036 ], [ -68.695022294892425, -19.743346089141081 ], [ -68.694944871793027, -19.743407443420711 ], [ -68.694618738429128, -19.743665888711284 ], [ -68.694209895380396, -19.743910677831845 ], [ -68.693562557708546, -19.744338612732381 ], [ -68.693246454034806, -19.744571194315839 ], [ -68.692968114637267, -19.744863615834785 ], [ -68.692740141082794, -19.745227853441101 ], [ -68.69260857023302, -19.745394330235161 ], [ -68.692499324314682, -19.745705641154373 ], [ -68.692540963024726, -19.746193612246042 ], [ -68.692540963024726, -19.74670757560002 ], [ -68.692502891524683, -19.747145396902297 ], [ -68.692464820024625, -19.747678397516967 ], [ -68.692426748524568, -19.748135253045284 ], [ -68.692407713223687, -19.748477894678775 ], [ -68.69244578382542, -19.748782467032484 ], [ -68.6923280209799, -19.749441287623025 ], [ -68.69251034215165, -19.749842095049239 ], [ -68.692631730597668, -19.749991821596186 ], [ -68.692806372970381, -19.750207230176219 ], [ -68.692828764377154, -19.750227602661056 ], [ -68.693844870354582, -19.750549823396703 ], [ -68.6986968239177, -19.75108225801495 ], [ -68.703071211516232, -19.75111051013992 ], [ -68.706241804531743, -19.751130920555429 ], [ -68.726166287514872, -19.751569143154935 ], [ -68.742682341324482, -19.751602670045603 ], [ -68.762986127156523, -19.749850417046044 ], [ -68.777611758197409, -19.7495167192615 ], [ -68.786957817836964, -19.749284151648375 ], [ -68.798255654280865, -19.749532207523878 ], [ -68.802926594619294, -19.749329531752508 ], [ -68.805936796135768, -19.748067640626633 ], [ -68.811578013100785, -19.741937584047655 ], [ -68.814357283808874, -19.735397751251163 ], [ -68.813248442049712, -19.728709279205809 ], [ -68.80952216736911, -19.718791855458065 ], [ -68.809928302895585, -19.714942548583998 ], [ -68.815500902945956, -19.708459877437885 ], [ -68.821500784864554, -19.705077117546477 ], [ -68.827207419843518, -19.702154639969372 ], [ -68.829735458716087, -19.698207958522598 ], [ -68.831836348671047, -19.685368398319135 ], [ -68.833815850179988, -19.672591977289166 ], [ -68.832960875913372, -19.666464079307751 ], [ -68.832925461629955, -19.66187323063393 ], [ -68.838844968585136, -19.654703239092353 ], [ -68.84206691828544, -19.649130288918464 ], [ -68.845539158386856, -19.64396414517881 ], [ -68.854497310215365, -19.640004349085178 ], [ -68.862376264689104, -19.639558734361369 ], [ -68.870364158755663, -19.638552436013601 ], [ -68.878190324630054, -19.635638992892243 ], [ -68.886064529710879, -19.629241389572723 ], [ -68.893686661234781, -19.619567388575838 ], [ -68.901816728068098, -19.608158099102415 ], [ -68.90625423938333, -19.602846760189994 ], [ -68.907778753184004, -19.600353268856573 ], [ -68.919675988704611, -19.595008980067984 ], [ -68.933648886792056, -19.590699494250277 ], [ -68.940345617029365, -19.588636861825137 ], [ -68.963841434171201, -19.578358877511995 ], [ -68.987150593075086, -19.570843124697518 ], [ -68.995749693674441, -19.564644081568449 ], [ -69.00196453884729, -19.561065479805801 ], [ -69.006062961295569, -19.557034779339297 ], [ -69.033827030983417, -19.538270600040352 ], [ -69.069704635808421, -19.5153600959157 ], [ -69.100967942666884, -19.494858171928492 ], [ -69.096376593960954, -19.486067442857195 ], [ -69.082845799045643, -19.457453332783359 ], [ -69.069380503890969, -19.429633200976948 ], [ -69.059842669209601, -19.409347988895647 ], [ -69.051274105041699, -19.390670483569924 ], [ -69.04398516314825, -19.375320360746436 ], [ -69.044071198396267, -19.375171945160734 ], [ -69.023193005517058, -19.331550027770025 ], [ -69.077723945757086, -19.274049393090444 ], [ -69.078295894115342, -19.273445996896143 ], [ -69.079018760339622, -19.273398578500185 ], [ -69.079725235903254, -19.273539872899335 ], [ -69.080573005681273, -19.273963758757557 ], [ -69.081420777255929, -19.27424634900315 ], [ -69.082268547932273, -19.274670235577567 ], [ -69.083186965715825, -19.275164767963041 ], [ -69.084034735493859, -19.275588652161371 ], [ -69.084135479756355, -19.275662531267404 ], [ -69.085094449288434, -19.276365775148324 ], [ -69.086012867970297, -19.276930956193468 ], [ -69.087001932861071, -19.277142898688695 ], [ -69.088132294661165, -19.277072250938101 ], [ -69.089050712444717, -19.276365775148324 ], [ -69.089367755756243, -19.275541462486082 ], [ -69.089403950675688, -19.275447357833098 ], [ -69.089403950675688, -19.274175700851487 ], [ -69.089615891997298, -19.273115988488442 ], [ -69.08996913112658, -19.272056275207706 ], [ -69.090816900904599, -19.271208504397567 ], [ -69.091735319586462, -19.270572676803724 ], [ -69.092795033381051, -19.270502029612118 ], [ -69.094349279621014, -19.270148790653298 ], [ -69.096468704515232, -19.270148790653298 ], [ -69.097387123197095, -19.270855266961529 ], [ -69.099082664549783, -19.27184433206838 ], [ -69.100424967671501, -19.272833398837275 ], [ -69.101908566804255, -19.273893111332004 ], [ -69.10273810347698, -19.274288131585291 ], [ -69.103392165038713, -19.274599586760715 ], [ -69.10395734548959, -19.275447357833098 ], [ -69.104663821053222, -19.276224480642295 ], [ -69.105087706391387, -19.276436423203577 ], [ -69.105582238836774, -19.276436423203577 ], [ -69.106066819745436, -19.275891270014572 ], [ -69.106147419287666, -19.275800595545192 ], [ -69.106641952631364, -19.275094119359437 ], [ -69.107065837969529, -19.27424634900315 ], [ -69.107207132183945, -19.272974693723771 ], [ -69.107489722409383, -19.272056275207706 ], [ -69.108196198871326, -19.27149109430696 ], [ -69.109538501993029, -19.270855266961529 ], [ -69.110810158007553, -19.270502028764145 ], [ -69.112293756241996, -19.269795553477085 ], [ -69.11441318293285, -19.268947783691861 ], [ -69.115614191840166, -19.268453250351978 ], [ -69.117804265638227, -19.267746773865483 ], [ -69.118793330528987, -19.267817421396746 ], [ -69.119853044323563, -19.268241306792984 ], [ -69.120630167892699, -19.268594544775059 ], [ -69.121124700338086, -19.269230373259536 ], [ -69.121689880788978, -19.269583610805899 ], [ -69.122325708347063, -19.26965425839342 ], [ -69.123385422141666, -19.269654257545444 ], [ -69.124233192818011, -19.270078143278962 ], [ -69.124869020376096, -19.270431380694085 ], [ -69.125646143046936, -19.27106720883614 ], [ -69.126705856841525, -19.272197570764309 ], [ -69.127624274625063, -19.273751816389517 ], [ -69.128613340414134, -19.274740881820094 ], [ -69.129743701315917, -19.276365775148324 ], [ -69.130238233761304, -19.278697144885253 ], [ -69.130662119099469, -19.280180743491737 ], [ -69.131086004437648, -19.281311104440512 ], [ -69.131368595561412, -19.283218588763749 ], [ -69.13186312710846, -19.284843481936907 ], [ -69.132004423119511, -19.285973842075133 ], [ -69.13207507112503, -19.286680317968397 ], [ -69.132710898683115, -19.288022620974537 ], [ -69.134971619588384, -19.290212695798214 ], [ -69.136879103160993, -19.291908236401568 ], [ -69.138292055186554, -19.293250539782758 ], [ -69.139634358308285, -19.29438090037586 ], [ -69.14069407210286, -19.295228671632422 ], [ -69.141175435246168, -19.295561325720517 ], [ -69.142910000313108, -19.296760000950052 ], [ -69.143398251738034, -19.295632219850066 ], [ -69.147057461792784, -19.293995740046864 ], [ -69.163812517773607, -19.286064711865659 ], [ -69.175060473464725, -19.281237320306158 ], [ -69.201850212429122, -19.268991243255986 ], [ -69.26889817093857, -19.238792467426791 ], [ -69.271617883343296, -19.236266996335324 ], [ -69.274095718967899, -19.231148135265439 ], [ -69.279595789940529, -19.220403452285172 ], [ -69.286059691229269, -19.203159104274473 ], [ -69.295242246707332, -19.184879968785108 ], [ -69.308588303982788, -19.155043572897025 ], [ -69.316919216147326, -19.135223861348223 ], [ -69.316815699683872, -19.13524525320468 ], [ -69.315977996426909, -19.134501537031166 ], [ -69.315861141778129, -19.134427784600099 ], [ -69.314977096232298, -19.133869819768694 ], [ -69.313837656956252, -19.13339669072948 ], [ -69.313715473501176, -19.133364096764879 ], [ -69.312559625598169, -19.133055756098749 ], [ -69.310670973408847, -19.132874204585892 ], [ -69.308893991690809, -19.133009162883617 ], [ -69.307908612587667, -19.1330247941025 ], [ -69.307033505278937, -19.133038671921394 ], [ -69.305171315661255, -19.132760271720425 ], [ -69.304589135491909, -19.132673231354477 ], [ -69.302366690902588, -19.132175429817849 ], [ -69.301838604584731, -19.131865579644057 ], [ -69.300392987120489, -19.131017365331175 ], [ -69.300223320516153, -19.130888111239333 ], [ -69.299113860716062, -19.130042902273399 ], [ -69.29769557359603, -19.128883903678194 ], [ -69.296249729756354, -19.127830510749998 ], [ -69.295453386731722, -19.127183953522607 ], [ -69.293989584671195, -19.124293208278825 ], [ -69.294021395812024, -19.123954285891884 ], [ -69.294153289156981, -19.123449216617434 ], [ -69.294352364807096, -19.12268688272265 ], [ -69.294431329415517, -19.12204724643572 ], [ -69.294489239310323, -19.121578152449736 ], [ -69.294403879595379, -19.120416988708691 ], [ -69.294401822453395, -19.120406100001535 ], [ -69.294179641235857, -19.119229652832459 ], [ -69.294093106524542, -19.118965482667935 ], [ -69.293816714674549, -19.118121717579402 ], [ -69.293398164430855, -19.116961083805197 ], [ -69.293311020661776, -19.116802693826955 ], [ -69.292701769761337, -19.11569531862926 ], [ -69.292061938412033, -19.115010112033623 ], [ -69.291978506481698, -19.114952635697588 ], [ -69.291450342908718, -19.114588789893485 ], [ -69.290523647149826, -19.114338695411103 ], [ -69.290478064835668, -19.114326394768259 ], [ -69.289862403557379, -19.114261303709828 ], [ -69.288756244167672, -19.114144350749083 ], [ -69.285756464006781, -19.113541988387038 ], [ -69.285012431677785, -19.113326174251856 ], [ -69.284022043568612, -19.113038896392798 ], [ -69.28295070467594, -19.112728131830753 ], [ -69.280936185938899, -19.11223187953124 ], [ -69.27975629462729, -19.111941216451058 ], [ -69.278314102439239, -19.111325970556305 ], [ -69.277783520601503, -19.111099619009057 ], [ -69.277623223425579, -19.111029968595084 ], [ -69.277365252428808, -19.110917878704914 ], [ -69.276513268653787, -19.110547686822088 ], [ -69.276088587408282, -19.110363157574238 ], [ -69.274310202521761, -19.109521232098086 ], [ -69.273115511465846, -19.109047928940882 ], [ -69.271227046126114, -19.108786788062385 ], [ -69.270139112655187, -19.108821747434067 ], [ -69.269505683598908, -19.108842101210435 ], [ -69.268658542641575, -19.108808329337826 ], [ -69.26758975586263, -19.108765717028799 ], [ -69.264951762300953, -19.108584779687924 ], [ -69.264033401111277, -19.108605498485169 ], [ -69.263702368335814, -19.10861296723364 ], [ -69.263119297936043, -19.108613801621576 ], [ -69.262619356734319, -19.108508941177654 ], [ -69.262214664800524, -19.108339648507688 ], [ -69.261424663881783, -19.108009168888138 ], [ -69.260165669621202, -19.107313428784398 ], [ -69.259423846249462, -19.106903479984492 ], [ -69.259233520190222, -19.106823980561106 ], [ -69.258479223710765, -19.106508910095535 ], [ -69.25752409627313, -19.106265343627406 ], [ -69.256729342368217, -19.106062670933923 ], [ -69.255146058985019, -19.105616186104445 ], [ -69.254367999371368, -19.105194968203769 ], [ -69.253867431145594, -19.104667793048488 ], [ -69.253555722928525, -19.104224716792238 ], [ -69.253255282280065, -19.103797657009213 ], [ -69.252643503520432, -19.103165057575396 ], [ -69.252349877491724, -19.103016706424093 ], [ -69.25180993341209, -19.102743906434156 ], [ -69.251007970527041, -19.102478306783489 ], [ -69.250698804542239, -19.102375915149583 ], [ -69.248949186406065, -19.102061567921705 ], [ -69.247282551940913, -19.101535946370454 ], [ -69.245588046345745, -19.100931167227472 ], [ -69.244233308743873, -19.100389526643134 ], [ -69.243087822009315, -19.099931537149963 ], [ -69.242624372171093, -19.099757340307075 ], [ -69.242220055733057, -19.099644035693316 ], [ -69.242074362468713, -19.099603207033542 ], [ -69.24138176318128, -19.099410542786341 ], [ -69.240464900381497, -19.099024598190304 ], [ -69.239405284503263, -19.098483975101821 ], [ -69.239013853499699, -19.098231007455396 ], [ -69.238508515219749, -19.097904422642745 ], [ -69.236836673220893, -19.096396714117645 ], [ -69.236693497035958, -19.096241229690314 ], [ -69.235715040350414, -19.095178645013601 ], [ -69.234899558718638, -19.094463469936354 ], [ -69.234666688447533, -19.094338411347916 ], [ -69.234288244388011, -19.094135173962357 ], [ -69.233412393274193, -19.093923354865858 ], [ -69.232658984330243, -19.093904951708701 ], [ -69.231841818357324, -19.093920919391199 ], [ -69.231600207478493, -19.093925641784175 ], [ -69.230860843694018, -19.094099034073569 ], [ -69.230521388314443, -19.094178641478379 ], [ -69.229239401674178, -19.094760956536302 ], [ -69.228527058315109, -19.094994128333049 ], [ -69.227488687593365, -19.095053485947968 ], [ -69.226694481660786, -19.095027740039264 ], [ -69.225187701502108, -19.094978884006508 ], [ -69.223457363906903, -19.095290707368743 ], [ -69.222297206785441, -19.095640542342938 ], [ -69.220860000247214, -19.096013672461769 ], [ -69.220424553591329, -19.096126723198921 ], [ -69.219040195839611, -19.096321947249898 ], [ -69.218063050694354, -19.096497321710267 ], [ -69.218053515077614, -19.096501136577039 ], [ -69.21743215848042, -19.096749710524989 ], [ -69.216292742560569, -19.097409199696155 ], [ -69.216227682076124, -19.097458013416606 ], [ -69.215645958250946, -19.097894468759971 ], [ -69.215336648535683, -19.098126538550769 ], [ -69.21530049763372, -19.098147767980763 ], [ -69.212793281709438, -19.099620004355216 ], [ -69.212171822704292, -19.099983900916648 ], [ -69.211368974978683, -19.100454006889013 ], [ -69.210148248949196, -19.101268409389863 ], [ -69.209855653288116, -19.101496544252871 ], [ -69.209476945123896, -19.10179181968056 ], [ -69.209456461738796, -19.101820740943726 ], [ -69.209411894520912, -19.101947014526861 ], [ -69.209179395254026, -19.103014294002108 ], [ -69.208888777683185, -19.103876806466424 ], [ -69.208488863888391, -19.104619309955563 ], [ -69.207483747001817, -19.106434846383731 ], [ -69.206715879673382, -19.107194802968209 ], [ -69.205581031686734, -19.108207816638778 ], [ -69.204829804750602, -19.108806742899123 ], [ -69.204152307939736, -19.109448608474246 ], [ -69.203878949700467, -19.109721654596342 ], [ -69.203552269262559, -19.109892015353822 ], [ -69.20300811567752, -19.109757938765917 ], [ -69.202595736859834, -19.10958971008818 ], [ -69.201930055589898, -19.109309481081958 ], [ -69.201081690228833, -19.108794857765048 ], [ -69.199885516054366, -19.108371902787461 ], [ -69.198307141964193, -19.107419789858266 ], [ -69.196103802744332, -19.107062847955795 ], [ -69.193506430999818, -19.106645481476335 ], [ -69.192233948535247, -19.105518509137742 ], [ -69.191404047146534, -19.104543742953116 ], [ -69.191321395852199, -19.103993062150057 ], [ -69.191579239288188, -19.1011138148973 ], [ -69.191704669254676, -19.098547474797133 ], [ -69.191705789453849, -19.098533146728169 ], [ -69.191791689056231, -19.097434857800256 ], [ -69.191730683566988, -19.09664658021666 ], [ -69.191648090663136, -19.095779356108448 ], [ -69.191193830590265, -19.095201205876098 ], [ -69.190244012195961, -19.095242503358399 ], [ -69.189046415090104, -19.09553157780601 ], [ -69.18731196500751, -19.095820653446481 ], [ -69.185660107828781, -19.095944542852113 ], [ -69.183966954198112, -19.095779355259559 ], [ -69.182197684516794, -19.095270294200844 ], [ -69.18053664565754, -19.095338603219393 ], [ -69.178675502577178, -19.09538608140446 ], [ -69.176861836357887, -19.095832375678164 ], [ -69.175703369865801, -19.096259679276152 ], [ -69.173611689439113, -19.096984858253307 ], [ -69.17299479297732, -19.097010141219368 ], [ -69.171070420179049, -19.097094984794797 ], [ -69.169472223863806, -19.097497740766091 ], [ -69.167993373225656, -19.098286217175346 ], [ -69.166579861549664, -19.099119459056464 ], [ -69.164674982193063, -19.100465647301974 ], [ -69.163568830888167, -19.101168099251087 ], [ -69.162585767641843, -19.101987346878765 ], [ -69.161971646974266, -19.102806265341027 ], [ -69.161295858759075, -19.103449868867649 ], [ -69.160768214412315, -19.104347797751835 ], [ -69.160175685650913, -19.104816854044774 ], [ -69.159932058054281, -19.104799187192388 ], [ -69.153410061817809, -19.102726110335475 ], [ -69.149497302274114, -19.099709589193214 ], [ -69.148913341643905, -19.099033501107726 ], [ -69.148905638590335, -19.099024582910705 ], [ -69.148253183216326, -19.098057243444778 ], [ -69.147906199056365, -19.097128371122004 ], [ -69.147680995906228, -19.09575418076259 ], [ -69.147622141882067, -19.095437265809814 ], [ -69.147415021818574, -19.094321952197724 ], [ -69.147325127408095, -19.094045771165302 ], [ -69.146822926045132, -19.092502835472636 ], [ -69.146344788752018, -19.091610726922578 ], [ -69.146211074521972, -19.091361238624735 ], [ -69.14551780688798, -19.090239062107937 ], [ -69.145272980938756, -19.089677892047934 ], [ -69.145252196618031, -19.089193975838498 ], [ -69.145149884795387, -19.088613336491321 ], [ -69.145074947334365, -19.088442752630218 ], [ -69.145047877501611, -19.088381130268669 ], [ -69.144660612884294, -19.087916857767734 ], [ -69.143865880538954, -19.087162543761007 ], [ -69.143796638396864, -19.08712231306345 ], [ -69.142867698646398, -19.086582600204629 ], [ -69.140952828227199, -19.085461347201637 ], [ -69.139527173125217, -19.084978498519376 ], [ -69.137816684704518, -19.084747496939265 ], [ -69.137022619807425, -19.08474808949958 ], [ -69.136249121838773, -19.085000307763089 ], [ -69.13590500959279, -19.085135316171023 ], [ -69.135754573223721, -19.085012221772221 ], [ -69.135364331589585, -19.085114427194345 ], [ -69.133972556448526, -19.085607744557613 ], [ -69.132729129991816, -19.086430569351311 ], [ -69.132077977174973, -19.087184534387578 ], [ -69.13136525832013, -19.087376420817435 ], [ -69.130489406308016, -19.087286774123857 ], [ -69.129445330385892, -19.086926432127733 ], [ -69.12903236496831, -19.086100503550998 ], [ -69.12913560654728, -19.084706748650223 ], [ -69.129083985757802, -19.083467855461837 ], [ -69.128774262817487, -19.082125721115766 ], [ -69.127535983707361, -19.081346662479657 ], [ -69.125096268990163, -19.079690464216171 ], [ -69.122715484653909, -19.079141051438523 ], [ -69.121082801116586, -19.079596314687759 ], [ -69.119327701460577, -19.079389833129504 ], [ -69.117806831226687, -19.079292864855724 ], [ -69.115941689744986, -19.078564858567244 ], [ -69.115248111293894, -19.07796498323297 ], [ -69.114607537037841, -19.077107382090766 ], [ -69.113183782770989, -19.075076950447194 ], [ -69.110453340888498, -19.073614682960137 ], [ -69.108204253166164, -19.072185851657711 ], [ -69.106725750176011, -19.071348332777717 ], [ -69.105883908380534, -19.070366435752206 ], [ -69.104728153902286, -19.069473663748774 ], [ -69.10405204409021, -19.069012680850548 ], [ -69.102638359937714, -19.067537531885154 ], [ -69.102546162246838, -19.066738492298274 ], [ -69.102730555831954, -19.065539934186837 ], [ -69.102736610476967, -19.065506137349406 ], [ -69.103071043375778, -19.063639319624865 ], [ -69.103049569148922, -19.062458285668843 ], [ -69.103018123622391, -19.060728736564062 ], [ -69.10295490109101, -19.059943588018712 ], [ -69.103193092981854, -19.058973631025211 ], [ -69.103679159703987, -19.058678681721819 ], [ -69.104311689546691, -19.058294858306098 ], [ -69.105315140058394, -19.057989015831641 ], [ -69.105942077888443, -19.057712425257446 ], [ -69.106279610873287, -19.05741126268877 ], [ -69.106538433472963, -19.05690517524009 ], [ -69.106724438635695, -19.05631679031378 ], [ -69.106387725812695, -19.05601252434359 ], [ -69.105425776568794, -19.055794732415595 ], [ -69.104753131558766, -19.055537218082552 ], [ -69.103997138161745, -19.055198627854754 ], [ -69.1028679495614, -19.053943257253941 ], [ -69.101408424379926, -19.052943212015972 ], [ -69.099436812774144, -19.051592292696849 ], [ -69.098096591947254, -19.050673993722214 ], [ -69.095238927959272, -19.04871596591169 ], [ -69.09179914758235, -19.047048994765618 ], [ -69.090502614522663, -19.046546257815486 ], [ -69.089463066109573, -19.046319688668582 ], [ -69.088438745937196, -19.046096440191942 ], [ -69.087189247767469, -19.046243144038495 ], [ -69.086083820504712, -19.046466877174634 ], [ -69.084942545072224, -19.04668258313411 ], [ -69.08392501077347, -19.046811034316185 ], [ -69.082726923187465, -19.046962277849463 ], [ -69.081535526253688, -19.047132231040688 ], [ -69.080524208296723, -19.047595821302199 ], [ -69.079608461204515, -19.048176942303076 ], [ -69.079427248553827, -19.048313490451655 ], [ -69.079120086710418, -19.048544942745799 ], [ -69.078394589320652, -19.048828339900531 ], [ -69.078326338020318, -19.048855001550368 ], [ -69.077837759608641, -19.04879713543097 ], [ -69.076880836438761, -19.048410386838178 ], [ -69.076412571630613, -19.048255721793062 ], [ -69.0756797125471, -19.048178593856218 ], [ -69.075109668617245, -19.048023968504083 ], [ -69.074743145201538, -19.047772468382824 ], [ -69.074498710019469, -19.047404775310952 ], [ -69.074335556200936, -19.046727330006654 ], [ -69.074172387111048, -19.04601116971034 ], [ -69.074160594926312, -19.045877278322699 ], [ -69.074101178556788, -19.045202690941903 ], [ -69.074008716761213, -19.044152917866164 ], [ -69.073942770537897, -19.043304924080033 ], [ -69.073906354632911, -19.042836650632172 ], [ -69.073898783631719, -19.042663814404339 ], [ -69.073824104885503, -19.040959008243426 ], [ -69.073640800956824, -19.03922319909114 ], [ -69.073640137101833, -19.039216908414652 ], [ -69.073476998554668, -19.038539461962422 ], [ -69.073293558980382, -19.037978166988861 ], [ -69.073171172506065, -19.037397491769436 ], [ -69.072967187562938, -19.036390983018983 ], [ -69.072829681544079, -19.035852540146575 ], [ -69.07280407057533, -19.03575224985553 ], [ -69.072600313804273, -19.035268392784154 ], [ -69.072396581287734, -19.03484260826486 ], [ -69.072070524280633, -19.033952290341528 ], [ -69.07174447086679, -19.033061972740569 ], [ -69.071732649935953, -19.033022177296552 ], [ -69.071561955658936, -19.032447526013637 ], [ -69.071520249575229, -19.032307117899382 ], [ -69.071506026549343, -19.032237173655755 ], [ -69.071335863176643, -19.03140042459092 ], [ -69.071295882756615, -19.03120382648213 ], [ -69.071248069027305, -19.030893976737751 ], [ -69.071173419925501, -19.030410216760302 ], [ -69.071142585253369, -19.0301647414963 ], [ -69.071071303935582, -19.029597240123632 ], [ -69.071055023767698, -19.029427686801 ], [ -69.071026119575109, -19.029126663985448 ], [ -69.071009969662924, -19.028958466396222 ], [ -69.071192874739623, -19.028300241166036 ], [ -69.071599742393047, -19.027816145831945 ], [ -69.071737119054504, -19.027697838472204 ], [ -69.072027013481517, -19.027448187764961 ], [ -69.072216304681561, -19.027244740997123 ], [ -69.0722178057664, -19.027243128300576 ], [ -69.072218573825964, -19.027242301995269 ], [ -69.072229974345234, -19.027230027157398 ], [ -69.072230000396374, -19.027229999981884 ], [ -69.072228521769418, -19.027230643701788 ], [ -69.07222767555642, -19.027231003777281 ], [ -69.072217606340416, -19.027235281372384 ], [ -69.072214951818736, -19.027236409156032 ], [ -69.072211954140641, -19.027237683008014 ], [ -69.071573145972422, -19.027135637241617 ], [ -69.070764688267872, -19.027006487203643 ], [ -69.070735793058432, -19.02699696557114 ], [ -69.069631136550186, -19.026632944454622 ], [ -69.069561583590982, -19.026610022676927 ], [ -69.06875145232506, -19.026633673949849 ], [ -69.068748234559706, -19.026632939359196 ], [ -69.067493954657735, -19.026346249186069 ], [ -69.067425644068592, -19.026330635073112 ], [ -69.065796182788191, -19.026218926098689 ], [ -69.065786096504183, -19.026218234817446 ], [ -69.065786021944035, -19.026218228872761 ], [ -69.065731671174376, -19.026214503257428 ], [ -69.065224542552087, -19.026286139174314 ], [ -69.065068866309986, -19.026308130230273 ], [ -69.063939490860079, -19.026075042722841 ], [ -69.063872830476086, -19.026085856952321 ], [ -69.062860737273041, -19.026250055832314 ], [ -69.062785728845128, -19.026262224587594 ], [ -69.061967218094225, -19.026306984606308 ], [ -69.061926506445531, -19.026309211312018 ], [ -69.060589486316005, -19.026702733099789 ], [ -69.060576418523553, -19.02670658014511 ], [ -69.059810017245653, -19.027322010289765 ], [ -69.059791052013367, -19.027337240455715 ], [ -69.059256310975869, -19.027873646451301 ], [ -69.058898078111923, -19.028232992388372 ], [ -69.05731056815533, -19.028623150924407 ], [ -69.055253002149882, -19.028921831637682 ], [ -69.055252697620986, -19.028921874948221 ], [ -69.054536585829325, -19.029025826977993 ], [ -69.054528183886461, -19.029028145363661 ], [ -69.05364374038696, -19.02927212342637 ], [ -69.053623341443497, -19.029277749536973 ], [ -69.052386698165492, -19.029536864632121 ], [ -69.052343060703933, -19.029546008214876 ], [ -69.051084931520961, -19.030392767868069 ], [ -69.051045886247138, -19.030419046084191 ], [ -69.048868352930455, -19.032007144830512 ], [ -69.048835578795618, -19.032031048399649 ], [ -69.047845702726178, -19.033037926653357 ], [ -69.047843580007154, -19.033039937570798 ], [ -69.046999970327192, -19.033839893544421 ], [ -69.046855528416046, -19.033623575607564 ], [ -69.046831464346212, -19.033532134358914 ], [ -69.046790278387064, -19.033375635609399 ], [ -69.046877082592957, -19.033003675664279 ], [ -69.046985527214062, -19.032321764201928 ], [ -69.046996083316984, -19.032294635379625 ], [ -69.047202642831706, -19.031763803447422 ], [ -69.047484970749096, -19.031329805689754 ], [ -69.04750679801387, -19.03123835553539 ], [ -69.047584727763095, -19.030911843391539 ], [ -69.047593477353942, -19.030875187833367 ], [ -69.047571496477275, -19.029986677015014 ], [ -69.047529678104155, -19.02975411354306 ], [ -69.047419167357916, -19.029139527196065 ], [ -69.047235349592896, -19.028484658833477 ], [ -69.046984196809134, -19.027589901010948 ], [ -69.04654931609187, -19.026329556539196 ], [ -69.0463373828551, -19.026003412659637 ], [ -69.046092866824651, -19.025627124600963 ], [ -69.045487742784658, -19.025129642466272 ], [ -69.045288814458246, -19.024966100644917 ], [ -69.044997013806181, -19.024755676818817 ], [ -69.04495556553897, -19.024725788405075 ], [ -69.042621993959116, -19.02421200985976 ], [ -69.040497260021567, -19.022061716716021 ], [ -69.040486612290493, -19.022033045658386 ], [ -69.040269199330496, -19.021392533281308 ], [ -69.040191639687194, -19.021164708572606 ], [ -69.040147872868204, -19.021036144134023 ], [ -69.040030047140604, -19.020690037161238 ], [ -69.039790902137241, -19.02000820339919 ], [ -69.039638739206211, -19.019656960428204 ], [ -69.039640302274805, -19.019625597607874 ], [ -69.039660361655095, -19.019223029562919 ], [ -69.039573367006355, -19.018830448048114 ], [ -69.039505424726485, -19.018740024585693 ], [ -69.039356044776198, -19.018541211864196 ], [ -69.038747677818023, -19.018293380147892 ], [ -69.03826970132333, -19.018210826678573 ], [ -69.03787858383177, -19.017942286424041 ], [ -69.037596080742915, -19.017611734437715 ], [ -69.037417799294985, -19.01742439930058 ], [ -69.03718320515685, -19.017177889956205 ], [ -69.0361184500169, -19.016165604976855 ], [ -69.035075460157955, -19.015277286433506 ], [ -69.034944788521798, -19.015182284180877 ], [ -69.03470608099795, -19.015008735495147 ], [ -69.034184601789008, -19.014616233204372 ], [ -69.03348930486078, -19.014099778683384 ], [ -69.033066499297576, -19.013678643364106 ], [ -69.033032994832439, -19.013645270811661 ], [ -69.032641847696482, -19.013128760617672 ], [ -69.032446258407973, -19.012777520097611 ], [ -69.03232710047881, -19.012437719045469 ], [ -69.032315838300093, -19.01240560492203 ], [ -69.032315758350038, -19.011992340987359 ], [ -69.032315662230289, -19.01149642409899 ], [ -69.032331203983034, -19.011348328111836 ], [ -69.032359031993892, -19.011083151959532 ], [ -69.0323425874343, -19.010755948789573 ], [ -69.032337223593743, -19.010649229291388 ], [ -69.032098120811185, -19.009946720897428 ], [ -69.031723365234228, -19.009512937950657 ], [ -69.031598353882657, -19.009368237501022 ], [ -69.030751026075748, -19.008913790588316 ], [ -69.029990648900139, -19.008727946416073 ], [ -69.029317153185545, -19.008459431613613 ], [ -69.028971741975653, -19.008260031601612 ], [ -69.028708819465024, -19.008108251725854 ], [ -69.027665946387089, -19.007385199050884 ], [ -69.027079341116661, -19.007013348256486 ], [ -69.027079052757429, -19.007013197074325 ], [ -69.026475060594692, -19.006696343593898 ], [ -69.026449295115711, -19.006682828052295 ], [ -69.02571063650872, -19.006372984405381 ], [ -69.025058888108859, -19.0061457778212 ], [ -69.024580966411392, -19.006145841521867 ], [ -69.024037904279439, -19.00637320948082 ], [ -69.023516575089133, -19.006683223844565 ], [ -69.023427965269505, -19.006730998344715 ], [ -69.022864909334245, -19.007034580006017 ], [ -69.022148062720674, -19.007365278721167 ], [ -69.021561554468292, -19.007654632869084 ], [ -69.020996771072774, -19.007964647392495 ], [ -69.020872835902907, -19.007979396061536 ], [ -69.020475401458285, -19.008026694563 ], [ -69.019932258477937, -19.007675478938847 ], [ -69.019389075073406, -19.006931660607954 ], [ -69.019106589052527, -19.006270468035336 ], [ -69.019084795025407, -19.005671236798449 ], [ -69.019019593505462, -19.005402621934632 ], [ -69.018889211126819, -19.005030697061681 ], [ -69.01860676014023, -19.004638124506599 ], [ -69.018150525570363, -19.004266231898491 ], [ -69.018072119714049, -19.004232341051164 ], [ -69.017433616074712, -19.003956351474912 ], [ -69.016952833243081, -19.003861781021818 ], [ -69.016803623972706, -19.00383243158921 ], [ -69.016195373795512, -19.003915137436181 ], [ -69.015608843085261, -19.003956514550804 ], [ -69.015087465385932, -19.003832579376851 ], [ -69.01467470388593, -19.003625980628691 ], [ -69.014323129334869, -19.003291618847342 ], [ -69.014261923521289, -19.003233409854953 ], [ -69.013675329030661, -19.00244825448674 ], [ -69.013594172532947, -19.002305467449638 ], [ -69.013240802249641, -19.001683744331768 ], [ -69.013072682544205, -19.001419927046872 ], [ -69.012806286248392, -19.001001890394416 ], [ -69.012501228259381, -19.000606256543978 ], [ -69.012328331313256, -19.000382023379238 ], [ -69.011828656911206, -18.999762160000515 ], [ -69.011649522962088, -18.999572857987413 ], [ -69.011242095658233, -18.999142299408977 ], [ -69.010460024168509, -18.998336479651297 ], [ -69.010134160299202, -18.997943895548346 ], [ -69.009808293734935, -18.997509984473744 ], [ -69.009656213448906, -18.997138054698755 ], [ -69.009591019115476, -18.996683466504997 ], [ -69.009699582314198, -18.995856931690685 ], [ -69.009677806253393, -18.994906423768811 ], [ -69.00968231938937, -18.99480111345142 ], [ -69.009721191288349, -18.993893921706555 ], [ -69.009873186234429, -18.992840088828792 ], [ -69.010046914122157, -18.992054875930389 ], [ -69.010380420857913, -18.991177604439521 ], [ -69.010416126195508, -18.991083683325645 ], [ -69.010872228713026, -18.990215799644879 ], [ -69.011065368295746, -18.989820011891702 ], [ -69.011154572800109, -18.989637211125515 ], [ -69.011350014764872, -18.988872659111635 ], [ -69.011415110283622, -18.987860156028688 ], [ -69.011262999454885, -18.986950982092086 ], [ -69.01100229668134, -18.986207120398731 ], [ -69.010993129373858, -18.986158304534104 ], [ -69.011951069436662, -18.985340418366345 ], [ -69.011957965803091, -18.985339202805392 ], [ -69.012566155793152, -18.985318499193529 ], [ -69.013196071538374, -18.985401108059179 ], [ -69.01363467667079, -18.985435846242936 ], [ -69.01371738276238, -18.985442396337145 ], [ -69.014477596444593, -18.985173716545674 ], [ -69.015150925072547, -18.984884376826319 ], [ -69.015420358572342, -18.984789921255572 ], [ -69.015563609317439, -18.984739701681406 ], [ -69.015777041842426, -18.984630347486949 ], [ -69.01641068469776, -18.984305698427914 ], [ -69.017626960473308, -18.983375740071526 ], [ -69.018734597591688, -18.982259813600688 ], [ -69.019690171492016, -18.981102572471187 ], [ -69.020008864110409, -18.980527967748987 ], [ -69.020102773091892, -18.980358649828649 ], [ -69.020395922115213, -18.979718056858669 ], [ -69.020699931770281, -18.979098125037957 ], [ -69.021025682451878, -18.97868482341682 ], [ -69.021244323408865, -18.978411682278818 ], [ -69.022727000870134, -18.977382198025694 ], [ -69.023217002213229, -18.97679447195841 ], [ -69.024710571747335, -18.975903483112248 ], [ -69.0263900018154, -18.975047398902621 ], [ -69.027606185962796, -18.974303343034688 ], [ -69.027671310227632, -18.974096699997585 ], [ -69.027606117690837, -18.973890077092374 ], [ -69.02725855771078, -18.973600841803147 ], [ -69.026551526090003, -18.973320691520335 ], [ -69.026476603900363, -18.973291006244473 ], [ -69.026441884014631, -18.973269702230599 ], [ -69.0259326730975, -18.972957255506735 ], [ -69.025129872084293, -18.972464662003311 ], [ -69.024326180840632, -18.97196884992394 ], [ -69.024192811563651, -18.97184834337806 ], [ -69.023457297958473, -18.971183756958055 ], [ -69.023044576882654, -18.970791206539726 ], [ -69.022688059800885, -18.970255801598423 ], [ -69.022631829755682, -18.970171358742274 ], [ -69.022627158516215, -18.970162985814458 ], [ -69.022424227296895, -18.968307016086609 ], [ -69.022414511118768, -18.968174158886413 ], [ -69.022289558157709, -18.96646539234775 ], [ -69.022285118683584, -18.966448155082514 ], [ -69.021966779103067, -18.965212092396857 ], [ -69.021918810863525, -18.965148218027803 ], [ -69.021839994477148, -18.965043266097897 ], [ -69.021832330949465, -18.965033061278177 ], [ -69.020998859655805, -18.964598326203355 ], [ -69.020218814765357, -18.963995471165269 ], [ -69.0197082914096, -18.963600910753719 ], [ -69.019469930635495, -18.963337901394393 ], [ -69.019036102743755, -18.962859211452955 ], [ -69.018883272364462, -18.962766700792173 ], [ -69.018873588525707, -18.962753651493763 ], [ -69.019169447766217, -18.962089944650497 ], [ -69.019177566739756, -18.962071731629749 ], [ -69.019519619148795, -18.961612178006973 ], [ -69.019546715032718, -18.961575773947981 ], [ -69.019854789564462, -18.961315169078937 ], [ -69.020133040927078, -18.96107979015359 ], [ -69.020675938667367, -18.960645801742874 ], [ -69.02132741847096, -18.960211799459174 ], [ -69.021913738077131, -18.959736474222829 ], [ -69.022043991098371, -18.959323192558845 ], [ -69.022000486587473, -18.958806614101476 ], [ -69.021631118207281, -18.957504867320438 ], [ -69.021001137783372, -18.95609983332503 ], [ -69.020631821505432, -18.955108035598052 ], [ -69.020327654645186, -18.954074901952009 ], [ -69.020244893756384, -18.95370107064252 ], [ -69.01981463217632, -18.953471874636826 ], [ -69.019658584031674, -18.953379099637804 ], [ -69.019384481089034, -18.953216137279391 ], [ -69.018497342643684, -18.95308833514833 ], [ -69.01709940416147, -18.952628059240709 ], [ -69.015835885086787, -18.952167760822888 ], [ -69.015155055526222, -18.95172461156352 ], [ -69.014814294894549, -18.951502807944401 ], [ -69.01438412943422, -18.950914538648924 ], [ -69.014039572522165, -18.950237127786711 ], [ -69.013980829889107, -18.950121640432418 ], [ -69.013783879652976, -18.948941320202955 ], [ -69.013269202487336, -18.948765063520682 ], [ -69.013096124979853, -18.948753751480275 ], [ -69.012502212812919, -18.948714935049715 ], [ -69.011561361401775, -18.948868465764264 ], [ -69.010620509990645, -18.949098729285183 ], [ -69.009751191425593, -18.949405843393645 ], [ -69.009383968222281, -18.949584783382832 ], [ -69.009061395780151, -18.949738269965977 ], [ -69.0083356055396, -18.950224293313539 ], [ -69.008164665124198, -18.950455447920934 ], [ -69.00782487646967, -18.950914930325609 ], [ -69.00764923247543, -18.951379232218414 ], [ -69.007582966451864, -18.951554399474517 ], [ -69.007503879672569, -18.952383277245325 ], [ -69.007471684052774, -18.952720706365493 ] ] ] } },
{ "type": "Feature", "properties": { "capa": "colegios", "popup": "<strong>ESCUELA BASICA CARIQUIMA</strong><br><br><strong>Dirección:</strong> PUERTO VARAS 0", "etiqueta": "" }, "geometry": { "type": "Point", "coordinates": [ -68.644753, -19.467211 ] } },
{ "type": "Feature", "properties": { "capa": "colegios", "popup": "<strong>ESCUELA BASICA MAUQUE</strong><br><br><strong>Dirección:</strong> MAUQUE 0", "etiqueta": "" }, "geometry": { "type": "Point", "coordinates": [ -68.880547, -19.322821 ] } },
{ "type": "Feature", "properties": { "capa": "colegios", "popup": "<strong>ESCUELA BASICA PISIGA-CHOQUE</strong><br><br><strong>Dirección:</strong> PISIGA CHOQUE 0", "etiqueta": "" }, "geometry": { "type": "Point", "coordinates": [ -68.617798, -19.302839 ] } },
{ "type": "Feature", "properties": { "capa": "colegios", "popup": "<strong>LICEO TECNICO PROFESIONAL COLCHANE</strong><br><br><strong>Dirección:</strong> AVENIDA TENIENTE GONZALEZ 0", "etiqueta": "" }, "geometry": { "type": "Point", "coordinates": [ -68.639137, -19.27648 ] } },
{ "type": "Feature", "properties": { "capa": "colegios", "popup": "<strong>ESCUELA BASICA ENQUELGA</strong><br><br><strong>Dirección:</strong> ENQUELGA 0", "etiqueta": "" }, "geometry": { "type": "Point", "coordinates": [ -68.804489, -19.22897 ] } },
{ "type": "Feature", "properties": { "capa": "jardines", "popup": "<strong>WANAPITO</strong><br><br><strong>Dirección:</strong> CARIQUIMA S/N COLCHANE ", "etiqueta": "" }, "geometry": { "type": "MultiPoint", "coordinates": [ [ -68.645105, -19.467552 ] ] } },
{ "type": "Feature", "properties": { "capa": "jardines", "popup": "<strong>INTI JALSU</strong><br><br><strong>Dirección:</strong> COSTADO GIMNASIO TECHADO ", "etiqueta": "" }, "geometry": { "type": "MultiPoint", "coordinates": [ [ -68.638524, -19.274911 ] ] } },
{ "type": "Feature", "properties": { "capa": "comisarias", "popup": "<strong>SCOM. COLCHANE (F)</strong><br><br><strong>Dirección:</strong> TENIENTE GONZALEZ S/N", "etiqueta": "" }, "geometry": { "type": "Point", "coordinates": [ -68.63793334199994, -19.276382882999943 ] } },
{ "type": "Feature", "properties": { "capa": "salud", "popup": "<strong>Posta de Salud Rural Cariquima</strong><br><br><strong>Tipo de atención:</strong> Posta de Salud Rural (PSR)<br><strong>Dirección:</strong>  NA", "etiqueta": "" }, "geometry": { "type": "Point", "coordinates": [ -68.64482, -19.4692 ] } },
{ "type": "Feature", "properties": { "capa": "salud", "popup": "<strong>SUR Cariquima</strong><br><br><strong>Tipo de atención:</strong> Servicio de Urgencia Rural (SUR)<br><strong>Dirección:</strong>  NA", "etiqueta": "" }, "geometry": { "type": "Point", "coordinates": [ -68.644846, -19.469182 ] } },
{ "type": "Feature", "properties": { "capa": "salud", "popup": "<strong>SUR Colchane</strong><br><br><strong>Tipo de atención:</strong> Servicio de Urgencia Rural (SUR)<br><strong>Dirección:</strong>  NA", "etiqueta": "" }, "geometry": { "type": "Point", "coordinates": [ -68.636574, -19.276089 ] } },
{ "type": "Feature", "properties": { "capa": "salud", "popup": "<strong>Centro de Salud Familiar Colchane</strong><br><br><strong>Tipo de atención:</strong> Centro de Salud Familiar (CESFAM)<br><strong>Dirección:</strong>  NA", "etiqueta": "" }, "geometry": { "type": "Point", "coordinates": [ -68.64021, -19.27507 ] } },
{ "type": "Feature", "properties": { "capa": "salud", "popup": "<strong>Posta de Salud Rural Enquelga</strong><br><br><strong>Tipo de atención:</strong> Posta de Salud Rural (PSR)<br><strong>Dirección:</strong>  NA", "etiqueta": "" }, "geometry": { "type": "Point", "coordinates": [ -68.804202, -19.22906 ] } }
]
}
