{
"type": "FeatureCollection",
"name": "15202",
"crs": { "type": "name", "properties": { "name": "urn:ogc:def:crs:OGC:1.3:CRS84" } },
"features": [
{ "type": "Feature", "properties": { "capa": "comuna", "popup": "", "etiqueta": "" }, "geometry": { "type": "Polygon", "coordinates": [ [ [ -69.284493531532007, -17.969378933378067 ], [ -69.285505067779596, -17.969758670511116 ], [ -69.285744590973678, -17.969799582018119 ], [ -69.308837997004218, -17.976512338305668 ], [ -69.316510065874752, -17.97837599625705 ], [ -69.317793576956063, -17.978687746690081 ], [ -69.34718310592973, -17.985823488341854 ], [ -69.34977971680118, -17.985896156515089 ], [ -69.350969619836633, -17.985763945701589 ], [ -69.352203594219915, -17.985719874838797 ], [ -69.352776510962045, -17.985455451994241 ], [ -69.353349426805863, -17.98527916987776 ], [ -69.353834201750615, -17.985235098893916 ], [ -69.354363048043211, -17.985146958602062 ], [ -69.35498003523486, -17.985146958602062 ], [ -69.355743173831655, -17.985330000164584 ], [ -69.355909679264514, -17.985394039760287 ], [ -69.35637405885906, -17.985588893401307 ], [ -69.356726291875233, -17.985748121887845 ], [ -69.357412866162036, -17.986004505944766 ], [ -69.357864172574253, -17.986171446865885 ], [ -69.358323912370381, -17.986333579837144 ], [ -69.358706822853492, -17.986487205258957 ], [ -69.359113173975615, -17.986679999411866 ], [ -69.359253173717718, -17.986799999984395 ], [ -69.359383173414059, -17.9869799998358 ], [ -69.35954317324763, -17.987190000427223 ], [ -69.35963362551189, -17.987391003835079 ], [ -69.359723174071007, -17.987590000007952 ], [ -69.359883173006239, -17.987860000643554 ], [ -69.360123173205764, -17.988220000563594 ], [ -69.360493173999942, -17.988570000659845 ], [ -69.360711708955719, -17.988701121715671 ], [ -69.360967112567408, -17.988844597336612 ], [ -69.36121596746068, -17.988979941497412 ], [ -69.361459714533254, -17.989128513395251 ], [ -69.361673173109367, -17.989279999528186 ], [ -69.361925105630803, -17.989497576760371 ], [ -69.362113174223737, -17.989660000588803 ], [ -69.362263772289552, -17.989871779409949 ], [ -69.362433173890892, -17.990110000696443 ], [ -69.362520619493907, -17.99016246746946 ], [ -69.362733173466538, -17.990289999734642 ], [ -69.363043173087931, -17.990400000575416 ], [ -69.363343173561901, -17.990530000160181 ], [ -69.363573172817354, -17.990799999714675 ], [ -69.363733173549249, -17.991170000268472 ], [ -69.363971591815528, -17.991510597935125 ], [ -69.364096077652661, -17.991628339635227 ], [ -69.3642965825224, -17.992124233239362 ], [ -69.364265835885163, -17.992515716233328 ], [ -69.364361789432238, -17.99296971782077 ], [ -69.364495464136425, -17.993404397279015 ], [ -69.364648025919422, -17.99380409228273 ], [ -69.364914416825357, -17.994130122862252 ], [ -69.365256488099021, -17.994419802577102 ], [ -69.365617482384167, -17.994691453664625 ], [ -69.366054391497315, -17.994890545837059 ], [ -69.366547909744739, -17.994998085778636 ], [ -69.367041551959673, -17.995052536659763 ], [ -69.367534806102398, -17.995069668537766 ], [ -69.368028100669306, -17.995068806475913 ], [ -69.368521317981106, -17.995067794898866 ], [ -69.36901484521168, -17.995066855943477 ], [ -69.369508177507839, -17.995084056169858 ], [ -69.369982626318404, -17.995137351058933 ], [ -69.37045711465484, -17.995208785955235 ], [ -69.370931718873962, -17.995335528550914 ], [ -69.371368712428762, -17.995534608889599 ], [ -69.371786515274138, -17.995732613352637 ], [ -69.372185479549714, -17.995949979287161 ], [ -69.372546524140475, -17.996239609877506 ], [ -69.372888728364828, -17.996584659250825 ], [ -69.37326911997188, -17.996910457430129 ], [ -69.373705810794434, -17.997145740457274 ], [ -69.374180495861921, -17.997271438485349 ], [ -69.374348169104636, -17.997302731193066 ], [ -69.374674222518465, -17.997362002524078 ], [ -69.375129640519759, -17.997523794574036 ], [ -69.375528689236958, -17.997741004516374 ], [ -69.375927622969797, -17.997940295729524 ], [ -69.376364552744192, -17.998103231234026 ], [ -69.376801210329077, -17.998283123010655 ], [ -69.377200184486128, -17.998536610527356 ], [ -69.377561242551636, -17.998826230889456 ], [ -69.377941454495641, -17.999097747037275 ], [ -69.37843514791453, -17.999314915740861 ], [ -69.379004869349188, -17.999441452050206 ], [ -69.379555282395131, -17.999512640858796 ], [ -69.380067587110091, -17.99960204353858 ], [ -69.380561399106611, -17.999728724881383 ], [ -69.381036138073014, -17.999909642781777 ], [ -69.381510953396216, -18.000089520754795 ], [ -69.382023300331994, -18.000198169886932 ], [ -69.382535800879666, -18.000233292115087 ], [ -69.383048260104871, -18.000214138498009 ], [ -69.383560332156151, -18.000195059207115 ], [ -69.384034798933044, -18.00021225978773 ], [ -69.38419479966494, -18.000236747096256 ], [ -69.384509227980658, -18.000283584980696 ], [ -69.385003080401376, -18.000391078062155 ], [ -69.385477669349129, -18.000499717610655 ], [ -69.385914262255312, -18.000643455317022 ], [ -69.386332055219228, -18.000824547419555 ], [ -69.386787960107384, -18.0009874213094 ], [ -69.387300660081067, -18.001112936332774 ], [ -69.387851046177545, -18.001203353160445 ], [ -69.388401468206638, -18.001274590809608 ], [ -69.388894820265733, -18.001327800102427 ], [ -69.389369252008308, -18.001362980200827 ], [ -69.389863033462106, -18.001435438639724 ], [ -69.390356427742034, -18.00154291820385 ], [ -69.390868780966017, -18.001614225771771 ], [ -69.391419354810381, -18.001613114274406 ], [ -69.391969500158368, -18.001557802534389 ], [ -69.392462536908781, -18.001502530931045 ], [ -69.392918044741592, -18.001483540631078 ], [ -69.393392478280802, -18.001518711300644 ], [ -69.393885952510772, -18.001626182270648 ], [ -69.394341865483767, -18.001789037478868 ], [ -69.394778433237121, -18.001951931836281 ], [ -69.395253065304018, -18.002041445197726 ], [ -69.39572745662241, -18.002022336202675 ], [ -69.396163684812578, -18.001893794902081 ], [ -69.396580761819209, -18.001748335010934 ], [ -69.397017231656193, -18.001693242024452 ], [ -69.397580296574588, -18.001775608108897 ], [ -69.397865132588251, -18.001598874975933 ], [ -69.398034286254571, -18.001493386061263 ], [ -69.3984349357696, -18.001236077903044 ], [ -69.398781980116681, -18.000954073703916 ], [ -69.399182117592019, -18.00060754290082 ], [ -69.399635794658266, -18.00022358331012 ], [ -69.400049499389326, -17.999889461347543 ], [ -69.400450036614941, -17.999619708943673 ], [ -69.400877137023514, -17.999325097906777 ], [ -69.401290925297886, -17.999030438533918 ], [ -69.401691573914604, -17.998811551373407 ], [ -69.402038774568553, -17.998567969650345 ], [ -69.40230541790109, -17.998221710115665 ], [ -69.402558357433946, -17.997838159694417 ], [ -69.402851590000566, -17.997479478884102 ], [ -69.403198531041397, -17.997157779277899 ], [ -69.403558889319285, -17.996850861289069 ], [ -69.403878980614593, -17.99653055058883 ], [ -69.404212318467074, -17.996184075171012 ], [ -69.404612743403291, -17.995837532431803 ], [ -69.405013044371998, -17.995504538472179 ], [ -69.40539984815355, -17.995158023446542 ], [ -69.405786881903822, -17.994811506885778 ], [ -69.406173819534359, -17.994490903703248 ], [ -69.406587588045795, -17.994196307167197 ], [ -69.407001306251587, -17.993914149030111 ], [ -69.407401898274443, -17.993644384069658 ], [ -69.407788852074631, -17.993400634587001 ], [ -69.408202671790065, -17.993130913269088 ], [ -69.4086833665868, -17.992836170925468 ], [ -69.409130406001424, -17.992477081800214 ], [ -69.409463432138494, -17.992002947871608 ], [ -69.409736655630482, -17.991567367851353 ], [ -69.41004337280782, -17.991195022826911 ], [ -69.410416762047248, -17.990811207643912 ], [ -69.41079012972709, -17.9904523450837 ], [ -69.411150431411144, -17.990131789514848 ], [ -69.411537280108476, -17.989848567987156 ], [ -69.411951134858171, -17.989566399478957 ], [ -69.412378334081424, -17.989233260395569 ], [ -69.412791942692749, -17.988912588122052 ], [ -69.413205761509843, -17.988616867274324 ], [ -69.413606106496005, -17.988283855413442 ], [ -69.413912503873107, -17.987912616752403 ], [ -69.414125551919156, -17.987528100649261 ], [ -69.414338709559658, -17.987157059476061 ], [ -69.414631881040847, -17.98682309048165 ], [ -69.415059093738819, -17.986566875933434 ], [ -69.415593414364764, -17.986386103269897 ], [ -69.416141180973867, -17.98623121493431 ], [ -69.41663552926461, -17.986064074990747 ], [ -69.417062898269464, -17.985909517031843 ], [ -69.417490340037844, -17.985819300842799 ], [ -69.417984938060243, -17.985792320051765 ], [ -69.418546355468393, -17.985817098155046 ], [ -69.419094647591962, -17.985854268721052 ], [ -69.419576105058368, -17.985865666645012 ], [ -69.420057087315996, -17.985839820527076 ], [ -69.420551608981597, -17.985748342327597 ], [ -69.421032687358945, -17.985633198407399 ], [ -69.421540578650919, -17.985567677336807 ], [ -69.422048515756984, -17.985554133094194 ], [ -69.422516353865362, -17.985565554106806 ], [ -69.422997824806515, -17.985615371825535 ], [ -69.423492403065964, -17.985678634651759 ], [ -69.423947040431258, -17.985702519904322 ], [ -69.424375001425872, -17.985701509128013 ], [ -69.424802730655145, -17.985700647020387 ], [ -69.425270539119126, -17.985699621718943 ], [ -69.42579212343098, -17.985698476799012 ], [ -69.426313398722357, -17.985697331879059 ], [ -69.426808025490843, -17.985683804734766 ], [ -69.427262404141331, -17.985632010766146 ], [ -69.427703193078216, -17.985528119464576 ], [ -69.428184204980255, -17.985387042065753 ], [ -69.428758525789135, -17.985244499223704 ], [ -69.429553397373368, -17.984987439924335 ], [ -69.430434660836752, -17.984588911742652 ], [ -69.431082589600038, -17.984330986810878 ], [ -69.431563472144688, -17.984266685375438 ], [ -69.432044862237447, -17.984252062748826 ], [ -69.432512700345839, -17.984264570674057 ], [ -69.432980564505371, -17.984288330517554 ], [ -69.433515375611478, -17.984287210366791 ], [ -69.43407670857799, -17.984247525752711 ], [ -69.434584623226172, -17.984195520319545 ], [ -69.435065887554785, -17.984130098683014 ], [ -69.435533442693881, -17.984027313833455 ], [ -69.436000899916593, -17.983885062961644 ], [ -69.436508421102658, -17.983705329952837 ], [ -69.437042727355561, -17.983499693908161 ], [ -69.437523673680573, -17.983306541692986 ], [ -69.437937631736531, -17.983151968502874 ], [ -69.438392012183655, -17.98307408631895 ], [ -69.438900047206062, -17.983072937109824 ], [ -69.439408022939674, -17.983110215057575 ], [ -69.439916154081828, -17.983147490434181 ], [ -69.440437468899063, -17.983197101208898 ], [ -69.440972574652577, -17.983285180955509 ], [ -69.441480757896997, -17.983374430371665 ], [ -69.441988907903777, -17.983450129357628 ], [ -69.442510301772771, -17.983499660585466 ], [ -69.443045063471516, -17.983510951857895 ], [ -69.443633336015097, -17.983509533506634 ], [ -69.444221512438972, -17.983469833337974 ], [ -69.444782648674448, -17.983353336224312 ], [ -69.445343578297425, -17.983185897068235 ], [ -69.445904518700175, -17.982992540300735 ], [ -69.446438876157032, -17.982812867902204 ], [ -69.446933168752238, -17.982670455418344 ], [ -69.448382578005294, -17.982258170736614 ], [ -69.450787206324122, -17.981561111424249 ], [ -69.452222978252834, -17.981148755796404 ], [ -69.452690854988774, -17.981058443185677 ], [ -69.453131735553825, -17.981031424071531 ], [ -69.453572991614649, -17.981030392761877 ], [ -69.454040863859021, -17.981029298223639 ], [ -69.454522199154553, -17.981028170362222 ], [ -69.4549900705006, -17.981027073260634 ], [ -69.455484714337075, -17.981025912930445 ], [ -69.456059436692925, -17.981024562060057 ], [ -69.456660931539176, -17.981023146252145 ], [ -69.457208962252992, -17.981021855192534 ], [ -69.457690373905308, -17.981020719641094 ], [ -69.458144972643055, -17.981033196181016 ], [ -69.45861297514314, -17.981082957077 ], [ -69.459094263726286, -17.981183479375755 ], [ -69.459562469245625, -17.981311205251622 ], [ -69.460017218900347, -17.981411787231107 ], [ -69.460244790009568, -17.981418059664925 ], [ -69.460458510893773, -17.981424290230994 ], [ -69.460885915831241, -17.981332943035572 ], [ -69.461313609127885, -17.981204202101136 ], [ -69.461754223791601, -17.981075503794891 ], [ -69.462222072679765, -17.980946666120921 ], [ -69.462689566733403, -17.980830415130107 ], [ -69.463130199363434, -17.980738956549956 ], [ -69.463584496267231, -17.980636137256973 ], [ -69.464092075843794, -17.980493723871529 ], [ -69.464599667996751, -17.980326430676268 ], [ -69.465053716965542, -17.980159265489213 ], [ -69.465481461466183, -17.980081382839415 ], [ -69.465922615119041, -17.980131190998094 ], [ -69.466377300095047, -17.980206880267058 ], [ -69.466831962613171, -17.98024421435894 ], [ -69.467286547876171, -17.980281547588447 ], [ -69.467768126615169, -17.980344803781879 ], [ -69.46827631884274, -17.980406809901869 ], [ -69.468744179409015, -17.980431669078811 ], [ -69.469185122856132, -17.980430602733481 ], [ -69.469653225069194, -17.980429469741559 ], [ -69.470134358243811, -17.980440743267067 ], [ -69.470602320319713, -17.980504025891225 ], [ -69.471070907623044, -17.980656526814151 ], [ -69.471592698547397, -17.980885753875238 ], [ -69.472122011963961, -17.981382697865982 ], [ -69.472538540998258, -17.982149949735788 ], [ -69.472840820498106, -17.982724302602382 ], [ -69.473109277529204, -17.983120146101829 ], [ -69.473404276183658, -17.983515998112274 ], [ -69.473765871441714, -17.983758048977183 ], [ -69.474194108219123, -17.983833784538966 ], [ -69.474648437462264, -17.983858662030691 ], [ -69.475103032606739, -17.983895976552862 ], [ -69.475557705904649, -17.983933291067117 ], [ -69.476039190320535, -17.983956987727687 ], [ -69.476547251394067, -17.983994167229728 ], [ -69.477015225148094, -17.984057359719717 ], [ -69.477496818260093, -17.984120665825696 ], [ -69.478031419160416, -17.984157702604225 ], [ -69.478539624862734, -17.984219680897692 ], [ -69.479034655873079, -17.984359733066007 ], [ -69.479516594836497, -17.984550607090235 ], [ -69.479944825325688, -17.984766418935834 ], [ -69.480346589649997, -17.9850083570112 ], [ -69.480761765821484, -17.985288615489463 ], [ -69.481190323297454, -17.985594903380232 ], [ -69.481392233132297, -17.985723162638347 ], [ -69.481632352807736, -17.98587516776244 ], [ -69.482073890939546, -17.986116930017101 ], [ -69.482489039263285, -17.986384745605196 ], [ -69.482891134167602, -17.986717083500434 ], [ -69.483266299376339, -17.987048303199792 ], [ -69.483601550640387, -17.987354817872863 ], [ -69.483949799628249, -17.987660114481606 ], [ -69.484365092580731, -17.987978719657857 ], [ -69.484680914183471, -17.988196058406555 ], [ -69.484847354937628, -17.988310852911649 ], [ -69.485329277731353, -17.98860337452998 ], [ -69.485757606136943, -17.988820356223361 ], [ -69.486172683493749, -17.988972953343488 ], [ -69.486600694794021, -17.989073613833668 ], [ -69.487055488466169, -17.989149328317549 ], [ -69.48756355942119, -17.989212394219106 ], [ -69.488923940239673, -17.989390890428986 ], [ -69.489375750606783, -17.989450761643791 ], [ -69.492438411040908, -17.989878005405608 ], [ -69.494183416328084, -17.990103984036125 ], [ -69.494678265878761, -17.990141151135987 ], [ -69.495199686697219, -17.990216601153399 ], [ -69.495668133863376, -17.990330687758981 ], [ -69.496109535451268, -17.99045720744472 ], [ -69.496564365056031, -17.990571253738146 ], [ -69.497059359235479, -17.99065927939515 ], [ -69.497237384663535, -17.990680295773803 ], [ -69.497594364377662, -17.990722324251575 ], [ -69.498102410179854, -17.990745897822261 ], [ -69.498583501133638, -17.990732221546125 ], [ -69.499118145153076, -17.990666428962758 ], [ -69.499746236419952, -17.9905371625489 ], [ -69.500347368346823, -17.990369534552158 ], [ -69.500841217174269, -17.990188632498381 ], [ -69.501295290397579, -17.990033820978532 ], [ -69.50176316982845, -17.98991843806013 ], [ -69.502230658492195, -17.989802016972682 ], [ -69.502671188714288, -17.989647237580748 ], [ -69.503098683483259, -17.989480051317468 ], [ -69.503539246943006, -17.989337634815179 ], [ -69.504020241777042, -17.989182747361344 ], [ -69.504527815065401, -17.989041338813053 ], [ -69.505022479563138, -17.989014062891609 ], [ -69.50549051080931, -17.989089697941683 ], [ -69.505945304481457, -17.989190172960271 ], [ -69.506400257155406, -17.989291755224663 ], [ -69.506855015793263, -17.989379861833591 ], [ -69.50730974658336, -17.989430649928092 ], [ -69.507750703505181, -17.989454299712907 ], [ -69.508178854942628, -17.989491606216735 ], [ -69.508660197424703, -17.989567200050981 ], [ -69.509222001108441, -17.989693373398374 ], [ -69.509797496913734, -17.989871488060352 ], [ -69.510332980857982, -17.990100572430737 ], [ -69.510814690750991, -17.990329796624529 ], [ -69.511363378133268, -17.990494426588253 ], [ -69.512045396164964, -17.990581921704756 ], [ -69.512673996776584, -17.99060617539191 ], [ -69.513469002209774, -17.990565642930893 ], [ -69.514538353130732, -17.990434047362619 ], [ -69.515319606255233, -17.990241018080372 ], [ -69.515787208106701, -17.990060148361945 ], [ -69.516281303970857, -17.989943548798976 ], [ -69.516815976736382, -17.989891331444984 ], [ -69.517310681658302, -17.98987757393483 ], [ -69.51781861427277, -17.989862667258656 ], [ -69.518379978680343, -17.98983628858193 ], [ -69.518887797208762, -17.989808941868336 ], [ -69.519355575130049, -17.98976926191353 ], [ -69.519836746033874, -17.989678750366995 ], [ -69.520290800392544, -17.989523895679792 ], [ -69.520744894277101, -17.989356599082051 ], [ -69.521225598955297, -17.98921403552314 ], [ -69.521706689909081, -17.989097606281319 ], [ -69.522187393688981, -17.988981028296724 ], [ -69.522641484878562, -17.9888137286211 ], [ -69.523055267763056, -17.988595668661894 ], [ -69.523551288716874, -17.988348065672685 ], [ -69.523829509536768, -17.988209447798962 ], [ -69.524256935135469, -17.988105522129693 ], [ -69.524711325464068, -17.988040986253303 ], [ -69.525179479779425, -17.988052158472684 ], [ -69.525674168531665, -17.988166101228696 ], [ -69.526196166966869, -17.988304698630756 ], [ -69.52671770636293, -17.98841856689047 ], [ -69.527212784984002, -17.988532504283445 ], [ -69.527721171247691, -17.988672245443944 ], [ -69.528269676271961, -17.988798474113104 ], [ -69.528831302987612, -17.988861359006702 ], [ -69.529392695242947, -17.98887219283079 ], [ -69.529940706193813, -17.988832340930372 ], [ -69.530435136231233, -17.98872814478214 ], [ -69.530876023982813, -17.988625204545819 ], [ -69.531316909937729, -17.98857320382028 ], [ -69.531771484420958, -17.988596761444416 ], [ -69.53221306297695, -17.988698393605823 ], [ -69.53272144924064, -17.988837085428486 ], [ -69.533417128851184, -17.989040860348091 ], [ -69.534179963817408, -17.989268068678818 ], [ -69.534882759881626, -17.989547490770583 ], [ -69.535565246833883, -17.98989130837624 ], [ -69.536160884664511, -17.990069213511241 ], [ -69.536628811706109, -17.990080432594024 ], [ -69.537056466375205, -17.990079174067731 ], [ -69.537484587269944, -17.99010397634655 ], [ -69.53789924152025, -17.990204560150275 ], [ -69.538287361333715, -17.990383108328967 ], [ -69.538689096911909, -17.990586496131368 ], [ -69.539157493772407, -17.990777258330283 ], [ -69.539665892612533, -17.990915857098884 ], [ -69.540187679943614, -17.990978894174081 ], [ -69.540762351095495, -17.990977292188521 ], [ -69.541337251317771, -17.990949698732383 ], [ -69.541845226153043, -17.990923401385452 ], [ -69.542326153613431, -17.990883629406841 ], [ -69.543195317668278, -17.990932062362695 ], [ -69.543597098162252, -17.991147804033542 ], [ -69.54399903855635, -17.991415597461572 ], [ -69.544414172507018, -17.991644924182324 ], [ -69.544869427014916, -17.991861697936599 ], [ -69.545324680624503, -17.992103349462703 ], [ -69.545726315591381, -17.992345150175332 ], [ -69.546168223829099, -17.992574323607343 ], [ -69.546716990263135, -17.992777280837473 ], [ -69.547252249628542, -17.992890979606049 ], [ -69.547746956347098, -17.99290202079775 ], [ -69.548254735349644, -17.992836169216709 ], [ -69.548735588249869, -17.992745587475294 ], [ -69.549217025055029, -17.992744223878862 ], [ -69.549711702129159, -17.992845592209935 ], [ -69.550193535091381, -17.992971946905101 ], [ -69.550661946324922, -17.993136693162413 ], [ -69.551090361867054, -17.993378406166247 ], [ -69.551479167993392, -17.993672135164505 ], [ -69.551881207202172, -17.99399070299873 ], [ -69.552323251085511, -17.994309156625619 ], [ -69.552791912050694, -17.994576739350421 ], [ -69.553287299692229, -17.994804708633829 ], [ -69.553755962454034, -17.995047411278641 ], [ -69.554224893812147, -17.995301292184845 ], [ -69.555115203310436, -17.995695386770539 ], [ -69.556373225593902, -17.996165201346592 ], [ -69.557263100307608, -17.996417940919692 ], [ -69.557784758281301, -17.996531649302717 ], [ -69.558306571663522, -17.996620551127108 ], [ -69.558828027516284, -17.996669841144449 ], [ -69.559309325082594, -17.996719319108209 ], [ -69.559764081923817, -17.996768798766798 ], [ -69.560218765103187, -17.996819461705659 ], [ -69.560673562368592, -17.996881452638828 ], [ -69.561115136433031, -17.996970578984413 ], [ -69.561596639713528, -17.997084393806521 ], [ -69.562158767689084, -17.997196935555536 ], [ -69.56270708137221, -17.997272125392239 ], [ -69.563228544411487, -17.997322588265924 ], [ -69.563776814975483, -17.997359348023256 ], [ -69.56431169435352, -17.997370303499132 ], [ -69.564792793392144, -17.997356463699152 ], [ -69.565233959621423, -17.997316749558838 ], [ -69.565688392170841, -17.997263445930322 ], [ -69.56616925135927, -17.997198810880498 ], [ -69.566663679600069, -17.997094521422042 ], [ -69.567171296905883, -17.996952875722002 ], [ -69.567638679568432, -17.996836372986124 ], [ -69.568106384726164, -17.996796500671319 ], [ -69.568614494308747, -17.996833438246004 ], [ -69.569083078917132, -17.996947345427831 ], [ -69.569511358813671, -17.997112163156149 ], [ -69.569926493662649, -17.997327809269432 ], [ -69.570328245410536, -17.997544680272057 ], [ -69.570769752999652, -17.997683466808827 ], [ -69.571264848688699, -17.997810840706393 ], [ -69.57174674902457, -17.997949505714818 ], [ -69.572215111749074, -17.998089394909005 ], [ -69.572710168810573, -17.998228018689275 ], [ -69.573191677480963, -17.998316925639038 ], [ -69.573646364253591, -17.9983664467129 ], [ -69.574101129179653, -17.998415966918486 ], [ -69.574555937224858, -17.998478961158753 ], [ -69.575010708439123, -17.998554467414831 ], [ -69.575478783702749, -17.998603870520931 ], [ -69.575960197151716, -17.998614878035163 ], [ -69.576414487767309, -17.998613601628328 ], [ -69.576855778862438, -17.99861221415528 ], [ -69.577310379396806, -17.998610934330976 ], [ -69.577805021436646, -17.998596947679239 ], [ -69.578339387876667, -17.998544561161285 ], [ -69.578847352830479, -17.998440275061672 ], [ -69.579341385812555, -17.998311077566949 ], [ -69.579822296204966, -17.998168440934958 ], [ -69.580276225697816, -17.997962579963048 ], [ -69.580729903662387, -17.99767993744835 ], [ -69.581156651931366, -17.997397300461174 ], [ -69.581557025663599, -17.997165682984054 ], [ -69.581970828311029, -17.996947425738007 ], [ -69.582371035854933, -17.996689817899611 ], [ -69.582717575348838, -17.996394978978703 ], [ -69.583010748626648, -17.996060836946967 ], [ -69.583276552034377, -17.995663471796547 ], [ -69.583582782324854, -17.9952536191105 ], [ -69.583942560291078, -17.99486840816763 ], [ -69.584288909342135, -17.994470797688333 ], [ -69.584635364394387, -17.994176030243345 ], [ -69.585062890604405, -17.994110325236377 ], [ -69.585531191345169, -17.994160888122362 ], [ -69.58597211592766, -17.99414600487632 ], [ -69.586372728611749, -17.993991157527663 ], [ -69.586719451361972, -17.993708751292555 ], [ -69.58706597738113, -17.99341390567994 ], [ -69.587466460707844, -17.993220702801047 ], [ -69.587893610523736, -17.993065697433856 ], [ -69.58826707432334, -17.992821709633031 ], [ -69.58857358398987, -17.992501067804341 ], [ -69.588906715229811, -17.992205148772779 ], [ -69.589293920558319, -17.991999469660708 ], [ -69.589721193443424, -17.991882887612736 ], [ -69.590148811281594, -17.991754013400136 ], [ -69.59048206918402, -17.99149762915302 ], [ -69.590761677901028, -17.991163517146596 ], [ -69.591108466228249, -17.990881176445189 ], [ -69.591522215875088, -17.990701326674618 ], [ -69.591936037387114, -17.990520439485735 ], [ -69.592336066166311, -17.990263922723489 ], [ -69.592763256406386, -17.990032125855109 ], [ -69.593257143861393, -17.989800198813711 ], [ -69.593672162827716, -17.989978478266522 ], [ -69.594100198382506, -17.990092450536888 ], [ -69.594462043372218, -17.990334195906605 ], [ -69.594783994180133, -17.990677797526445 ], [ -69.595092450495883, -17.991034988437292 ], [ -69.595414315065554, -17.991328906740019 ], [ -69.595802842714136, -17.991519776643734 ], [ -69.596164526905412, -17.991735531266144 ], [ -69.596433011784256, -17.99205448963486 ], [ -69.596688083917613, -17.992411842654853 ], [ -69.596983465254382, -17.992744193121041 ], [ -69.59737198841141, -17.993024353874631 ], [ -69.597853775559543, -17.993150515351459 ], [ -69.598361360525985, -17.99303366578809 ], [ -69.598848604041152, -17.992827733035753 ], [ -69.599670687391935, -17.992837556735193 ], [ -69.600085544661511, -17.99296399431125 ], [ -69.600513946728938, -17.993091499774241 ], [ -69.600928977373343, -17.993268652389915 ], [ -69.601344141866733, -17.993485416459606 ], [ -69.601799462849968, -17.993700943976339 ], [ -69.602267974694811, -17.993903991328796 ], [ -69.602696415389786, -17.994133075589247 ], [ -69.603085174803724, -17.994388345317731 ], [ -69.603460313961321, -17.994642545854248 ], [ -69.60383545671219, -17.994897782379265 ], [ -69.604264023171297, -17.995139375066582 ], [ -69.604772533402496, -17.995316303489105 ], [ -69.60529430815717, -17.995366650727924 ], [ -69.605788701363693, -17.995351556553942 ], [ -69.606243518392034, -17.995439354271813 ], [ -69.606672138750056, -17.995605197798785 ], [ -69.607100106931213, -17.995693151740031 ], [ -69.607541388144853, -17.995691769370222 ], [ -69.607982174386763, -17.995613532176904 ], [ -69.608771374008271, -17.995687909328886 ], [ -69.609213090006534, -17.995903461494319 ], [ -69.609721160063231, -17.995927778527474 ], [ -69.610229052253516, -17.995900265301934 ], [ -69.610711067573732, -17.996065932395776 ], [ -69.611206786693586, -17.996345725622319 ], [ -69.611715605046925, -17.996586974580335 ], [ -69.61186950172646, -17.996629433105181 ], [ -69.61222407126067, -17.996725455153904 ], [ -69.612705204435272, -17.99672393523953 ], [ -69.613145913422088, -17.996556466052983 ], [ -69.613974248148949, -17.99640020855335 ], [ -69.614322792682543, -17.996655582650778 ], [ -69.61469816180886, -17.996948113500544 ], [ -69.615166741925677, -17.997164677399596 ], [ -69.615634653695921, -17.997188068984563 ], [ -69.616035158582179, -17.997008283740719 ], [ -69.616810067804167, -17.996864622527237 ], [ -69.617225303264448, -17.997093716612383 ], [ -69.617707061666508, -17.99727180500658 ], [ -69.618188380792361, -17.997256794723075 ], [ -69.618656071577036, -17.99721680118391 ], [ -69.619137782368369, -17.997292117457725 ], [ -69.619646289904622, -17.997418138329937 ], [ -69.620195060830227, -17.997596006825951 ], [ -69.62071716077503, -17.997824824857414 ], [ -69.62117225897606, -17.99798944013709 ], [ -69.621640298307071, -17.998026367209622 ], [ -69.622134613360174, -17.997921937271347 ], [ -69.622548167174244, -17.997691230376383 ], [ -69.622894650074272, -17.99742127383518 ], [ -69.623682767225858, -17.997162261262886 ], [ -69.624483977322726, -17.996930376061314 ], [ -69.624750175989178, -17.996583821118612 ], [ -69.625029683196573, -17.996237221922254 ], [ -69.625430050640603, -17.996043794873874 ], [ -69.626086436143979, -17.996413434993588 ], [ -69.626715658389799, -17.996628266897073 ], [ -69.627129247238187, -17.996410062811009 ], [ -69.62755604760946, -17.996164642590447 ], [ -69.627969831392249, -17.995958801493238 ], [ -69.628383641226193, -17.995803825017546 ], [ -69.628824652046944, -17.995726650709333 ], [ -69.629266190178754, -17.995776157131846 ], [ -69.629820634863705, -17.996003661797676 ], [ -69.62972673037379, -17.996317973239357 ], [ -69.629715897589776, -17.996754109681483 ], [ -69.630311794135181, -17.997235808176267 ], [ -69.63072951433557, -17.997331590673614 ], [ -69.631123658251312, -17.997934703952495 ], [ -69.631027232190391, -17.998127078921531 ], [ -69.630935184518165, -17.998310407751216 ], [ -69.630607481797469, -17.998614227870743 ], [ -69.630091445480829, -17.999268948183953 ], [ -69.630143401341925, -17.999692440636579 ], [ -69.630372391789308, -18.000091665168689 ], [ -69.630702289992556, -18.000404672426466 ], [ -69.631107962886659, -18.000657459747707 ], [ -69.631488263763885, -18.000934170905367 ], [ -69.631729949202864, -18.001333350763392 ], [ -69.631744277331634, -18.001793171629796 ], [ -69.631518003389672, -18.002180254679896 ], [ -69.631444628098961, -18.002870777175204 ], [ -69.631907380844524, -18.003244359400405 ], [ -69.632465673912137, -18.003762229604462 ], [ -69.633220416854286, -18.004425169079436 ], [ -69.633625721439131, -18.004593323651633 ], [ -69.63398048411112, -18.004822652032573 ], [ -69.63422204827755, -18.00518451307552 ], [ -69.634451089030591, -18.005571218758416 ], [ -69.634668745434041, -18.006344454152735 ], [ -69.634569156405007, -18.006756002506808 ], [ -69.634469457781535, -18.007179990418127 ], [ -69.634420650515509, -18.00764001815601 ], [ -69.63443480526945, -18.00813589663581 ], [ -69.634817212695992, -18.008908518494071 ], [ -69.635222263955924, -18.009089108318431 ], [ -69.635627712271202, -18.009293389505881 ], [ -69.635957719170605, -18.009607571323034 ], [ -69.636312761218662, -18.009932850797814 ], [ -69.636743724382967, -18.01017325078546 ], [ -69.637161951233153, -18.010401179400542 ], [ -69.63751690434799, -18.01067907127922 ], [ -69.638037558903505, -18.011306628939394 ], [ -69.638013974534047, -18.011741695464249 ], [ -69.637788076087858, -18.012189793956438 ], [ -69.637485616026652, -18.012565879996203 ], [ -69.637259346576258, -18.012954154183802 ], [ -69.637215255465478, -18.013153098444832 ], [ -69.637160045008116, -18.01340183441085 ], [ -69.637085698638572, -18.013838178893387 ], [ -69.636986001811721, -18.014262167705962 ], [ -69.636974873481975, -18.014697192762171 ], [ -69.637140839027339, -18.015120309000977 ], [ -69.637326383354321, -18.015736530881096 ], [ -69.637405215012095, -18.01654746154647 ], [ -69.63750210909528, -18.017151610226723 ], [ -69.637668046792868, -18.017587162916904 ], [ -69.637897196242051, -18.017997630001211 ], [ -69.638481209872893, -18.018612538218125 ], [ -69.63864708558674, -18.018987006253532 ], [ -69.638749789074836, -18.019397962980733 ], [ -69.638915409667149, -18.019808638554228 ], [ -69.639220376926332, -18.020146589093908 ], [ -69.639955273388892, -18.020580260156372 ], [ -69.639869362108385, -18.021305846520676 ], [ -69.639731618035981, -18.021693756330535 ], [ -69.639733192782685, -18.022129850482898 ], [ -69.639861260202849, -18.022576854752412 ], [ -69.640065271197145, -18.022987401611644 ], [ -69.640344639165662, -18.023349202285399 ], [ -69.640674811355069, -18.023699431620603 ], [ -69.64090402997455, -18.024146100464058 ], [ -69.64093126240239, -18.024678139837576 ], [ -69.640806361543596, -18.025150784941715 ], [ -69.640630968179309, -18.025550147415373 ], [ -69.640480731236252, -18.025950612639079 ], [ -69.640418725922075, -18.026374403158982 ], [ -69.640496095122543, -18.026796696921895 ], [ -69.640700071980859, -18.027195988179116 ], [ -69.64094181311539, -18.027594044190323 ], [ -69.641107964612033, -18.028040773199034 ], [ -69.64124871265075, -18.028525050454352 ], [ -69.6416236433992, -18.029007366824441 ], [ -69.642105690160435, -18.029490436136594 ], [ -69.642303430914026, -18.029960900353398 ], [ -69.642305175442317, -18.030420685799399 ], [ -69.642281645870085, -18.030868190935244 ], [ -69.642245150015029, -18.031304336678776 ], [ -69.642259510483171, -18.031764154491665 ], [ -69.642375177559146, -18.032223561945145 ], [ -69.642591466726728, -18.032621626233794 ], [ -69.642820518259583, -18.032996028599484 ], [ -69.642961044414406, -18.033395454422894 ], [ -69.643025699758667, -18.033830152894318 ], [ -69.643090645258766, -18.034302167810505 ], [ -69.643180976250463, -18.034774170356318 ], [ -69.643334202786804, -18.035196210776679 ], [ -69.6435758657679, -18.035546728316252 ], [ -69.643867968253886, -18.035848507661274 ], [ -69.644147264357187, -18.036161658097342 ], [ -69.644325784756973, -18.036536152015366 ], [ -69.6443778663822, -18.036959712047846 ], [ -69.644429869853994, -18.037383124143975 ], [ -69.644583015541954, -18.037781395427753 ], [ -69.644711167403756, -18.038180935096882 ], [ -69.644725399412806, -18.038603436280574 ], [ -69.644790142791948, -18.039039318563301 ], [ -69.645019174561867, -18.039426082306665 ], [ -69.645298565886563, -18.039762922365753 ], [ -69.645477270440992, -18.040185986054116 ], [ -69.645580312593964, -18.040681638787365 ], [ -69.645708301860708, -18.041141001605052 ], [ -69.646070878977369, -18.041684357439756 ], [ -69.646692847327245, -18.04229910946032 ], [ -69.646805638896012, -18.042390245687095 ], [ -69.647232041313615, -18.04273340327865 ], [ -69.647587203735938, -18.043046292905071 ], [ -69.64776570706772, -18.043433222936791 ], [ -69.647780160960636, -18.04389296463798 ], [ -69.647769329074947, -18.044401362551639 ], [ -69.647796308177874, -18.044920960920223 ], [ -69.64787432955525, -18.045429134643033 ], [ -69.647977150722653, -18.045924786267339 ], [ -69.648117966135032, -18.046396543244523 ], [ -69.648372442685343, -18.04679447126265 ], [ -69.648702498093769, -18.047096115151692 ], [ -69.648793437244933, -18.0477488453616 ], [ -69.648478293870212, -18.048052653650402 ], [ -69.648099946828751, -18.048344308225559 ], [ -69.647721510854055, -18.048612195776517 ], [ -69.647344697236761, -18.049302625022897 ], [ -69.647497996536643, -18.049738134876783 ], [ -69.647752082319812, -18.050112446150393 ], [ -69.648006462750388, -18.050461730533744 ], [ -69.648172327684435, -18.050861139759618 ], [ -69.648249943023302, -18.051320669868566 ], [ -69.648264409492654, -18.051804252719336 ], [ -69.648215287816271, -18.052276646450171 ], [ -69.648067161015803, -18.053232928721972 ], [ -69.647904599187058, -18.053693264014708 ], [ -69.647716284455726, -18.054117553967036 ], [ -69.647578699385136, -18.05452923405317 ], [ -69.64744769267736, -18.055025668838635 ], [ -69.647323497894376, -18.055606783300355 ], [ -69.6473315162566, -18.056126444210065 ], [ -69.647434519782038, -18.056585890520239 ], [ -69.647537091217799, -18.057032896927147 ], [ -69.647640010301586, -18.057468649828603 ], [ -69.647692074858824, -18.057904572463105 ], [ -69.64769366847014, -18.05833962713977 ], [ -69.647796455501592, -18.05873917390419 ], [ -69.648038032244415, -18.059076135821194 ], [ -69.648330083526432, -18.059414111715668 ], [ -69.648635039107504, -18.059788176058458 ], [ -69.648739128696121, -18.060562805382656 ], [ -69.648500162457481, -18.060938695807252 ], [ -69.648172420210926, -18.061253873490251 ], [ -69.647793911472689, -18.061509324332086 ], [ -69.647453531726711, -18.061777083354297 ], [ -69.647151174971739, -18.062092174982617 ], [ -69.646798185574113, -18.062468444747633 ], [ -69.646445681266727, -18.062893283160253 ], [ -69.646270213342277, -18.063341295808989 ], [ -69.646208607778419, -18.063788852112431 ], [ -69.646032840714966, -18.064176892853855 ], [ -69.64567987736848, -18.064456019297182 ], [ -69.645275758559819, -18.064675419243578 ], [ -69.645037840655149, -18.065341612881472 ], [ -69.645254169348604, -18.065716051479239 ], [ -69.645559143794301, -18.066114998167851 ], [ -69.645851674776679, -18.066561371411193 ], [ -69.646030496112076, -18.067008124414581 ], [ -69.646120732780687, -18.067467686599091 ], [ -69.646268237048673, -18.067986805995186 ], [ -69.646510540528567, -18.068519307142441 ], [ -69.646720724745478, -18.068989720741623 ], [ -69.646810922786528, -18.069437953548089 ], [ -69.646799988492887, -18.069897780095417 ], [ -69.646725642123343, -18.070332941712405 ], [ -69.646638901697827, -18.070744524877064 ], [ -69.646615062206806, -18.071168262104138 ], [ -69.646654434467408, -18.071604226749695 ], [ -69.646719502138382, -18.072038920416446 ], [ -69.64687276730227, -18.07243837197197 ], [ -69.647139443872433, -18.072775249538498 ], [ -69.647406512108091, -18.073113310947885 ], [ -69.647585125034368, -18.073500237123831 ], [ -69.647662463692114, -18.073923635498577 ], [ -69.647600704516336, -18.074371267312912 ], [ -69.647374560830073, -18.07480804810131 ], [ -69.647085187425915, -18.075207798228771 ], [ -69.646947499049062, -18.075595785557688 ], [ -69.647530608076408, -18.075944114914584 ], [ -69.647861271644274, -18.076438926402396 ], [ -69.647609797263627, -18.076850988851138 ], [ -69.647332913136864, -18.077215750442374 ], [ -69.647082642498717, -18.07797801768816 ], [ -69.647185363953128, -18.078377638479385 ], [ -69.647300512701207, -18.078788470081655 ], [ -69.647340317949769, -18.079235687273705 ], [ -69.647329307299316, -18.079695587219181 ], [ -69.64728051979624, -18.080155539758969 ], [ -69.647143006590866, -18.080592096934765 ], [ -69.646948466534624, -18.081015296311289 ], [ -69.646886507034523, -18.081451599432267 ], [ -69.647058889245969, -18.081826034416238 ], [ -69.647376222713348, -18.082102916802583 ], [ -69.647693560672295, -18.082380908885259 ], [ -69.647897221323646, -18.082755312852143 ], [ -69.647974816001238, -18.083226169075402 ], [ -69.648027111425492, -18.083721913886347 ], [ -69.648180646083986, -18.084169932310871 ], [ -69.648352942955469, -18.084393029087494 ], [ -69.648460364395461, -18.084531641232481 ], [ -69.648828046637874, -18.084772219347396 ], [ -69.649412089913113, -18.085302306741873 ], [ -69.649325039568836, -18.085713892379793 ], [ -69.649060695923424, -18.08610223221212 ], [ -69.648745574108261, -18.086429883323426 ], [ -69.648417580333415, -18.086709968358431 ], [ -69.648255867412615, -18.087387311754249 ], [ -69.648535259635636, -18.087701560711039 ], [ -69.648902994878668, -18.08795450438587 ], [ -69.649258354032014, -18.088231180699381 ], [ -69.649500114031184, -18.088605453487368 ], [ -69.64952663768824, -18.088912704121771 ], [ -69.649539586004764, -18.089065108564139 ], [ -69.649440061654431, -18.089537745341637 ], [ -69.649302588873226, -18.089985557637835 ], [ -69.649177889237066, -18.090433400385376 ], [ -69.649116376199672, -18.090905834515524 ], [ -69.649118232119065, -18.091389383505408 ], [ -69.649145062999963, -18.091885213693597 ], [ -69.649058619916801, -18.092357804446259 ], [ -69.648819670746178, -18.092769826949258 ], [ -69.648771820185942, -18.093568656974909 ], [ -69.649152306116093, -18.09383288406794 ], [ -69.649868077446285, -18.094048595199482 ], [ -69.650678779142424, -18.094372305279794 ], [ -69.651015615034609, -18.094807263608896 ], [ -69.651068085630357, -18.095241997140906 ], [ -69.651195911403718, -18.095641602517137 ], [ -69.651349084939426, -18.096028537079761 ], [ -69.651439204827071, -18.096427011833789 ], [ -69.651402988348067, -18.096850863796483 ], [ -69.651290512087968, -18.097274825738445 ], [ -69.651178298135946, -18.097686496846016 ], [ -69.651154499967433, -18.098097794698763 ], [ -69.651257240286483, -18.098496301466295 ], [ -69.651422927354105, -18.098895631310768 ], [ -69.651563970938554, -18.099330138677455 ], [ -69.651603450996987, -18.099789792966629 ], [ -69.651541885857299, -18.1002260963498 ], [ -69.651442059673045, -18.100637650379138 ], [ -69.651355093770363, -18.101072854445032 ], [ -69.651293539410474, -18.101532923407408 ], [ -69.651295195903856, -18.101981452191037 ], [ -69.65134759104113, -18.102416259295083 ], [ -69.651361754778208, -18.102875998561032 ], [ -69.651287546749231, -18.103348401726652 ], [ -69.651086803825933, -18.103772735599449 ], [ -69.650810046361627, -18.104160084258968 ], [ -69.650596129644711, -18.104560769052888 ], [ -69.65045859308313, -18.104972451225901 ], [ -69.650371504111277, -18.105396400355357 ], [ -69.650411294088471, -18.1058561283883 ], [ -69.650577513857073, -18.10631417060457 ], [ -69.650825978881514, -18.106797996428281 ], [ -69.651106219114183, -18.107352941303166 ], [ -69.651317006100641, -18.107885464701063 ], [ -69.651470537165849, -18.108344807106636 ], [ -69.651649207584299, -18.108755419091022 ], [ -69.651878380389675, -18.109129656602281 ], [ -69.652132829092224, -18.109491516389671 ], [ -69.652412398283388, -18.109841889912548 ], [ -69.652729848531735, -18.110154891329195 ], [ -69.652984344844995, -18.110529114751497 ], [ -69.653087580135747, -18.11103719675177 ], [ -69.653165342798317, -18.111545290085576 ], [ -69.653331488006756, -18.111979636310426 ], [ -69.653497236159822, -18.112390365284494 ], [ -69.653625432039078, -18.112801147938729 ], [ -69.65376605431365, -18.113200633876012 ], [ -69.653868809005729, -18.113599063609644 ], [ -69.653819619057401, -18.11401044620823 ], [ -69.653644102623929, -18.114411004312263 ], [ -69.653760356299813, -18.115087333950527 ], [ -69.654140632024195, -18.115280323521564 ], [ -69.654533602740159, -18.115472158559328 ], [ -69.654876287563184, -18.115737611110674 ], [ -69.655256789663028, -18.115990496400368 ], [ -69.655459303165742, -18.116103976328056 ], [ -69.655662596406117, -18.116218490968233 ], [ -69.655992705713444, -18.116495312209253 ], [ -69.656259595184366, -18.116845722095817 ], [ -69.656526855659479, -18.117232335776336 ], [ -69.656819063248363, -18.117581547192611 ], [ -69.657149268675454, -18.117883244449715 ], [ -69.657542399291557, -18.118136080537166 ], [ -69.657948171898653, -18.11835274188563 ], [ -69.658277978473748, -18.11862948632848 ], [ -69.658608370750414, -18.11897974936484 ], [ -69.659039949260674, -18.11930478881283 ], [ -69.659592661095417, -18.119968292215272 ], [ -69.659531017802323, -18.120379792185272 ], [ -69.659412306335838, -18.120791341560114 ], [ -69.659312566389843, -18.121202972782189 ], [ -69.659187617022027, -18.121603288188425 ], [ -69.659011858043428, -18.1219789743907 ], [ -69.658785442167641, -18.122330030693849 ], [ -69.658684688023698, -18.122491855416449 ], [ -69.658558993952511, -18.12269345118662 ], [ -69.658383324805428, -18.123094013333521 ], [ -69.658182364489861, -18.123482149110696 ], [ -69.657968779251263, -18.1238692919739 ], [ -69.657869169560982, -18.124317053250653 ], [ -69.657807701439367, -18.124777049213371 ], [ -69.657695225179268, -18.125201014436623 ], [ -69.657570390795797, -18.125612730054758 ], [ -69.657548020948596, -18.126423984992922 ], [ -69.657827723090421, -18.126737031045487 ], [ -69.658399077662253, -18.127328210763615 ], [ -69.658426138511871, -18.127751847098175 ], [ -69.658643979968275, -18.128501270571167 ], [ -69.658822553368651, -18.128875744196296 ], [ -69.658862003782673, -18.129299189820038 ], [ -69.658863632428293, -18.129734166440407 ], [ -69.658764075738603, -18.130134469165071 ], [ -69.658486808929524, -18.130474296428151 ], [ -69.658121094895904, -18.130789623185603 ], [ -69.657780514825603, -18.131117300867604 ], [ -69.657516388572503, -18.131493286789514 ], [ -69.657328021738891, -18.131917585762199 ], [ -69.657316903290621, -18.132341203302989 ], [ -69.657533773668192, -18.132726876127141 ], [ -69.65781955740448, -18.133089729515536 ], [ -69.657600548138205, -18.133707301204463 ], [ -69.657132771115258, -18.133817366806841 ], [ -69.656374755610514, -18.134135138501598 ], [ -69.656135789371902, -18.134511037690952 ], [ -69.655871175333601, -18.134862145687972 ], [ -69.655568594898142, -18.135165924337873 ], [ -69.655227731858531, -18.135421337507413 ], [ -69.654810917159949, -18.135556026705363 ], [ -69.654355394055798, -18.135568902902897 ], [ -69.653711390031987, -18.135958615090246 ], [ -69.653485116090025, -18.136334392552634 ], [ -69.653131470922219, -18.13658977157608 ], [ -69.652462773109562, -18.13708802974703 ], [ -69.652375708392228, -18.137499615807727 ], [ -69.652465992671537, -18.13793532754471 ], [ -69.652594031345615, -18.138382240982338 ], [ -69.652633790780087, -18.138829528040603 ], [ -69.652508506340681, -18.139229914101538 ], [ -69.652307547821721, -18.139605605998163 ], [ -69.652144467665039, -18.140005083687186 ], [ -69.651905319068419, -18.140357211884382 ], [ -69.651526424952934, -18.140551664090513 ], [ -69.651071191106297, -18.140625541103756 ], [ -69.65052745793281, -18.140724519230478 ], [ -69.64994576644699, -18.140883522657024 ], [ -69.649503692020957, -18.141103060856022 ], [ -69.649264568577152, -18.141442747298758 ], [ -69.649114225632886, -18.141854470794083 ], [ -69.648938435213253, -18.142253914321568 ], [ -69.648737598865196, -18.142665808345232 ], [ -69.648485965482749, -18.143078981877686 ], [ -69.648132861999073, -18.143381808946657 ], [ -69.64771573648342, -18.143565128750016 ], [ -69.647298937056206, -18.143711204484728 ], [ -69.64688157618194, -18.143809674650903 ], [ -69.646438811849748, -18.143823674496648 ], [ -69.645982915046432, -18.14382520508947 ], [ -69.645514924224443, -18.143886599521188 ], [ -69.645110804517458, -18.144069870137333 ], [ -69.644831309886499, -18.14438551299056 ], [ -69.644730680608362, -18.144430235517291 ], [ -69.644536863695919, -18.14447061468211 ], [ -69.644302670206415, -18.144527143960609 ], [ -69.644076550774656, -18.144583674928153 ], [ -69.643882734760538, -18.144688657913477 ], [ -69.643745447930613, -18.144712884353289 ], [ -69.643608161100687, -18.144769414407083 ], [ -69.643422420940965, -18.144834020770251 ], [ -69.643285133212714, -18.14489862540227 ], [ -69.643115545660123, -18.144987458973088 ], [ -69.6429378804565, -18.145043988084485 ], [ -69.642727912733562, -18.145116668099803 ], [ -69.642625957542066, -18.145194397379807 ], [ -69.642629746635947, -18.14539595845439 ], [ -69.642640242551707, -18.145954194662259 ], [ -69.642959664602131, -18.162940168824058 ], [ -69.643272341203073, -18.163190070980498 ], [ -69.643953911873766, -18.163452212732878 ], [ -69.644871411579089, -18.163661927217159 ], [ -69.645698797685, -18.163949323977185 ], [ -69.646347150453096, -18.164232746138314 ], [ -69.646996280263934, -18.164453900647288 ], [ -69.647645022900875, -18.164345777380763 ], [ -69.648365846356214, -18.164598064044974 ], [ -69.648616160113505, -18.164656471444768 ], [ -69.649447083785006, -18.164850353758919 ], [ -69.650348114676234, -18.165102642254812 ], [ -69.651213103361627, -18.165138683194865 ], [ -69.652712764371671, -18.165142119566887 ], [ -69.65416848339126, -18.165138683194865 ], [ -69.655140847702569, -18.165234782943049 ], [ -69.656189417896044, -18.165202015366596 ], [ -69.656986818237783, -18.16496024440649 ], [ -69.658032596467365, -18.164505557383801 ], [ -69.658987438240743, -18.164187277555971 ], [ -69.659826647074112, -18.163989604741101 ], [ -69.660678610187873, -18.163727462941839 ], [ -69.661011602188978, -18.16359938914426 ], [ -69.661530573301675, -18.16339978407246 ], [ -69.661750447645545, -18.163179910267527 ], [ -69.661923787461092, -18.163006570324757 ], [ -69.662352093408771, -18.162594735337976 ], [ -69.662746292121739, -18.162111221713353 ], [ -69.663306960334964, -18.161550095742736 ], [ -69.663807115335715, -18.161186346286541 ], [ -69.664334760580772, -18.161043629425961 ], [ -69.664843498085744, -18.160956417255523 ], [ -69.66529586451, -18.160878868260106 ], [ -69.665795010702681, -18.160793299975943 ], [ -69.666117300175472, -18.16073805118727 ], [ -69.666763158322027, -18.160627332483724 ], [ -69.667336582612279, -18.160692441710182 ], [ -69.667745936802419, -18.160885078804696 ], [ -69.668133367608036, -18.161103142527207 ], [ -69.668534540840895, -18.161338092879486 ], [ -69.668731884539142, -18.161421186417268 ], [ -69.668965822907111, -18.161519686722141 ], [ -69.669383782059356, -18.161695668207276 ], [ -69.669420696529315, -18.161711211566921 ], [ -69.669726607917866, -18.161840015690338 ], [ -69.670166573997932, -18.162025265663001 ], [ -69.670840000542256, -18.162190000140704 ], [ -69.670859623341315, -18.161827817448341 ], [ -69.671083806005313, -18.161471069493533 ], [ -69.671517567421716, -18.16125418927 ], [ -69.67504013563692, -18.161169847741668 ], [ -69.681614458738679, -18.158358417967719 ], [ -69.686199201234032, -18.157772827409389 ], [ -69.690348506056651, -18.155335791513249 ], [ -69.69388686306128, -18.150860646387024 ], [ -69.694814791308744, -18.151046228960375 ], [ -69.696155852060429, -18.151409433583662 ], [ -69.696938137349179, -18.151660881905084 ], [ -69.697692484134294, -18.151800576114283 ], [ -69.69819353295874, -18.151760735563602 ], [ -69.698667884751259, -18.151647301809948 ], [ -69.699100989499186, -18.151265758665588 ], [ -69.699503157167044, -18.150842966317789 ], [ -69.699750645722773, -18.150502669024288 ], [ -69.700111566346052, -18.150110813378369 ], [ -69.700730287286191, -18.149698331678767 ], [ -69.701049959966568, -18.149316787694119 ], [ -69.701658368247266, -18.149048675829555 ], [ -69.704579748840018, -18.14867238705224 ], [ -69.708310000362374, -18.14835999913603 ], [ -69.710460506067122, -18.14900669803124 ], [ -69.711404798924107, -18.1490284918988 ], [ -69.717892221700239, -18.148056779484719 ], [ -69.719624425994624, -18.147218615942144 ], [ -69.721156259268241, -18.146646750362819 ], [ -69.722488634209455, -18.146176499109572 ], [ -69.723703446629401, -18.145784625228934 ], [ -69.724839882837472, -18.145353562348149 ], [ -69.72644657002877, -18.144765750564968 ], [ -69.728131631635364, -18.144295501081317 ], [ -69.729855880449563, -18.144060375865195 ], [ -69.731972004035129, -18.144021188298442 ], [ -69.733696253747681, -18.144217125190767 ], [ -69.735107004002458, -18.144726562302655 ], [ -69.735969128858741, -18.144687375738847 ], [ -69.736909627231981, -18.144373875229444 ], [ -69.737732564880602, -18.144217125190767 ], [ -69.738673064152152, -18.144138750118714 ], [ -69.739731125944914, -18.144373875229444 ], [ -69.740867881054911, -18.145154860073767 ], [ -69.742159091596534, -18.145800465363187 ], [ -69.743385401553809, -18.146328260444999 ], [ -69.743572392168417, -18.146411589895234 ], [ -69.744589999230683, -18.146010000429328 ], [ -69.748600000505562, -18.139420000182387 ], [ -69.749791203403234, -18.138201603119477 ], [ -69.748534448642644, -18.139256624627734 ], [ -69.748525371166707, -18.139256660481937 ], [ -69.753251984594868, -18.135288648403204 ], [ -69.753261062070806, -18.135288613401887 ], [ -69.752896341573887, -18.135594807251863 ], [ -69.753662606307856, -18.135353395713089 ], [ -69.754301651631323, -18.135128188614733 ], [ -69.75525624187641, -18.135025911216069 ], [ -69.755903999061488, -18.134991819021145 ], [ -69.756449479458183, -18.134753170909377 ], [ -69.756449478559873, -18.133969043253671 ], [ -69.756381293734876, -18.133184916351912 ], [ -69.756654033933216, -18.132537159256426 ], [ -69.757733660682717, -18.130902805819122 ], [ -69.759737917964259, -18.128103090741515 ], [ -69.759975379524789, -18.127153244771183 ], [ -69.760212841085291, -18.126262764081019 ], [ -69.761162686429074, -18.125372283128996 ], [ -69.762468724562765, -18.123769419829742 ], [ -69.769560000262786, -18.114439999959956 ], [ -69.771477053588114, -18.107206792530743 ], [ -69.77146744880109, -18.106803426785032 ], [ -69.771422537528466, -18.106718252986145 ], [ -69.771740686666121, -18.106468231722477 ], [ -69.771406069612667, -18.106687021586726 ], [ -69.771259999954211, -18.106409999564491 ], [ -69.770641508982777, -18.105410853245509 ], [ -69.769969232282037, -18.10456570425146 ], [ -69.769578962800111, -18.104276713134716 ], [ -69.769008837123579, -18.103960655557934 ], [ -69.767539431372313, -18.103730161203256 ], [ -69.765820323616452, -18.103806992688511 ], [ -69.764244794490779, -18.10348232493714 ], [ -69.763015333243473, -18.102932492603912 ], [ -69.762226563914993, -18.102317960520462 ], [ -69.760577905636978, -18.101607803089522 ], [ -69.760052445094701, -18.10108284543232 ], [ -69.759381308356012, -18.100253528362767 ], [ -69.758502109221155, -18.099696499779373 ], [ -69.757810625641298, -18.098611251987609 ], [ -69.757336232526285, -18.097272380237342 ], [ -69.757195971374472, -18.096411947678455 ], [ -69.756360857960473, -18.095463692272311 ], [ -69.75524037583186, -18.094477904997344 ], [ -69.753998386679612, -18.093080667754627 ], [ -69.752601148883315, -18.091528181396733 ], [ -69.751281535409049, -18.090286192321074 ], [ -69.74999999073988, -18.089465954235706 ], [ -69.749717732891099, -18.089285298366555 ], [ -69.747633193172589, -18.088578458566236 ], [ -69.746607916294437, -18.08798390319156 ], [ -69.746236400042378, -18.087726699339445 ], [ -69.746015427058893, -18.087496609751369 ], [ -69.745886199015374, -18.08724701707159 ], [ -69.745836146684397, -18.086987658537296 ], [ -69.745836305686183, -18.086412103669204 ], [ -69.745922041795211, -18.085811962215431 ], [ -69.74612208852416, -18.085354712686513 ], [ -69.746436447669623, -18.084811727590036 ], [ -69.7468936991324, -18.084240164582617 ], [ -69.747465261215083, -18.083554288394698 ], [ -69.747979667089467, -18.083039882696646 ], [ -69.748608386278732, -18.082525475490577 ], [ -69.749551465511786, -18.081811021951889 ], [ -69.749999991638177, -18.081571808662947 ], [ -69.750837482892734, -18.081125145662714 ], [ -69.752834020951042, -18.080195031961853 ], [ -69.753899999596413, -18.079680000710322 ], [ -69.756016617255398, -18.079651661987892 ], [ -69.758422971237891, -18.079651661987892 ], [ -69.760275349456037, -18.079914098792162 ], [ -69.761811982428227, -18.079983945069259 ], [ -69.763418462108689, -18.079914097938182 ], [ -69.764815399867672, -18.079704557232208 ], [ -69.765745782312479, -18.079500578988519 ], [ -69.76634774967259, -18.079202002664612 ], [ -69.766519998933362, -18.078920000448598 ], [ -69.766222540691643, -18.078508536364314 ], [ -69.765057132019038, -18.077998068048977 ], [ -69.764885248372579, -18.076910679166325 ], [ -69.765059865592463, -18.076002668891274 ], [ -69.765618641055383, -18.075269276489529 ], [ -69.766107568911693, -18.074570807370957 ], [ -69.766617194850483, -18.073932847485661 ], [ -69.767332191832892, -18.073162851968242 ], [ -69.767772191150613, -18.072337855646726 ], [ -69.768047188815288, -18.071567858258518 ], [ -69.768267188025007, -18.070687862476881 ], [ -69.768487188133022, -18.069807864847302 ], [ -69.768597186839571, -18.068762870634924 ], [ -69.768787602730342, -18.068168083308105 ], [ -69.769092184612248, -18.067717874474607 ], [ -69.769398224459891, -18.067158207001395 ], [ -69.76986218184625, -18.066617878856128 ], [ -69.7702437017373, -18.066218788125106 ], [ -69.770384615066035, -18.065866505818686 ], [ -69.770314158401661, -18.065490738669766 ], [ -69.769938391321688, -18.065161941648324 ], [ -69.769562622445093, -18.064715717720865 ], [ -69.76918685536512, -18.06443389208281 ], [ -69.768951999817219, -18.064011153204955 ], [ -69.768796676613022, -18.063290524760522 ], [ -69.768686889010567, -18.062349810963465 ], [ -69.768976062090431, -18.059575425694643 ], [ -69.769914228437187, -18.057248764311364 ], [ -69.770128718279267, -18.056007297968442 ], [ -69.770298385781913, -18.055083508944211 ], [ -69.770647621119977, -18.05407072784028 ], [ -69.771066701369691, -18.053442105567324 ], [ -69.77180009584913, -18.052673789060218 ], [ -69.772673182846788, -18.051835624563232 ], [ -69.773860579582603, -18.0507879218634 ], [ -69.775407171278033, -18.049362656093223 ], [ -69.777013854876074, -18.048123839037583 ], [ -69.780047325453353, -18.048166244141246 ], [ -69.781677550301737, -18.048189013989948 ], [ -69.783650309056156, -18.048290432409669 ], [ -69.781600000539896, -18.044113889259172 ], [ -69.778586111439168, -18.037949999903599 ], [ -69.773758332438646, -18.028125000254242 ], [ -69.768511110269046, -18.01742500059224 ], [ -69.764566667145289, -18.009383332271138 ], [ -69.756066110834283, -17.992108610776892 ], [ -69.754691388412269, -17.989296110103798 ], [ -69.751880812314866, -17.962781359726989 ], [ -69.751628866318697, -17.960404048183634 ], [ -69.750262500025471, -17.947509999696759 ], [ -69.750244722365991, -17.947341111349587 ], [ -69.756293333397196, -17.940127499923232 ], [ -69.766302777314507, -17.928197222673941 ], [ -69.771291722161848, -17.922238721690285 ], [ -69.778093000128592, -17.914115139167706 ], [ -69.779808253213545, -17.911906175680009 ], [ -69.780398438270367, -17.910607110424088 ], [ -69.781481722061386, -17.908010111309082 ], [ -69.789951443700261, -17.887699888983995 ], [ -69.79593327756649, -17.873351721544783 ], [ -69.799073278454998, -17.865813887848319 ], [ -69.799165556095943, -17.865518556461712 ], [ -69.799319991764634, -17.862687188161026 ], [ -69.799403306913987, -17.861159725922651 ], [ -69.799823527125795, -17.853455221742554 ], [ -69.800887056065392, -17.833701360561889 ], [ -69.80154027770233, -17.821440806225951 ], [ -69.802001079307104, -17.81273065689798 ], [ -69.802109417028689, -17.81068278512674 ], [ -69.802157528100366, -17.809773333145461 ], [ -69.802700832777461, -17.799325499455023 ], [ -69.803289917398075, -17.787946778178039 ], [ -69.801142477643381, -17.76578200698669 ], [ -69.801043651284019, -17.764761810169283 ], [ -69.800796249864902, -17.762207777869648 ], [ -69.812370499718355, -17.753515222304546 ], [ -69.822244333960384, -17.743994000077027 ], [ -69.823555943445456, -17.725822833271636 ], [ -69.824535247242338, -17.718070906215683 ], [ -69.824773171435226, -17.716187476009413 ], [ -69.826057277201272, -17.706021778434685 ], [ -69.819860832220385, -17.69331936054698 ], [ -69.807984228306935, -17.669471344907201 ], [ -69.807119269265925, -17.667734232844928 ], [ -69.79625600002727, -17.645914000341158 ], [ -69.795060641523094, -17.646065620896419 ], [ -69.780721943163741, -17.647883777826554 ], [ -69.76793399929285, -17.649053000130358 ], [ -69.756044444367944, -17.650136111313639 ], [ -69.737018028733942, -17.651878555900531 ], [ -69.702302778309559, -17.655947221746239 ], [ -69.688369512095832, -17.657646335419415 ], [ -69.685513888181873, -17.657994443928327 ], [ -69.666444444144062, -17.660316667480707 ], [ -69.619297221653198, -17.622544443925086 ], [ -69.616461110943831, -17.62053888934301 ], [ -69.616162014175032, -17.620327520096332 ], [ -69.61471873143222, -17.619307549854121 ], [ -69.59841388951223, -17.60778333274898 ], [ -69.575350000325315, -17.591452777799091 ], [ -69.569063890004344, -17.587172221681545 ], [ -69.552394444368389, -17.575313889626212 ], [ -69.545379496721452, -17.56891694205768 ], [ -69.543599785023261, -17.567293904584812 ], [ -69.522066667301317, -17.54765277812519 ], [ -69.514944499436993, -17.540955945795492 ], [ -69.513352325427419, -17.539458750847956 ], [ -69.511969444506008, -17.53815833279992 ], [ -69.499363889180501, -17.526622222504933 ], [ -69.484567688728433, -17.513055435711728 ], [ -69.483013888951177, -17.511630556204384 ], [ -69.46970584478531, -17.499520201601371 ], [ -69.468475000132457, -17.498399999303828 ], [ -69.46838775395544, -17.513922837031579 ], [ -69.46832052493788, -17.525886778572797 ], [ -69.468237328366158, -17.540176063993751 ], [ -69.468192666825175, -17.548252791426744 ], [ -69.468147221953274, -17.556177777258483 ], [ -69.468108332087994, -17.562824999325152 ], [ -69.468097496609033, -17.564754368287527 ], [ -69.468090644260045, -17.565974482696141 ], [ -69.467924999413214, -17.595474999611547 ], [ -69.467872222491977, -17.604852778428238 ], [ -69.459697221928138, -17.612694443867071 ], [ -69.456309245597026, -17.615941935491119 ], [ -69.455190023804747, -17.617014710288391 ], [ -69.452200000246179, -17.619880556346793 ], [ -69.432254416735361, -17.638989722027407 ], [ -69.415312832772287, -17.655211076413007 ], [ -69.408015364070181, -17.662198310773714 ], [ -69.406027131834989, -17.664103124096044 ], [ -69.405308840730427, -17.66479126175134 ], [ -69.395868392409, -17.673834704463093 ], [ -69.370065416851631, -17.698534500188391 ], [ -69.358033333427102, -17.710063888880391 ], [ -69.354576043088656, -17.713375607866865 ], [ -69.352641505852958, -17.715228612607937 ], [ -69.343613888201816, -17.723874999866769 ], [ -69.342716792829847, -17.724695198130867 ], [ -69.342922881627388, -17.724808436092005 ], [ -69.343023006950645, -17.724969687413953 ], [ -69.343067677474778, -17.725495741354806 ], [ -69.343024517916959, -17.725764862665802 ], [ -69.342706883513941, -17.726046419824598 ], [ -69.342425771017147, -17.726375030396785 ], [ -69.342183883457238, -17.726597378971572 ], [ -69.342165962067313, -17.727015925424642 ], [ -69.342228880968122, -17.727296817481683 ], [ -69.342279165962779, -17.727494029069717 ], [ -69.342230539258139, -17.728169716206121 ], [ -69.342131151451738, -17.728397080970602 ], [ -69.341875364259423, -17.728397527622473 ], [ -69.341538169041101, -17.728236688387653 ], [ -69.341182225084509, -17.728057942685435 ], [ -69.340870404578041, -17.728118272449514 ], [ -69.340690023767294, -17.728405566500065 ], [ -69.340478789419805, -17.728872277702038 ], [ -69.340273633971861, -17.729255275111818 ], [ -69.339893591809428, -17.729530956176557 ], [ -69.339194830079165, -17.729520208362999 ], [ -69.338358739298144, -17.729467842603611 ], [ -69.338109525977075, -17.729647634213972 ], [ -69.337929140674774, -17.729934925812877 ], [ -69.337886074541714, -17.730257854611342 ], [ -69.337992806075576, -17.730616397314339 ], [ -69.338074817769439, -17.731100537320863 ], [ -69.338069206892186, -17.731435358276372 ], [ -69.338044969447495, -17.731818040467193 ], [ -69.337939403028571, -17.732081288602249 ], [ -69.337646289937894, -17.732141581075162 ], [ -69.33724678218158, -17.732022691982795 ], [ -69.33685991911122, -17.73199346340034 ], [ -69.336604572991703, -17.732233052072033 ], [ -69.336659936162661, -17.732520200057419 ], [ -69.336638585903302, -17.732882679281584 ], [ -69.336543803759369, -17.733100077649421 ], [ -69.336207575128299, -17.733459380454864 ], [ -69.336154724545182, -17.733889942732347 ], [ -69.336297479420253, -17.734162331913307 ], [ -69.336627442302202, -17.734455921381702 ], [ -69.33675525280421, -17.734742681629164 ], [ -69.336719007579106, -17.735397556677672 ], [ -69.336727838018348, -17.736098714000754 ], [ -69.336646248532674, -17.736507802526699 ], [ -69.3365196148237, -17.736852397329685 ], [ -69.336198285649928, -17.737175801359967 ], [ -69.336112317775573, -17.737201132636041 ], [ -69.335650955622071, -17.73733707149983 ], [ -69.335263436781531, -17.737715490412334 ], [ -69.335002159086216, -17.738124885831883 ], [ -69.334666410155492, -17.738749641473547 ], [ -69.334756839961884, -17.739065167099735 ], [ -69.334773634864447, -17.739082619708384 ], [ -69.3350118860441, -17.73933018937295 ], [ -69.335408984518821, -17.739487350683834 ], [ -69.336037910320599, -17.739500623636214 ], [ -69.336374955520256, -17.739571790874766 ], [ -69.336734675095983, -17.739757712136061 ], [ -69.337065212001406, -17.740352630811646 ], [ -69.337320774614895, -17.74089027996429 ], [ -69.337559969923902, -17.741355214945301 ], [ -69.337614716850581, -17.74193007926857 ], [ -69.337353194813502, -17.742210336197378 ], [ -69.336934534077031, -17.742422211547584 ], [ -69.336602828463413, -17.742590079529251 ], [ -69.336352172448017, -17.743410199824137 ], [ -69.336315420573101, -17.743776163184016 ], [ -69.336405694072624, -17.744005593191158 ], [ -69.336742786882994, -17.744098283320071 ], [ -69.336744435291536, -17.744098005256603 ], [ -69.337042176502578, -17.744047547424326 ], [ -69.337565883533443, -17.743838587251091 ], [ -69.338037260105722, -17.743672761002749 ], [ -69.338561339937442, -17.743664683453456 ], [ -69.339018700994671, -17.743997194814224 ], [ -69.339101340610895, -17.744158792487699 ], [ -69.339117124908768, -17.744589234932125 ], [ -69.339162992887182, -17.745091372699196 ], [ -69.33907378209463, -17.745428729945889 ], [ -69.338527746539057, -17.745709478486216 ], [ -69.338292384341358, -17.745880793905503 ], [ -69.338233279687245, -17.745944245635265 ], [ -69.338109341822431, -17.746176544157141 ], [ -69.337923292642273, -17.746779523194327 ], [ -69.337383714176966, -17.747479314109782 ], [ -69.337231005968562, -17.747977178797637 ], [ -69.336953864025304, -17.748868977816365 ], [ -69.336750619293952, -17.749349470021873 ], [ -69.336750966043653, -17.749520136014539 ], [ -69.336903129873008, -17.749765879187056 ], [ -69.337030626862983, -17.750009128944701 ], [ -69.337090984666901, -17.750124281883295 ], [ -69.337304944502961, -17.750344866778782 ], [ -69.337668613072694, -17.750711597934117 ], [ -69.337863714575988, -17.750940846232542 ], [ -69.337889658819705, -17.751248182480445 ], [ -69.337820473271464, -17.751837735510218 ], [ -69.338098315900638, -17.75226772829804 ], [ -69.338196985953132, -17.752977834361214 ], [ -69.338189069998862, -17.752996643351473 ], [ -69.338207900483823, -17.753056238364266 ], [ -69.338133176821884, -17.753468651256217 ], [ -69.337783367460347, -17.753538720424537 ], [ -69.337651693304323, -17.753667527984696 ], [ -69.337510090069443, -17.754019322434651 ], [ -69.337301287461443, -17.754471676111422 ], [ -69.336905429560133, -17.754996096611688 ], [ -69.336734330142917, -17.755591874927056 ], [ -69.33641543270862, -17.756088876069327 ], [ -69.336361037023238, -17.756173651494169 ], [ -69.336233879596449, -17.756528569655575 ], [ -69.335995565534731, -17.756934775457324 ], [ -69.335629501158138, -17.75738022373487 ], [ -69.335113522333671, -17.757739831145468 ], [ -69.33453747945434, -17.758013446780833 ], [ -69.33415599369927, -17.758222156850689 ], [ -69.333566635990834, -17.758313558060493 ], [ -69.333077966849302, -17.758331610217372 ], [ -69.332651502447945, -17.758511696231032 ], [ -69.332367579122618, -17.758842205493973 ], [ -69.332166034902116, -17.759179748987258 ], [ -69.332017100516197, -17.759624821241143 ], [ -69.332167291645177, -17.759861325631764 ], [ -69.332523073006726, -17.75993300748857 ], [ -69.332661667783697, -17.759960930288386 ], [ -69.33308865590287, -17.760060648671541 ], [ -69.333330799482653, -17.760236460563842 ], [ -69.333607136535406, -17.760300719931216 ], [ -69.333967633153861, -17.760630052141657 ], [ -69.334022084534809, -17.761071713335568 ], [ -69.334005319276656, -17.761120398052746 ], [ -69.334010136043219, -17.761307321818158 ], [ -69.333909706191093, -17.761398055019317 ], [ -69.3337951790772, -17.761501523954422 ], [ -69.333375995521223, -17.761573981944672 ], [ -69.333039201849857, -17.76166064798284 ], [ -69.332904899223294, -17.761919158140113 ], [ -69.333002665570604, -17.762148577721202 ], [ -69.333205276091377, -17.762384992370237 ], [ -69.333235785573351, -17.762686269194017 ], [ -69.333207915341674, -17.762736688407099 ], [ -69.332916129960978, -17.76394235148566 ], [ -69.332766915300709, -17.764236760430062 ], [ -69.332677539218139, -17.764495194147841 ], [ -69.332812825499929, -17.764767595787976 ], [ -69.333142919535902, -17.765104236689645 ], [ -69.333233200221969, -17.765333668439119 ], [ -69.333260027509624, -17.765659403512469 ], [ -69.333214617671999, -17.765798066841331 ], [ -69.333080492013565, -17.766012952057565 ], [ -69.332711490145996, -17.766246917508951 ], [ -69.332373926618416, -17.766332384475106 ], [ -69.332024746077593, -17.766746368203524 ], [ -69.331795224725866, -17.767127834569472 ], [ -69.331530486720055, -17.767293454300926 ], [ -69.331251951489804, -17.767664521295814 ], [ -69.331200656788766, -17.767809522932414 ], [ -69.331126294249557, -17.767891364541661 ], [ -69.330729458082914, -17.768252029559616 ], [ -69.330535816341936, -17.768480669388516 ], [ -69.33056663933597, -17.768954136059474 ], [ -69.330595990889563, -17.769806026960733 ], [ -69.330606188564659, -17.770101990879006 ], [ -69.330546890772752, -17.770432117720958 ], [ -69.330345553164761, -17.770891624239439 ], [ -69.33006914873836, -17.771250816108036 ], [ -69.329772958917829, -17.771444757654383 ], [ -69.329690462133698, -17.771578670468184 ], [ -69.329314994192714, -17.771775892300223 ], [ -69.328863715628273, -17.771807082770852 ], [ -69.328510777434616, -17.771822592887141 ], [ -69.328273402112373, -17.772035854924571 ], [ -69.327847225171908, -17.772395292572934 ], [ -69.327585067127586, -17.772585610929067 ], [ -69.3274965300715, -17.772649884678504 ], [ -69.327301482467121, -17.772891246152586 ], [ -69.327279234790794, -17.77326884564809 ], [ -69.327448089318111, -17.77374655544229 ], [ -69.327482939459557, -17.773845153213426 ], [ -69.327536050554102, -17.774225312724059 ], [ -69.327476613523331, -17.774483694364609 ], [ -69.327117617091389, -17.774728227020457 ], [ -69.326601219652005, -17.774894103183826 ], [ -69.326099823179533, -17.775074299121677 ], [ -69.325817983047358, -17.775396408242873 ], [ -69.325703757767414, -17.775526952836088 ], [ -69.325547163447084, -17.775893112259507 ], [ -69.325383327807245, -17.77639560099346 ], [ -69.325054602803746, -17.776819441558271 ], [ -69.324388193898429, -17.776856419797912 ], [ -69.323145626231124, -17.777145454245673 ], [ -69.32283865033898, -17.777174658345466 ], [ -69.321981024245659, -17.777270943732553 ], [ -69.32172338113395, -17.777463472435489 ], [ -69.321722969705561, -17.7779356056677 ], [ -69.32177024893727, -17.778148493436998 ], [ -69.321612634130801, -17.778355319474528 ], [ -69.321355429396974, -17.778746627414133 ], [ -69.321205767375673, -17.779159304406001 ], [ -69.321174502410528, -17.779612438778326 ], [ -69.321207386139818, -17.780065393221228 ], [ -69.321222100544176, -17.78022034943573 ], [ -69.320996832715323, -17.780747620761023 ], [ -69.32050815369233, -17.781280117036868 ], [ -69.320119285582265, -17.781935293936932 ], [ -69.320030381115217, -17.782224618702671 ], [ -69.320077803179075, -17.78273225621756 ], [ -69.320078534407699, -17.782746011825793 ], [ -69.320101047985361, -17.783169862133047 ], [ -69.319869447033753, -17.7834787434278 ], [ -69.3193228715907, -17.783537033219041 ], [ -69.319098280193259, -17.783596423024022 ], [ -69.318858785745263, -17.783659754449506 ], [ -69.318432321343906, -17.783882858159522 ], [ -69.317908641262505, -17.784185038821516 ], [ -69.317811909774392, -17.784536746711048 ], [ -69.317792754099287, -17.7849835855015 ], [ -69.317776739832709, -17.785357167373078 ], [ -69.317439446698032, -17.785656572395379 ], [ -69.316557858942815, -17.786147097715006 ], [ -69.316529695860339, -17.786162768253124 ], [ -69.315943534357686, -17.786713644960148 ], [ -69.315405042853868, -17.787116284550965 ], [ -69.315091149934034, -17.787482690519916 ], [ -69.314530410753903, -17.788014504661852 ], [ -69.314230817216753, -17.787993462563261 ], [ -69.313946700753633, -17.788259375486934 ], [ -69.313820040993519, -17.788632652838757 ], [ -69.3137999456806, -17.788838410360903 ], [ -69.313744780139018, -17.788877844433681 ], [ -69.313577423103268, -17.789056327512714 ], [ -69.313446457718001, -17.789128291906781 ], [ -69.313094861607368, -17.789351263902635 ], [ -69.312865325882612, -17.790084121515804 ], [ -69.312903397382669, -17.790988315898442 ], [ -69.31299857568365, -17.791521316238871 ], [ -69.31304286891536, -17.792193094691086 ], [ -69.31305568248456, -17.79238743861233 ], [ -69.31297954038277, -17.793072723989571 ], [ -69.312897402026451, -17.793492149045402 ], [ -69.31242375541143, -17.793875546980921 ], [ -69.31207455420936, -17.794112520106591 ], [ -69.311999866479994, -17.794163203306589 ], [ -69.311588189246535, -17.79429539183305 ], [ -69.311218278283903, -17.794272998182365 ], [ -69.311032188679533, -17.794382195963745 ], [ -69.310852083651582, -17.794487881657272 ], [ -69.310803004196046, -17.794978218492162 ], [ -69.311039903411199, -17.795300435417303 ], [ -69.311297100958512, -17.795578455825122 ], [ -69.311603471386164, -17.79590962955891 ], [ -69.31195378110931, -17.796375413670745 ], [ -69.311892035408235, -17.796758151943131 ], [ -69.311743162107774, -17.797284518259769 ], [ -69.311614232304933, -17.79757584185321 ], [ -69.311610856436104, -17.79761044312712 ], [ -69.311526333052711, -17.797854556660173 ], [ -69.311461192618182, -17.798043402396843 ], [ -69.311418382505011, -17.798091754584878 ], [ -69.311333260843625, -17.79844504907037 ], [ -69.311221417895823, -17.798732206223995 ], [ -69.310822647656352, -17.799115480002545 ], [ -69.310361254960142, -17.799379277416453 ], [ -69.30998711472914, -17.79957119040801 ], [ -69.309624472933763, -17.800058176705651 ], [ -69.309553115259178, -17.800154000716539 ], [ -69.30918976828633, -17.800457305943471 ], [ -69.309152980478814, -17.80084000381575 ], [ -69.309290595193801, -17.801019148917117 ], [ -69.309752879917113, -17.801269524616878 ], [ -69.309681980383317, -17.802000396039265 ], [ -69.30966702972205, -17.802154515549791 ], [ -69.309356140768514, -17.802836584281437 ], [ -69.309069842297561, -17.803303379235899 ], [ -69.308601332249353, -17.803523317753353 ], [ -69.308597545850418, -17.803531417401537 ], [ -69.308334724849431, -17.804093733080656 ], [ -69.308273378000379, -17.804715619641279 ], [ -69.308364714206874, -17.804777494714525 ], [ -69.308660796229589, -17.804978073670654 ], [ -69.309181919705694, -17.805179421304793 ], [ -69.309523424142398, -17.805741988375054 ], [ -69.309573870833816, -17.806040846892596 ], [ -69.309386298110908, -17.806352495651243 ], [ -69.309087556176664, -17.806340552493928 ], [ -69.308787412870558, -17.806018175893342 ], [ -69.308275719908309, -17.806078769300481 ], [ -69.30796434855948, -17.806485814383475 ], [ -69.307945319546803, -17.806843333580375 ], [ -69.308210021619999, -17.807096275494803 ], [ -69.308640292183227, -17.807291002601502 ], [ -69.308666776314439, -17.807318752075709 ], [ -69.308677309061125, -17.807321713900958 ], [ -69.309052167046048, -17.80753635672562 ], [ -69.309299051035566, -17.80783446900309 ], [ -69.309478131984093, -17.808432494976678 ], [ -69.309404223992416, -17.809006571408975 ], [ -69.309055441405249, -17.809437591503045 ], [ -69.308772652652124, -17.809586184699 ], [ -69.30838424447947, -17.809680166481002 ], [ -69.308344339517916, -17.809689822433633 ], [ -69.308070163811749, -17.809953317698856 ], [ -69.308046120403162, -17.810491442574101 ], [ -69.308283936798233, -17.810861751002541 ], [ -69.308782470339864, -17.810924545914084 ], [ -69.308811741943401, -17.810928232939951 ], [ -69.3091208836737, -17.811195237212527 ], [ -69.309137964240506, -17.811709700243743 ], [ -69.309421452781251, -17.812482408047739 ], [ -69.309360868601857, -17.812821075758137 ], [ -69.309186637657547, -17.813132245703233 ], [ -69.309137487235105, -17.813586707562205 ], [ -69.309575746516117, -17.814363250696928 ], [ -69.309838970860682, -17.814984622515986 ], [ -69.309902628176673, -17.815701970323275 ], [ -69.310090955484398, -17.816323459775198 ], [ -69.310441735026444, -17.8170403523442 ], [ -69.310667662218705, -17.817745482655472 ], [ -69.310681430697059, -17.818486824630419 ], [ -69.310557545832864, -17.819037065325865 ], [ -69.310770847203827, -17.819658514928605 ], [ -69.310896284356843, -17.820005082325419 ], [ -69.310560009911697, -17.820460000453178 ], [ -69.309812075301068, -17.821094932631489 ], [ -69.309687856263579, -17.821453854157774 ], [ -69.309324688055469, -17.822454308776756 ], [ -69.309378380360002, -17.822972941781103 ], [ -69.309304074414641, -17.823319825143546 ], [ -69.308780158076331, -17.823559804517707 ], [ -69.30820553273854, -17.823839203927346 ], [ -69.307927532005877, -17.824049930589606 ], [ -69.30746565511771, -17.82424613577351 ], [ -69.307147771881361, -17.824392220311587 ], [ -69.307157790791734, -17.824770383040196 ], [ -69.307097885738699, -17.825356075087431 ], [ -69.307081292957093, -17.82565479468477 ], [ -69.306699866490817, -17.826217637515331 ], [ -69.3065385119978, -17.826767933874301 ], [ -69.306540008591071, -17.827258202488913 ], [ -69.306260849031688, -17.827686651398306 ], [ -69.306228059625496, -17.827736975289209 ], [ -69.306028883364078, -17.828072095814814 ], [ -69.306378893948235, -17.828334612097038 ], [ -69.306671357556965, -17.828506818045909 ], [ -69.306966252905184, -17.82868045624615 ], [ -69.307116659629827, -17.829026986427891 ], [ -69.307104850377101, -17.829421600511647 ], [ -69.306837890837599, -17.829715025777368 ], [ -69.306426643897154, -17.830167036345799 ], [ -69.306347814934355, -17.830311731513831 ], [ -69.306306914639464, -17.830416485163035 ], [ -69.306212352582747, -17.831619992806377 ], [ -69.306212353481072, -17.832809723467946 ], [ -69.306534271949658, -17.833047997709787 ], [ -69.306564774245132, -17.833363627019462 ], [ -69.306171626561039, -17.833556390223297 ], [ -69.305784929679007, -17.833612310275406 ], [ -69.305782212275261, -17.833674277081624 ], [ -69.305837137068366, -17.834225705710899 ], [ -69.305879031798256, -17.835363988979339 ], [ -69.305699935578389, -17.835766039865209 ], [ -69.305530270770689, -17.836037874379862 ], [ -69.305519347256819, -17.836190420938291 ], [ -69.3055471222671, -17.836746306441871 ], [ -69.305688076918329, -17.837435222411465 ], [ -69.305808054111054, -17.837918389735282 ], [ -69.305933096903644, -17.838119230692886 ], [ -69.306044018179989, -17.838396139366196 ], [ -69.305795542375762, -17.839113976113634 ], [ -69.305566501622707, -17.839516104899506 ], [ -69.305746988434649, -17.839927159383461 ], [ -69.306147895766173, -17.840528853010095 ], [ -69.306398312829742, -17.841150581657427 ], [ -69.306528601783597, -17.841408657723484 ], [ -69.306578951456942, -17.841647726829816 ], [ -69.306379580261108, -17.841877622834833 ], [ -69.306230017952828, -17.842030913466687 ], [ -69.306100955199327, -17.842490280056218 ], [ -69.305913685208679, -17.842618596736514 ], [ -69.305601883566808, -17.842691948730813 ], [ -69.305432702951052, -17.843055718799139 ], [ -69.305431889077397, -17.843583921989044 ], [ -69.305763656674756, -17.843839608792539 ], [ -69.305924173937925, -17.844250694337639 ], [ -69.305784941357103, -17.84460485248044 ], [ -69.305376167478627, -17.845045526865395 ], [ -69.304967309158528, -17.845438369608797 ], [ -69.304668226762786, -17.845773644086751 ], [ -69.304518984254756, -17.846118252107434 ], [ -69.304199678087002, -17.846310069453338 ], [ -69.303881248674983, -17.846259181321159 ], [ -69.303823615461297, -17.846249971142285 ], [ -69.303657800832909, -17.846409260738053 ], [ -69.302812814035619, -17.847220989526981 ], [ -69.302015278946584, -17.848140558361191 ], [ -69.301078200459656, -17.849242090417473 ], [ -69.301078954146163, -17.849601557189196 ], [ -69.301289975592937, -17.850437507530177 ], [ -69.301100785902534, -17.850791739721952 ], [ -69.300851099169307, -17.850811255806882 ], [ -69.300376978243804, -17.850770079977604 ], [ -69.30020173399987, -17.850754859753827 ], [ -69.299912380358649, -17.850946624217706 ], [ -69.299852992735225, -17.851271958432442 ], [ -69.300093765485883, -17.851893375073541 ], [ -69.300101635626078, -17.851933215889304 ], [ -69.300075604245777, -17.85214309442998 ], [ -69.300033486733668, -17.852709232722109 ], [ -69.300011852606701, -17.852895412402493 ], [ -69.29999561016804, -17.852926647686807 ], [ -69.299799763961374, -17.853270540707388 ], [ -69.299278203005713, -17.853999135592765 ], [ -69.299140181353906, -17.85508986632183 ], [ -69.298920981644784, -17.855425010601536 ], [ -69.299001342235158, -17.855692733959998 ], [ -69.299421553463802, -17.85609385993898 ], [ -69.299736027593639, -17.856414061330803 ], [ -69.299891834989779, -17.856572705676033 ], [ -69.300131945682082, -17.85679108211335 ], [ -69.300112594174209, -17.857164183457641 ], [ -69.300043642187958, -17.85754531024369 ], [ -69.299724477055719, -17.85803528119299 ], [ -69.299495751611332, -17.858647852852663 ], [ -69.299517011140864, -17.859413096118782 ], [ -69.299567837819637, -17.859939144820231 ], [ -69.299608596180704, -17.860417379122708 ], [ -69.299829194566712, -17.860914469604875 ], [ -69.300449511813113, -17.861497036492043 ], [ -69.300750109666751, -17.862041832917768 ], [ -69.300753796352666, -17.862102482507829 ], [ -69.300780929067514, -17.862548780568048 ], [ -69.301091664409142, -17.863179652683364 ], [ -69.301182695188444, -17.863849127787677 ], [ -69.301552920561434, -17.864212061149011 ], [ -69.301893320968688, -17.864661134379624 ], [ -69.302129197901039, -17.865417857356658 ], [ -69.302045701292016, -17.866162749970911 ], [ -69.302076202689165, -17.866478378681649 ], [ -69.302326267613125, -17.866669310528028 ], [ -69.302676081466217, -17.866773993185788 ], [ -69.302955814150764, -17.866772897941328 ], [ -69.303253065779955, -17.866666909709711 ], [ -69.303385086685694, -17.866619835538419 ], [ -69.303864589418026, -17.866619089984976 ], [ -69.30412464450626, -17.866810002870377 ], [ -69.304335143133542, -17.867230575302582 ], [ -69.304525092798684, -17.867316371775271 ], [ -69.304974792124852, -17.867411328555725 ], [ -69.305534442546872, -17.86754437586265 ], [ -69.305894627449931, -17.867869053007254 ], [ -69.306118497500194, -17.868087812283221 ], [ -69.306314898865693, -17.868279728197837 ], [ -69.306465335234762, -17.86862386512022 ], [ -69.306612101087552, -17.869520047352879 ], [ -69.306621619636317, -17.870471832582464 ], [ -69.306359741866373, -17.871130304960651 ], [ -69.305931258052269, -17.871762329037761 ], [ -69.305752125899772, -17.872164379740827 ], [ -69.30579278993774, -17.872575650319604 ], [ -69.305993195094473, -17.872929274987513 ], [ -69.305985301598056, -17.874153726190126 ], [ -69.306235706983514, -17.874535969028692 ], [ -69.306306014527536, -17.874755875139218 ], [ -69.306137067473742, -17.875272699680355 ], [ -69.305978045007208, -17.875751245819501 ], [ -69.305678815287749, -17.876029126972099 ], [ -69.305249337038617, -17.876087195833794 ], [ -69.305289739666847, -17.876345412710538 ], [ -69.305589886566182, -17.87660322140346 ], [ -69.30579018033184, -17.876889885763841 ], [ -69.305690932662614, -17.877272678426902 ], [ -69.305461794891528, -17.877646108678295 ], [ -69.305232869122833, -17.878143895622703 ], [ -69.304844178879179, -17.878689760981079 ], [ -69.304665560563024, -17.879397918001708 ], [ -69.304806387653485, -17.879962087796638 ], [ -69.305117233487891, -17.880631215838097 ], [ -69.305118306076324, -17.880633234316214 ], [ -69.305488072410213, -17.881328947041748 ], [ -69.305908751661136, -17.881959636212759 ], [ -69.306149835228865, -17.882724532027019 ], [ -69.306070402598195, -17.883011635337088 ], [ -69.305771210607986, -17.883318213937681 ], [ -69.305622245679373, -17.883606457593746 ], [ -69.306052142543408, -17.884016084192879 ], [ -69.306162563458145, -17.884322019878745 ], [ -69.306240906432379, -17.884938954122489 ], [ -69.306304317609971, -17.885421877816761 ], [ -69.306584680911826, -17.885784940655132 ], [ -69.307144307977651, -17.885870152819315 ], [ -69.307668582743759, -17.886176273388077 ], [ -69.308184792435256, -17.886710309654809 ], [ -69.308555160640381, -17.887121057552807 ], [ -69.308395970188883, -17.887503946992123 ], [ -69.308011572993962, -17.887824172146519 ], [ -69.30773761557839, -17.888107639061019 ], [ -69.307858939345707, -17.888939683561716 ], [ -69.307840063046655, -17.889580629073741 ], [ -69.308054702907384, -17.890218410929144 ], [ -69.307961901548637, -17.890709212482029 ], [ -69.307483157892705, -17.891188264141334 ], [ -69.307234320965733, -17.891733913293798 ], [ -69.307384928014699, -17.892164142303756 ], [ -69.307955572019154, -17.892832854200396 ], [ -69.308484554855681, -17.892516341369756 ], [ -69.30886385231473, -17.892305290613834 ], [ -69.308964457338334, -17.892706899860592 ], [ -69.308945534326867, -17.89331914851936 ], [ -69.30887610982677, -17.893615801462058 ], [ -69.30814687275047, -17.893683916897508 ], [ -69.30775265247793, -17.893787300485901 ], [ -69.307418178256626, -17.894067705170354 ], [ -69.307468594405307, -17.894335471175395 ], [ -69.308098930562082, -17.894851033379034 ], [ -69.308506153050061, -17.895446655429488 ], [ -69.308449046249123, -17.895998690048902 ], [ -69.308257998842691, -17.896112505739683 ], [ -69.308342236561828, -17.896341657679297 ], [ -69.307554369141897, -17.896531688894967 ], [ -69.307011852287317, -17.896855294922403 ], [ -69.306604932531599, -17.897579672797349 ], [ -69.306365566542667, -17.897828764603418 ], [ -69.305846753533473, -17.898260044821821 ], [ -69.30561731213183, -17.89847085512406 ], [ -69.305212834895357, -17.898938872111291 ], [ -69.305178556082438, -17.898978535684666 ], [ -69.305220043875522, -17.899868099625206 ], [ -69.305170690433812, -17.900222114446731 ], [ -69.305031480310845, -17.900614535170682 ], [ -69.304752305480122, -17.900959344578578 ], [ -69.30443349069084, -17.901495534113145 ], [ -69.304264954167138, -17.90227063521364 ], [ -69.304116351259566, -17.903017008504946 ], [ -69.304127842508677, -17.903897051800673 ], [ -69.304181860003339, -17.904574324843548 ], [ -69.30395662361552, -17.905240516152691 ], [ -69.303699641663883, -17.905697372903244 ], [ -69.303482173906644, -17.906126914127235 ], [ -69.302913243887758, -17.906361662334909 ], [ -69.302719304804427, -17.906725300348807 ], [ -69.302756223765968, -17.906822579056286 ], [ -69.302924563558648, -17.907266124255145 ], [ -69.303085229942155, -17.907734603557095 ], [ -69.303006073992577, -17.908193888330295 ], [ -69.302588792170056, -17.90863161581597 ], [ -69.302167268502785, -17.908501302148441 ], [ -69.301888108045077, -17.908865238369604 ], [ -69.302069293746314, -17.909649361999389 ], [ -69.302522887269234, -17.910042454237296 ], [ -69.302789905199248, -17.910346550860734 ], [ -69.302940646995495, -17.91085330930979 ], [ -69.303031551112355, -17.91142712099181 ], [ -69.303032103576257, -17.911752359814052 ], [ -69.302952929660378, -17.91220207952669 ], [ -69.302823729464635, -17.912613614627467 ], [ -69.302974327530436, -17.91303427856035 ], [ -69.30333448817899, -17.913291997199057 ], [ -69.303674484344342, -17.913444521030897 ], [ -69.30367523443762, -17.913884551964689 ], [ -69.303626266373158, -17.914468145988479 ], [ -69.303637220429735, -17.915032517118718 ], [ -69.303614653851483, -17.915056102491274 ], [ -69.303654746560937, -17.915247672732264 ], [ -69.303321800373922, -17.915536225219885 ], [ -69.303026760396946, -17.915792227290282 ], [ -69.302909661406403, -17.915967125598311 ], [ -69.302652679454752, -17.916404947571383 ], [ -69.302262446803766, -17.917014088606315 ], [ -69.301982752746795, -17.917550920224389 ], [ -69.301954232134833, -17.918411893856376 ], [ -69.301796072949287, -17.918879587255468 ], [ -69.301826355157502, -17.919607827460805 ], [ -69.302017056712543, -17.920104958193161 ], [ -69.302187984551537, -17.92072647499279 ], [ -69.302498682163915, -17.921271246909797 ], [ -69.302528190922686, -17.922223493916775 ], [ -69.302530398981645, -17.922294747167324 ], [ -69.302604516280809, -17.923112779679705 ], [ -69.302882128941263, -17.923461236857321 ], [ -69.303023076405964, -17.923595725079252 ], [ -69.30314010263298, -17.923795578552639 ], [ -69.303162724008459, -17.923929528049385 ], [ -69.302973413045478, -17.924255062734048 ], [ -69.302683735112439, -17.924322474935192 ], [ -69.302053054900924, -17.924161990246777 ], [ -69.301724094538827, -17.924132647868564 ], [ -69.301414688703815, -17.924353142089235 ], [ -69.30131566561343, -17.92488898650058 ], [ -69.301256549281206, -17.925386502417076 ], [ -69.301347165937187, -17.925788129898525 ], [ -69.301513743235262, -17.925963121758663 ], [ -69.301137765949505, -17.926056298428374 ], [ -69.300838721282986, -17.926496792060572 ], [ -69.30093969910746, -17.92711841805831 ], [ -69.301270004247527, -17.927433580232123 ], [ -69.30096078526212, -17.927768864853142 ], [ -69.300851975925013, -17.928429078419679 ], [ -69.300623442720109, -17.929204267717427 ], [ -69.300324663954925, -17.929807379361719 ], [ -69.299935736556037, -17.930286274099416 ], [ -69.29978685157748, -17.930889153858118 ], [ -69.299687804232562, -17.931415429151151 ], [ -69.299618544124158, -17.931826869196193 ], [ -69.299329558792209, -17.932315172727563 ], [ -69.298900569226589, -17.932746298095168 ], [ -69.298701583408004, -17.933272726836847 ], [ -69.298513025233234, -17.934057417634847 ], [ -69.298564323527529, -17.934851305409609 ], [ -69.298495907835502, -17.935769734888474 ], [ -69.298357201667429, -17.936487387395331 ], [ -69.29826850830446, -17.937233661860724 ], [ -69.298189552679219, -17.937826867260668 ], [ -69.298080775681456, -17.938515775666701 ], [ -69.297731953568416, -17.939381023144715 ], [ -69.297163866169257, -17.940019021515742 ], [ -69.296825211188619, -17.940698715255607 ], [ -69.296786080574833, -17.941205767182634 ], [ -69.296946970638857, -17.941798604597011 ], [ -69.296847494797561, -17.94207616688502 ], [ -69.296518397891532, -17.942497566754685 ], [ -69.296399331590507, -17.943014304966621 ], [ -69.29639096288534, -17.94399003621114 ], [ -69.296271592055433, -17.944325023687341 ], [ -69.296138666546213, -17.944780970318721 ], [ -69.295915949932763, -17.945192141711534 ], [ -69.295843807130623, -17.945502277352769 ], [ -69.295864954370714, -17.946200552301796 ], [ -69.295705415372893, -17.946420809657514 ], [ -69.295646213700721, -17.946880062484283 ], [ -69.295636918832471, -17.947300974043028 ], [ -69.295377594972877, -17.947617042053022 ], [ -69.295078022995312, -17.947770551587062 ], [ -69.294773648624215, -17.947888568568562 ], [ -69.294438774652605, -17.948001101502047 ], [ -69.294349096736113, -17.94816385661386 ], [ -69.294368348530952, -17.948624276567951 ], [ -69.294420718515397, -17.949168164447062 ], [ -69.29434139637749, -17.949550918128853 ], [ -69.294212182707028, -17.949981578484124 ], [ -69.294032632837926, -17.950192298184966 ], [ -69.293773270350783, -17.950489233637139 ], [ -69.293460344916497, -17.950554495959292 ], [ -69.293154046354076, -17.950748446274019 ], [ -69.292794486678446, -17.950892477438565 ], [ -69.292525046890447, -17.951141594271984 ], [ -69.292425606083427, -17.951447851636885 ], [ -69.292516217349515, -17.951849482366242 ], [ -69.292616885255214, -17.952289359746072 ], [ -69.292635871148732, -17.952572946586233 ], [ -69.29258518640377, -17.952603616536763 ], [ -69.292267675069979, -17.952653388003839 ], [ -69.291937717577909, -17.952567791771099 ], [ -69.29171831125629, -17.952855096428127 ], [ -69.29164924338734, -17.953400455691288 ], [ -69.291199818945643, -17.953602012858546 ], [ -69.290810565458315, -17.953927833942693 ], [ -69.290351738350537, -17.954492906510122 ], [ -69.289962744476313, -17.954981346605276 ], [ -69.289533990269305, -17.955603767277108 ], [ -69.289365388168576, -17.956407549880826 ], [ -69.289136817234407, -17.957211423685905 ], [ -69.28905821195211, -17.958043769208118 ], [ -69.288999300435776, -17.958694334764758 ], [ -69.288809988574499, -17.95905811910772 ], [ -69.28861074583773, -17.959460181186053 ], [ -69.288481168349591, -17.9596803886994 ], [ -69.288241742173525, -17.959958154505419 ], [ -69.288112273381515, -17.960245322389895 ], [ -69.288172537760673, -17.960426982333136 ], [ -69.288092950619742, -17.960656682570761 ], [ -69.287723710698643, -17.961011166363981 ], [ -69.287434551991836, -17.961442058584179 ], [ -69.286990466237881, -17.962067233737915 ], [ -69.286786361818784, -17.962361337840285 ], [ -69.286712391843338, -17.962541218186459 ], [ -69.286617110236108, -17.962772920400894 ], [ -69.286457652984978, -17.96306013156558 ], [ -69.286058218890517, -17.963290299225029 ], [ -69.285778695513443, -17.963501161150923 ], [ -69.285409507694609, -17.963893904799413 ], [ -69.285350227869003, -17.964324454164277 ], [ -69.284991032011078, -17.964717182310707 ], [ -69.284611753416669, -17.965052543252561 ], [ -69.284342562461987, -17.965212939582138 ], [ -69.284012546579433, -17.965369093093116 ], [ -69.283623132293656, -17.965618375810898 ], [ -69.283477489334956, -17.965782510126711 ], [ -69.283393654061072, -17.965876989467716 ], [ -69.28323394438334, -17.966011143807219 ], [ -69.282844480690216, -17.966231726833978 ], [ -69.282684740469776, -17.966346749247091 ], [ -69.282805383314113, -17.966786603369876 ], [ -69.28288569539545, -17.96700650011288 ], [ -69.282766405413938, -17.967418006911711 ], [ -69.282347044889846, -17.96781879555844 ], [ -69.282188126627887, -17.968206558969197 ], [ -69.281906432921076, -17.968466569365273 ], [ -69.282417193432053, -17.968599439133101 ], [ -69.284493531532007, -17.969378933378067 ] ] ] } },
{ "type": "Feature", "properties": { "capa": "colegios", "popup": "<strong>ESCUELA ALCERRECA</strong><br><br><strong>Dirección:</strong> LOCALIDAD DE ALCERRECA 0", "etiqueta": "" }, "geometry": { "type": "Point", "coordinates": [ -69.705887, -17.994341 ] } },
{ "type": "Feature", "properties": { "capa": "colegios", "popup": "<strong>ESCUELA COLPITAS</strong><br><br><strong>Dirección:</strong> LOCALIDAD DE COLPITAS 0", "etiqueta": "" }, "geometry": { "type": "Point", "coordinates": [ -69.453629, -17.95694 ] } },
{ "type": "Feature", "properties": { "capa": "colegios", "popup": "<strong>ESCUELA CHUJLLUTA</strong><br><br><strong>Dirección:</strong> RUTA A-123 0", "etiqueta": "" }, "geometry": { "type": "Point", "coordinates": [ -69.349213, -17.89942 ] } },
{ "type": "Feature", "properties": { "capa": "colegios", "popup": "<strong>ESCUELA ANCOLACANE</strong><br><br><strong>Dirección:</strong> LOCALIDAD DE ANCOLACANE 0", "etiqueta": "" }, "geometry": { "type": "Point", "coordinates": [ -69.606133, -17.854719 ] } },
{ "type": "Feature", "properties": { "capa": "colegios", "popup": "<strong>ESCUELA HUMAPALCA</strong><br><br><strong>Dirección:</strong> LOCALIDAD DE HUMAPALCA 0", "etiqueta": "" }, "geometry": { "type": "Point", "coordinates": [ -69.702782, -17.834391 ] } },
{ "type": "Feature", "properties": { "capa": "colegios", "popup": "<strong>ESCUELA COSAPILLA</strong><br><br><strong>Dirección:</strong> LOCALIDAD DE COSAPILLA 0", "etiqueta": "" }, "geometry": { "type": "Point", "coordinates": [ -69.421242, -17.76635 ] } },
{ "type": "Feature", "properties": { "capa": "colegios", "popup": "<strong>ESCUELA GUACOYO</strong><br><br><strong>Dirección:</strong> LOCALIDAD DE GUACOYO 0", "etiqueta": "" }, "geometry": { "type": "Point", "coordinates": [ -69.344948, -17.76013 ] } },
{ "type": "Feature", "properties": { "capa": "colegios", "popup": "<strong>ESCUELA CHISLLUMA</strong><br><br><strong>Dirección:</strong> LOCALIDAD DE CHISLLUMA 0", "etiqueta": "" }, "geometry": { "type": "Point", "coordinates": [ -69.688301, -17.69677 ] } },
{ "type": "Feature", "properties": { "capa": "colegios", "popup": "<strong>ESCUELA INTERNADO VISVIRI</strong><br><br><strong>Dirección:</strong> VISVIRI 0", "etiqueta": "" }, "geometry": { "type": "Point", "coordinates": [ -69.481163, -17.594879 ] } },
{ "type": "Feature", "properties": { "capa": "jardines", "popup": "<strong>NA</strong><br><br><strong>Dirección:</strong> NA ", "etiqueta": "" }, "geometry": { "type": "MultiPoint", "coordinates": [ [ -69.481861999873047, -17.594324000082107 ] ] } },
{ "type": "Feature", "properties": { "capa": "jardines", "popup": "<strong>NA</strong><br><br><strong>Dirección:</strong> NA ", "etiqueta": "" }, "geometry": { "type": "MultiPoint", "coordinates": [ [ -69.348236000220936, -17.900465999970958 ] ] } },
{ "type": "Feature", "properties": { "capa": "comisarias", "popup": "<strong>RETEN ALCERRECA (F)</strong><br><br><strong>Dirección:</strong> RUTA A-23 KM 40", "etiqueta": "" }, "geometry": { "type": "Point", "coordinates": [ -69.660406385999906, -17.992306252999928 ] } },
{ "type": "Feature", "properties": { "capa": "comisarias", "popup": "<strong>RETEN TACORA (F)</strong><br><br><strong>Dirección:</strong> RUTA A-23 KM 70", "etiqueta": "" }, "geometry": { "type": "Point", "coordinates": [ -69.724397649999901, -17.771957191999952 ] } },
{ "type": "Feature", "properties": { "capa": "comisarias", "popup": "<strong>TCIA. VISVIRI (F)</strong><br><br><strong>Dirección:</strong> RUTA A-123 95", "etiqueta": "" }, "geometry": { "type": "Point", "coordinates": [ -69.477020969999899, -17.595014119999927 ] } },
{ "type": "Feature", "properties": { "capa": "salud", "popup": "<strong>Posta de Salud Rural Visviri</strong><br><br><strong>Tipo de atención:</strong> Posta de Salud Rural (PSR)<br><strong>Dirección:</strong>  NA", "etiqueta": "" }, "geometry": { "type": "Point", "coordinates": [ -69.48047, -17.59487 ] } },
{ "type": "Feature", "properties": { "capa": "municipios", "popup": "<strong>Municipalidad de General Lagos</strong><br><br><strong>Dirección:</strong> Ignacio Carrera Pinto s/n, Visviri.<br><strong>Región:</strong> Arica y Parinacota", "etiqueta": "" }, "geometry": { "type": "Point", "coordinates": [ -69.481, -17.594262000999947 ] } }
]
}
