{
"type": "FeatureCollection",
"name": "16102",
"crs": { "type": "name", "properties": { "name": "urn:ogc:def:crs:OGC:1.3:CRS84" } },
"features": [
{ "type": "Feature", "properties": { "capa": "comuna", "popup": "", "etiqueta": "" }, "geometry": { "type": "Polygon", "coordinates": [ [ [ -72.437070648074169, -36.692299315133901 ], [ -72.436955115745477, -36.692452491635599 ], [ -72.436462002638251, -36.692324653807475 ], [ -72.436178901271418, -36.692232450009918 ], [ -72.435899421013474, -36.692141322261335 ], [ -72.435544473288516, -36.692133714231154 ], [ -72.435105383964157, -36.692525274695747 ], [ -72.434873189226167, -36.693092507387497 ], [ -72.434502942293605, -36.693544152510292 ], [ -72.434497271229205, -36.693715265039735 ], [ -72.434487817359155, -36.693998975120273 ], [ -72.434198381072932, -36.694163962630199 ], [ -72.434040514738157, -36.694620175349733 ], [ -72.434096504933194, -36.695080989477752 ], [ -72.434085165499368, -36.695423287267346 ], [ -72.434200258551869, -36.695784889382658 ], [ -72.434213687467064, -36.695827090975207 ], [ -72.4342093881301, -36.695847882039715 ], [ -72.434129724632399, -36.696226328130976 ], [ -72.433966439659827, -36.696849143231283 ], [ -72.434246996997786, -36.696972352247897 ], [ -72.434743904588785, -36.696983097319794 ], [ -72.434824916457742, -36.696997144132908 ], [ -72.43509715539615, -36.697044712549562 ], [ -72.43537905122389, -36.697109421308539 ], [ -72.435419070271479, -36.697254708440553 ], [ -72.435442692370188, -36.697340533246781 ], [ -72.43571135242054, -36.697801476563335 ], [ -72.436062564950547, -36.697926257116215 ], [ -72.436337629090531, -36.698216065258649 ], [ -72.436394876926954, -36.698618308618904 ], [ -72.436377714613457, -36.6991361516748 ], [ -72.436573853670907, -36.699654029415562 ], [ -72.437065116248647, -36.69983594936582 ], [ -72.437452534477856, -36.700163989607113 ], [ -72.437480153181269, -36.700187253542254 ], [ -72.437448743587368, -36.700278432974976 ], [ -72.437323036041448, -36.700643596894167 ], [ -72.437202198262682, -36.700807556046669 ], [ -72.436950871205752, -36.70114926151215 ], [ -72.436163653267784, -36.701303469764078 ], [ -72.436041074553984, -36.701300886280727 ], [ -72.435311545525238, -36.701285131855975 ], [ -72.434804992723045, -36.701562607756294 ], [ -72.434446213683415, -36.701667523258074 ], [ -72.433989890180314, -36.701885382232298 ], [ -72.43386827176559, -36.70194351482624 ], [ -72.433012455777558, -36.702037608379804 ], [ -72.432372839125591, -36.702023816728342 ], [ -72.432350837587649, -36.702021720863797 ], [ -72.431826171156075, -36.701970876325063 ], [ -72.431593994384372, -36.701948494490125 ], [ -72.431242603987926, -36.701828208941031 ], [ -72.431185474729119, -36.701677362342551 ], [ -72.43104658171147, -36.701310243574937 ], [ -72.430953951032635, -36.701230837620891 ], [ -72.430631728933477, -36.700954335005449 ], [ -72.429988536986684, -36.700734254331515 ], [ -72.429929058633405, -36.700713900334094 ], [ -72.429739195206523, -36.700678263539913 ], [ -72.429575861724942, -36.700647618001156 ], [ -72.428942765045306, -36.700462744814942 ], [ -72.42841544948196, -36.700147936047244 ], [ -72.428245861929355, -36.700046683807791 ], [ -72.427944374743589, -36.699869221974623 ], [ -72.427339622606112, -36.699513385960557 ], [ -72.426929322489983, -36.699044842681516 ], [ -72.426512518571201, -36.698747433168869 ], [ -72.426191958355318, -36.6984767751864 ], [ -72.42595939351142, -36.698280344474909 ], [ -72.425539456268936, -36.698100014069652 ], [ -72.425041716837981, -36.698089254748574 ], [ -72.42453143512904, -36.698479284577736 ], [ -72.424363319915187, -36.698607097046832 ], [ -72.424312514795986, -36.698645760613616 ], [ -72.423949762507831, -36.698867677442507 ], [ -72.423516622725614, -36.699083647918521 ], [ -72.423322937865521, -36.699079479797518 ], [ -72.422735091123371, -36.699066728385269 ], [ -72.422228594016744, -36.699344150351905 ], [ -72.421869713467473, -36.699449031428578 ], [ -72.4214375528489, -36.699610861906542 ], [ -72.420787123175856, -36.699943791430641 ], [ -72.420768049247428, -36.699949801898654 ], [ -72.419781769134062, -36.700264412690231 ], [ -72.419142165058503, -36.70025054869609 ], [ -72.418049397753023, -36.70022690016917 ], [ -72.417934980233611, -36.700224357703604 ], [ -72.417366669153964, -36.700212051592899 ], [ -72.416192607908528, -36.700186588035358 ], [ -72.416159575957209, -36.700185838979948 ], [ -72.415664543150228, -36.700116503788216 ], [ -72.415596828144118, -36.699999094200834 ], [ -72.415530306999017, -36.699883791160744 ], [ -72.415208164849929, -36.699876804750893 ], [ -72.415175224526777, -36.69987605353171 ], [ -72.414963816804431, -36.699817391431651 ], [ -72.414951300577584, -36.699795533311068 ], [ -72.414829762112902, -36.699584598670988 ], [ -72.414476585865685, -36.699518418360221 ], [ -72.413698862221935, -36.6993888413459 ], [ -72.412925218726215, -36.699142222707422 ], [ -72.412654770130146, -36.69873530616627 ], [ -72.41222641297847, -36.698784578359728 ], [ -72.41193270340645, -36.699227391415192 ], [ -72.41185218201764, -36.69934868722833 ], [ -72.410775502640604, -36.699667735782434 ], [ -72.410658143138619, -36.699673242096758 ], [ -72.409921501249443, -36.699707726956831 ], [ -72.409486313308363, -36.699982092040607 ], [ -72.409438033353425, -36.699997204992087 ], [ -72.408999796530267, -36.700134216801544 ], [ -72.40862385338049, -36.700251799041347 ], [ -72.408196292136196, -36.700296531281843 ], [ -72.407265257514467, -36.700506045090464 ], [ -72.40661491767294, -36.70083431943084 ], [ -72.40638582661424, -36.700964591919423 ], [ -72.40603512971721, -36.701164113508554 ], [ -72.405986354790556, -36.701155619039902 ], [ -72.405681784586747, -36.701102414431915 ], [ -72.405474369875847, -36.700926554686092 ], [ -72.404837491288859, -36.700854149782373 ], [ -72.404545321429225, -36.701077604424462 ], [ -72.40449112247488, -36.70136355463378 ], [ -72.404459367927899, -36.701530836845997 ], [ -72.404289836969141, -36.702329247680204 ], [ -72.403936305887427, -36.70301298062504 ], [ -72.403909698687002, -36.703064376882075 ], [ -72.403339391550787, -36.703717554760871 ], [ -72.40331888480948, -36.703741022880976 ], [ -72.403263823472457, -36.703768728721457 ], [ -72.40266776433198, -36.704069226508665 ], [ -72.401806129057547, -36.704334285358392 ], [ -72.401679179141595, -36.704469598394617 ], [ -72.401437542211639, -36.704727324917371 ], [ -72.400790880971215, -36.704942974284464 ], [ -72.400535646242787, -36.70496732427636 ], [ -72.400291273044473, -36.704990624928328 ], [ -72.399932331409772, -36.705095442124886 ], [ -72.399854019876557, -36.705323546994862 ], [ -72.399893268169649, -36.705467244973214 ], [ -72.399980383192627, -36.70578591235499 ], [ -72.399823195984212, -36.706237637024401 ], [ -72.399581081150544, -36.70644946300267 ], [ -72.39933578628073, -36.706664035902428 ], [ -72.399310720589369, -36.706686010900199 ], [ -72.399066902549876, -36.706701247125451 ], [ -72.398797667577767, -36.706718022381644 ], [ -72.398669224661816, -36.706726121574576 ], [ -72.398638320819401, -36.706682200403051 ], [ -72.398465561315533, -36.706437800295461 ], [ -72.398049637745743, -36.706140190367833 ], [ -72.397481276360423, -36.706127790859412 ], [ -72.397114584061455, -36.706466733082131 ], [ -72.396960154680954, -36.706523773289426 ], [ -72.396538630115344, -36.706679453618548 ], [ -72.396372386990549, -36.706657703316587 ], [ -72.396043399678987, -36.706614545502454 ], [ -72.395556190299814, -36.706315493002251 ], [ -72.395133531162003, -36.70619359242135 ], [ -72.394793947323365, -36.705726531690885 ], [ -72.394722325544066, -36.70567181495845 ], [ -72.394335493016428, -36.705376608962709 ], [ -72.394101096507654, -36.705197660701913 ], [ -72.393354424030008, -36.70500151868108 ], [ -72.392903598216478, -36.704882995921999 ], [ -72.392722519414761, -36.704744817926489 ], [ -72.39269131373841, -36.704721055549811 ], [ -72.392210768062029, -36.704354113366541 ], [ -72.392009143891443, -36.704007261125774 ], [ -72.391773196890497, -36.703630313212891 ], [ -72.391537255279431, -36.703253437633606 ], [ -72.391122486044765, -36.702901886751143 ], [ -72.390495382924712, -36.70254118310141 ], [ -72.390070741205065, -36.702477778919295 ], [ -72.389503230524326, -36.702465316880733 ], [ -72.389065206601899, -36.702798148335091 ], [ -72.389021261916511, -36.702895357235221 ], [ -72.388911715062562, -36.703137189507771 ], [ -72.388543067131209, -36.703530266878026 ], [ -72.388456200941548, -36.703987871635995 ], [ -72.388438794286287, -36.704501219007668 ], [ -72.388421479259179, -36.705014562950502 ], [ -72.388329483689247, -36.705643337755575 ], [ -72.388240777749886, -36.706155099014985 ], [ -72.387798798545276, -36.706605032573783 ], [ -72.387225482052855, -36.706763676295267 ], [ -72.386741340420372, -36.706721515995909 ], [ -72.386368800088874, -36.706857534209341 ], [ -72.386086914142624, -36.706797210212542 ], [ -72.38578727838464, -36.706668745191152 ], [ -72.385666278909142, -36.706616757191561 ], [ -72.385424580893741, -36.706628141880152 ], [ -72.384883641480783, -36.706653653716657 ], [ -72.384303710692933, -36.706983347925721 ], [ -72.38387134525847, -36.707149625498147 ], [ -72.383676715370711, -36.707124384614154 ], [ -72.383034831370964, -36.70704108200438 ], [ -72.382458673507287, -36.706888736133905 ], [ -72.381756332888926, -36.706643427809631 ], [ -72.381564901003557, -36.706607463199546 ], [ -72.381403144065303, -36.706577149869936 ], [ -72.380935683249319, -36.706294451982806 ], [ -72.380915815210187, -36.706282468047995 ], [ -72.380361139658206, -36.705869237210941 ], [ -72.37994519722379, -36.705571710064504 ], [ -72.379534237744238, -36.705107518430282 ], [ -72.379192730612573, -36.704698926586879 ], [ -72.379025577494403, -36.704256738503062 ], [ -72.378997046102654, -36.704180931592376 ], [ -72.378748170548135, -36.703143549751971 ], [ -72.378627825046138, -36.702510036309427 ], [ -72.378430042970052, -36.702050633706129 ], [ -72.378152034152535, -36.701873187302901 ], [ -72.377733465942541, -36.701634260790684 ], [ -72.377603203938136, -36.701288898686343 ], [ -72.377741423219334, -36.701031203127663 ], [ -72.37790650033088, -36.70072329083083 ], [ -72.378065998006207, -36.700208564885202 ], [ -72.378008958578931, -36.699806280149112 ], [ -72.377671264795651, -36.699285156529072 ], [ -72.377256669834139, -36.698933550043357 ], [ -72.376686429173247, -36.698979563667713 ], [ -72.376532424695881, -36.699067270738084 ], [ -72.376396744952018, -36.699144346020155 ], [ -72.375962721227523, -36.69936009604163 ], [ -72.375246680402768, -36.699520149845618 ], [ -72.374390785363005, -36.699613823578431 ], [ -72.374288296572232, -36.69961156415124 ], [ -72.373751908024502, -36.699599693694317 ], [ -72.373114414989871, -36.699527134847372 ], [ -72.372761183945428, -36.699465259435456 ], [ -72.372274011397167, -36.699166033625453 ], [ -72.37178095757875, -36.699042499687849 ], [ -72.371072728503691, -36.698968318296274 ], [ -72.370577824155788, -36.698898864604352 ], [ -72.370017348182046, -36.6986566242945 ], [ -72.369757744048087, -36.698545140225114 ], [ -72.369596880035203, -36.698476033316958 ], [ -72.369543471598305, -36.698430601362901 ], [ -72.369113610666858, -36.69806433933006 ], [ -72.36876038860558, -36.698002451936716 ], [ -72.368121526538431, -36.697988364972382 ], [ -72.368113817196672, -36.697988140969578 ], [ -72.367623959584037, -36.697977359304588 ], [ -72.367286976368135, -36.697938848818438 ], [ -72.366987027098148, -36.697904603733996 ], [ -72.366556868824333, -36.698007793429433 ], [ -72.366265322395506, -36.698231138222518 ], [ -72.366182294707059, -36.698571774029844 ], [ -72.366032594956536, -36.698798263273886 ], [ -72.365809575610839, -36.699081745002431 ], [ -72.365805098407478, -36.69908836703506 ], [ -72.365592393517858, -36.699408683594413 ], [ -72.365585424387888, -36.699419140944933 ], [ -72.365585306708581, -36.6994227609352 ], [ -72.365573777730219, -36.699761374043185 ], [ -72.365279369268904, -36.700043257593329 ], [ -72.364774748742889, -36.700257422713761 ], [ -72.364716624150745, -36.700261429436068 ], [ -72.364133927450126, -36.700301830120729 ], [ -72.363336735517535, -36.700743713248563 ], [ -72.363053416758405, -36.700859787815503 ], [ -72.362543602173403, -36.701068628827727 ], [ -72.362295497373395, -36.701063168708515 ], [ -72.362046657751478, -36.701057656731862 ], [ -72.361194616484283, -36.701038708003622 ], [ -72.360755269343443, -36.700992665361873 ], [ -72.360486461969401, -36.700964388812224 ], [ -72.360143044121116, -36.700614399747394 ], [ -72.360092393512147, -36.700560617850918 ], [ -72.359869072332501, -36.700324450836007 ], [ -72.35967156963244, -36.69986035571457 ], [ -72.359247221661917, -36.699792329642406 ], [ -72.358899290677641, -36.69967305771268 ], [ -72.358896035183037, -36.699671968694091 ], [ -72.358889751467629, -36.699666610031031 ], [ -72.358550852145228, -36.699375835015374 ], [ -72.35772219671982, -36.698672540596178 ], [ -72.35688196111208, -36.698311397906089 ], [ -72.356313740762275, -36.698298795460943 ], [ -72.355745522209091, -36.698286191573203 ], [ -72.355250537012807, -36.698216601135066 ], [ -72.35489749281794, -36.698150163952654 ], [ -72.354402429468223, -36.698085074329121 ], [ -72.354125887599594, -36.697849142438649 ], [ -72.353846080354884, -36.697725718746703 ], [ -72.353564163865911, -36.697665465371571 ], [ -72.353149587769039, -36.697313697339204 ], [ -72.352940434818052, -36.697191896284373 ], [ -72.352752138951345, -36.697168197117577 ], [ -72.352374170100617, -36.697120760587538 ], [ -72.352175342385522, -36.696719799409351 ], [ -72.352117800799988, -36.696317513702503 ], [ -72.351876260888076, -36.696163260874563 ], [ -72.351839869237622, -36.696140001483883 ], [ -72.351738029030471, -36.696137777968737 ], [ -72.351668481461175, -36.696136194785588 ], [ -72.351484800240101, -36.69613214463125 ], [ -72.351463121197341, -36.696122643370302 ], [ -72.351204363276381, -36.696008733308688 ], [ -72.35106633353972, -36.69589297050323 ], [ -72.350707538330411, -36.695997635881334 ], [ -72.350492364870391, -36.696051454823611 ], [ -72.350338710735983, -36.696390454446821 ], [ -72.350324958427308, -36.696791281210338 ], [ -72.35024185887363, -36.69713183624458 ], [ -72.350159495040174, -36.697472517978404 ], [ -72.349938457378002, -36.697697380492691 ], [ -72.34976852127906, -36.697756642033347 ], [ -72.349263786667009, -36.697975247483861 ], [ -72.347901078313612, -36.698345852405808 ], [ -72.347470794275665, -36.698448977405654 ], [ -72.347055094386363, -36.698660049130233 ], [ -72.347037338286455, -36.698669110719138 ], [ -72.346992243757512, -36.698677686851944 ], [ -72.345964175813762, -36.698874985899337 ], [ -72.345543759769214, -36.698694381749824 ], [ -72.345411774796091, -36.698403060699107 ], [ -72.345220156959471, -36.697772397901566 ], [ -72.345024796741356, -36.697249829310849 ], [ -72.344466281789892, -36.696953526400037 ], [ -72.344042691997444, -36.696885424287352 ], [ -72.34383338543455, -36.696768187673513 ], [ -72.343468610140405, -36.697043951939122 ], [ -72.343454815610912, -36.697444631961432 ], [ -72.343432255320849, -36.697562777244904 ], [ -72.343367686214862, -36.697902290236513 ], [ -72.343002813004333, -36.698178056196106 ], [ -72.342490063623316, -36.698734630563173 ], [ -72.342486207155787, -36.698738725236446 ], [ -72.342111452477141, -36.699302713438868 ], [ -72.342103819492181, -36.699329648047126 ], [ -72.34203092120687, -36.699589233487352 ], [ -72.341642248929517, -36.69966511118983 ], [ -72.341243666437947, -36.699742890276696 ], [ -72.341026598431014, -36.699850704382406 ], [ -72.340458361013219, -36.699837953098118 ], [ -72.339823399431026, -36.699711112132043 ], [ -72.339727194355689, -36.699680376176431 ], [ -72.33904985924157, -36.699464003315384 ], [ -72.338920301516353, -36.699461071168052 ], [ -72.338553010041082, -36.699452855248865 ], [ -72.338125223319608, -36.699501918829597 ], [ -72.33734589528477, -36.699425914201534 ], [ -72.337002675065875, -36.699075776241379 ], [ -72.336793540979514, -36.698953947007375 ], [ -72.336152699923815, -36.698998129006746 ], [ -72.335862865683907, -36.699106425287802 ], [ -72.335720432405722, -36.69915972779151 ], [ -72.335644484340037, -36.699164959004776 ], [ -72.335079587756752, -36.699203905351084 ], [ -72.334583971943161, -36.699134319345035 ], [ -72.334228973912545, -36.699126336753707 ], [ -72.334018432166133, -36.699063001780338 ], [ -72.333720151965949, -36.699457337379698 ], [ -72.333498966081734, -36.699682173921175 ], [ -72.333390682259079, -36.699785448380652 ], [ -72.332911723007456, -36.700241312994308 ], [ -72.332556632450377, -36.700233401822231 ], [ -72.332410557402028, -36.700230113903146 ], [ -72.331988484864098, -36.700220681571963 ], [ -72.331562096819553, -36.700211073499744 ], [ -72.330781353039811, -36.700193600345884 ], [ -72.330428312438201, -36.700127016501376 ], [ -72.330397964652974, -36.70011413705911 ], [ -72.329867860718977, -36.699889158451647 ], [ -72.329384873421631, -36.6994772912496 ], [ -72.32935942504794, -36.699461099978151 ], [ -72.328828451544751, -36.699122394075019 ], [ -72.328190890238147, -36.699049446559428 ], [ -72.327552097341297, -36.699035065202089 ], [ -72.326702221912257, -36.698957420807361 ], [ -72.32628766378167, -36.698605629876454 ], [ -72.325942610101251, -36.698309542508241 ], [ -72.325522971099431, -36.698128843395835 ], [ -72.324972487086583, -36.697602734941448 ], [ -72.324777094529125, -36.69708470724936 ], [ -72.32452915591746, -36.696047241160265 ], [ -72.324515998293492, -36.695939766736885 ], [ -72.324473554692943, -36.695590925264071 ], [ -72.324347661195773, -36.695128456078109 ], [ -72.324290617276915, -36.695055424099735 ], [ -72.323939143337171, -36.694605533136254 ], [ -72.323663182678516, -36.694455135516684 ], [ -72.322917536076929, -36.694582927304978 ], [ -72.322896247801324, -36.694586623154272 ], [ -72.322796515940155, -36.694556709171032 ], [ -72.322685176048921, -36.694523282279853 ], [ -72.32197100821152, -36.694624353796705 ], [ -72.321392934241345, -36.694895232787495 ], [ -72.321035890746828, -36.694945726901082 ], [ -72.320536916132383, -36.694993097785826 ], [ -72.320313904871512, -36.695271993043839 ], [ -72.3195979251322, -36.695427060867587 ], [ -72.318963118958578, -36.695300100978336 ], [ -72.31846610895964, -36.69528887379623 ], [ -72.318171802007939, -36.695566212157331 ], [ -72.317740331295511, -36.695727649609218 ], [ -72.317313969302106, -36.695718062584049 ], [ -72.316735692312676, -36.695993353067664 ], [ -72.316522333449555, -36.69602602446151 ], [ -72.316168641569362, -36.696080027776681 ], [ -72.316093055524718, -36.696091509823752 ], [ -72.315382905851607, -36.696075507994159 ], [ -72.314958436608492, -36.696011902561331 ], [ -72.31453099933168, -36.696056293693474 ], [ -72.314236496547238, -36.696337983388759 ], [ -72.313954781280898, -36.696273126322573 ], [ -72.313104939089513, -36.696195309151413 ], [ -72.312670563225439, -36.696415344477714 ], [ -72.312309542889153, -36.696578417341534 ], [ -72.311954557434973, -36.696570440247065 ], [ -72.311455560362631, -36.696617699207735 ], [ -72.31101936720674, -36.696891664042369 ], [ -72.310871311373205, -36.69706415637085 ], [ -72.310577790447368, -36.697341381007199 ], [ -72.310212617199554, -36.697621485722266 ], [ -72.309985679402587, -36.69801281872504 ], [ -72.309746408635078, -36.698755482063362 ], [ -72.309586619905602, -36.699265557694588 ], [ -72.309646015613865, -36.699609357302251 ], [ -72.309821977611719, -36.699913889615409 ], [ -72.309846531263389, -36.699956313658632 ], [ -72.309841308458317, -36.700108000560824 ], [ -72.30983256605397, -36.700357072853045 ], [ -72.309457550863897, -36.700920823026848 ], [ -72.30951090809684, -36.701435743707712 ], [ -72.309691844964718, -36.701723678262013 ], [ -72.309683999079027, -36.701948809230231 ], [ -72.309733400131449, -36.702580762253703 ], [ -72.309867241922262, -36.702813612920913 ], [ -72.310118851050191, -36.703212367257869 ], [ -72.310270929539584, -36.703453567624713 ], [ -72.310330333332686, -36.703797365785732 ], [ -72.310306460604011, -36.703945954685402 ], [ -72.310239034855428, -36.704367614356677 ], [ -72.310298436851895, -36.704711337849062 ], [ -72.310353703004807, -36.705172247049333 ], [ -72.310335772631745, -36.705685534656148 ], [ -72.310177228967248, -36.706141545044773 ], [ -72.310019410243171, -36.706593105582073 ], [ -72.309936856865207, -36.706933694970168 ], [ -72.309786327969675, -36.707160065951498 ], [ -72.309139444845371, -36.70737522741328 ], [ -72.308484443645838, -36.707820026189587 ], [ -72.308476595065216, -36.708045157304724 ], [ -72.307964977561454, -36.70843466274421 ], [ -72.307310050922084, -36.708879379771105 ], [ -72.30679508899054, -36.709381393728549 ], [ -72.306354667464589, -36.709772529308971 ], [ -72.305772455854225, -36.710160371803433 ], [ -72.305125535000698, -36.710375512621972 ], [ -72.303902423944123, -36.710802860017253 ], [ -72.303254850015378, -36.711018008398788 ], [ -72.302823080163961, -36.711179476050731 ], [ -72.3021048357718, -36.711392966334358 ], [ -72.301440910708237, -36.711571209555537 ], [ -72.301315284010698, -36.711604887563034 ], [ -72.3009601332665, -36.71159680904816 ], [ -72.300840237820481, -36.711543816907962 ], [ -72.300680538024224, -36.711473328216634 ], [ -72.300327289911792, -36.711411163563753 ], [ -72.300038823806062, -36.711517343148444 ], [ -72.299683765588313, -36.71150925958343 ], [ -72.299258045890326, -36.711499591710549 ], [ -72.298612439272048, -36.711656199578982 ], [ -72.298249233334687, -36.711877679167607 ], [ -72.29774632679424, -36.712037559276823 ], [ -72.297235173719486, -36.712426934299089 ], [ -72.297050834033286, -36.712485560850119 ], [ -72.296732257297563, -36.712586734771286 ], [ -72.296371130061758, -36.712749838857718 ], [ -72.296088541632955, -36.712689245837694 ], [ -72.295882245324592, -36.71250887650563 ], [ -72.295848898064605, -36.712277875708125 ], [ -72.295824712722208, -36.712111059770315 ], [ -72.295492214794535, -36.711935960472729 ], [ -72.295475801675963, -36.711927336129939 ], [ -72.295195946820542, -36.711808351642865 ], [ -72.294990828203524, -36.711573915837405 ], [ -72.295075533046614, -36.711174814567883 ], [ -72.295158796991984, -36.710834215171239 ], [ -72.295453918715651, -36.710499775859212 ], [ -72.2956031854782, -36.710330663821978 ], [ -72.295898888411841, -36.709994878511552 ], [ -72.296128278609544, -36.709540538709646 ], [ -72.296294763381141, -36.709135257253514 ], [ -72.296308539046038, -36.709101511188535 ], [ -72.296594103593378, -36.7084066021024 ], [ -72.296476139525211, -36.707718966981361 ], [ -72.296318142934737, -36.7075143765191 ], [ -72.296068639457829, -36.707191488848501 ], [ -72.295871417032131, -36.706731921938591 ], [ -72.295837421188523, -36.706399886042043 ], [ -72.295818320310644, -36.706212556443099 ], [ -72.295615030663527, -36.705924038785412 ], [ -72.295197313158098, -36.705684792136061 ], [ -72.294782943673738, -36.705332883633787 ], [ -72.294361245733285, -36.705210591866901 ], [ -72.293581881765817, -36.705134301202982 ], [ -72.293093058114081, -36.704893399232809 ], [ -72.292955093954419, -36.704777564823118 ], [ -72.292743926082267, -36.704714247469845 ], [ -72.292098356294929, -36.70487074529246 ], [ -72.291617430631135, -36.704859772298967 ], [ -72.291601467568569, -36.704859476296036 ], [ -72.291106473389121, -36.704789543951172 ], [ -72.290923266478501, -36.704672523929908 ], [ -72.290828828389323, -36.704612026089201 ], [ -72.290479702645698, -36.704432867908693 ], [ -72.289982078199131, -36.704421538350772 ], [ -72.289618882143245, -36.704643065439221 ], [ -72.289346828257749, -36.70474477831533 ], [ -72.289187297344768, -36.704804478067416 ], [ -72.288705142785687, -36.704865719004822 ], [ -72.288044641201694, -36.704949604454576 ], [ -72.287401708868003, -36.705052118507581 ], [ -72.286833424737807, -36.705039185875542 ], [ -72.286541782189232, -36.705257840474324 ], [ -72.286455160341319, -36.705389262821768 ], [ -72.28631644339346, -36.705599704043195 ], [ -72.285925776856175, -36.70563308722754 ], [ -72.285817537949299, -36.705642351809395 ], [ -72.284652852420507, -36.706417770452312 ], [ -72.284068368970779, -36.706864105879468 ], [ -72.282831073515879, -36.707692001464721 ], [ -72.281956904946583, -36.708302811342463 ], [ -72.281368379078103, -36.708861666612641 ], [ -72.281141086446596, -36.709257460676724 ], [ -72.281193545364232, -36.709372050379905 ], [ -72.281405536093175, -36.709835811528059 ], [ -72.281955004111452, -36.710362081821714 ], [ -72.281949756153566, -36.710510151044019 ], [ -72.281936882397218, -36.710875300917678 ], [ -72.281840088925378, -36.711616563888796 ], [ -72.281535387567502, -36.712181907943155 ], [ -72.280931752035926, -36.712744056951131 ], [ -72.280874346994338, -36.712797606362315 ], [ -72.280582171744811, -36.712929455092272 ], [ -72.280513173944456, -36.712960516287232 ], [ -72.279733564736929, -36.712888718985454 ], [ -72.27916795399301, -36.712817141255378 ], [ -72.278593684388085, -36.71297521837532 ], [ -72.277952021373892, -36.713241000476344 ], [ -72.277944091944889, -36.713244245351561 ], [ -72.277569347147704, -36.713312446029107 ], [ -72.277372380741866, -36.713348360693161 ], [ -72.27726137143064, -36.713473878614259 ], [ -72.27707566001699, -36.71368398156374 ], [ -72.276850994059387, -36.71379085652206 ], [ -72.276497280619637, -36.713959158013708 ], [ -72.275645070469153, -36.713939603247702 ], [ -72.275211478834336, -36.714154980483755 ], [ -72.274491115316422, -36.714426898179767 ], [ -72.273912708071279, -36.714697487031266 ], [ -72.273591320507037, -36.714942838774334 ], [ -72.273392837745007, -36.715094309590484 ], [ -72.273328092569216, -36.715143628184677 ], [ -72.273168124176692, -36.71565366562205 ], [ -72.273177233991973, -36.71568249844529 ], [ -72.273295761303842, -36.71605761148124 ], [ -72.273070509644654, -36.716394947301161 ], [ -72.273066984655472, -36.716415564300171 ], [ -72.27298157912648, -36.716911074143468 ], [ -72.272976201811176, -36.717065126192686 ], [ -72.272969521040423, -36.717253243751102 ], [ -72.272805951301919, -36.717577144061742 ], [ -72.272740063469072, -36.71770754370651 ], [ -72.272609196000161, -36.717903360222635 ], [ -72.272289361623052, -36.718382216656607 ], [ -72.272202520586205, -36.718839750973864 ], [ -72.272326230278935, -36.71935629991043 ], [ -72.272312074626683, -36.719757062347028 ], [ -72.272291881397408, -36.720328799648065 ], [ -72.272291065727131, -36.720350597924224 ], [ -72.272271598336616, -36.72090053917394 ], [ -72.272182193507973, -36.721412175775129 ], [ -72.272017915896996, -36.722039253909557 ], [ -72.271372892285356, -36.722195774049666 ], [ -72.271165710238108, -36.722019741522608 ], [ -72.270962728713144, -36.721726669900221 ], [ -72.270682870264466, -36.721607627865332 ], [ -72.270477700443479, -36.72137307723289 ], [ -72.27042695281645, -36.721136640075272 ], [ -72.270416447019187, -36.721087842324266 ], [ -72.270209448228272, -36.72090737318176 ], [ -72.269860471605, -36.720728152187263 ], [ -72.269156208591923, -36.720540761033206 ], [ -72.268452040800284, -36.720353362941466 ], [ -72.267819100427516, -36.720167619806581 ], [ -72.267392592008704, -36.720157787409839 ], [ -72.267098647976383, -36.720439422613339 ], [ -72.266865118341855, -36.721006318976748 ], [ -72.266713146751982, -36.721286636981752 ], [ -72.266347792044456, -36.721566689707167 ], [ -72.266049157908043, -36.72195636997332 ], [ -72.265894996225512, -36.72229978581472 ], [ -72.265669692464044, -36.722637035179858 ], [ -72.265653569501325, -36.723091737472863 ], [ -72.26563937611985, -36.72349242641755 ], [ -72.265627021589722, -36.723839180621809 ], [ -72.265692294076587, -36.724011886796163 ], [ -72.265885885511892, -36.724120540958928 ], [ -72.265901479366903, -36.724129339618045 ], [ -72.265966017031857, -36.724301991858432 ], [ -72.265887287782036, -36.724530028909541 ], [ -72.265828367282566, -36.724563461470481 ], [ -72.265306764106114, -36.724859171200919 ], [ -72.264805436803911, -36.724964764108428 ], [ -72.264448473259463, -36.725010587183085 ], [ -72.264089139060985, -36.725119512817436 ], [ -72.263721824229506, -36.725453497521464 ], [ -72.263356613252441, -36.725728960854205 ], [ -72.262987188278373, -36.726121536012329 ], [ -72.262272713217143, -36.72622219229369 ], [ -72.261618732503777, -36.726608176949732 ], [ -72.261049085629296, -36.726649120340646 ], [ -72.260482751741577, -36.726582053260678 ], [ -72.26027759719193, -36.726347483259623 ], [ -72.260068588869714, -36.726225513660744 ], [ -72.259356128729678, -36.726267708617613 ], [ -72.259132625192038, -36.726550937813599 ], [ -72.25872512512467, -36.726683459895533 ], [ -72.25848559654068, -36.726761330434975 ], [ -72.258212983004768, -36.726755071505252 ], [ -72.257846650031908, -36.726746582025541 ], [ -72.257420198206958, -36.726736785750866 ], [ -72.256841460381807, -36.72701180600405 ], [ -72.255759782778526, -36.727441878898006 ], [ -72.254897311172556, -36.727710413138084 ], [ -72.254527829604612, -36.728102890328863 ], [ -72.254427270395084, -36.728422901629521 ], [ -72.254367621361894, -36.728612911555636 ], [ -72.254072165464933, -36.728723823539873 ], [ -72.253791062849615, -36.728829396013971 ], [ -72.253417615219689, -36.729334473405153 ], [ -72.253113368409373, -36.729899662587286 ], [ -72.252816570429403, -36.730235228421478 ], [ -72.252387430845118, -36.730561865275128 ], [ -72.252305248471359, -36.73062449392414 ], [ -72.251724437334516, -36.730958009032548 ], [ -72.251155955574973, -36.730944915170994 ], [ -72.250620029659601, -36.730821016906219 ], [ -72.250592435210706, -36.730814685591582 ], [ -72.249880011003285, -36.73085674915432 ], [ -72.249490965026766, -36.730940755257805 ], [ -72.249163535393919, -36.731011487430067 ], [ -72.248525841136654, -36.730938119494098 ], [ -72.248444130378402, -36.730903297310327 ], [ -72.248246068027939, -36.73081894918559 ], [ -72.247821618547761, -36.730750602780425 ], [ -72.247176549122031, -36.730906847421416 ], [ -72.246190033650066, -36.731095147065503 ], [ -72.246102699438126, -36.731111852199291 ], [ -72.246022061268334, -36.731113315869209 ], [ -72.244679956674304, -36.731137401262771 ], [ -72.243967704943387, -36.731174996607464 ], [ -72.243257395370136, -36.731158573709855 ], [ -72.242262428547974, -36.7311355171393 ], [ -72.241118059317657, -36.731338782618792 ], [ -72.240478246832936, -36.731323965253026 ], [ -72.239626016021205, -36.731304155724253 ], [ -72.238765555743186, -36.731513909684246 ], [ -72.238381640943558, -36.731657087829888 ], [ -72.237901023401932, -36.731836337316793 ], [ -72.237188486006787, -36.731878328324974 ], [ -72.236619989874185, -36.731865091350571 ], [ -72.236051682387767, -36.731851920609159 ], [ -72.235558589941803, -36.731727821502076 ], [ -72.235207593905784, -36.731602511236666 ], [ -72.235065201051782, -36.731249413290648 ], [ -72.234881232369801, -36.730792848527798 ], [ -72.234460866630911, -36.730611847101073 ], [ -72.233899324356912, -36.730427598218611 ], [ -72.233550193223422, -36.730248199290294 ], [ -72.233265723722397, -36.730241615221097 ], [ -72.23297355655771, -36.730464585543181 ], [ -72.232920831738753, -36.730528098383822 ], [ -72.232602088814687, -36.730911085091819 ], [ -72.232376433811936, -36.731252786996905 ], [ -72.232148736938569, -36.731648577293583 ], [ -72.232272204984469, -36.732165106318249 ], [ -72.232485448863244, -36.732170085463345 ], [ -72.232978537715965, -36.73229412338025 ], [ -72.232881258255532, -36.733035370451312 ], [ -72.232561747271902, -36.734001226978044 ], [ -72.232547382312205, -36.734401920913278 ], [ -72.232760817532125, -36.734771840444111 ], [ -72.232542973380788, -36.734777615653165 ], [ -72.232035920216973, -36.734791032825633 ], [ -72.231325480388008, -36.734774469596942 ], [ -72.231236958603276, -36.734723653211717 ], [ -72.230907964105185, -36.734534916114015 ], [ -72.230844890694158, -36.7343037411 ], [ -72.230418390360185, -36.734293775886933 ], [ -72.230130280885646, -36.734404133962208 ], [ -72.229842354667397, -36.734510132020269 ], [ -72.229811694268435, -36.734509414976124 ], [ -72.229487182363641, -36.734501842816883 ], [ -72.229060680233033, -36.734491873309963 ], [ -72.228500427939792, -36.734249101594763 ], [ -72.228222801804606, -36.73407136239031 ], [ -72.227948441045484, -36.733781112812437 ], [ -72.227528716703702, -36.73360014290801 ], [ -72.227363879442322, -36.733459200900235 ], [ -72.227252404803778, -36.733363903219413 ], [ -72.226907632296033, -36.733067442227394 ], [ -72.226410549533583, -36.733055909549989 ], [ -72.226040891895835, -36.733448306143018 ], [ -72.225886433769261, -36.733791608680875 ], [ -72.225512862171826, -36.734296532482986 ], [ -72.225067869119428, -36.734799848980089 ], [ -72.2245521804508, -36.735301466054359 ], [ -72.224198182245104, -36.735731005856977 ], [ -72.224180554604288, -36.735752447004394 ], [ -72.223681218867085, -36.735799278717153 ], [ -72.223186253433738, -36.735729212555235 ], [ -72.223170879665958, -36.735725643949394 ], [ -72.22290371620889, -36.735664089972154 ], [ -72.222479899142684, -36.735600064482171 ], [ -72.221982795718972, -36.735588439316317 ], [ -72.221550145518563, -36.735749567355604 ], [ -72.221328609291405, -36.735974140040113 ], [ -72.220747796357927, -36.736303077058523 ], [ -72.220092372950219, -36.736742838198033 ], [ -72.219757526826385, -36.737034548054332 ], [ -72.219578598591468, -36.737190422117507 ], [ -72.219357055177781, -36.737415064736261 ], [ -72.218993581542463, -36.737636389423777 ], [ -72.218630282180328, -36.737853131357738 ], [ -72.218477925213193, -36.73813797932484 ], [ -72.217970554045763, -36.738409995685466 ], [ -72.21754402855899, -36.738399986372428 ], [ -72.217341022779493, -36.738111396669233 ], [ -72.217138100543337, -36.737818228082872 ], [ -72.217179996171566, -36.737745345380723 ], [ -72.21736589712971, -36.737422535822667 ], [ -72.217169046606557, -36.736962894918655 ], [ -72.216745311287042, -36.736894344491489 ], [ -72.216246059991477, -36.736941289971881 ], [ -72.21573991592274, -36.737159231060446 ], [ -72.215228254401509, -36.737548276444755 ], [ -72.214651774042665, -36.737759995931718 ], [ -72.213941302772668, -36.737743329678906 ], [ -72.213304222963046, -36.737674407043514 ], [ -72.2129490335913, -36.737666069948858 ], [ -72.211812134750858, -36.737639433857638 ], [ -72.211172996002631, -36.737624440613764 ], [ -72.210742364316687, -36.73772701257095 ], [ -72.210097147567211, -36.737883063041345 ], [ -72.209449783844249, -36.738097704359134 ], [ -72.20872482005376, -36.738481703621545 ], [ -72.208636746528356, -36.738518479738737 ], [ -72.208286359550101, -36.738665160019117 ], [ -72.208110278076305, -36.738661053795781 ], [ -72.20753750506465, -36.738647572510047 ], [ -72.207067397811855, -36.738469808934603 ], [ -72.206530684073982, -36.738236410514929 ], [ -72.20584564949958, -36.738332982828084 ], [ -72.205357454668516, -36.73865041677572 ], [ -72.205297352884443, -36.738658533478677 ], [ -72.204672502739115, -36.738742477054238 ], [ -72.204516813920591, -36.73876335585107 ], [ -72.203987640641216, -36.738834530743411 ], [ -72.203438835579647, -36.738934282024402 ], [ -72.20302062579745, -36.739199257298168 ], [ -72.20282888489163, -36.739328065292355 ], [ -72.20239213657689, -36.73962151462289 ], [ -72.201566711493228, -36.739822898200231 ], [ -72.201006239112743, -36.740246786199187 ], [ -72.200595907555595, -36.740291198567789 ], [ -72.2002631985238, -36.740067116507674 ], [ -72.200411553496352, -36.739741652457127 ], [ -72.200739977564226, -36.739642015965735 ], [ -72.20075610142527, -36.739637153205202 ], [ -72.200829771363402, -36.739476612107183 ], [ -72.200835873619113, -36.73931006544457 ], [ -72.200984224998393, -36.738984600343649 ], [ -72.201136430150257, -36.738551112894882 ], [ -72.201143181887929, -36.738364912732806 ], [ -72.201148847562408, -36.738209967551903 ], [ -72.201150331579271, -36.738168442895763 ], [ -72.201148777493827, -36.738166343697891 ], [ -72.200824421895888, -36.737728192476638 ], [ -72.200695385193512, -36.737553989533943 ], [ -72.199950573126841, -36.737423748848286 ], [ -72.199823563023756, -36.737432925368495 ], [ -72.199335997013421, -36.737467896488766 ], [ -72.198509525392467, -36.737718817301044 ], [ -72.198094427374386, -36.737875697823924 ], [ -72.197606297222052, -36.738193173976398 ], [ -72.197051647721224, -36.73845493247461 ], [ -72.196300814247195, -36.738491287471014 ], [ -72.196104635663872, -36.738265884919869 ], [ -72.196109568313091, -36.738132808356191 ], [ -72.196120538539361, -36.737829200688239 ], [ -72.196136443211444, -36.737392517571863 ], [ -72.196154502941923, -36.736897313365091 ], [ -72.195897750060666, -36.73645415587611 ], [ -72.195627232294328, -36.736335643485262 ], [ -72.195495430577523, -36.736277919183884 ], [ -72.19515880039954, -36.736161920440914 ], [ -72.194562477154363, -36.735706258145036 ], [ -72.194168079015384, -36.735313963082255 ], [ -72.193849259734549, -36.735118646664489 ], [ -72.193701240731912, -36.735028064353166 ], [ -72.19330275436009, -36.735127568609286 ], [ -72.193288862812523, -36.735130968062158 ], [ -72.192808089862368, -36.735227809931494 ], [ -72.192129726177257, -36.735157666936708 ], [ -72.191821298607593, -36.735095673353882 ], [ -72.191520451022313, -36.735035100120975 ], [ -72.190701899847227, -36.735069915391342 ], [ -72.190592600928284, -36.735139061379968 ], [ -72.190283480757557, -36.735334851450574 ], [ -72.190010921120574, -36.735328434118237 ], [ -72.189227562345039, -36.735548754782378 ], [ -72.188861771056295, -36.735773668572655 ], [ -72.188296273500114, -36.73612152709331 ], [ -72.188112930045563, -36.736234289912446 ], [ -72.187417964595681, -36.736600822103483 ], [ -72.186526667848867, -36.7367465118624 ], [ -72.185641497612295, -36.736725573484954 ], [ -72.185035116829212, -36.736544433424825 ], [ -72.184930074128104, -36.736454976568481 ], [ -72.184573009074015, -36.736150525010977 ], [ -72.184236575627082, -36.736029987765683 ], [ -72.184036376184551, -36.735917094342625 ], [ -72.183505699125391, -36.735521474353042 ], [ -72.183044857096419, -36.735073491226863 ], [ -72.18299289674377, -36.735065581481379 ], [ -72.182163766109568, -36.734939920303361 ], [ -72.181613059314529, -36.735093656862595 ], [ -72.181445105797437, -36.735172853600289 ], [ -72.18105837298279, -36.735355342419645 ], [ -72.18069448881738, -36.736004553356139 ], [ -72.180870746360966, -36.736774767324384 ], [ -72.181050705861836, -36.737436888398179 ], [ -72.18107735438474, -36.737788945717512 ], [ -72.181096510059845, -36.738041773190751 ], [ -72.180512159560791, -36.738485174914572 ], [ -72.180255774090497, -36.738679676496012 ], [ -72.179158360698395, -36.738874449700361 ], [ -72.178269272908864, -36.738961409345805 ], [ -72.177514258675501, -36.739110254180943 ], [ -72.176918243552478, -36.739364979940561 ], [ -72.176545292690932, -36.73952435075239 ], [ -72.175724685272129, -36.739613004249605 ], [ -72.174925248449654, -36.739102873963773 ], [ -72.174677398771195, -36.738439086323957 ], [ -72.174282529016693, -36.738042233920787 ], [ -72.173485938955352, -36.737478130530938 ], [ -72.172667339271229, -36.737512674012606 ], [ -72.171425519002256, -36.737920280019161 ], [ -72.171303570905792, -36.737950033863385 ], [ -72.170285416769516, -36.738199082107556 ], [ -72.169981503234155, -36.738273399116785 ], [ -72.168890228030392, -36.738301458207175 ], [ -72.168472310200642, -36.738177363046297 ], [ -72.168081690375757, -36.738061398128856 ], [ -72.167394598659328, -36.738211837823854 ], [ -72.16700968672977, -36.738475505397801 ], [ -72.16662567042053, -36.738738706301049 ], [ -72.165939207524815, -36.738889046764548 ], [ -72.165602875587496, -36.738768379201041 ], [ -72.165344286549825, -36.738379162188224 ], [ -72.164880268078008, -36.738039259332368 ], [ -72.164209340646806, -36.737748414286614 ], [ -72.163489094808199, -36.737504939453117 ], [ -72.163334330356122, -36.737452587176989 ], [ -72.162702421249278, -36.737524244174956 ], [ -72.162513541477651, -36.737545656745581 ], [ -72.161754502791808, -36.737802502022888 ], [ -72.16113806357248, -36.737895885760103 ], [ -72.16038529153407, -36.73798602483398 ], [ -72.15971028305654, -36.737807685252015 ], [ -72.158981731394803, -36.73724064151402 ], [ -72.158999757887614, -36.73674994147953 ], [ -72.158869337779706, -36.736313824549619 ], [ -72.158817893060018, -36.736141794680762 ], [ -72.158641648092853, -36.736012793443443 ], [ -72.15853102236224, -36.735931802115481 ], [ -72.158353178393881, -36.735801809926791 ], [ -72.158215618476106, -36.7357729846563 ], [ -72.157744948877934, -36.735674612939853 ], [ -72.157134347809645, -36.735605864105949 ], [ -72.156457361241849, -36.735481519096524 ], [ -72.155924912704961, -36.735139928161168 ], [ -72.1558956976953, -36.735118558114564 ], [ -72.155460213310178, -36.734799857619116 ], [ -72.154916286100587, -36.734786831365419 ], [ -72.154227363617608, -36.734986627965739 ], [ -72.153812822555025, -36.73514341400368 ], [ -72.153663003328575, -36.735482592489355 ], [ -72.153649329173319, -36.73551373743318 ], [ -72.152654041652596, -36.735990566947002 ], [ -72.15179799030598, -36.73619013004398 ], [ -72.151171324665455, -36.736562614617178 ], [ -72.150824794154715, -36.736716481828765 ], [ -72.150349973441607, -36.73665111243632 ], [ -72.149663580614472, -36.736796854652631 ], [ -72.149451368899975, -36.737012560860634 ], [ -72.149451105693586, -36.737012863218823 ], [ -72.149164455083053, -36.737388658205035 ], [ -72.148572893807213, -36.737756656346377 ], [ -72.148397321678189, -36.7378659051288 ], [ -72.147852729715311, -36.7378528649975 ], [ -72.147314259771065, -36.737673202660581 ], [ -72.146848304531503, -36.737387165138955 ], [ -72.146785761126466, -36.737223469059899 ], [ -72.146459431929841, -36.736832679146609 ], [ -72.146412933334119, -36.736812502449268 ], [ -72.145789310287455, -36.736541707145484 ], [ -72.144900104818632, -36.736628492337196 ], [ -72.144079382415512, -36.736721358452471 ], [ -72.142837583706083, -36.737128667742951 ], [ -72.142661655844208, -36.737193405377624 ], [ -72.142561535012533, -36.737230155475785 ], [ -72.141874385803945, -36.737380376511389 ], [ -72.141533970125337, -36.737372171125948 ], [ -72.140859189819878, -36.737189289716838 ], [ -72.140601373333325, -36.736800068296809 ], [ -72.140475217528106, -36.736522228679455 ], [ -72.140072915112953, -36.736350229513711 ], [ -72.139670804937253, -36.736173868038755 ], [ -72.139472684196292, -36.736006957134997 ], [ -72.139280703440292, -36.735673350932501 ], [ -72.138783693441354, -36.73556947174729 ], [ -72.138671766950225, -36.735546073102327 ], [ -72.138199708556627, -36.735426547828695 ], [ -72.137784488367686, -36.735583296252585 ], [ -72.137298302169626, -36.735841939955073 ], [ -72.136827530163501, -36.735668414489453 ], [ -72.136021215839207, -36.735374114224491 ], [ -72.135424863847959, -36.734922722857313 ], [ -72.134830169248389, -36.734412747142315 ], [ -72.134322862759689, -36.734249327651646 ], [ -72.134251231098929, -36.735044831264197 ], [ -72.134201003596445, -36.735606801433377 ], [ -72.134172440763678, -36.736241427796564 ], [ -72.134167757846086, -36.73634947433171 ], [ -72.134084478629347, -36.736951217406471 ], [ -72.133972653647845, -36.737173773018597 ], [ -72.133705121881519, -36.737703528196327 ], [ -72.133690248475347, -36.737730200259975 ], [ -72.132615400763186, -36.739628183552874 ], [ -72.130196563791486, -36.744539509570494 ], [ -72.1297949997915, -36.745381344426349 ], [ -72.12979187724757, -36.745390284613457 ], [ -72.129117732949354, -36.746910150231948 ], [ -72.128881843440567, -36.748418698669148 ], [ -72.128331448360925, -36.750515289221404 ], [ -72.127801541157979, -36.753602121365077 ], [ -72.127724756760756, -36.755441982817111 ], [ -72.127564432635367, -36.756420300000343 ], [ -72.12747643456845, -36.756733610015793 ], [ -72.127299056825706, -36.75736011753154 ], [ -72.127049508433046, -36.757876764291467 ], [ -72.126718969731002, -36.758274256858719 ], [ -72.125904350481889, -36.75898447530907 ], [ -72.125636079402071, -36.759205380104795 ], [ -72.12501689582956, -36.759674901529586 ], [ -72.12465402765875, -36.759981556999684 ], [ -72.124208201868072, -36.760954383454091 ], [ -72.124357398562026, -36.761720898371728 ], [ -72.124633838022731, -36.762252132847621 ], [ -72.124388544949568, -36.764058331903342 ], [ -72.12402659306035, -36.765813931538702 ], [ -72.123323635299371, -36.767179801185812 ], [ -72.122326196313566, -36.768490879541929 ], [ -72.121049058779178, -36.770939593813985 ], [ -72.118166091944587, -36.775113850579316 ], [ -72.11497619593024, -36.781140277524976 ], [ -72.114450610522127, -36.782510380913713 ], [ -72.113212465260972, -36.785484537248365 ], [ -72.112212890081395, -36.786843204566622 ], [ -72.111301331833346, -36.789014582352408 ], [ -72.110226271220455, -36.790800475456294 ], [ -72.108840733980742, -36.792960323170234 ], [ -72.108318462457703, -36.79423516436033 ], [ -72.108107338602991, -36.795299160853972 ], [ -72.108197824104948, -36.795280627431346 ], [ -72.108523391530198, -36.795119602847308 ], [ -72.108614545378728, -36.795074478410321 ], [ -72.109098042919143, -36.794919507501248 ], [ -72.109576550318181, -36.794877163981894 ], [ -72.109737707181822, -36.795015119330706 ], [ -72.109906948883051, -36.795160023397607 ], [ -72.109956333765794, -36.795652350318363 ], [ -72.11041493539642, -36.796159064578951 ], [ -72.110745345639401, -36.796441994792112 ], [ -72.111288327821313, -36.796509274160698 ], [ -72.11137765180159, -36.796199041464263 ], [ -72.111445396452098, -36.795963412478116 ], [ -72.111459826988821, -36.795580732512306 ], [ -72.111674429120313, -36.795311140244785 ], [ -72.111756663596367, -36.794930154702591 ], [ -72.111492761023769, -36.794702915294216 ], [ -72.111713559734085, -36.794271278550966 ], [ -72.111996049348207, -36.794003230469052 ], [ -72.112283250626021, -36.793627209981793 ], [ -72.112834535936102, -36.793473918752525 ], [ -72.113573597886642, -36.793766730767814 ], [ -72.113843602714965, -36.793827346829943 ], [ -72.114733862805934, -36.793819515798226 ], [ -72.115466589837098, -36.793813150836343 ], [ -72.115480811066362, -36.793812999769209 ], [ -72.116714724364215, -36.793626732320746 ], [ -72.117202162813797, -36.793363630540554 ], [ -72.117496912634934, -36.792767054109127 ], [ -72.117643682080995, -36.792495762116545 ], [ -72.118401299632055, -36.79229333127865 ], [ -72.11881188361582, -36.7922491900108 ], [ -72.119352717027567, -36.792374952271757 ], [ -72.119486692667365, -36.792455735100091 ], [ -72.119819755635362, -36.792656633233321 ], [ -72.120148246178559, -36.792993548232445 ], [ -72.120337906586187, -36.793385633235665 ], [ -72.120944799408989, -36.79356250630287 ], [ -72.121142859962831, -36.793734096642126 ], [ -72.121950671778706, -36.794023943158386 ], [ -72.122186350183384, -36.794003061418145 ], [ -72.122908287549677, -36.793938987502031 ], [ -72.124140244316834, -36.793806654229726 ], [ -72.124691499982504, -36.79365323531183 ], [ -72.125451040826604, -36.793396748241541 ], [ -72.125938447835139, -36.793133685956413 ], [ -72.126349125243692, -36.793089590493338 ], [ -72.126563757019568, -36.792819898097882 ], [ -72.126980319291548, -36.792613689220808 ], [ -72.127930733268883, -36.79274479945429 ], [ -72.128335241946374, -36.792862667186348 ], [ -72.128811694000021, -36.79287418727688 ], [ -72.129225034913404, -36.792776124015738 ], [ -72.129445629706154, -36.792344314555187 ], [ -72.129728050150007, -36.792076300735658 ], [ -72.130068801798515, -36.792084525448395 ], [ -72.130415803924777, -36.791926198314563 ], [ -72.131167126980642, -36.791890237686282 ], [ -72.131575680771874, -36.791900140025483 ], [ -72.132194617307675, -36.791752874520334 ], [ -72.132614190732497, -36.791488177893392 ], [ -72.132762187277223, -36.791162802519914 ], [ -72.133117164646578, -36.790788342128771 ], [ -72.133462042257193, -36.790684024640584 ], [ -72.134000865239358, -36.790863732606425 ], [ -72.134329401596645, -36.791200532474278 ], [ -72.134537093886948, -36.791348888917717 ], [ -72.134727764000957, -36.791484998193233 ], [ -72.134864183058326, -36.791519563397351 ], [ -72.135200170042566, -36.791604520297994 ], [ -72.135549179005181, -36.791392240094588 ], [ -72.136246816044718, -36.790971968389236 ], [ -72.13653947728281, -36.790429290157213 ], [ -72.136557726557811, -36.789938587175413 ], [ -72.136497996676255, -36.789716349377493 ], [ -72.1365781802985, -36.78938943629656 ], [ -72.136925061152212, -36.789231021580385 ], [ -72.137333688605281, -36.789240829301136 ], [ -72.137804621409842, -36.78941899104602 ], [ -72.138071417455947, -36.789587556926548 ], [ -72.138682163153007, -36.789660819862505 ], [ -72.139029043108394, -36.789502472612355 ], [ -72.139715926415661, -36.789356843470834 ], [ -72.140197210507239, -36.78925576641501 ], [ -72.140748217339592, -36.789106857007482 ], [ -72.141028568065025, -36.788892758400436 ], [ -72.141581764091711, -36.788685250480071 ], [ -72.14206304099676, -36.788588669610256 ], [ -72.14226726219681, -36.788593604087112 ], [ -72.143014519477688, -36.788665670865839 ], [ -72.143704131866812, -36.788461483162052 ], [ -72.144060413589955, -36.788032996852024 ], [ -72.144684139044557, -36.787773117586532 ], [ -72.145307307543661, -36.787513175568947 ], [ -72.145655992214444, -36.787305304198128 ], [ -72.146074754460571, -36.787040508751531 ], [ -72.146222469832622, -36.786981160713324 ], [ -72.146405134160801, -36.787264506839428 ], [ -72.147611463789559, -36.78930741069221 ], [ -72.148292802694883, -36.78953554090451 ], [ -72.150016387654119, -36.794740246419138 ], [ -72.147173476698057, -36.795771435750723 ], [ -72.151694171110265, -36.80353038785708 ], [ -72.151754790323949, -36.803629686731369 ], [ -72.151740969743315, -36.803635147468022 ], [ -72.151496218354254, -36.803732951554785 ], [ -72.151971572666639, -36.804532769463869 ], [ -72.152926304845536, -36.806379506051066 ], [ -72.152966888933449, -36.806458004161222 ], [ -72.152876205802144, -36.806807275505925 ], [ -72.152395199290012, -36.807219315639671 ], [ -72.151552487027033, -36.808009219893947 ], [ -72.151209494081883, -36.808330784425046 ], [ -72.150829275849674, -36.80897805504808 ], [ -72.151175538662429, -36.808830096677923 ], [ -72.151798532888407, -36.808745880267665 ], [ -72.152346071325425, -36.80893922192822 ], [ -72.152760936679826, -36.809178968821797 ], [ -72.153134389699645, -36.809214899037364 ], [ -72.153563938915681, -36.809076531977269 ], [ -72.154367481937314, -36.808938127267353 ], [ -72.155046283101981, -36.808670527528562 ], [ -72.155723705352699, -36.808420899698426 ], [ -72.156708158292773, -36.808259735159709 ], [ -72.15725327038021, -36.808065507126173 ], [ -72.157553318464892, -36.807887974926281 ], [ -72.158221632696936, -36.807903946260133 ], [ -72.15892972882132, -36.808150639148764 ], [ -72.159319635383881, -36.808196077378589 ], [ -72.159903347180759, -36.808282051476034 ], [ -72.160350126982266, -36.808549563388155 ], [ -72.160689055949078, -36.808647802804003 ], [ -72.16105060808799, -36.808566285458831 ], [ -72.161854953305195, -36.808427808622788 ], [ -72.161916773566418, -36.808430961727346 ], [ -72.162095930871729, -36.808200388456548 ], [ -72.162384281993099, -36.807770187135326 ], [ -72.16268080688522, -36.80711942516826 ], [ -72.163204578594787, -36.805870232691547 ], [ -72.163848430803327, -36.805655924880618 ], [ -72.164406297171183, -36.805723225644869 ], [ -72.164746405625948, -36.806015191024237 ], [ -72.165058246793677, -36.805959640957902 ], [ -72.173258676866567, -36.824188785438714 ], [ -72.174480003868965, -36.823719160180289 ], [ -72.175109435422243, -36.825355820718883 ], [ -72.173914313175004, -36.825973418259487 ], [ -72.174841147274435, -36.827494139793991 ], [ -72.17648784273355, -36.831336019435213 ], [ -72.178428151644979, -36.835560058071074 ], [ -72.176214446765044, -36.836165812339438 ], [ -72.172280546269448, -36.836617810543629 ], [ -72.173454302087677, -36.840708791274373 ], [ -72.175637469637834, -36.840817112605116 ], [ -72.177652804943463, -36.840713603769679 ], [ -72.179430149580867, -36.840310169814117 ], [ -72.180408418518525, -36.839874002803398 ], [ -72.180487363364009, -36.839844355374055 ], [ -72.180826819641908, -36.840549433812122 ], [ -72.183162257022587, -36.845669181605061 ], [ -72.185559645818557, -36.85069117835063 ], [ -72.187843848685347, -36.855633924665369 ], [ -72.18893815300828, -36.858092868430951 ], [ -72.190547081496206, -36.861662849102764 ], [ -72.188985654123869, -36.862742125507282 ], [ -72.190072154781902, -36.865303424352504 ], [ -72.191908373206402, -36.864649600593282 ], [ -72.191963819920673, -36.864772194456634 ], [ -72.19415769808397, -36.869631300107713 ], [ -72.199651991092708, -36.882264479349679 ], [ -72.200517140576522, -36.883534178447157 ], [ -72.200965553515232, -36.884950192033493 ], [ -72.201407329700572, -36.886776424394711 ], [ -72.202039234315848, -36.888887766416019 ], [ -72.20225082619281, -36.889594448694865 ], [ -72.202918344517499, -36.889629143453327 ], [ -72.203612547297723, -36.88978114496296 ], [ -72.204277758748745, -36.890068193518033 ], [ -72.20470121109895, -36.890368852930649 ], [ -72.205340168387508, -36.890713441904502 ], [ -72.205985618698946, -36.8908837223387 ], [ -72.207280479095544, -36.891107981915034 ], [ -72.208050013697175, -36.891184253528678 ], [ -72.208699608835303, -36.891238296182287 ], [ -72.209759109729177, -36.891301994058878 ], [ -72.210332834955054, -36.891451160828495 ], [ -72.211106754233583, -36.892070202357814 ], [ -72.211427368348382, -36.892543023709486 ], [ -72.211625314816175, -36.893070980538212 ], [ -72.211652393632093, -36.89365309104474 ], [ -72.211408990614302, -36.894703787934453 ], [ -72.211329802325366, -36.89555480127256 ], [ -72.211400773724392, -36.896254344112521 ], [ -72.211754304806135, -36.897154251432987 ], [ -72.212251533095696, -36.898076990698911 ], [ -72.212776627125336, -36.898903455327812 ], [ -72.214197880482416, -36.899973896873718 ], [ -72.214593760841609, -36.900370780455532 ], [ -72.215108674264158, -36.900809391594386 ], [ -72.215649941562177, -36.901190376449044 ], [ -72.216367063060247, -36.901381611661463 ], [ -72.216801871912267, -36.901372411676341 ], [ -72.217267758879871, -36.901308852226549 ], [ -72.217286951385901, -36.901306265424282 ], [ -72.217703277400972, -36.901141592040617 ], [ -72.218340183835736, -36.900885090318909 ], [ -72.219156393102864, -36.900342045831714 ], [ -72.219950548729813, -36.899740394200855 ], [ -72.220670887993194, -36.8991758024818 ], [ -72.221775736740923, -36.898658862597557 ], [ -72.223014719231927, -36.898435817004696 ], [ -72.22440583860282, -36.89834245221315 ], [ -72.225059700738555, -36.898280103592207 ], [ -72.226249714266785, -36.898075332661584 ], [ -72.227169552286796, -36.897999983878279 ], [ -72.228061077205695, -36.898040107980322 ], [ -72.228949155288845, -36.898177162523915 ], [ -72.23012582075026, -36.898340311427162 ], [ -72.231974953355277, -36.898596673715922 ], [ -72.233012594645032, -36.89860140929099 ], [ -72.233957273777591, -36.898507174740203 ], [ -72.234677392953742, -36.898281683321095 ], [ -72.235531233546453, -36.898030176273863 ], [ -72.236679232868852, -36.897649808544259 ], [ -72.23805827618736, -36.896887116228179 ], [ -72.239615860566914, -36.895857273888581 ], [ -72.241646283976067, -36.894431255992551 ], [ -72.243058973693564, -36.893397945696329 ], [ -72.243807380818012, -36.893056698065486 ], [ -72.244436429688974, -36.893013227748426 ], [ -72.245062040707353, -36.893066470926776 ], [ -72.245586892191881, -36.893233704268269 ], [ -72.24598845529357, -36.893475610932086 ], [ -72.2466008170598, -36.893896875782886 ], [ -72.247510099875214, -36.89411182434862 ], [ -72.248738449008201, -36.894179040822145 ], [ -72.249824967632549, -36.894165461893763 ], [ -72.250551905021723, -36.894085399258607 ], [ -72.251724696049322, -36.893686124388992 ], [ -72.252387551219385, -36.893371894661904 ], [ -72.253109055597704, -36.892768327329101 ], [ -72.253416375544603, -36.892610652511365 ], [ -72.253860827811209, -36.892330155642092 ], [ -72.25437896349068, -36.89201257453859 ], [ -72.255404880867644, -36.891668075487487 ], [ -72.256248132119794, -36.891706949946773 ], [ -72.25667935938877, -36.891794399267006 ], [ -72.257539885243844, -36.892027584990437 ], [ -72.258164508115399, -36.892128912827246 ], [ -72.258235764280371, -36.892140538671647 ], [ -72.25874207094418, -36.89215225216433 ], [ -72.259248467439505, -36.892163962781403 ], [ -72.260463751475001, -36.891920585614493 ], [ -72.261099042738891, -36.891702654351988 ], [ -72.26147431394881, -36.891596017336816 ], [ -72.262171736290995, -36.891397853299843 ], [ -72.262706469243653, -36.891293915797405 ], [ -72.26356834975816, -36.891148945200321 ], [ -72.264147044464195, -36.891162336430888 ], [ -72.265545614462056, -36.891194508710853 ], [ -72.266702260069053, -36.891240480993034 ], [ -72.267856333799415, -36.891364018611732 ], [ -72.269152899198417, -36.891548945324118 ], [ -72.26994160384821, -36.891760841356593 ], [ -72.270733254972129, -36.891895366753864 ], [ -72.271834823072425, -36.892133911035316 ], [ -72.272835239973432, -36.892166562825523 ], [ -72.273393235698677, -36.892082528693564 ], [ -72.274174647824978, -36.891829053511081 ], [ -72.275134303669972, -36.891308396892335 ], [ -72.276709194093471, -36.890452760344978 ], [ -72.278211753068618, -36.889595558007755 ], [ -72.279373217238813, -36.888827480713985 ], [ -72.280034624324628, -36.888551818224222 ], [ -72.280547220093723, -36.888389139836434 ], [ -72.281255997141116, -36.888134009943272 ], [ -72.282087549633317, -36.887823443181503 ], [ -72.282771667926156, -36.887587144349595 ], [ -72.283197389420749, -36.88749033766895 ], [ -72.28385593267744, -36.88729208968828 ], [ -72.284276137617894, -36.887010971180366 ], [ -72.284651517523983, -36.886631811651128 ], [ -72.284951129027434, -36.886347975510169 ], [ -72.285467808537817, -36.886068981004684 ], [ -72.286547894326418, -36.885550952909384 ], [ -72.287401394457646, -36.885299013763309 ], [ -72.287984969710621, -36.885176707912571 ], [ -72.288761968413937, -36.885039369206162 ], [ -72.289661644645705, -36.884846662489281 ], [ -72.290150093699964, -36.884683356848278 ], [ -72.290908457751044, -36.884390554289972 ], [ -72.291770135246296, -36.883906214859316 ], [ -72.293184901868727, -36.883134081721089 ], [ -72.294046547024635, -36.882649653126229 ], [ -72.294904816311714, -36.882262154886099 ], [ -72.295636308159345, -36.882046243885107 ], [ -72.296388519649028, -36.881927629707469 ], [ -72.296994690226342, -36.881844511221274 ], [ -72.297428720239012, -36.881854377491003 ], [ -72.298176108673957, -36.881871406880769 ], [ -72.298685158792622, -36.881805445638037 ], [ -72.29927068338975, -36.881624939505627 ], [ -72.299760452967504, -36.881422880947007 ], [ -72.300051076826534, -36.881390738320704 ], [ -72.300582215619741, -36.881383353124157 ], [ -72.301065072661359, -36.881374945438409 ], [ -72.301525196038085, -36.881327309532878 ], [ -72.302038417932948, -36.881145109374891 ], [ -72.302632097436245, -36.880732069819452 ], [ -72.303433732436218, -36.880236622754985 ], [ -72.303778080939139, -36.880050626015361 ], [ -72.30439720342622, -36.879599445801368 ], [ -72.305501643440493, -36.878383923453455 ], [ -72.306202554839231, -36.877663254464011 ], [ -72.306902815857711, -36.87696186408138 ], [ -72.307341275463045, -36.876157635901926 ], [ -72.307975083608397, -36.874941177765059 ], [ -72.30811133018922, -36.874498415333036 ], [ -72.308137159448592, -36.873762369388714 ], [ -72.308151480390848, -36.873355628849076 ], [ -72.30795211817815, -36.872847075806774 ], [ -72.307880125394661, -36.872147710853753 ], [ -72.308039827885878, -36.87172481398872 ], [ -72.308475444323349, -36.870998164150741 ], [ -72.309124630728022, -36.870373179596555 ], [ -72.309983404868277, -36.869966149360081 ], [ -72.31074720372682, -36.869857457542757 ], [ -72.311278261671632, -36.869850102132993 ], [ -72.312941630760747, -36.869887695563804 ], [ -72.313904568151457, -36.869948288710212 ], [ -72.31426416555631, -36.870014572807058 ], [ -72.314715345306084, -36.870218618430506 ], [ -72.315208025425349, -36.870617402302912 ], [ -72.315691947868913, -36.871268056097705 ], [ -72.31632324162976, -36.871844395484175 ], [ -72.317128629791, -36.872269717781819 ], [ -72.317942241130339, -36.872462514445928 ], [ -72.318784015552168, -36.872539666319604 ], [ -72.319413452495326, -36.872476377499311 ], [ -72.320051730657539, -36.87216128579329 ], [ -72.320728623800534, -36.871779119782012 ], [ -72.321152657360727, -36.871381586655538 ], [ -72.321777741068033, -36.870756101468736 ], [ -72.322708246582025, -36.869672103875232 ], [ -72.32339572816727, -36.868640887572958 ], [ -72.323924210642204, -36.868013076608932 ], [ -72.324692448974872, -36.867429554622362 ], [ -72.32511040363552, -36.867206301362792 ], [ -72.325570418316104, -36.86715850354171 ], [ -72.325587652494832, -36.867159792131353 ], [ -72.325955455111512, -36.867186616782313 ], [ -72.326434158343261, -36.867294258100777 ], [ -72.327557796253473, -36.867590941647009 ], [ -72.328179174410209, -36.867759974286152 ], [ -72.328805234586241, -36.867793501061961 ], [ -72.329504379897131, -36.867809178171811 ], [ -72.331040261877746, -36.867698260430359 ], [ -72.33177015202925, -36.867520927682399 ], [ -72.33275066316186, -36.867077694626673 ], [ -72.334728827977671, -36.866385439272925 ], [ -72.335196276217218, -36.866124519422989 ], [ -72.335687097722158, -36.865883608451234 ], [ -72.336884481028989, -36.865445172523337 ], [ -72.338037703156431, -36.864889497058932 ], [ -72.338500381341845, -36.864764219037404 ], [ -72.339030766448516, -36.864776097718604 ], [ -72.339558368574444, -36.864865406972072 ], [ -72.340179122402077, -36.865053807362052 ], [ -72.341080026630848, -36.865161246856736 ], [ -72.341826706295009, -36.86519736208016 ], [ -72.342884609085971, -36.865298522849429 ], [ -72.343508055164534, -36.86540940023432 ], [ -72.344030394959503, -36.865653696304008 ], [ -72.344571466424824, -36.866053501544251 ], [ -72.345561807821596, -36.866715301442802 ], [ -72.346602315635408, -36.86732009739908 ], [ -72.347152788868456, -36.867448659887984 ], [ -72.348045386375802, -36.867449252076398 ], [ -72.349011065424762, -36.867432053456852 ], [ -72.350029568107374, -36.867280345955606 ], [ -72.35108389021363, -36.867139060424797 ], [ -72.351395937095546, -36.867184799246324 ], [ -72.351849952826669, -36.867311191559693 ], [ -72.352259797496956, -36.867320286410994 ], [ -72.352597365516104, -36.867327805203892 ], [ -72.353277044334803, -36.867207265828057 ], [ -72.354143583512354, -36.867265382383508 ], [ -72.354481774064027, -36.867253539304471 ], [ -72.354748220665485, -36.867220766184346 ], [ -72.355089081010163, -36.867131416563332 ], [ -72.355431896987199, -36.866983920646618 ], [ -72.355820939370446, -36.866895643738523 ], [ -72.356183932407092, -36.866864935953394 ], [ -72.356570927529802, -36.866834804538094 ], [ -72.35699144777891, -36.866534013652142 ], [ -72.357760825175362, -36.865911425342077 ], [ -72.359048394845132, -36.864951465446701 ], [ -72.360204099017707, -36.864318152667082 ], [ -72.361366802863003, -36.863830187264192 ], [ -72.361513398934221, -36.863775402190697 ], [ -72.362217829932248, -36.863635952953999 ], [ -72.363163260954707, -36.863501852839271 ], [ -72.363669541567361, -36.863513122248683 ], [ -72.364077319214189, -36.863580252102572 ], [ -72.364357279172467, -36.863857897096267 ], [ -72.364677528571264, -36.864368974416401 ], [ -72.364786006430023, -36.864720271206949 ], [ -72.364771275856015, -36.865146436670756 ], [ -72.364760629921577, -36.86545637911977 ], [ -72.364533685836406, -36.8657421155105 ], [ -72.364162184855701, -36.866024566425565 ], [ -72.364010795374128, -36.866215083364978 ], [ -72.363878976589334, -36.866541745971503 ], [ -72.363870277304116, -36.866793543611131 ], [ -72.36395750910809, -36.867066833233878 ], [ -72.36433784501962, -36.867230400054403 ], [ -72.364773112910754, -36.867201308709724 ], [ -72.365111296275884, -36.867189361412514 ], [ -72.365472957110953, -36.867197414195779 ], [ -72.366095726758076, -36.86732745592716 ], [ -72.366451267371119, -36.867509876622492 ], [ -72.366993168879745, -36.867890140827477 ], [ -72.367826942905637, -36.868199455529115 ], [ -72.368185947422418, -36.868284931002606 ], [ -72.368642649116239, -36.868333752938021 ], [ -72.369120791799247, -36.868460722595245 ], [ -72.369722146508323, -36.868512816501301 ], [ -72.370085137748333, -36.868482066964873 ], [ -72.370569923472871, -36.868415307937376 ], [ -72.370982424461445, -36.868346833393844 ], [ -72.371545502854573, -36.868107341614134 ], [ -72.372992465995111, -36.867422158733021 ], [ -72.373358719916226, -36.867294539103369 ], [ -72.3737450844216, -36.867283632464762 ], [ -72.37417831223874, -36.867312655503852 ], [ -72.374514551649582, -36.867358826145754 ], [ -72.374948485542504, -36.867368413284481 ], [ -72.375409164078107, -36.867301063968981 ], [ -72.376550885973273, -36.867074251436669 ], [ -72.37705974744577, -36.867008035219321 ], [ -72.377811739746519, -36.866888914733032 ], [ -72.378393578556029, -36.866804821159278 ], [ -72.379023077482955, -36.866741216398538 ], [ -72.379459037975181, -36.86669263923482 ], [ -72.380437426388767, -36.866714237793211 ], [ -72.380496505890079, -36.866601986023468 ], [ -72.380742487971062, -36.86600360299316 ], [ -72.380836096016907, -36.865462112141643 ], [ -72.380924606123557, -36.865071638252161 ], [ -72.380936927415988, -36.864709536689126 ], [ -72.380986864762633, -36.864348430253138 ], [ -72.381426448160397, -36.863778486174446 ], [ -72.381809795224754, -36.863414377585642 ], [ -72.382071617299133, -36.863081706077203 ], [ -72.382281611971536, -36.862746598098845 ], [ -72.382408984993972, -36.862160817186847 ], [ -72.382331588844053, -36.861712032478067 ], [ -72.382153823927425, -36.861484664306261 ], [ -72.38188346336625, -36.861255134945033 ], [ -72.381615698936244, -36.860951129467011 ], [ -72.381347847369653, -36.860647199684749 ], [ -72.381205364684135, -36.86033659876675 ], [ -72.381275557243811, -36.860049539077821 ], [ -72.381519962781468, -36.859740762068824 ], [ -72.381714302513402, -36.859496520407383 ], [ -72.381797177488266, -36.859324171136102 ], [ -72.381591689663651, -36.858938748918945 ], [ -72.38121604834781, -36.858737755202142 ], [ -72.38097101848102, -36.858105450380805 ], [ -72.381295823236627, -36.857501648142502 ], [ -72.381608520498816, -36.85714619600828 ], [ -72.38203598831835, -36.856787696769068 ], [ -72.382885092992893, -36.856359313974693 ], [ -72.383922039884908, -36.855860544019947 ], [ -72.385051740524958, -36.855363845235267 ], [ -72.385617618068522, -36.85481434781498 ], [ -72.386651666097137, -36.854074051724545 ], [ -72.387628056657519, -36.853284832125574 ], [ -72.388415092237523, -36.852825261982538 ], [ -72.389388126692012, -36.852131267359361 ], [ -72.391329004237008, -36.850732995003419 ], [ -72.391992648127882, -36.850300472281752 ], [ -72.392604436768977, -36.849779672716821 ], [ -72.392962162084785, -36.849055030390886 ], [ -72.393082698927927, -36.848238036300515 ], [ -72.393329753597371, -36.847229205921735 ], [ -72.39338560545184, -36.846258022640626 ], [ -72.393451682829181, -36.845563634839465 ], [ -72.393559244406362, -36.844640353046401 ], [ -72.39344244096155, -36.843104499390478 ], [ -72.393566887272812, -36.840920845604984 ], [ -72.393919282884042, -36.839985399476333 ], [ -72.394690694964609, -36.839108095689085 ], [ -72.395642239920875, -36.838383814508823 ], [ -72.396874307180823, -36.837591198357444 ], [ -72.397733250204354, -36.836864899062775 ], [ -72.398344702875534, -36.836495174398728 ], [ -72.399641359004406, -36.835267333981967 ], [ -72.40060044801244, -36.834319667828986 ], [ -72.401844999159877, -36.833154634355552 ], [ -72.402383835616774, -36.832784312961408 ], [ -72.402798974957335, -36.832355826587253 ], [ -72.403752933686775, -36.831557085974026 ], [ -72.404696851946298, -36.831056085602619 ], [ -72.405648291799679, -36.830331730332972 ], [ -72.406158680408154, -36.829989517881351 ], [ -72.406477477231107, -36.829461997242134 ], [ -72.406532234937572, -36.82886078310225 ], [ -72.406457225611348, -36.828337545929095 ], [ -72.406211996318575, -36.82736347878155 ], [ -72.405981935079353, -36.825942712730431 ], [ -72.405759991915389, -36.825128885163451 ], [ -72.405646558949499, -36.82403943340222 ], [ -72.405599315650392, -36.823549868357951 ], [ -72.405423607875775, -36.822857020345751 ], [ -72.40532935753447, -36.82231152481738 ], [ -72.40542076021633, -36.821830457878562 ], [ -72.405590200445218, -36.821260426211367 ], [ -72.405602327701544, -36.820718376086255 ], [ -72.405657283935682, -36.820386420561796 ], [ -72.405709087981492, -36.819964800682541 ], [ -72.406028072552346, -36.819088368994045 ], [ -72.4066013081964, -36.818579311055579 ], [ -72.406976788713806, -36.818438485654724 ], [ -72.407915569508219, -36.818086340475439 ], [ -72.408481169472353, -36.8178006992391 ], [ -72.409046945506276, -36.817514976392545 ], [ -72.409695160832143, -36.817529068750716 ], [ -72.41005815297045, -36.817760526517418 ], [ -72.410416010338622, -36.818140862004284 ], [ -72.411056805580245, -36.818378365140653 ], [ -72.411702553234022, -36.818466918130305 ], [ -72.412129474877858, -36.818502631841774 ], [ -72.41277647747809, -36.818450014842554 ], [ -72.413278319514944, -36.818227742553731 ], [ -72.413897022488769, -36.817697710122928 ], [ -72.414910313146109, -36.816602672621741 ], [ -72.415424535764203, -36.815550839014584 ], [ -72.415868283751607, -36.814702165696204 ], [ -72.416063710445044, -36.814181785365534 ], [ -72.416199868990986, -36.813660157314352 ], [ -72.416591812932595, -36.812382061474196 ], [ -72.416696254660778, -36.811508749158115 ], [ -72.416757120911171, -36.810815608023624 ], [ -72.417186624313132, -36.809008089154759 ], [ -72.417556633192135, -36.80858697838692 ], [ -72.417902516017563, -36.807722808871439 ], [ -72.41801260006406, -36.807203553462301 ], [ -72.418208274692503, -36.806740957465131 ], [ -72.418560091788692, -36.806325978060279 ], [ -72.419188823554364, -36.805494187027755 ], [ -72.419847912088429, -36.804874464238274 ], [ -72.420620583607018, -36.804227035930317 ], [ -72.421908345516258, -36.803892636007831 ], [ -72.423826884655071, -36.803783250380846 ], [ -72.425080171918665, -36.803357546341481 ], [ -72.425991729268389, -36.8030451677174 ], [ -72.426827176855653, -36.80276132826625 ], [ -72.427284698711318, -36.802725617280949 ], [ -72.427658032255195, -36.802701780937007 ], [ -72.428291512515472, -36.802762847392543 ], [ -72.428821683823102, -36.802623320694813 ], [ -72.429322594306981, -36.802241651515743 ], [ -72.429767546935224, -36.801285131091895 ], [ -72.429909408884896, -36.800412648159387 ], [ -72.429815968823974, -36.799836888814646 ], [ -72.429537014080481, -36.799196807459403 ], [ -72.428883909224524, -36.798518513915674 ], [ -72.428184124313148, -36.797610388240884 ], [ -72.427911580845844, -36.79661360889375 ], [ -72.427739773556169, -36.795685814475796 ], [ -72.427812656570111, -36.794630648457485 ], [ -72.427916961754377, -36.79375733150799 ], [ -72.42797261687781, -36.79321505858988 ], [ -72.427948561791126, -36.792739596917002 ], [ -72.427966375383221, -36.792278944364625 ], [ -72.427901452341004, -36.791975608541378 ], [ -72.427530599045639, -36.791389249590054 ], [ -72.427327271669284, -36.789426939071745 ], [ -72.426896686695713, -36.787928591439815 ], [ -72.426754268688882, -36.786901630399562 ], [ -72.426753772818842, -36.784144498513299 ], [ -72.426665904109328, -36.781236580708047 ], [ -72.426909546079017, -36.778762485137634 ], [ -72.426945634098914, -36.778411061203236 ], [ -72.427253191201061, -36.77752354168765 ], [ -72.427321267329916, -36.776776157950572 ], [ -72.42730605346226, -36.776111629890579 ], [ -72.427362673376308, -36.775691855043156 ], [ -72.427716278119917, -36.775063707058166 ], [ -72.428299068245323, -36.774472494856269 ], [ -72.428799715522828, -36.774090764575845 ], [ -72.429146325983623, -36.773540758265668 ], [ -72.429302505282308, -36.773026805293732 ], [ -72.429737885462856, -36.772416294396763 ], [ -72.430296538754888, -36.771665229888683 ], [ -72.430507043670374, -36.771289580462458 ], [ -72.430502777571093, -36.770811331801191 ], [ -72.430363960910213, -36.770362876121304 ], [ -72.430064901870679, -36.769921407212038 ], [ -72.429643349457294, -36.769751187624749 ], [ -72.429004138843837, -36.769538973533621 ], [ -72.428658923466671, -36.769317314860892 ], [ -72.428376132018599, -36.768797944475715 ], [ -72.427976679059526, -36.768396714845892 ], [ -72.426980321645303, -36.76789209168431 ], [ -72.426066965868372, -36.767147689693964 ], [ -72.425336217825773, -36.766558260122103 ], [ -72.424866794190919, -36.766004549100252 ], [ -72.424541458530982, -36.765635271626664 ], [ -72.424139009690435, -36.765324608087845 ], [ -72.423435610856657, -36.765037670460693 ], [ -72.422366290478436, -36.764470965385001 ], [ -72.420229891018607, -36.763213533333641 ], [ -72.41822949379781, -36.762056738895211 ], [ -72.417184123403388, -36.761414008765861 ], [ -72.415948389220446, -36.761148752520548 ], [ -72.415360961093214, -36.760992916324604 ], [ -72.414779844529178, -36.760646461640683 ], [ -72.414514600771881, -36.759661757150901 ], [ -72.413976848581569, -36.759128342055824 ], [ -72.413989279468467, -36.758759295600555 ], [ -72.414125685949401, -36.758434665790951 ], [ -72.414250355042853, -36.758075015317196 ], [ -72.414542112575759, -36.757205767038286 ], [ -72.41491907082181, -36.756036535159396 ], [ -72.415227390593628, -36.754982723329363 ], [ -72.415632422988935, -36.753948347320026 ], [ -72.416222636791858, -36.752918022518749 ], [ -72.417282991983541, -36.75167422195252 ], [ -72.41832882141712, -36.750585319572799 ], [ -72.419846630192524, -36.748957657905166 ], [ -72.420546711547942, -36.748217996259136 ], [ -72.421011777455362, -36.747775174776322 ], [ -72.421391202475178, -36.747293852034453 ], [ -72.42162395147372, -36.746477954259319 ], [ -72.421937680001861, -36.745893117354861 ], [ -72.422603299288042, -36.74506217258552 ], [ -72.423259114361201, -36.744650461171311 ], [ -72.424019344213121, -36.744070768671335 ], [ -72.424491811340175, -36.743782946760184 ], [ -72.425334519111587, -36.743503129824809 ], [ -72.425777462208501, -36.743258964920912 ], [ -72.426274687803101, -36.743076416428096 ], [ -72.426731844044454, -36.742766367693036 ], [ -72.427044734444422, -36.74219888836398 ], [ -72.427513818516118, -36.741817044228299 ], [ -72.428686101995595, -36.74156379367615 ], [ -72.429295060943531, -36.741353429378762 ], [ -72.43023763712003, -36.740852141236516 ], [ -72.431635699569739, -36.740409809952567 ], [ -72.432667943781269, -36.74015952998343 ], [ -72.433693096691925, -36.739958087539847 ], [ -72.434533177789433, -36.739752684537166 ], [ -72.435293271995732, -36.739172926968095 ], [ -72.435780575698018, -36.738438221739685 ], [ -72.436552513293023, -36.73689140585364 ], [ -72.436464214290481, -36.73598342040065 ], [ -72.43625269517706, -36.735215844188488 ], [ -72.43574514704153, -36.73444183929562 ], [ -72.435516801584498, -36.733566096579132 ], [ -72.435541936446157, -36.732811828763218 ], [ -72.435789878651093, -36.73212271805658 ], [ -72.436191153393565, -36.731666184404972 ], [ -72.436489750699053, -36.731382974075963 ], [ -72.437420952407422, -36.730873028844854 ], [ -72.437905739928581, -36.73021286489913 ], [ -72.437935453503243, -36.729319256067818 ], [ -72.437537386644649, -36.727373286850003 ], [ -72.437389918309293, -36.726873492125655 ], [ -72.437012006950752, -36.726467826906536 ], [ -72.436379390869774, -36.726007077852032 ], [ -72.435654174652711, -36.725544351051553 ], [ -72.43520660702869, -36.725087621324661 ], [ -72.434733076296354, -36.724430947250447 ], [ -72.434300371298704, -36.723908313683793 ], [ -72.43397592766587, -36.723123693877177 ], [ -72.433967814082223, -36.722633080746682 ], [ -72.434096223760491, -36.722152696967051 ], [ -72.43433516843956, -36.721735180816133 ], [ -72.43483754138073, -36.721293150533981 ], [ -72.435542651505131, -36.720549349846451 ], [ -72.436024942608114, -36.719963668062064 ], [ -72.436319752616384, -36.719448430847947 ], [ -72.436897082781485, -36.718790246813874 ], [ -72.437764104354386, -36.717765698175462 ], [ -72.439018386052979, -36.716227876027503 ], [ -72.439870638424267, -36.71565007880082 ], [ -72.440997846239412, -36.715152743278246 ], [ -72.441655172278899, -36.714868808109934 ], [ -72.442314941735944, -36.714510397294333 ], [ -72.44344211541511, -36.714013041431912 ], [ -72.444471784156704, -36.713662578901648 ], [ -72.444830810233043, -36.713457684530468 ], [ -72.445118273818906, -36.713241428949679 ], [ -72.445625520120515, -36.712648490880134 ], [ -72.446100757651891, -36.711983701838278 ], [ -72.446960338479286, -36.711182510731383 ], [ -72.447727305695807, -36.710379201950801 ], [ -72.44864932572365, -36.708904874296444 ], [ -72.448820997367704, -36.708092767135838 ], [ -72.448670498116584, -36.707046279552898 ], [ -72.448602628600241, -36.706299652462576 ], [ -72.44881477204278, -36.705484526796504 ], [ -72.449143351519211, -36.7049341799096 ], [ -72.449534917270086, -36.704429244553346 ], [ -72.44996931020215, -36.703849032317649 ], [ -72.450238280171249, -36.703568790407651 ], [ -72.450843352108947, -36.703150510657288 ], [ -72.451543208885568, -36.702660757395499 ], [ -72.451946900994457, -36.702437496054699 ], [ -72.452038017113736, -36.701841703172583 ], [ -72.452059903667319, -36.701177872183436 ], [ -72.451957250484853, -36.700606894829988 ], [ -72.451816100000897, -36.700164876949884 ], [ -72.451488647910168, -36.699467933012038 ], [ -72.451161114971057, -36.698771063424211 ], [ -72.450747568343473, -36.698323146117218 ], [ -72.450448676390579, -36.697940396671406 ], [ -72.449571275682899, -36.697388573228935 ], [ -72.448847428498325, -36.696902630250392 ], [ -72.448126725417211, -36.696322778242106 ], [ -72.447485886158162, -36.69568185228561 ], [ -72.447034459371679, -36.695201730005301 ], [ -72.446693663705716, -36.694912228149548 ], [ -72.446545306936542, -36.69468948308549 ], [ -72.446550498300567, -36.694532852887129 ], [ -72.446558818496726, -36.694282168418503 ], [ -72.446605944116527, -36.694032279787898 ], [ -72.446610320708615, -36.693722070492406 ], [ -72.446201754340976, -36.693302333996371 ], [ -72.445592609441761, -36.692881617742827 ], [ -72.444876379072468, -36.692704183308663 ], [ -72.444249469988506, -36.69265915924413 ], [ -72.443823924563688, -36.692460160140968 ], [ -72.443330392841546, -36.691943375650183 ], [ -72.442959892584085, -36.691271124256708 ], [ -72.442521794999806, -36.690369647998338 ], [ -72.442236507133543, -36.689579485520476 ], [ -72.441727808256147, -36.688194147427808 ], [ -72.441197743848022, -36.688581127771272 ], [ -72.441007105175046, -36.688753532852843 ], [ -72.440944247359681, -36.688848354258383 ], [ -72.440758963544113, -36.689029903585826 ], [ -72.440496818974538, -36.689273832468899 ], [ -72.439670443473318, -36.689874796125551 ], [ -72.438935509281492, -36.690607004614414 ], [ -72.438058164269364, -36.691331663571439 ], [ -72.437252820125593, -36.692057852145354 ], [ -72.437070648074169, -36.692299315133901 ] ] ] } },
{ "type": "Feature", "properties": { "capa": "ds19", "popup": "<strong>BOSQUE LAS CAMELIAS</strong><br><br><strong>Programa:</strong> DS19<br><strong>Comuna:</strong> Bulnes<br><strong>Región:</strong> Ñuble<br><strong>Año de inicio:</strong> 2017", "etiqueta": "BOSQUE LAS CAMELIAS" }, "geometry": { "type": "Polygon", "coordinates": [ [ [ -72.29940878319502, -36.740429985704374 ], [ -72.2990964263943, -36.740548218944383 ], [ -72.299496845042313, -36.741145694159265 ], [ -72.299797964817131, -36.741003815065888 ], [ -72.29940878319502, -36.740429985704374 ] ] ] } },
{ "type": "Feature", "properties": { "capa": "ds19", "popup": "<strong>LAS CAMELIAS III</strong><br><br><strong>Programa:</strong> DS19<br><strong>Comuna:</strong> Bulnes<br><strong>Región:</strong> Ñuble<br><strong>Año de inicio:</strong> 2018", "etiqueta": "LAS CAMELIAS III" }, "geometry": { "type": "Polygon", "coordinates": [ [ [ -72.285288675487024, -36.745725377479729 ], [ -72.285424498961348, -36.745711782263776 ], [ -72.28549849498792, -36.745857913973083 ], [ -72.285583685819574, -36.74582535158644 ], [ -72.286069078805269, -36.745704961980636 ], [ -72.286046178952034, -36.745600054791986 ], [ -72.287362729171207, -36.745021146876248 ], [ -72.286837786956823, -36.744164178614589 ], [ -72.286334498632371, -36.74457588759882 ], [ -72.285788198073789, -36.744817172603454 ], [ -72.283867688031251, -36.744480517338879 ], [ -72.28463643211542, -36.746006683529863 ], [ -72.285331128070723, -36.745870833974521 ], [ -72.285288675487024, -36.745725377479729 ] ] ] } },
{ "type": "Feature", "properties": { "capa": "colegios", "popup": "<strong>ESCUELA LOS TILOS JOSÉ ANDRADES VÁSQUEZ</strong><br><br><strong>Dirección:</strong> LOS TILOS 23", "etiqueta": "" }, "geometry": { "type": "Point", "coordinates": [ -72.244011, -36.882511 ] } },
{ "type": "Feature", "properties": { "capa": "colegios", "popup": "<strong>ESCUELA MILAHUE</strong><br><br><strong>Dirección:</strong> CAMINO BULNES 19", "etiqueta": "" }, "geometry": { "type": "Point", "coordinates": [ -72.237297, -36.843609 ] } },
{ "type": "Feature", "properties": { "capa": "colegios", "popup": "<strong>ESCUELA EL PALPAL DE SANTA CLARA</strong><br><br><strong>Dirección:</strong> CALLE LARGA 389", "etiqueta": "" }, "geometry": { "type": "Point", "coordinates": [ -72.333061, -36.828949 ] } },
{ "type": "Feature", "properties": { "capa": "colegios", "popup": "<strong>ESCUELA LAS CARMELITAS</strong><br><br><strong>Dirección:</strong> LAS CARMELITAS 15", "etiqueta": "" }, "geometry": { "type": "Point", "coordinates": [ -72.21167, -36.826118 ] } },
{ "type": "Feature", "properties": { "capa": "colegios", "popup": "<strong>ESCUELA BASICA PUEBLO SECO SANTA CLARA</strong><br><br><strong>Dirección:</strong> OSCAR CASTRO 34", "etiqueta": "" }, "geometry": { "type": "Point", "coordinates": [ -72.3274, -36.819981 ] } },
{ "type": "Feature", "properties": { "capa": "colegios", "popup": "<strong>ESCUELA EL CARACOL</strong><br><br><strong>Dirección:</strong> EL CARACOL 19", "etiqueta": "" }, "geometry": { "type": "Point", "coordinates": [ -72.243729, -36.81023 ] } },
{ "type": "Feature", "properties": { "capa": "colegios", "popup": "<strong>ESCUELA CANTA RANA</strong><br><br><strong>Dirección:</strong> K-15 BULNES/ SAN IGNACIO 0", "etiqueta": "" }, "geometry": { "type": "Point", "coordinates": [ -72.152496, -36.803661 ] } },
{ "type": "Feature", "properties": { "capa": "colegios", "popup": "<strong>ESCUELA EVARISTA OGALDE ORTEGA</strong><br><br><strong>Dirección:</strong> TRES ESQUINAS 9", "etiqueta": "" }, "geometry": { "type": "Point", "coordinates": [ -72.209053, -36.78759 ] } },
{ "type": "Feature", "properties": { "capa": "colegios", "popup": "<strong>ESCUELA COLTON QUILLAY</strong><br><br><strong>Dirección:</strong> CAMINO COLTON QUILLAY 21", "etiqueta": "" }, "geometry": { "type": "Point", "coordinates": [ -72.157784, -36.779049 ] } },
{ "type": "Feature", "properties": { "capa": "colegios", "popup": "<strong>ESCUELA BATALLA DEL ROBLE</strong><br><br><strong>Dirección:</strong> KILOMETRO 9 BULNES 0", "etiqueta": "" }, "geometry": { "type": "Point", "coordinates": [ -72.399147, -36.758011 ] } },
{ "type": "Feature", "properties": { "capa": "colegios", "popup": "<strong>ESCUELA CELIA URRUTIA PRIETO</strong><br><br><strong>Dirección:</strong> ARTURO PRAT 259", "etiqueta": "" }, "geometry": { "type": "Point", "coordinates": [ -72.287956, -36.748661 ] } },
{ "type": "Feature", "properties": { "capa": "colegios", "popup": "<strong>ESCUELA DE LENGUAJE BULNES</strong><br><br><strong>Dirección:</strong> ERRAZURIZ 265", "etiqueta": "" }, "geometry": { "type": "Point", "coordinates": [ -72.29706, -36.7446 ] } },
{ "type": "Feature", "properties": { "capa": "colegios", "popup": "<strong>COLEGIO AMANECER</strong><br><br><strong>Dirección:</strong> ARTURO PRAT 469", "etiqueta": "" }, "geometry": { "type": "Point", "coordinates": [ -72.301193, -36.744091 ] } },
{ "type": "Feature", "properties": { "capa": "colegios", "popup": "<strong>ESCUELA ESPECIAL DE LENGUAJE RINCÓN DEL SABER</strong><br><br><strong>Dirección:</strong> FEDERICO ERRAZURIZ 346", "etiqueta": "" }, "geometry": { "type": "Point", "coordinates": [ -72.29659, -36.74355 ] } },
{ "type": "Feature", "properties": { "capa": "colegios", "popup": "<strong>LICEO BICENTENARIO SANTA CRUZ DE LARQUI</strong><br><br><strong>Dirección:</strong> CARLOS PALACIOS 488", "etiqueta": "" }, "geometry": { "type": "Point", "coordinates": [ -72.299072, -36.743092 ] } },
{ "type": "Feature", "properties": { "capa": "colegios", "popup": "<strong>ESCUELA ESPECIAL DE LENGUAJE ELUNEY</strong><br><br><strong>Dirección:</strong> CARLOS PALACIOS 1035", "etiqueta": "" }, "geometry": { "type": "Point", "coordinates": [ -72.301609, -36.741792 ] } },
{ "type": "Feature", "properties": { "capa": "colegios", "popup": "<strong>COLEGIO SAN ESTEBAN DE BULNES</strong><br><br><strong>Dirección:</strong> DOMINGO SANTA MARIA 460", "etiqueta": "" }, "geometry": { "type": "Point", "coordinates": [ -72.299667, -36.740349 ] } },
{ "type": "Feature", "properties": { "capa": "colegios", "popup": "<strong>COLEGIO TECNICO PROFESIONAL SAN ESTEBAN</strong><br><br><strong>Dirección:</strong> VICTOR BIANCHI 942", "etiqueta": "" }, "geometry": { "type": "Point", "coordinates": [ -72.304207, -36.739128 ] } },
{ "type": "Feature", "properties": { "capa": "colegios", "popup": "<strong>COLEGIO TERESA DE LOS ANDES</strong><br><br><strong>Dirección:</strong> CARLOS PALACIOS 1310", "etiqueta": "" }, "geometry": { "type": "Point", "coordinates": [ -72.307617, -36.738781 ] } },
{ "type": "Feature", "properties": { "capa": "colegios", "popup": "<strong>ESCUELA BASICA EDUARDO FREI MONTALBA</strong><br><br><strong>Dirección:</strong> CARLOS CONDELL 847", "etiqueta": "" }, "geometry": { "type": "Point", "coordinates": [ -72.302338, -36.738621 ] } },
{ "type": "Feature", "properties": { "capa": "colegios", "popup": "<strong>LICEO MANUEL BULNES</strong><br><br><strong>Dirección:</strong> AVENIDA ELEUTERIO RAMIREZ 531", "etiqueta": "" }, "geometry": { "type": "Point", "coordinates": [ -72.296951, -36.73856 ] } },
{ "type": "Feature", "properties": { "capa": "jardines", "popup": "<strong>MIS ANGELITOS</strong><br><br><strong>Dirección:</strong> VILLA CORDILLERA SAN JOSE DEHESA S/N, PUEBLO SECO ", "etiqueta": "" }, "geometry": { "type": "MultiPoint", "coordinates": [ [ -72.323428, -36.816208 ] ] } },
{ "type": "Feature", "properties": { "capa": "jardines", "popup": "<strong>INFANCIA FELIZ</strong><br><br><strong>Dirección:</strong> EL LAUREL N 38,LOCALIDAD DE TRES ESQUINAS ", "etiqueta": "" }, "geometry": { "type": "MultiPoint", "coordinates": [ [ -72.211313, -36.788188 ] ] } },
{ "type": "Feature", "properties": { "capa": "jardines", "popup": "<strong>MIS CARIÑOSITOS</strong><br><br><strong>Dirección:</strong> ARTURO PRAT #97, SANTA CLARA ", "etiqueta": "" }, "geometry": { "type": "MultiPoint", "coordinates": [ [ -72.334079, -36.828036 ] ] } },
{ "type": "Feature", "properties": { "capa": "jardines", "popup": "<strong>MIS PEQUEÃ‘OS DUENDECITOS</strong><br><br><strong>Dirección:</strong> CALLE CENTRAL N 496, VILLA FRESIA ", "etiqueta": "" }, "geometry": { "type": "MultiPoint", "coordinates": [ [ -72.305978, -36.737058 ] ] } },
{ "type": "Feature", "properties": { "capa": "jardines", "popup": "<strong>MIS PRIMEROS PASOS</strong><br><br><strong>Dirección:</strong> PJE.GONZALEZ URIZAR N 894,POB.3 DE OCTUBRE ", "etiqueta": "" }, "geometry": { "type": "MultiPoint", "coordinates": [ [ -72.301136, -36.733681 ] ] } },
{ "type": "Feature", "properties": { "capa": "jardines", "popup": "<strong>MIS PEQUEÃ‘OS CORAZONES</strong><br><br><strong>Dirección:</strong> POBLACION MATIAS MADARIAGA I. ENRIQUE MUNITA #543 ", "etiqueta": "" }, "geometry": { "type": "MultiPoint", "coordinates": [ [ -72.303896, -36.736592 ] ] } },
{ "type": "Feature", "properties": { "capa": "jardines", "popup": "<strong>CRECER JUGANDO</strong><br><br><strong>Dirección:</strong> VILLA EL PROGRESO CALLE PABLO NERUDA ", "etiqueta": "" }, "geometry": { "type": "MultiPoint", "coordinates": [ [ -72.312089, -36.73407 ] ] } },
{ "type": "Feature", "properties": { "capa": "jardines", "popup": "<strong>MI PRIMERA AVENTURA</strong><br><br><strong>Dirección:</strong> CALLE SERRANO ", "etiqueta": "" }, "geometry": { "type": "MultiPoint", "coordinates": [ [ -72.298878, -36.745858 ] ] } },
{ "type": "Feature", "properties": { "capa": "jardines", "popup": "<strong>NA</strong><br><br><strong>Dirección:</strong> NA ", "etiqueta": "" }, "geometry": { "type": "MultiPoint", "coordinates": [ [ -72.304372113516607, -36.741922897189561 ] ] } },
{ "type": "Feature", "properties": { "capa": "jardines", "popup": "<strong>NA</strong><br><br><strong>Dirección:</strong> NA ", "etiqueta": "" }, "geometry": { "type": "MultiPoint", "coordinates": [ [ -72.338578000488894, -36.82984099995484 ] ] } },
{ "type": "Feature", "properties": { "capa": "jardines", "popup": "<strong>NA</strong><br><br><strong>Dirección:</strong> NA ", "etiqueta": "" }, "geometry": { "type": "MultiPoint", "coordinates": [ [ -72.293587000024189, -36.756661999944441 ] ] } },
{ "type": "Feature", "properties": { "capa": "bomberos", "popup": "<strong>Cuerpo de Bomberos</strong><br><br><strong>Dirección:</strong> Manuel Bulnes 225", "etiqueta": "" }, "geometry": { "type": "Point", "coordinates": [ -72.298934644882479, -36.744201148416742 ] } },
{ "type": "Feature", "properties": { "capa": "comisarias", "popup": "<strong>3RA. COM. BULNES</strong><br><br><strong>Dirección:</strong> ANIBAL PINTO 461", "etiqueta": "" }, "geometry": { "type": "Point", "coordinates": [ -72.298110000562801, -36.74102999364063 ] } },
{ "type": "Feature", "properties": { "capa": "comisarias", "popup": "<strong>RETEN SANTA CLARA</strong><br><br><strong>Dirección:</strong> BARRIO ESTACION S/N", "etiqueta": "" }, "geometry": { "type": "Point", "coordinates": [ -72.328810351451139, -36.82363265578072 ] } },
{ "type": "Feature", "properties": { "capa": "salud", "popup": "<strong>Centro de Salud Familiar Santa Clara</strong><br><br><strong>Tipo de atención:</strong> Centro de Salud Familiar (CESFAM)<br><strong>Dirección:</strong>  NA", "etiqueta": "" }, "geometry": { "type": "Point", "coordinates": [ -72.33409, -36.82861 ] } },
{ "type": "Feature", "properties": { "capa": "salud", "popup": "<strong>SUR Santa Clara</strong><br><br><strong>Tipo de atención:</strong> Servicio de Urgencia Rural (SUR)<br><strong>Dirección:</strong>  NA", "etiqueta": "" }, "geometry": { "type": "Point", "coordinates": [ -72.33321, -36.828547 ] } },
{ "type": "Feature", "properties": { "capa": "salud", "popup": "<strong>Centro Comunitario de Salud Familiar Tres Esquinas</strong><br><br><strong>Tipo de atención:</strong> Centro Comunitario de Salud Familiar (CECOSF)<br><strong>Dirección:</strong>  NA", "etiqueta": "" }, "geometry": { "type": "Point", "coordinates": [ -72.21127, -36.78792 ] } },
{ "type": "Feature", "properties": { "capa": "salud", "popup": "<strong>Hospital Comunitario de Salud Familiar de Bulnes</strong><br><br><strong>Tipo de atención:</strong> Hospital<br><strong>Dirección:</strong>  431", "etiqueta": "" }, "geometry": { "type": "Point", "coordinates": [ -72.29642, -36.73971 ] } }
]
}
