{
"type": "FeatureCollection",
"name": "16108",
"crs": { "type": "name", "properties": { "name": "urn:ogc:def:crs:OGC:1.3:CRS84" } },
"features": [
{ "type": "Feature", "properties": { "capa": "comuna", "popup": "", "etiqueta": "" }, "geometry": { "type": "Polygon", "coordinates": [ [ [ -72.126746495907938, -36.728297112222194 ], [ -72.126469903733636, -36.728398577070713 ], [ -72.125721221724703, -36.728380465943104 ], [ -72.125240384095832, -36.728477035534873 ], [ -72.124698521214768, -36.728409780696332 ], [ -72.12414781531804, -36.728563177541488 ], [ -72.123801262349431, -36.728717039906087 ], [ -72.123310184824646, -36.729088179825368 ], [ -72.122953204212195, -36.729521050415755 ], [ -72.122801299995956, -36.7299545132582 ], [ -72.122636112391632, -36.730390613756107 ], [ -72.122574635286838, -36.73055270881251 ], [ -72.121883438269577, -36.730810841013188 ], [ -72.121862230842339, -36.730808002936691 ], [ -72.121408763083551, -36.730745352118646 ], [ -72.120930574586467, -36.730787800177318 ], [ -72.120171623037194, -36.731044305926318 ], [ -72.119554434622941, -36.731137418541678 ], [ -72.11903444841397, -36.730466986615632 ], [ -72.118106157247141, -36.729786665833878 ], [ -72.117029369173949, -36.729431707050757 ], [ -72.116214868502468, -36.729357830744888 ], [ -72.115196309225993, -36.729279107510663 ], [ -72.114036532990227, -36.729304984051588 ], [ -72.11328173435254, -36.72944891220655 ], [ -72.112244569169889, -36.72986530719141 ], [ -72.111953600357793, -36.730349345496947 ], [ -72.111934995349941, -36.730844563142789 ], [ -72.111918609180833, -36.73128118487196 ], [ -72.111638370744814, -36.731495210370625 ], [ -72.111345354672167, -36.732033262527338 ], [ -72.111333041464576, -36.732361928453507 ], [ -72.111023994057376, -36.73334559816066 ], [ -72.110452572111882, -36.73404366243777 ], [ -72.109763616391248, -36.734243277390974 ], [ -72.109008572513488, -36.734391613748599 ], [ -72.10838790672075, -36.734597333464407 ], [ -72.107212456679903, -36.735059747260671 ], [ -72.107021063422096, -36.735205594006551 ], [ -72.106931548998972, -36.735273779504148 ], [ -72.106519125265535, -36.73537188248573 ], [ -72.106115308290796, -36.735269565111849 ], [ -72.106047108194431, -36.735252226635929 ], [ -72.105046296034701, -36.734678150539196 ], [ -72.104035932986875, -36.734378771006519 ], [ -72.103286450579034, -36.734360465469848 ], [ -72.102837399836488, -36.734448660579638 ], [ -72.102531481261437, -36.734508759845447 ], [ -72.101710804672379, -36.73459690295045 ], [ -72.101481299490331, -36.734591374661392 ], [ -72.100962058883056, -36.734578711933544 ], [ -72.100353726959185, -36.734455723757648 ], [ -72.099542723429096, -36.734269216332287 ], [ -72.098785700562757, -36.734471501617847 ], [ -72.098297238932076, -36.734788510941641 ], [ -72.097805993422313, -36.735159552401306 ], [ -72.096968737526367, -36.735688792343169 ], [ -72.096143209136471, -36.735889449769267 ], [ -72.095588381769218, -36.736146242275503 ], [ -72.094891528060614, -36.736570755297748 ], [ -72.094546921741198, -36.736670446888915 ], [ -72.09319186433909, -36.736475172077334 ], [ -72.092447381954116, -36.7363443169208 ], [ -72.091079104944271, -36.736477558563713 ], [ -72.090048146221918, -36.736727215583812 ], [ -72.089352760360484, -36.737093193978197 ], [ -72.088729866745851, -36.737352756941497 ], [ -72.088040718785734, -36.737552104128177 ], [ -72.087140947332557, -36.737917546589756 ], [ -72.087026106706631, -36.738127810880641 ], [ -72.086995173219805, -36.738184420842039 ], [ -72.086365270949329, -36.738610541615259 ], [ -72.085542558777831, -36.738752515837888 ], [ -72.084725278718878, -36.738732531134367 ], [ -72.083213106871867, -36.739082900869533 ], [ -72.082594478458205, -36.7392299702461 ], [ -72.082471400281108, -36.739248515061348 ], [ -72.081977901796634, -36.739322947674886 ], [ -72.081629148853878, -36.739535210093216 ], [ -72.081552976209366, -36.739754137964091 ], [ -72.081536419360361, -36.740190763733409 ], [ -72.081506011388001, -36.740313352551965 ], [ -72.081455394016672, -36.74051766633449 ], [ -72.08123876169266, -36.74084121801404 ], [ -72.080894115847386, -36.740945449997092 ], [ -72.080485277290208, -36.740935374067341 ], [ -72.080281640893404, -36.740930389011957 ], [ -72.079253970903309, -36.741067443003992 ], [ -72.078845684810076, -36.741057421079958 ], [ -72.078298995280974, -36.741098003313525 ], [ -72.077958557144484, -36.741089617640093 ], [ -72.076393075675256, -36.741051148198494 ], [ -72.07502549845303, -36.741184190188342 ], [ -72.074260175153455, -36.741602455782569 ], [ -72.07363242165313, -36.74196999101212 ], [ -72.073278082087626, -36.742344259401953 ], [ -72.073194863956331, -36.74272975269723 ], [ -72.072708301364173, -36.7429925747713 ], [ -72.072017086380583, -36.743245919947135 ], [ -72.071055696787127, -36.74344305055795 ], [ -72.070432043197727, -36.74370253950071 ], [ -72.070015292279564, -36.74391305644312 ], [ -72.069328923706948, -36.744058336414462 ], [ -72.068629043574134, -36.744536665523 ], [ -72.068208147829239, -36.744855206101846 ], [ -72.067370117585511, -36.745379759378601 ], [ -72.066200439220367, -36.745679814385646 ], [ -72.065519427301794, -36.745662976376089 ], [ -72.064974766168618, -36.745649558224649 ], [ -72.064372507754385, -36.745364344391348 ], [ -72.063830105884122, -36.745292397425843 ], [ -72.063003035086879, -36.745546829136615 ], [ -72.062235338438342, -36.746023472516541 ], [ -72.061603987185293, -36.746498961237741 ], [ -72.061101222578657, -36.74688196328367 ], [ -72.061042550014179, -36.746926657576282 ], [ -72.060553202644627, -36.747243465742713 ], [ -72.059925975557064, -36.747610916373645 ], [ -72.059714967585037, -36.747716372180044 ], [ -72.059092003003485, -36.748027384879443 ], [ -72.05892731665908, -36.748176677120725 ], [ -72.058738902214756, -36.748347544181364 ], [ -72.058398659911006, -36.748857530245395 ], [ -72.058378142389913, -36.74888832426349 ], [ -72.058312380321226, -36.748925522228888 ], [ -72.057820915622543, -36.749203470982501 ], [ -72.05726783278358, -36.749410584811066 ], [ -72.056706352493336, -36.749833686400066 ], [ -72.056083328622975, -36.750093085354834 ], [ -72.05518352483044, -36.750453788131921 ], [ -72.054504548494293, -36.750382947193856 ], [ -72.053825571259836, -36.750312102591529 ], [ -72.053029861547472, -36.749742649277948 ], [ -72.05300374842048, -36.749602324972244 ], [ -72.052986860991439, -36.749511887154974 ], [ -72.052916553447432, -36.749136106179456 ], [ -72.052735573460396, -36.748527832224248 ], [ -72.052067741623659, -36.748182304482889 ], [ -72.051675498543062, -36.74773557932 ], [ -72.051550369512199, -36.747457612292777 ], [ -72.051020343731622, -36.747061518408337 ], [ -72.050213460773747, -36.746766644229766 ], [ -72.049670867562369, -36.746699067822817 ], [ -72.049194786512913, -36.746687288139306 ], [ -72.048389993036409, -36.746338385545343 ], [ -72.048346230709029, -36.746127350510896 ], [ -72.048332641893708, -36.746062147492502 ], [ -72.048213035705217, -36.745622075516742 ], [ -72.047881088444797, -36.745393035052466 ], [ -72.047687391008282, -36.745113426258285 ], [ -72.047417509249172, -36.745052652181265 ], [ -72.047068537117482, -36.745264821013045 ], [ -72.046856093637629, -36.74547570581742 ], [ -72.04616457232855, -36.745733412814808 ], [ -72.04584261882566, -36.74589601749777 ], [ -72.045747737867032, -36.745943847165925 ], [ -72.045266758304351, -36.74604002683963 ], [ -72.044720741613403, -36.746080513582406 ], [ -72.044361491856563, -36.746023792114784 ], [ -72.043907633330619, -36.745952217912652 ], [ -72.043016058106076, -36.74609669574874 ], [ -72.042329427225411, -36.746241828343358 ], [ -72.042106214741921, -36.746382556850847 ], [ -72.0419098475124, -36.746506208298449 ], [ -72.041495363043666, -36.746658103452624 ], [ -72.040740221249521, -36.74680608758667 ], [ -72.039989158705097, -36.746841386987711 ], [ -72.03951307585902, -36.746829567736576 ], [ -72.038912527837084, -36.746485713107994 ], [ -72.038472738725119, -36.746233639741142 ], [ -72.038312718230287, -36.746141837503643 ], [ -72.037712825978502, -36.745798033779813 ], [ -72.036842417757001, -36.745393371209232 ], [ -72.03603215354039, -36.74520641023657 ], [ -72.035355319686218, -36.745081367432959 ], [ -72.034955561299938, -36.744850698546237 ], [ -72.03415920749552, -36.744285559686894 ], [ -72.033685329115158, -36.744215196062065 ], [ -72.03273445789533, -36.744137435363612 ], [ -72.031568178755222, -36.744329066329648 ], [ -72.030328406645097, -36.74468112442927 ], [ -72.029022402647371, -36.744977423958282 ], [ -72.027933076787761, -36.744950175672912 ], [ -72.027120643139753, -36.744821747824773 ], [ -72.026175510357973, -36.74457732509817 ], [ -72.025360986330284, -36.744502900459452 ], [ -72.024616412317158, -36.744376123875661 ], [ -72.024006096014801, -36.744302253312448 ], [ -72.023395041297292, -36.744232900347953 ], [ -72.022704173063417, -36.744490381892966 ], [ -72.02221677054645, -36.744753020860081 ], [ -72.021457402178896, -36.745008914884785 ], [ -72.021034381918355, -36.745287851745339 ], [ -72.020897846978315, -36.745377913035412 ], [ -72.020338464254266, -36.745746755370668 ], [ -72.019795144305817, -36.74584471180102 ], [ -72.019789494800989, -36.745845666998896 ], [ -72.019318049058413, -36.746089951800187 ], [ -72.018885346755738, -36.74631413216585 ], [ -72.018534516009723, -36.746279928798145 ], [ -72.018138570971828, -36.746241407972093 ], [ -72.017464685388404, -36.746057722066759 ], [ -72.016920105103608, -36.746044080841514 ], [ -72.015960705278488, -36.746186756089564 ], [ -72.015483885813879, -36.746174785576564 ], [ -72.014924380918956, -36.746543680946807 ], [ -72.014705435433072, -36.746921211513495 ], [ -72.014288497665305, -36.747131466255077 ], [ -72.013880262776013, -36.747121219823725 ], [ -72.013478352924622, -36.746944421700462 ], [ -72.01300986174104, -36.746716379959437 ], [ -72.012465274269701, -36.746702645276017 ], [ -72.011912170769492, -36.746905047516194 ], [ -72.011367585094803, -36.746891380528481 ], [ -72.010755141581868, -36.746875960806243 ], [ -72.010208166388509, -36.746920815619397 ], [ -72.009444512158737, -36.747284593195943 ], [ -72.008625103990866, -36.747318028085303 ], [ -72.008148919635161, -36.747306012401125 ], [ -72.007187371938201, -36.74750263376 ], [ -72.006559317502266, -36.747869828341216 ], [ -72.006009033813712, -36.748018169317241 ], [ -72.005527880876187, -36.748118696119597 ], [ -72.004964179950562, -36.748595577611319 ], [ -72.004081030923373, -36.748519271733286 ], [ -72.003049572737737, -36.748768045991959 ], [ -72.002151623067931, -36.749074415400194 ], [ -72.001734731114254, -36.74928470023125 ], [ -72.001068688721574, -36.749647952676995 ], [ -72.000968893978353, -36.749702367445714 ], [ -72.000351556443746, -36.749794943506259 ], [ -71.999736689276162, -36.749837994283858 ], [ -71.999458451388264, -36.749993171511413 ], [ -71.998736362206714, -36.749862343719869 ], [ -71.998117089700969, -36.749643877272057 ], [ -71.997577600168881, -36.748977004373295 ], [ -71.997348308785874, -36.748412522841697 ], [ -71.99686604373403, -36.747895682780261 ], [ -71.996438698983681, -36.7475830471151 ], [ -71.996328692192307, -36.747174712874411 ], [ -71.995903472855929, -36.746808058422339 ], [ -71.995664276648611, -36.746500127332162 ], [ -71.995362093268497, -36.746190608535706 ], [ -71.994795290460203, -36.746225851354609 ], [ -71.994605225810716, -36.746270649682501 ], [ -71.994417176082379, -36.746265862922364 ], [ -71.994306995017837, -36.745862109068803 ], [ -71.994324721473347, -36.745407444443138 ], [ -71.994023475934398, -36.745093469124633 ], [ -71.993583663466225, -36.745082324079995 ], [ -71.993193602393447, -36.745428396288354 ], [ -71.992932826856361, -36.745674065910329 ], [ -71.992472151914043, -36.746216652851572 ], [ -71.992093392545854, -36.746256599640923 ], [ -71.991225064822558, -36.74598235446485 ], [ -71.990736782854924, -36.745618521767256 ], [ -71.990112977450281, -36.745499193572599 ], [ -71.989732831083288, -36.745593130844846 ], [ -71.989581274515061, -36.746247079384837 ], [ -71.989337163624811, -36.74637420918507 ], [ -71.988747601100485, -36.746681066104657 ], [ -71.988481070955686, -36.746724602341182 ], [ -71.987673463057376, -36.74685666347515 ], [ -71.987022070390339, -36.747033664785981 ], [ -71.986657704727961, -36.747132730953233 ], [ -71.985778885580444, -36.747110511995615 ], [ -71.984959738822312, -36.747188882235491 ], [ -71.9839317732865, -36.747436738740276 ], [ -71.983437914577593, -36.747555729934177 ], [ -71.982669113899547, -36.747941759933902 ], [ -71.981707551829544, -36.748421943497625 ], [ -71.981378473788141, -36.748819083412023 ], [ -71.981293803979355, -36.749371096726733 ], [ -71.98127397456777, -36.74987527384377 ], [ -71.981122434169237, -36.750529285939763 ], [ -71.98066631548204, -36.750839400480267 ], [ -71.980575503891643, -36.750901176932636 ], [ -71.980477362048532, -36.750967934859915 ], [ -71.980030404380628, -36.751159335717631 ], [ -71.979582615771051, -36.751350682115444 ], [ -71.979133715047155, -36.751591587375792 ], [ -71.978678715660806, -36.751985526666822 ], [ -71.978482621519134, -36.752183333712054 ], [ -71.977895556311282, -36.752950716489011 ], [ -71.977688075125059, -36.753221889345724 ], [ -71.977230481404149, -36.753665422170336 ], [ -71.976718564761413, -36.75390472377493 ], [ -71.976393221914961, -36.754202762565086 ], [ -71.976130423371828, -36.754497907577026 ], [ -71.975992607434222, -36.754796344954322 ], [ -71.975733775851396, -36.754992469936774 ], [ -71.975527685257219, -36.755442324687657 ], [ -71.975064786984575, -36.756038865618912 ], [ -71.97473694592334, -36.75638184616092 ], [ -71.97433620657678, -36.756979929328324 ], [ -71.973952381608697, -36.757431791927353 ], [ -71.973875334005086, -36.757522452154909 ], [ -71.973671349960256, -36.757922790829326 ], [ -71.973202415907224, -36.758667781834589 ], [ -71.973190382974011, -36.758973774894152 ], [ -71.973427596599493, -36.759331335489392 ], [ -71.973475484888965, -36.759414366914868 ], [ -71.973603930499877, -36.75963763608739 ], [ -71.973709031591497, -36.760149464340785 ], [ -71.973691184761748, -36.760604130130154 ], [ -71.973546217336136, -36.761105012884549 ], [ -71.973402365618114, -36.761556407146543 ], [ -71.973059441843233, -36.762065489306657 ], [ -71.973051975046602, -36.762076453407424 ], [ -71.973002518298628, -36.762149960699752 ], [ -71.972488398986798, -36.762443262306164 ], [ -71.971919425848768, -36.762527913918085 ], [ -71.971539171683943, -36.762621869922938 ], [ -71.971280312253356, -36.76281348350976 ], [ -71.970887382859871, -36.763208944096299 ], [ -71.970752393022138, -36.763457845596804 ], [ -71.970288582959469, -36.764054243590643 ], [ -71.969779254363047, -36.764244065281133 ], [ -71.969263359081921, -36.76458235449109 ], [ -71.968747170051671, -36.764925078780344 ], [ -71.968237096751864, -36.765114838585475 ], [ -71.9679191991425, -36.765205897765171 ], [ -71.967660127709493, -36.765402011244191 ], [ -71.967195073480184, -36.766047963548601 ], [ -71.96661401081505, -36.766438656496526 ], [ -71.966164982530401, -36.766679518691859 ], [ -71.965464107962575, -36.766913891318708 ], [ -71.96502295790296, -36.766952210346425 ], [ -71.964956920051492, -36.766950535072247 ], [ -71.964771944358063, -36.766945846751042 ], [ -71.964383871257013, -36.76723774331392 ], [ -71.964235872017312, -36.767792727778897 ], [ -71.963786827562984, -36.768033581403323 ], [ -71.963588705025387, -36.768280801354337 ], [ -71.963446820617833, -36.76868267635524 ], [ -71.963558922280455, -36.769036952766839 ], [ -71.963677546610356, -36.76931038082104 ], [ -71.963598129251039, -36.769583135798676 ], [ -71.963287331027345, -36.770561923833974 ], [ -71.963337697768708, -36.771004774969043 ], [ -71.963320470776495, -36.771441337318663 ], [ -71.9632607795225, -36.771647382981101 ], [ -71.96316237357469, -36.77198704989214 ], [ -71.962541247844527, -36.772187379260458 ], [ -71.961709224635129, -36.772549092753046 ], [ -71.961425702856729, -36.772816671175626 ], [ -71.961063307199765, -36.773357135567451 ], [ -71.960571949400588, -36.773727554485241 ], [ -71.959467182399564, -36.774082240037011 ], [ -71.958635019951274, -36.774448438893423 ], [ -71.957581620414814, -36.774974938381774 ], [ -71.957383096330304, -36.77507422102498 ], [ -71.957185504697023, -36.775176286009788 ], [ -71.956269515958013, -36.775649379295928 ], [ -71.955766556416947, -36.776294385431022 ], [ -71.955479261714373, -36.776670044151842 ], [ -71.955070862433374, -36.776659528245297 ], [ -71.954866664589517, -36.776654344043173 ], [ -71.954460318857258, -36.776589811669922 ], [ -71.954115510416912, -36.776689108051265 ], [ -71.95390477732937, -36.77684590025946 ], [ -71.953495642328164, -36.776835397328533 ], [ -71.953001883332249, -36.777264311767411 ], [ -71.952520659427805, -36.777360126948118 ], [ -71.951967057362609, -36.777566623671149 ], [ -71.951736968275625, -36.777764420865665 ], [ -71.951473389096535, -36.77799110036166 ], [ -71.951196167203221, -36.778096608658608 ], [ -71.950857895803196, -36.778029340462574 ], [ -71.950379261741745, -36.778075623284472 ], [ -71.950302869908285, -36.778289902492297 ], [ -71.949955706983587, -36.77844778580323 ], [ -71.949142465750128, -36.778314271676777 ], [ -71.948793051647328, -36.778526022575861 ], [ -71.947965283757412, -36.77877960944133 ], [ -71.947473092321658, -36.779149995681671 ], [ -71.947273188424873, -36.779036691547859 ], [ -71.946879942824395, -36.778643600633075 ], [ -71.946337373867536, -36.778571049552149 ], [ -71.945920161215284, -36.778781150628468 ], [ -71.945637202680572, -36.77904867851796 ], [ -71.945281410539252, -36.779422541532924 ], [ -71.944864188005539, -36.779632565447173 ], [ -71.944508298846173, -36.780006428492065 ], [ -71.943809714982322, -36.780425467413352 ], [ -71.943254004571145, -36.780686014102621 ], [ -71.942566091794561, -36.780835039163975 ], [ -71.942234923373491, -36.780605754886182 ], [ -71.94163459454046, -36.780261399803656 ], [ -71.941021966872896, -36.780245629920103 ], [ -71.940405025495323, -36.780337889233003 ], [ -71.939984798995326, -36.780601860998985 ], [ -71.939836073916879, -36.780926956729878 ], [ -71.939684352058634, -36.78131052002982 ], [ -71.939534891259996, -36.78163563361975 ], [ -71.938779359597021, -36.781778337639167 ], [ -71.938634851210523, -36.781995401668588 ], [ -71.93787642337908, -36.782192134120628 ], [ -71.937606478737891, -36.782131111701851 ], [ -71.937347520492622, -36.781795498682015 ], [ -71.936944745563622, -36.781622964985509 ], [ -71.936208746868189, -36.781275070290036 ], [ -71.936066922647782, -36.781252514430363 ], [ -71.935802391254484, -36.781210549001855 ], [ -71.935116903030831, -36.78130100484384 ], [ -71.934699640072935, -36.781510994831315 ], [ -71.934616617774395, -36.781891821906648 ], [ -71.934399244340241, -36.782215137218017 ], [ -71.934119920389165, -36.782370044609912 ], [ -71.934265957708291, -36.782527000748722 ], [ -71.934381854752971, -36.782651702637303 ], [ -71.934234438519908, -36.782922796377846 ], [ -71.934075266034725, -36.782960389373834 ], [ -71.934028055973272, -36.78297144617617 ], [ -71.933615300761474, -36.78306896583738 ], [ -71.933404404180536, -36.783230228711446 ], [ -71.9331913453547, -36.783445509392557 ], [ -71.932975478395306, -36.783714747710064 ], [ -71.933088021130715, -36.784316935881591 ], [ -71.933065070073539, -36.784434656860114 ], [ -71.933002629076441, -36.784756212455051 ], [ -71.93257968966428, -36.784844456834769 ], [ -71.932243366710097, -36.784727628607058 ], [ -71.932050060939062, -36.784447815698059 ], [ -71.931842842959213, -36.78442893575064 ], [ -71.931559916763845, -36.78476412427235 ], [ -71.93128996403783, -36.784703014689406 ], [ -71.931087816149429, -36.784643776356113 ], [ -71.930610839479655, -36.784631472262618 ], [ -71.930417539098499, -36.784351656844137 ], [ -71.930428457222476, -36.784076993167673 ], [ -71.930414096754347, -36.784051805632274 ], [ -71.930237416104248, -36.783743232650139 ], [ -71.929828884770927, -36.783732634975912 ], [ -71.929420445964055, -36.783722105649105 ], [ -71.928873421363377, -36.783762014919716 ], [ -71.928294751810185, -36.783792810032864 ], [ -71.928189974112044, -36.783798418234376 ], [ -71.9269550609893, -36.783987257183966 ], [ -71.926542195284711, -36.784084681303483 ], [ -71.925870959731384, -36.78429019008172 ], [ -71.925714284562673, -36.784338118116771 ], [ -71.925434927373942, -36.784497657384293 ], [ -71.925330220642721, -36.784654742983868 ], [ -71.925290373173354, -36.784714633852374 ], [ -71.925002251122393, -36.785090167128736 ], [ -71.924727971211638, -36.785137150027204 ], [ -71.924248820618871, -36.78517876365359 ], [ -71.923901476234477, -36.785336576656732 ], [ -71.923618702752719, -36.785599545566555 ], [ -71.923275689146308, -36.785649249089921 ], [ -71.922867236864718, -36.785638625059839 ], [ -71.922596752336034, -36.785573079358912 ], [ -71.922190470384166, -36.785508435786348 ], [ -71.922016065166716, -36.785469095067896 ], [ -71.921649845381566, -36.785386338625798 ], [ -71.921102803712898, -36.785426286599233 ], [ -71.920960497097155, -36.785589238085166 ], [ -71.920947281981029, -36.785917847275861 ], [ -71.92080226604638, -36.786130326103944 ], [ -71.920518456807088, -36.786397816829016 ], [ -71.920441778411075, -36.786616588662412 ], [ -71.92033677703246, -36.786715505861842 ], [ -71.92015796647685, -36.7868840784095 ], [ -71.919793557695314, -36.787001401195958 ], [ -71.919536598201546, -36.787084266686122 ], [ -71.91914714259326, -36.787293741543408 ], [ -71.919049193887943, -36.787346420241747 ], [ -71.91856123441552, -36.787608585130698 ], [ -71.918009635593407, -36.787761061477454 ], [ -71.917319715082158, -36.787959378403791 ], [ -71.916208632026368, -36.788480291612991 ], [ -71.915797163202029, -36.788523607003327 ], [ -71.91559945388947, -36.788356304958775 ], [ -71.915474825220215, -36.788078249896472 ], [ -71.915381806469171, -36.787943961901831 ], [ -71.915280834932929, -36.787798426200865 ], [ -71.914740291677006, -36.787676221178288 ], [ -71.914263936641419, -36.787663836996117 ], [ -71.914051003579715, -36.787874503072473 ], [ -71.914037758819191, -36.788203113254227 ], [ -71.913877287370099, -36.788802714391537 ], [ -71.913800584719553, -36.789021408856257 ], [ -71.913455476241893, -36.789120596327521 ], [ -71.913106096275087, -36.789332318088682 ], [ -71.913027217904926, -36.78960510254209 ], [ -71.912673299649299, -36.789924861670741 ], [ -71.912631883721431, -36.790210163753926 ], [ -71.912578349520388, -36.790580214185681 ], [ -71.912016654532792, -36.791002582195183 ], [ -71.911330846508932, -36.791097413336374 ], [ -71.910443078344542, -36.79112838534973 ], [ -71.909830175792507, -36.791112462313542 ], [ -71.909650459735076, -36.791219179109106 ], [ -71.909480880267324, -36.791319667990628 ], [ -71.909183389686262, -36.791620096486902 ], [ -71.909054670987516, -36.791750146606013 ], [ -71.908632915554875, -36.792068011277522 ], [ -71.908081547599792, -36.792215858876588 ], [ -71.907736312459676, -36.792319536907158 ], [ -71.907452722409317, -36.792582489045451 ], [ -71.907235005818748, -36.79291019420274 ], [ -71.906687804249955, -36.7929500073272 ], [ -71.906218247664413, -36.792771104202394 ], [ -71.905881833082091, -36.792654202454379 ], [ -71.905145947574397, -36.7923061859074 ], [ -71.904809825842861, -36.792184770762908 ], [ -71.904542047938122, -36.792069656508076 ], [ -71.904135011401408, -36.792005044314202 ], [ -71.903659183676893, -36.792019475881453 ], [ -71.903179418636455, -36.792034149878454 ], [ -71.90303196197921, -36.792305134171677 ], [ -71.902890349761194, -36.792614215805962 ], [ -71.902882967406171, -36.792630193922129 ], [ -71.90258814122825, -36.793172159491562 ], [ -71.902313811011837, -36.79321901945724 ], [ -71.901362575076007, -36.79314022362442 ], [ -71.900953347548338, -36.793129543802472 ], [ -71.900400415626336, -36.79333143290188 ], [ -71.90002687187669, -36.793434523854806 ], [ -71.899848728769328, -36.793483680609803 ], [ -71.899637926511488, -36.793640380189736 ], [ -71.89952573591566, -36.793846571196497 ], [ -71.899490455481185, -36.793911360959491 ], [ -71.89920881746994, -36.794124785165693 ], [ -71.899004476793948, -36.794119435971787 ], [ -71.898933699431026, -36.794094881181564 ], [ -71.898668158331361, -36.794002511103486 ], [ -71.898328296014967, -36.793993673697166 ], [ -71.898055413882801, -36.793986523921795 ], [ -71.897635892560288, -36.794245902296588 ], [ -71.897490694267645, -36.79446293460613 ], [ -71.897205318366503, -36.794784374022555 ], [ -71.897153097502411, -36.794843006010403 ], [ -71.896919204050192, -36.79510575598048 ], [ -71.896574029995534, -36.795209399887106 ], [ -71.896167821705518, -36.795140236105802 ], [ -71.896019099322018, -36.795195683239641 ], [ -71.895614016621067, -36.795346479904424 ], [ -71.895468625190645, -36.79556351556996 ], [ -71.895187905257629, -36.795772478806683 ], [ -71.894913363937107, -36.795823829512905 ], [ -71.894742068687179, -36.796077003781129 ], [ -71.894622862248966, -36.796253314580973 ], [ -71.894064667097723, -36.796567586160009 ], [ -71.893367833152055, -36.796932328819793 ], [ -71.892337593081919, -36.797126164279859 ], [ -71.891586183787794, -36.797160543508063 ], [ -71.891133520919496, -36.797228030852736 ], [ -71.890969031306128, -36.797252554426535 ], [ -71.890821288984625, -36.797319635985559 ], [ -71.890621556666048, -36.797410201571864 ], [ -71.890272069799707, -36.797621786050385 ], [ -71.889918014101823, -36.797941408854733 ], [ -71.889025854972346, -36.798080256405342 ], [ -71.888687983322626, -36.7980173792645 ], [ -71.888283206048868, -36.797898619583229 ], [ -71.887874689088562, -36.797887950495301 ], [ -71.887605548439552, -36.797907483873551 ], [ -71.887327437214125, -36.797927676871247 ], [ -71.887118790014654, -36.798030338673961 ], [ -71.8867710306086, -36.798258923420725 ], [ -71.88655835626173, -36.798398594022046 ], [ -71.886277310240246, -36.798612048166099 ], [ -71.88579126417936, -36.798820070847178 ], [ -71.885237599232084, -36.799021760803463 ], [ -71.884620223968241, -36.799118247957111 ], [ -71.884211698024785, -36.799107493440268 ], [ -71.883732433345997, -36.79914909660166 ], [ -71.883271638927738, -36.799396729066949 ], [ -71.883244823318194, -36.799411111047633 ], [ -71.883216558726076, -36.799440734581623 ], [ -71.882888624240039, -36.799784728696359 ], [ -71.882745672633945, -36.799943148923091 ], [ -71.882598129738412, -36.800214111712158 ], [ -71.882176217100607, -36.800531962122641 ], [ -71.881826599080242, -36.800743525749311 ], [ -71.881643478407881, -36.800783106064493 ], [ -71.881139192953469, -36.800892187396698 ], [ -71.880791878213486, -36.801045299061101 ], [ -71.880642124564048, -36.80137020303895 ], [ -71.880744346555176, -36.801405817551363 ], [ -71.88097845290811, -36.801487177800894 ], [ -71.881176022981805, -36.801659118666464 ], [ -71.8812305417364, -36.801989405368744 ], [ -71.881219353219521, -36.80226392570944 ], [ -71.880929485741973, -36.80269336459618 ], [ -71.879828381172345, -36.802939305359907 ], [ -71.879129216098505, -36.803357913173095 ], [ -71.878162357561592, -36.803661489475026 ], [ -71.877685900118024, -36.803648962583374 ], [ -71.877065627787402, -36.803799297375335 ], [ -71.876720491461981, -36.803898380838419 ], [ -71.875620455887542, -36.80414425803275 ], [ -71.875620088476595, -36.804144266663961 ], [ -71.875136178609466, -36.80429823063357 ], [ -71.874836151186031, -36.804521051170639 ], [ -71.874784431581858, -36.804559360747533 ], [ -71.874439179373766, -36.804662869586764 ], [ -71.873956109431418, -36.804812452915158 ], [ -71.873608744385777, -36.804969974452497 ], [ -71.873200092678204, -36.804959186232743 ], [ -71.872925058182602, -36.805005994393213 ], [ -71.87264174481335, -36.805273436474756 ], [ -71.872337506986185, -36.805295481781336 ], [ -71.872094611516516, -36.805313089970937 ], [ -71.871753869749469, -36.805304125122191 ], [ -71.87153616214205, -36.805627263957938 ], [ -71.871522341561402, -36.805967402419355 ], [ -71.87151841861855, -36.806063835509534 ], [ -71.871161932977842, -36.806441928953916 ], [ -71.870616994265234, -36.806427559082373 ], [ -71.870140517957054, -36.806415002434775 ], [ -71.869891889439245, -36.806372654481848 ], [ -71.86973362425249, -36.806345766058527 ], [ -71.869463635593846, -36.806284516893633 ], [ -71.86912068576784, -36.80632963616474 ], [ -71.868696458171542, -36.806705888464798 ], [ -71.868476527233796, -36.807083040846408 ], [ -71.868129245731467, -36.807236041597086 ], [ -71.867647417260841, -36.807336034767715 ], [ -71.867502947501904, -36.807548439087178 ], [ -71.867491713170963, -36.807823033719544 ], [ -71.867486184938713, -36.807957819099634 ], [ -71.867480567773228, -36.808097553286068 ], [ -71.867402981180462, -36.808316241573237 ], [ -71.867053486229295, -36.808523255428021 ], [ -71.866570173741806, -36.808677245835057 ], [ -71.866458335285557, -36.80873339088842 ], [ -71.866152654764051, -36.808887006875416 ], [ -71.865788528053528, -36.809019441395307 ], [ -71.865736804856098, -36.809038185103006 ], [ -71.865396782639579, -36.809029257370796 ], [ -71.865055928583132, -36.809020202334821 ], [ -71.864654072630671, -36.808847476060023 ], [ -71.864449690632156, -36.808842067479361 ], [ -71.864354942624203, -36.808839553064637 ], [ -71.864108933593769, -36.808833081467 ], [ -71.863761635023465, -36.808986069370711 ], [ -71.86368183049025, -36.809258846407118 ], [ -71.863671542085285, -36.809512379746174 ], [ -71.863666251906579, -36.809641400491813 ], [ -71.863652883178531, -36.809969937436207 ], [ -71.863371635036117, -36.810183270145764 ], [ -71.86302654272815, -36.810282312264334 ], [ -71.862140811942837, -36.810258914115693 ], [ -71.861868605343759, -36.810251739967015 ], [ -71.861713996300224, -36.810227042190832 ], [ -71.861462319798648, -36.810186889947616 ], [ -71.860802871938461, -36.81012577115623 ], [ -71.860646625266128, -36.810111299128401 ], [ -71.860378842869835, -36.809996085952669 ], [ -71.860110527772562, -36.809876381816117 ], [ -71.859929851416098, -36.809871576011581 ], [ -71.859770589099369, -36.809867362841196 ], [ -71.859490901330616, -36.810026684963063 ], [ -71.859438847553164, -36.81029067167249 ], [ -71.859405173306428, -36.810461421176548 ], [ -71.858580421959246, -36.810606319753354 ], [ -71.858463215170843, -36.81066399027295 ], [ -71.858163069169791, -36.810811546657987 ], [ -71.857754388716145, -36.810800779399131 ], [ -71.857579599019743, -36.811030805434562 ], [ -71.857465724981068, -36.811180598556938 ], [ -71.857254785280972, -36.811337228846959 ], [ -71.856846191963896, -36.811326382549716 ], [ -71.856729666996813, -36.811266656326609 ], [ -71.856512161510324, -36.811155393322089 ], [ -71.856171391895515, -36.811146384566669 ], [ -71.855960539332017, -36.811302936533572 ], [ -71.856011171076375, -36.811741257898774 ], [ -71.856267476596614, -36.81213551023643 ], [ -71.856392879613651, -36.812409256311319 ], [ -71.856623837371501, -36.812479741475364 ], [ -71.856796845708715, -36.812532498505853 ], [ -71.857198803170789, -36.812705397702828 ], [ -71.857187620942142, -36.812979916304648 ], [ -71.857084912064124, -36.813271992095927 ], [ -71.85703385182336, -36.813417320459052 ], [ -71.856459668456694, -36.814114056934457 ], [ -71.856314420756718, -36.814326466182607 ], [ -71.855823754660335, -36.81464233495025 ], [ -71.855336037733025, -36.814904240289735 ], [ -71.855122668988429, -36.815119393125705 ], [ -71.854350794275476, -36.815648641544918 ], [ -71.85400353972264, -36.815801674800106 ], [ -71.853306328484535, -36.816166123767779 ], [ -71.853095166900601, -36.816327254402907 ], [ -71.85288420204769, -36.816483803685571 ], [ -71.852818617845429, -36.816747596251396 ], [ -71.852802869480186, -36.816810575953802 ], [ -71.852643899115932, -36.817356027989803 ], [ -71.852289686212885, -36.81767554613306 ], [ -71.852265066085877, -36.817712310162364 ], [ -71.851999488155286, -36.818109354368808 ], [ -71.851787689665798, -36.818265921580689 ], [ -71.851372297898635, -36.818421690231141 ], [ -71.850820613736587, -36.818569211527205 ], [ -71.850634845729076, -36.818638041325514 ], [ -71.850128539065267, -36.818825737983936 ], [ -71.849851217458962, -36.818926513533938 ], [ -71.849496982098032, -36.819245949612608 ], [ -71.849352799799988, -36.819408643618267 ], [ -71.849068054516181, -36.81973017680729 ], [ -71.84888454666995, -36.819773406927361 ], [ -71.848774040415265, -36.819799384539465 ], [ -71.848654882486088, -36.819827341888306 ], [ -71.848579792311483, -36.819825377244342 ], [ -71.848109849450381, -36.819812945764184 ], [ -71.847757823945045, -36.820078359979149 ], [ -71.847647208095907, -36.8203887037605 ], [ -71.847603456548299, -36.820511337679477 ], [ -71.847486969310467, -36.820621246654014 ], [ -71.847319996753654, -36.820778651529039 ], [ -71.847302198432942, -36.820811264062577 ], [ -71.847025224474649, -36.821320485494574 ], [ -71.846606844910866, -36.821530126317889 ], [ -71.846266028583628, -36.821521090738258 ], [ -71.845522336716115, -36.821550420233024 ], [ -71.845446509922965, -36.821553417470021 ], [ -71.844833627133852, -36.821537087992155 ], [ -71.844617983854974, -36.821806166536582 ], [ -71.844606668675652, -36.822080762522269 ], [ -71.84459321909921, -36.822409300012289 ], [ -71.844586547311593, -36.822571278982522 ], [ -71.844506661031701, -36.822843973093953 ], [ -71.844156837297135, -36.823055506710212 ], [ -71.844007626230109, -36.823380428747733 ], [ -71.844004089562844, -36.823465926294247 ], [ -71.843991859898551, -36.823762985607523 ], [ -71.843709860764577, -36.823976217317018 ], [ -71.843635357189854, -36.824136498093203 ], [ -71.843621809697069, -36.824464963478576 ], [ -71.843335454632253, -36.824786300688409 ], [ -71.842990909398296, -36.824885274296385 ], [ -71.842581599225596, -36.824874397560464 ], [ -71.842036435035865, -36.824859903872394 ], [ -71.841781732110107, -36.824853151032386 ], [ -71.841764175436182, -36.824852685071278 ], [ -71.841219101976307, -36.824838185626533 ], [ -71.840669374344913, -36.824936153181518 ], [ -71.840249376016985, -36.825199848302887 ], [ -71.840031477966718, -36.82552286433009 ], [ -71.840015783500391, -36.825905418388857 ], [ -71.840002225227806, -36.826234032217663 ], [ -71.83999872179821, -36.826318052498792 ], [ -71.839979646971457, -36.826783000156787 ], [ -71.839832104075924, -36.827049409099033 ], [ -71.839546366153726, -36.827370723950686 ], [ -71.839189532864992, -36.827748733731802 ], [ -71.838637755278143, -36.827896202534312 ], [ -71.838081411554697, -36.828156208822023 ], [ -71.837590583761553, -36.82847208235124 ], [ -71.836977552750412, -36.828455716959589 ], [ -71.836571093830429, -36.828390787449486 ], [ -71.835754988767846, -36.828743948672177 ], [ -71.83573727309215, -36.828751606439077 ], [ -71.835519348990744, -36.829074687285221 ], [ -71.835235814635922, -36.829341974816408 ], [ -71.835093757751835, -36.829740094753291 ], [ -71.835081361000917, -36.829774939649404 ], [ -71.834663632715689, -36.829984450894578 ], [ -71.833935589500427, -36.830233622286187 ], [ -71.833625344638961, -36.830339797065697 ], [ -71.833005496313135, -36.830489971589962 ], [ -71.832174596896138, -36.830796657195641 ], [ -71.831908812353035, -36.830955584153507 ], [ -71.831474911697754, -36.831215078171034 ], [ -71.830918426040498, -36.83147505592342 ], [ -71.829960135634735, -36.831557609415292 ], [ -71.829563842948829, -36.831547042803379 ], [ -71.829142728913325, -36.831535811103059 ], [ -71.828595281206134, -36.831575274837171 ], [ -71.828268095915035, -36.831645739474631 ], [ -71.827906831237001, -36.831723511358128 ], [ -71.827491512233365, -36.831874620035883 ], [ -71.826739598086078, -36.831913110056483 ], [ -71.826125804405251, -36.831896708012401 ], [ -71.825785677984172, -36.831887670780873 ], [ -71.825174413060893, -36.831812735560078 ], [ -71.824629194073921, -36.831798090037111 ], [ -71.824006986772162, -36.832002311748077 ], [ -71.823519042571064, -36.832264021786898 ], [ -71.82327810183547, -36.832257566549885 ], [ -71.823109692872507, -36.832253079232324 ], [ -71.822509612872835, -36.832612237804092 ], [ -71.822410676020695, -36.832671432564702 ], [ -71.82232673923717, -36.832698968908588 ], [ -71.819666746832539, -36.824564311422975 ], [ -71.819258366416165, -36.824713750162431 ], [ -71.818847612650814, -36.824858591559277 ], [ -71.818415261589408, -36.824967993095242 ], [ -71.81802336975008, -36.825121465047239 ], [ -71.817725301552287, -36.825394370825684 ], [ -71.817387172984397, -36.825636704444662 ], [ -71.81698098176237, -36.825763492633861 ], [ -71.816569542582457, -36.825624568007576 ], [ -71.816211483991694, -36.825398742056073 ], [ -71.815930057084515, -36.825121562122121 ], [ -71.815675222106407, -36.824825739141005 ], [ -71.815424827500749, -36.824520729503305 ], [ -71.815133005289127, -36.824252875032236 ], [ -71.814738236145956, -36.824099965099087 ], [ -71.814285407987626, -36.824101685864285 ], [ -71.813836891742682, -36.824103301643341 ], [ -71.813388100613238, -36.824104923894083 ], [ -71.812815413839843, -36.824050861074653 ], [ -71.812782955013688, -36.823691151040741 ], [ -71.812746828366215, -36.823331601830297 ], [ -71.812711067333083, -36.822971969672949 ], [ -71.812679253497294, -36.822612318567124 ], [ -71.812655583787873, -36.822256904147388 ], [ -71.812643585888935, -36.821896708915119 ], [ -71.812647276168121, -36.821536143085694 ], [ -71.81266482206226, -36.821175322430577 ], [ -71.812694017308985, -36.82081415346147 ], [ -71.812731728584609, -36.820457359334412 ], [ -71.812807398172581, -36.820104095863321 ], [ -71.813126551626709, -36.819479303557102 ], [ -71.813940084812643, -36.818153369265552 ], [ -71.811062438699466, -36.815835001423252 ], [ -71.810982406892492, -36.815906140745085 ], [ -71.810528922964025, -36.816623872538059 ], [ -71.810423159814064, -36.816724559654851 ], [ -71.809900104960079, -36.816602497867493 ], [ -71.809399472055617, -36.816634046395841 ], [ -71.808427317950091, -36.816310575738427 ], [ -71.807657915400824, -36.816168266856693 ], [ -71.806138285740332, -36.815807584863308 ], [ -71.804133220873339, -36.815280574148375 ], [ -71.803696459083895, -36.815273310574582 ], [ -71.803072686916906, -36.815535852372193 ], [ -71.802047710974364, -36.81555788681316 ], [ -71.801192960388263, -36.815751081821439 ], [ -71.800749359724549, -36.816158192180716 ], [ -71.800351164406862, -36.816606974596496 ], [ -71.799644710402802, -36.817002410046122 ], [ -71.79832432437739, -36.81849861331294 ], [ -71.795754036838701, -36.81924922020864 ], [ -71.795225511244666, -36.819726079239281 ], [ -71.794783619176627, -36.819876295449781 ], [ -71.794149042073386, -36.819841167745309 ], [ -71.793242156861453, -36.820105001235817 ], [ -71.791962238142972, -36.820930900762285 ], [ -71.791389825355722, -36.82095158531434 ], [ -71.790417217600975, -36.821830784351867 ], [ -71.790162090670393, -36.822004132839105 ], [ -71.789330557941128, -36.821954557895566 ], [ -71.787520253217622, -36.821995787653961 ], [ -71.786073308043413, -36.822123334055917 ], [ -71.785171101257461, -36.822540476448303 ], [ -71.783949913493927, -36.822565920989213 ], [ -71.78232836906615, -36.822999598675423 ], [ -71.782178954081587, -36.822986560796167 ], [ -71.781627922096391, -36.822949041375715 ], [ -71.780082734467769, -36.82247914388082 ], [ -71.779333594318032, -36.822585038186901 ], [ -71.778814926835935, -36.822728722992515 ], [ -71.777731070818078, -36.82293353268166 ], [ -71.776032886621834, -36.823072218421295 ], [ -71.774392653642863, -36.822982593558407 ], [ -71.773227296174227, -36.822761751051274 ], [ -71.771716275069124, -36.822328744375127 ], [ -71.770607603989859, -36.821843593033819 ], [ -71.770003650454683, -36.821430676635607 ], [ -71.769704312937378, -36.821318945163242 ], [ -71.769538660005722, -36.821260352143121 ], [ -71.769096099591124, -36.821090683819982 ], [ -71.76874278679999, -36.820981906683002 ], [ -71.766843438370572, -36.820975359885935 ], [ -71.7659065988355, -36.821017399172668 ], [ -71.765582554952957, -36.821076175033056 ], [ -71.764876471054805, -36.821210135990725 ], [ -71.764161961857596, -36.82137536786928 ], [ -71.763241389015676, -36.821282722198355 ], [ -71.762228118121286, -36.82102530796373 ], [ -71.760393082778009, -36.820358134061131 ], [ -71.759497683425295, -36.820347188365524 ], [ -71.758987807754878, -36.820130542948604 ], [ -71.757854637821197, -36.819279670975668 ], [ -71.756989819815715, -36.818296469103345 ], [ -71.755895873022268, -36.817631442506851 ], [ -71.755414187383764, -36.817160615584115 ], [ -71.754760808541647, -36.822585824159979 ], [ -71.754917983173655, -36.822938160050001 ], [ -71.755271472034579, -36.823123752166538 ], [ -71.755669866778263, -36.823281208702575 ], [ -71.756084410535777, -36.823420348276471 ], [ -71.756507233166985, -36.823554718606289 ], [ -71.756931525441956, -36.823689053464904 ], [ -71.757349648985908, -36.823828032660295 ], [ -71.757762361078591, -36.823967136004804 ], [ -71.758175691212159, -36.82411065282637 ], [ -71.758584350106275, -36.824254424652622 ], [ -71.758990372445012, -36.824411691901389 ], [ -71.75939412474105, -36.824564507012305 ], [ -71.759795174006385, -36.824726390816927 ], [ -71.760192810571937, -36.824892928135021 ], [ -71.760588314537017, -36.825063944201261 ], [ -71.76098244677469, -36.825235064869794 ], [ -71.761375452524945, -36.825410565733343 ], [ -71.761768395393176, -36.825581710794161 ], [ -71.762161776639232, -36.825757347485414 ], [ -71.762555913368459, -36.825928388944185 ], [ -71.762951521538113, -36.826099467411971 ], [ -71.763349279376229, -36.826261341497684 ], [ -71.763748422416555, -36.826423328852513 ], [ -71.764148275125919, -36.826589728732273 ], [ -71.764548518602439, -36.826751614004763 ], [ -71.764948787231802, -36.826909068828236 ], [ -71.765349952379822, -36.827070929696276 ], [ -71.765751025001336, -36.827232791659981 ], [ -71.766152306930323, -36.827390144106971 ], [ -71.766554120661979, -36.827552060043239 ], [ -71.766955933495282, -36.827713900855741 ], [ -71.76735786400792, -36.827871307679942 ], [ -71.767759677739576, -36.828033072317375 ], [ -71.76816151931898, -36.828190478484927 ], [ -71.768563522595144, -36.828352308599499 ], [ -71.768965180918244, -36.828509642925169 ], [ -71.769367095261188, -36.828671472364647 ], [ -71.770020654664677, -36.828935660096327 ], [ -71.774855800748838, -36.830800791559895 ], [ -71.773556027465943, -36.833901472341736 ], [ -71.773659154958878, -36.834147776591465 ], [ -71.773857612568079, -36.834381371968178 ], [ -71.774224949857413, -36.834650077488099 ], [ -71.774622738238278, -36.834645733388655 ], [ -71.774974019040243, -36.834396493684352 ], [ -71.775463940433269, -36.833998951601615 ], [ -71.775930498442378, -36.833707225970933 ], [ -71.776275423663705, -36.833610060539442 ], [ -71.776579896849455, -36.833572677904087 ], [ -71.776899350340912, -36.83362700146111 ], [ -71.777232774431667, -36.833803471688725 ], [ -71.777603245943027, -36.833996128128646 ], [ -71.778014907905145, -36.834113848240754 ], [ -71.778615482876546, -36.834236598927767 ], [ -71.779173866674, -36.834464793014995 ], [ -71.779617433201722, -36.834720328631256 ], [ -71.779965302202257, -36.835003718135468 ], [ -71.780268953429541, -36.835438004038899 ], [ -71.780614803017301, -36.83576691340317 ], [ -71.7810010166057, -36.836036115178416 ], [ -71.781369119259679, -36.836289571321927 ], [ -71.781993540908616, -36.836747790709062 ], [ -71.78296393251955, -36.837534980289441 ], [ -71.783663393139122, -36.838010479420319 ], [ -71.784765653840509, -36.838816415426216 ], [ -71.785586056443407, -36.839569079040551 ], [ -71.785804321904607, -36.839800417658452 ], [ -71.785783922062834, -36.839817874842367 ], [ -71.78654633751583, -36.840599428063882 ], [ -71.787027198500894, -36.840871112533172 ], [ -71.787774769293819, -36.841104350201704 ], [ -71.788581638776961, -36.841278312834362 ], [ -71.789471783883556, -36.841271957569226 ], [ -71.790274381877538, -36.841095864034166 ], [ -71.790872672433167, -36.84082291145959 ], [ -71.791160349818071, -36.84028277855851 ], [ -71.791222319199633, -36.839706238519675 ], [ -71.791342293697411, -36.839100799148767 ], [ -71.791615312373509, -36.838910342592619 ], [ -71.792033974008277, -36.838860712460246 ], [ -71.792689413585677, -36.839030676405926 ], [ -71.793451527204738, -36.839370800872473 ], [ -71.794328194887143, -36.839683569021908 ], [ -71.795061318973666, -36.839809908322174 ], [ -71.796509914353067, -36.840031540615591 ], [ -71.797444701237708, -36.840315528002684 ], [ -71.798187908014981, -36.840655106840757 ], [ -71.79895739590421, -36.841269349322282 ], [ -71.799643161707266, -36.84162260134363 ], [ -71.800133022014847, -36.841681408104861 ], [ -71.800474751928718, -36.841660212974013 ], [ -71.800631655269498, -36.841527543773054 ], [ -71.800662009342958, -36.841254421635874 ], [ -71.800476237742203, -36.840716790771545 ], [ -71.800393688855792, -36.840425437286548 ], [ -71.800371066581974, -36.840059659521224 ], [ -71.800455586372124, -36.839848821397183 ], [ -71.800649174214172, -36.839747475247833 ], [ -71.800972505732688, -36.839710618278531 ], [ -71.801196300324477, -36.83979274805673 ], [ -71.801471158750275, -36.840013125142434 ], [ -71.80183669761243, -36.840327332839166 ], [ -71.802199045658696, -36.840717578715136 ], [ -71.802477014950327, -36.84086198937193 ], [ -71.803019767163519, -36.841013588275992 ], [ -71.803497548723783, -36.841103820355464 ], [ -71.803516929876054, -36.841113920504071 ], [ -71.804467984352172, -36.841512779331694 ], [ -71.805040144712834, -36.84171483417019 ], [ -71.805385631381213, -36.841786404506649 ], [ -71.805920340977679, -36.841956339663923 ], [ -71.806799287685962, -36.842228801489348 ], [ -71.807218162221474, -36.842395709048873 ], [ -71.807945066372966, -36.842601843519468 ], [ -71.808363851975272, -36.842768676936231 ], [ -71.809052152824052, -36.842973871510964 ], [ -71.809776383589281, -36.84324214210168 ], [ -71.810235133441935, -36.843378936261175 ], [ -71.810924786255228, -36.843553082790223 ], [ -71.811847473731319, -36.843702293929617 ], [ -71.812729138741631, -36.843912559971457 ], [ -71.814386537627371, -36.844081483950916 ], [ -71.816045283087703, -36.844219347041708 ], [ -71.81812810792232, -36.844399615898119 ], [ -71.818365040375127, -36.844405954368774 ], [ -71.818773753168159, -36.844475246176749 ], [ -71.819738971381369, -36.844693886591173 ], [ -71.820345831864813, -36.844878727172457 ], [ -71.821089865990473, -36.845007080836112 ], [ -71.82181900874366, -36.845135045367478 ], [ -71.82250414482769, -36.845237696340533 ], [ -71.822952808396352, -36.845261730790234 ], [ -71.823599153429797, -36.845218759492155 ], [ -71.82455236565923, -36.84500334622166 ], [ -71.825215027691513, -36.844924689950808 ], [ -71.825724588951573, -36.84492630025786 ], [ -71.825807161194177, -36.844943677912994 ], [ -71.825919467672691, -36.844942925238364 ], [ -71.826584129354785, -36.845100594228846 ], [ -71.826876329757141, -36.845248226554716 ], [ -71.827356389444972, -36.845660616148386 ], [ -71.827516213208753, -36.846004591625487 ], [ -71.827628770317204, -36.846287236258902 ], [ -71.827992242155901, -36.846516735088237 ], [ -71.828330798321872, -36.84674549782477 ], [ -71.828799264352654, -36.846837989016137 ], [ -71.830474622357528, -36.84720240517656 ], [ -71.831013528882977, -36.847396487877653 ], [ -71.831328923785989, -36.847584748022349 ], [ -71.831422451881792, -36.847727136494925 ], [ -71.831560679247815, -36.847990562557264 ], [ -71.831756975510459, -36.848655085182173 ], [ -71.831820820574308, -36.848916518990556 ], [ -71.832061746936887, -36.849102787059408 ], [ -71.83240032466243, -36.84933153702643 ], [ -71.832831614813486, -36.849722698761113 ], [ -71.833292679624634, -36.849994662792227 ], [ -71.833999723821833, -36.850333251220889 ], [ -71.834419387078157, -36.850404368531422 ], [ -71.835510364041255, -36.850473338615934 ], [ -71.835617815125659, -36.85046774751779 ], [ -71.836633100941228, -36.850464618429115 ], [ -71.837767429701643, -36.850250309695134 ], [ -71.838694205410604, -36.849908291312488 ], [ -71.840061417018518, -36.849211207201975 ], [ -71.841340378132912, -36.84843848326323 ], [ -71.841774849218396, -36.84823002393189 ], [ -71.842324907429798, -36.848171240897109 ], [ -71.843055062584313, -36.848166242687284 ], [ -71.843416199701551, -36.848212300534989 ], [ -71.844177627007738, -36.848582524225883 ], [ -71.844222096309252, -36.848637342474802 ], [ -71.844894832947418, -36.849290874792601 ], [ -71.845065067287038, -36.849588730222074 ], [ -71.845704496191104, -36.850314662113718 ], [ -71.846475542657345, -36.850799654465973 ], [ -71.847800487632838, -36.851128222451308 ], [ -71.849133528225664, -36.851261393988153 ], [ -71.850293244274297, -36.851169861314453 ], [ -71.851493424036605, -36.850834988637139 ], [ -71.852165980113412, -36.850755131446199 ], [ -71.854856080453132, -36.850435154095798 ], [ -71.855865826358354, -36.85029077158206 ], [ -71.856485655819569, -36.850013798295024 ], [ -71.857314079479636, -36.849840174701129 ], [ -71.858316859848145, -36.849866689860761 ], [ -71.859585128315715, -36.850095868845166 ], [ -71.860305384035783, -36.850334910294897 ], [ -71.860722865284316, -36.850541523671204 ], [ -71.861245889595551, -36.851142091532047 ], [ -71.862260058805234, -36.851633376971186 ], [ -71.863341033027638, -36.851979754472211 ], [ -71.86624040130269, -36.852496339007992 ], [ -71.868967349637032, -36.852763880376649 ], [ -71.870240675619669, -36.852870794446808 ], [ -71.870463227841427, -36.852894650388031 ], [ -71.870496924546032, -36.852867259327503 ], [ -71.87128308426864, -36.852958547010509 ], [ -71.872149207526206, -36.853239905863809 ], [ -71.872628783022122, -36.853675741458389 ], [ -71.873171539726883, -36.85399562330123 ], [ -71.873575939708232, -36.854123812867734 ], [ -71.874041509570532, -36.854183048482341 ], [ -71.874595857237438, -36.854221234005564 ], [ -71.874887031763734, -36.854252352274564 ], [ -71.875174474688336, -36.854377534677731 ], [ -71.875515614409053, -36.854621599341947 ], [ -71.876033067368908, -36.854846776203608 ], [ -71.876699507715244, -36.855005372856851 ], [ -71.879510174542517, -36.855666990269555 ], [ -71.879942788810297, -36.855819424518003 ], [ -71.880406553957187, -36.855925628468917 ], [ -71.881399257024853, -36.855975149051922 ], [ -71.884550643161276, -36.856175410408028 ], [ -71.88737905261371, -36.856448992454403 ], [ -71.887552204681356, -36.856465749340863 ], [ -71.888120999054649, -36.856645478271723 ], [ -71.88861744670821, -36.85681412039073 ], [ -71.88908023987797, -36.856896468993462 ], [ -71.889604217301724, -36.857083704493256 ], [ -71.890380911476157, -36.857409698148196 ], [ -71.892162360516082, -36.858208632354149 ], [ -71.893580137393045, -36.85859835067928 ], [ -71.894339981867688, -36.858618222193144 ], [ -71.895520743646813, -36.858464903702021 ], [ -71.895726859393804, -36.858325376492068 ], [ -71.896304999839302, -36.857776294965795 ], [ -71.897062285912014, -36.857137725996644 ], [ -71.897688349681289, -36.856848502280094 ], [ -71.898721614378985, -36.856616883884826 ], [ -71.899632301261192, -36.856523121505496 ], [ -71.900332785061849, -36.856564926342685 ], [ -71.90126028391461, -36.856777245772072 ], [ -71.901726070270897, -36.856836439797689 ], [ -71.902340725436062, -36.856828876845952 ], [ -71.903023259100735, -36.856588147888075 ], [ -71.904151808998918, -36.856170855490859 ], [ -71.905303902842377, -36.855895303699789 ], [ -71.906471964240012, -36.855949182286452 ], [ -71.908545105235859, -36.856050207229522 ], [ -71.910594501063784, -36.856009524130826 ], [ -71.912974996142509, -36.855742248572106 ], [ -71.915768353332567, -36.855391707645317 ], [ -71.916910942102007, -36.855350805684253 ], [ -71.917937705691969, -36.855286090203691 ], [ -71.918065991402742, -36.855248685099582 ], [ -71.918806904781093, -36.855112291698603 ], [ -71.919237464601835, -36.854998951166188 ], [ -71.919777261357737, -36.854709813518525 ], [ -71.919963558472944, -36.854415486494489 ], [ -71.920254815644242, -36.854291539769001 ], [ -71.920870314327473, -36.854241709011461 ], [ -71.92179607134689, -36.854101415038166 ], [ -71.922392387405537, -36.85401831227643 ], [ -71.923071105925175, -36.853920849908228 ], [ -71.924580711285429, -36.854009256094798 ], [ -71.92525018524249, -36.854141591679387 ], [ -71.926078535240705, -36.854393142660257 ], [ -71.927370734827448, -36.854804519742721 ], [ -71.927754154655332, -36.854929422349876 ], [ -71.928162132626454, -36.854956422366975 ], [ -71.928533145821945, -36.854883863078896 ], [ -71.928848101448779, -36.854678404323657 ], [ -71.929144524831273, -36.854423130190391 ], [ -71.930379964366793, -36.853189745205981 ], [ -71.93106779360005, -36.852862429626825 ], [ -71.931727302545681, -36.852731657403893 ], [ -71.932176657817109, -36.85274322670918 ], [ -71.933130869871476, -36.852915733145331 ], [ -71.933834591200423, -36.853213271114249 ], [ -71.934400690627854, -36.85337579081483 ], [ -71.934438474667019, -36.85338378970561 ], [ -71.934820812923292, -36.853535493168778 ], [ -71.93528488709066, -36.853547499386423 ], [ -71.935514480307603, -36.853615645759433 ], [ -71.935776514384401, -36.853840153503512 ], [ -71.936526408220658, -36.854450640013745 ], [ -71.938305692320739, -36.855461013935603 ], [ -71.938988234070266, -36.855820831179528 ], [ -71.939411125871715, -36.855894004138456 ], [ -71.939875303345332, -36.855905915824984 ], [ -71.940380589522974, -36.855856718650045 ], [ -71.940808449906271, -36.855805523221804 ], [ -71.941316219925682, -36.855694176910411 ], [ -71.941863896703268, -36.855552755669656 ], [ -71.942298010259265, -36.855346155837779 ], [ -71.942359434363453, -36.855299824116436 ], [ -71.942527209115809, -36.85521217702756 ], [ -71.943076695100359, -36.85476612174768 ], [ -71.943520647903668, -36.854399600341694 ], [ -71.943746690080303, -36.85437258934595 ], [ -71.94440036985803, -36.854389383346351 ], [ -71.945701177101853, -36.854587151759191 ], [ -71.946003065834532, -36.854710031313473 ], [ -71.946539518162638, -36.855101775781293 ], [ -71.947040389120659, -36.855361080773008 ], [ -71.947561024811577, -36.855637463250659 ], [ -71.948004031688868, -36.855813158153239 ], [ -71.948309760719411, -36.855837386225289 ], [ -71.949205982928916, -36.855926160368803 ], [ -71.949690291648039, -36.85608650286057 ], [ -71.950284831737378, -36.856561902445151 ], [ -71.950683746605591, -36.85681855739044 ], [ -71.950816265177991, -36.85708493071953 ], [ -71.950902065965721, -36.857497963733437 ], [ -71.950964834847881, -36.857976088718402 ], [ -71.951039385135005, -36.858158786899985 ], [ -71.951175834735082, -36.858326658761825 ], [ -71.951833697967103, -36.858754338366367 ], [ -71.952309615523163, -36.859127997675458 ], [ -71.95266492437085, -36.859449362482607 ], [ -71.952857482743582, -36.85975011657041 ], [ -71.952924172771972, -36.859874026412889 ], [ -71.953383711345438, -36.860191837490063 ], [ -71.953508162148268, -36.860236357169512 ], [ -71.953799596287709, -36.860373132421984 ], [ -71.954461521701418, -36.860540552363418 ], [ -71.954964999570407, -36.860660902447087 ], [ -71.955278774810935, -36.860840893195281 ], [ -71.955671912613568, -36.861044376111813 ], [ -71.955931528425623, -36.861244463188967 ], [ -71.95635042092745, -36.861470112869725 ], [ -71.956802129784919, -36.861546123000295 ], [ -71.958538060291076, -36.861612216735857 ], [ -71.959929218289517, -36.861604790815434 ], [ -71.96193567554522, -36.861591674706311 ], [ -71.963004522511298, -36.861619047546988 ], [ -71.96401810691772, -36.861687874547606 ], [ -71.964062063281204, -36.861691353916797 ], [ -71.964772362074683, -36.861709573705362 ], [ -71.965778031425145, -36.861735251022083 ], [ -71.967210386162506, -36.861740736361668 ], [ -71.967764467928063, -36.861708067248841 ], [ -71.967947790721368, -36.861697358182127 ], [ -71.96911926032719, -36.861447206174695 ], [ -71.969669468557242, -36.861243436837356 ], [ -71.970294369008229, -36.861103864388745 ], [ -71.971157656284461, -36.860814746242362 ], [ -71.971584426113012, -36.860794544680196 ], [ -71.972278092598998, -36.860874480506105 ], [ -71.972658857905216, -36.861039681331356 ], [ -71.973149395542521, -36.861363355293321 ], [ -71.973490081614017, -36.861558642570799 ], [ -71.97378487096104, -36.861939553780964 ], [ -71.973847553604926, -36.862314539373131 ], [ -71.974141069140856, -36.862726484731176 ], [ -71.97451929670639, -36.862953825490415 ], [ -71.975049750983359, -36.863247332640967 ], [ -71.975843669455045, -36.863734287665885 ], [ -71.97663759511326, -36.864221162686079 ], [ -71.977610201969711, -36.865086011484607 ], [ -71.978549110324877, -36.865825465690563 ], [ -71.979233105548516, -36.866154005018387 ], [ -71.979799863441045, -36.866510654985504 ], [ -71.980020992731383, -36.866796324908236 ], [ -71.9802421202251, -36.867081919738943 ], [ -71.980389450219889, -36.867272367923512 ], [ -71.980656561574676, -36.867372406966993 ], [ -71.981079638429094, -36.867445424411862 ], [ -71.98127068403889, -36.867512528532039 ], [ -71.981499083394823, -36.867611691916508 ], [ -71.981725032146656, -36.867772998783799 ], [ -71.982105758825327, -36.867938169602759 ], [ -71.982372880959886, -36.868038351508417 ], [ -71.982793510803489, -36.868173506571956 ], [ -71.983140426691477, -36.868213438655054 ], [ -71.983373821578709, -36.868188234243 ], [ -71.98368692128615, -36.868102857119027 ], [ -71.983921493864699, -36.868046544342754 ], [ -71.9841971464012, -36.867929182625616 ], [ -71.984546509300046, -36.867906893767909 ], [ -71.984777363751647, -36.867943907469098 ], [ -71.984929691074385, -36.86800991158637 ], [ -71.985083202376657, -36.868044955364176 ], [ -71.985198086121713, -36.868078977178079 ], [ -71.986165118033483, -36.868103531230645 ], [ -71.986933940271086, -36.868247484109972 ], [ -71.987863525910242, -36.868239969000946 ], [ -71.9881755332663, -36.868185685126463 ], [ -71.988608309230841, -36.868009955425258 ], [ -71.988928831717473, -36.867738130956042 ], [ -71.989521270647344, -36.867441964708931 ], [ -71.99011253278421, -36.867176977875992 ], [ -71.990584109680796, -36.867002257036631 ], [ -71.99112677835069, -36.866984898050916 ], [ -71.991705809924937, -36.867030621872438 ], [ -71.99220505762726, -36.867136596795966 ], [ -71.992813041903105, -36.867432054894209 ], [ -71.99311644789033, -36.867595299685604 ], [ -71.99322762428821, -36.867722567381918 ], [ -71.993324147367161, -36.868222770559385 ], [ -71.993587663664186, -36.868416104938149 ], [ -71.994009490962043, -36.868520184975814 ], [ -71.994239174010517, -36.868588213073259 ], [ -71.994621108024916, -36.868722381158058 ], [ -71.994969387555528, -36.86873116681619 ], [ -71.995400975048938, -36.868586519899601 ], [ -71.995757659217333, -36.868377767681999 ], [ -71.996035727323644, -36.868198087903529 ], [ -71.996280048419663, -36.867893103189751 ], [ -71.996518225039168, -36.867743587836458 ], [ -71.996913619409781, -36.867535848083982 ], [ -71.997426244823288, -36.867299900431469 ], [ -71.998015036593102, -36.867097019177237 ], [ -71.998485232779132, -36.866953306325314 ], [ -71.999287010611241, -36.866257980334716 ], [ -71.999795917897785, -36.866115277098352 ], [ -72.000182812409193, -36.866125064906974 ], [ -72.000527290269517, -36.866227163771583 ], [ -72.000715816104943, -36.866356308797471 ], [ -72.00101796804401, -36.866550568533249 ], [ -72.001361275399503, -36.866683698106854 ], [ -72.001704491126844, -36.866816830323216 ], [ -72.002047893703789, -36.866949955839424 ], [ -72.002468546903557, -36.867085039523175 ], [ -72.003195062084529, -36.867321196255425 ], [ -72.003817595474743, -36.86724358993807 ], [ -72.005142614112074, -36.867028101464456 ], [ -72.005766403347053, -36.866919374563849 ], [ -72.006156810271222, -36.866835894058525 ], [ -72.006825432625391, -36.866572631401354 ], [ -72.007414098631074, -36.866369706532147 ], [ -72.00811657579338, -36.866231884106064 ], [ -72.008850382599505, -36.866281427477034 ], [ -72.010244164576889, -36.866285448526469 ], [ -72.010866771628969, -36.866207803785365 ], [ -72.011299478423226, -36.866031994072522 ], [ -72.011814564322307, -36.865733841935615 ], [ -72.012055129562128, -36.865522153966786 ], [ -72.012489180236045, -36.865315227486882 ], [ -72.012839777420083, -36.865261819780649 ], [ -72.01353602656252, -36.865279290555712 ], [ -72.013922823157543, -36.865289036068376 ], [ -72.014385886720191, -36.865331835096804 ], [ -72.014692824883113, -36.865401774885868 ], [ -72.014841582300889, -36.865561064016809 ], [ -72.01487670732682, -36.865655250835097 ], [ -72.014949200471946, -36.865781560154588 ], [ -72.015100292611152, -36.865878708422763 ], [ -72.015332317567569, -36.865884554247259 ], [ -72.015525809289869, -36.865889458587517 ], [ -72.015748226764345, -36.866143874399533 ], [ -72.016010533030666, -36.866368266286557 ], [ -72.016317662534732, -36.866438270527226 ], [ -72.016701949236875, -36.866510151906638 ], [ -72.017318537576529, -36.866587867490146 ], [ -72.01789398577111, -36.866726714114705 ], [ -72.018124940834042, -36.866763658675545 ], [ -72.018431887081775, -36.86683358781108 ], [ -72.018971137661993, -36.866909348255106 ], [ -72.01954775725973, -36.867017152385749 ], [ -72.019972022585264, -36.867058922016611 ], [ -72.02077601476455, -36.867296838150139 ], [ -72.021200281886721, -36.867338603316064 ], [ -72.021929268333039, -36.867512499785065 ], [ -72.022538614454874, -36.867776691321531 ], [ -72.022838494554605, -36.868033034070969 ], [ -72.023250680234497, -36.86838565432803 ], [ -72.023511849233699, -36.868641061489654 ], [ -72.023656959491433, -36.868893591713444 ], [ -72.023682337796515, -36.869236498204884 ], [ -72.023657002610548, -36.869889258632597 ], [ -72.023451506701122, -36.870195229988433 ], [ -72.023253261992636, -36.87031469673861 ], [ -72.022738285688021, -36.87061289567712 ], [ -72.022462599015526, -36.87073041999701 ], [ -72.022142195106511, -36.871002403419027 ], [ -72.022009291156863, -36.871434673164572 ], [ -72.0219983622531, -36.871714429711723 ], [ -72.021991106560563, -36.871900932549117 ], [ -72.022173683752172, -36.872185508682279 ], [ -72.022281332465937, -36.87240599648095 ], [ -72.022463910555842, -36.872690571451145 ], [ -72.0225703070181, -36.8729421691692 ], [ -72.022746889751801, -36.873382136569212 ], [ -72.023122892190401, -36.873671603838744 ], [ -72.023350103973527, -36.873801719346396 ], [ -72.023613714593637, -36.873995055415683 ], [ -72.023724950280325, -36.874122291610767 ], [ -72.023953508638073, -36.874221294069834 ], [ -72.024262999813018, -36.874229061541726 ], [ -72.024920700449968, -36.874245526366138 ], [ -72.025462332464002, -36.874259112430643 ], [ -72.026197382538498, -36.874277512468105 ], [ -72.026696719174012, -36.874383411226738 ], [ -72.027005047928981, -36.874422204660554 ], [ -72.02734476741324, -36.874648582177997 ], [ -72.027609639268022, -36.874810725735031 ], [ -72.027832034284614, -36.875065192321372 ], [ -72.028130713336779, -36.875352702211195 ], [ -72.028393086078452, -36.875577063457044 ], [ -72.028893774678465, -36.875651766795627 ], [ -72.029434164322467, -36.875696444181862 ], [ -72.029968568491725, -36.875896439712932 ], [ -72.030350594134291, -36.876030488610091 ], [ -72.030729142398386, -36.876257784752106 ], [ -72.030914172889041, -36.876480201708283 ], [ -72.031175397583766, -36.876735588992382 ], [ -72.031387007427028, -36.877269800456823 ], [ -72.031412426156322, -36.877612703121322 ], [ -72.031396799961954, -36.878016742859195 ], [ -72.031381177360842, -36.878420855190988 ], [ -72.031369124664678, -36.878731717445824 ], [ -72.031468233993351, -36.879169736521092 ], [ -72.031650957610339, -36.879454366051924 ], [ -72.031902460737072, -36.879958399206515 ], [ -72.032239897602196, -36.880246827671755 ], [ -72.032654695582934, -36.880537265556526 ], [ -72.032790435513945, -36.880804712345366 ], [ -72.033528708743674, -36.8811953228184 ], [ -72.034325783895284, -36.881796728307911 ], [ -72.034621188588261, -36.882269367549085 ], [ -72.034700812560089, -36.883017550092674 ], [ -72.034667724913234, -36.883249372994733 ], [ -72.034761953694954, -36.883930081230034 ], [ -72.034954975598382, -36.884555187653199 ], [ -72.035183287817731, -36.884890391809748 ], [ -72.035415304689309, -36.885128799908323 ], [ -72.036098719601256, -36.885552906524303 ], [ -72.03681363663361, -36.885783906228156 ], [ -72.038414482080611, -36.886192131817836 ], [ -72.039822632610992, -36.886595600224297 ], [ -72.040605476651862, -36.886944571068028 ], [ -72.041599262189422, -36.887453927628442 ], [ -72.042466483188292, -36.888115190777604 ], [ -72.043101414227749, -36.888857841986997 ], [ -72.043372799766644, -36.889329818198902 ], [ -72.043742878714255, -36.889746040748285 ], [ -72.044449596823, -36.890190021659102 ], [ -72.044849763942722, -36.890452000215568 ], [ -72.045366663540349, -36.89081373762842 ], [ -72.045716347137741, -36.891132593943489 ], [ -72.046032183113553, -36.891702560953874 ], [ -72.046250119791367, -36.892308848111611 ], [ -72.046233704876173, -36.892734904194619 ], [ -72.046200647772025, -36.892966655922095 ], [ -72.046043998654483, -36.893272887574525 ], [ -72.045822499258236, -36.893383613713048 ], [ -72.045699003364575, -36.89345816384867 ], [ -72.045550607069515, -36.893551365065917 ], [ -72.045422627684246, -36.893741998699262 ], [ -72.045416657480871, -36.89389694906238 ], [ -72.045507097168738, -36.89405422393402 ], [ -72.04564802936207, -36.894154618003078 ], [ -72.045958481734374, -36.89423995882084 ], [ -72.046257135633724, -36.894315192776659 ], [ -72.046903722313999, -36.894447564874348 ], [ -72.047935873100712, -36.89458952118266 ], [ -72.049238520992532, -36.894602573433957 ], [ -72.050399615955143, -36.894534432007909 ], [ -72.051372172505921, -36.89434541321156 ], [ -72.052078797189864, -36.894169129447526 ], [ -72.052887787595395, -36.893840359312314 ], [ -72.053424191414479, -36.893698563257011 ], [ -72.053860416011403, -36.893651244682978 ], [ -72.054317768085482, -36.893681997736259 ], [ -72.054822531443634, -36.893733231005136 ], [ -72.055251225463493, -36.893879578946894 ], [ -72.055724454361922, -36.894123916148331 ], [ -72.05611901689258, -36.894220942157126 ], [ -72.056625275047381, -36.89423352318579 ], [ -72.05705922331336, -36.894244272951852 ], [ -72.057834471200181, -36.894166580479705 ], [ -72.058442479730559, -36.894045947678492 ], [ -72.058886039970091, -36.893804945166934 ], [ -72.05903887394264, -36.893595498186706 ], [ -72.059201413313517, -36.893134302581579 ], [ -72.0593450036218, -36.892537032645215 ], [ -72.059583512617934, -36.891980794874087 ], [ -72.060059467903216, -36.891527391147619 ], [ -72.060423277508477, -36.891478298813581 ], [ -72.060977721295089, -36.891492054240054 ], [ -72.061627968610125, -36.89152747592459 ], [ -72.062202942494238, -36.891638652906359 ], [ -72.062659399846297, -36.891688663312799 ], [ -72.063142421279622, -36.891681294918108 ], [ -72.063431739886553, -36.891688444904844 ], [ -72.063864885058678, -36.891718530593309 ], [ -72.064317775200735, -36.891865401833968 ], [ -72.066080902202145, -36.892771536587219 ], [ -72.066483327686484, -36.892975287920024 ], [ -72.066986612417679, -36.893065261801993 ], [ -72.067396542427915, -36.893075413276939 ], [ -72.067853889112101, -36.89310604011785 ], [ -72.068235182627717, -36.893231788926819 ], [ -72.06926299095835, -36.89348971228199 ], [ -72.07048807291865, -36.893636301364296 ], [ -72.071576029745771, -36.893585642055363 ], [ -72.072348198207791, -36.893585295054002 ], [ -72.072949563696639, -36.893638823049514 ], [ -72.073550749522454, -36.893692427160921 ], [ -72.074294563560841, -36.893807661540343 ], [ -72.074794908106114, -36.893975113096189 ], [ -72.076466435694627, -36.894122845696195 ], [ -72.077384103384915, -36.894106737185425 ], [ -72.079250912139784, -36.893881313228604 ], [ -72.080218252173694, -36.893827502342852 ], [ -72.080772018630583, -36.89386052267993 ], [ -72.081418647531663, -36.893992703028132 ], [ -72.081893426922264, -36.894198213394233 ], [ -72.082344107208726, -36.894403166430209 ], [ -72.082776670272537, -36.894452537785838 ], [ -72.083261862933909, -36.894386935846903 ], [ -72.083567226350112, -36.894287840273314 ], [ -72.083934754980632, -36.894141804191989 ], [ -72.084296481392727, -36.894150639370999 ], [ -72.084777158223162, -36.894201189822972 ], [ -72.085396659799287, -36.894410305385669 ], [ -72.086444911989162, -36.894765577674029 ], [ -72.087543722261557, -36.895063866492826 ], [ -72.088928932514492, -36.895446742873155 ], [ -72.089383265350904, -36.895554799117335 ], [ -72.089790952267876, -36.895622876412311 ], [ -72.090103699835723, -36.895649946820512 ], [ -72.090439082253781, -36.895716362349987 ], [ -72.090697650630219, -36.895897126122279 ], [ -72.090882047808591, -36.896162052823044 ], [ -72.0911095641206, -36.896488749707117 ], [ -72.091381952179376, -36.896941168493662 ], [ -72.091631714371061, -36.897354389039613 ], [ -72.092181794142036, -36.898123778515007 ], [ -72.092834085124352, -36.898740653169654 ], [ -72.09345282223417, -36.899288862679761 ], [ -72.09359235575063, -36.899427914216574 ], [ -72.093919637161449, -36.899707345517683 ], [ -72.094100040430078, -36.900041242519464 ], [ -72.094392257900424, -36.90061050653528 ], [ -72.094381983868516, -36.900881609861607 ], [ -72.094246691298522, -36.901266033130909 ], [ -72.094013502125506, -36.901686669523954 ], [ -72.093824899034956, -36.902205352442415 ], [ -72.093763293471099, -36.902552791528777 ], [ -72.093777215561374, -36.902824518659202 ], [ -72.093911572985149, -36.903099159844814 ], [ -72.09409785932057, -36.903278182118619 ], [ -72.094384284453966, -36.903362692393124 ], [ -72.094770067749366, -36.903372122006196 ], [ -72.095277941973336, -36.903345813619843 ], [ -72.095740539310356, -36.903240886714201 ], [ -72.096444185180843, -36.903141703506172 ], [ -72.096952744819362, -36.903096030038327 ], [ -72.097485498783456, -36.903050903918469 ], [ -72.098307519252188, -36.903012841215187 ], [ -72.099232602535125, -36.902802892959357 ], [ -72.0999392622534, -36.902626250163195 ], [ -72.100667008126308, -36.902527814671842 ], [ -72.101441587666557, -36.902469192656312 ], [ -72.102915405044186, -36.902427574568115 ], [ -72.103494118614847, -36.902441676419073 ], [ -72.103972025939242, -36.90256972794505 ], [ -72.104278174483028, -36.902770992077734 ], [ -72.104679283037171, -36.903013324658403 ], [ -72.104942388804105, -36.903077897702829 ], [ -72.105160117971096, -36.90306386062008 ], [ -72.10530552916444, -36.903048024092435 ], [ -72.10564748725038, -36.902940088364069 ], [ -72.105962503962658, -36.902908962630413 ], [ -72.106251770467296, -36.902916008842475 ], [ -72.106711330600348, -36.9028884798362 ], [ -72.107291600053074, -36.902863842146573 ], [ -72.107871096954639, -36.902858635603671 ], [ -72.10828234659003, -36.9028297819535 ], [ -72.108817324782763, -36.902726526641445 ], [ -72.109051050250017, -36.902606209793326 ], [ -72.109372682156007, -36.902400842031746 ], [ -72.109622587179857, -36.902174320512657 ], [ -72.109777438768532, -36.90190673810725 ], [ -72.109835187864874, -36.901656240081707 ], [ -72.109870284144719, -36.901366254646561 ], [ -72.110047095948829, -36.90115737005857 ], [ -72.110371544073246, -36.900874491625579 ], [ -72.110766074264575, -36.900651560262979 ], [ -72.112201897397256, -36.900017778443491 ], [ -72.113135645829445, -36.899575267736594 ], [ -72.11452618668531, -36.899182698179501 ], [ -72.115941400668731, -36.898771157767719 ], [ -72.117421819765383, -36.898555200784074 ], [ -72.118220444510854, -36.898497094389228 ], [ -72.118557993665377, -36.898505277490685 ], [ -72.118989817415709, -36.898573801861218 ], [ -72.119442069753944, -36.898739889530866 ], [ -72.120034673973819, -36.899025634303371 ], [ -72.120576163155746, -36.899387644295736 ], [ -72.121357343516706, -36.899794281375272 ], [ -72.121846194117893, -36.89995149811886 ], [ -72.122493521908268, -36.900064167811983 ], [ -72.123019736137081, -36.900193158641734 ], [ -72.124243627829628, -36.900377898738554 ], [ -72.125150486092082, -36.900651801632904 ], [ -72.127082619436109, -36.901260761826826 ], [ -72.128155332751163, -36.901616268016916 ], [ -72.128895518494147, -36.90182795220214 ], [ -72.129999010785781, -36.902009677736281 ], [ -72.130839391022278, -36.902126953317378 ], [ -72.13144287923015, -36.902122106617014 ], [ -72.131770272032071, -36.902081579512185 ], [ -72.132794642510135, -36.901796263545137 ], [ -72.133548640748913, -36.901639947825792 ], [ -72.134519672858659, -36.901488895173017 ], [ -72.135398717483284, -36.901219426830721 ], [ -72.136852644363898, -36.900740845525341 ], [ -72.137608068229042, -36.90054578701168 ], [ -72.138803335105067, -36.900206298293838 ], [ -72.139558842513509, -36.900011298038393 ], [ -72.140214273107745, -36.899910842709765 ], [ -72.140890914722462, -36.899888363478986 ], [ -72.14146883418239, -36.899921641243701 ], [ -72.142020530920874, -36.900012447428566 ], [ -72.142977861925914, -36.900229367928461 ], [ -72.143431700688907, -36.900356566875224 ], [ -72.143976192040498, -36.900641101617992 ], [ -72.144331407463397, -36.900824056939555 ], [ -72.144787366250497, -36.900893102194466 ], [ -72.145173225004356, -36.900902365453113 ], [ -72.145784000345813, -36.900703854184727 ], [ -72.146204053470967, -36.900442631335103 ], [ -72.146972604417357, -36.900218820866527 ], [ -72.147554268953726, -36.900155269794645 ], [ -72.148181074731411, -36.900170313126758 ], [ -72.148855598118701, -36.900205863681805 ], [ -72.149647001307599, -36.900341208935622 ], [ -72.150300301097971, -36.900298700349545 ], [ -72.150933722967736, -36.900139496598051 ], [ -72.151377088272852, -36.899898083742862 ], [ -72.151751692034537, -36.899558179797346 ], [ -72.152550812650034, -36.898840799698604 ], [ -72.152934033950245, -36.898268511728695 ], [ -72.153441497644138, -36.897602201471301 ], [ -72.153863618691091, -36.897282878644958 ], [ -72.154451670249102, -36.897044918707074 ], [ -72.155566543297098, -36.896916667534626 ], [ -72.156867771850756, -36.896647333192661 ], [ -72.157355761865929, -36.89650392163751 ], [ -72.158553827892362, -36.896086802009144 ], [ -72.159455961016434, -36.89583706435193 ], [ -72.160234794079571, -36.895661834348182 ], [ -72.161113573701201, -36.895392111227373 ], [ -72.161627082158631, -36.895210504277742 ], [ -72.162315135970729, -36.894878089787539 ], [ -72.162762917393763, -36.894520479564065 ], [ -72.163282820957733, -36.894164637143135 ], [ -72.164433278070732, -36.893726878665042 ], [ -72.166004862693981, -36.893648138197179 ], [ -72.167010768301367, -36.893526747351466 ], [ -72.16764485133119, -36.893348024058433 ], [ -72.168286845823715, -36.892956275251848 ], [ -72.168859965585099, -36.892465972509399 ], [ -72.169575010178207, -36.892056544025465 ], [ -72.170528208034611, -36.891730437412896 ], [ -72.171338216231376, -36.891362086699033 ], [ -72.171925497933188, -36.891143476341504 ], [ -72.172997745920938, -36.890858827877189 ], [ -72.173488522510112, -36.890637917015844 ], [ -72.17417723658393, -36.89028600299774 ], [ -72.17471411291686, -36.890124383725983 ], [ -72.175430742138133, -36.889996042612289 ], [ -72.176209380266855, -36.889820715857084 ], [ -72.177337014781742, -36.889343510787199 ], [ -72.178541973581346, -36.88873253789334 ], [ -72.179376673770321, -36.888345314806763 ], [ -72.180142668111387, -36.887859462909383 ], [ -72.180953251229923, -36.887471694373858 ], [ -72.18153905160986, -36.887291829595419 ], [ -72.182750206089977, -36.887165470343945 ], [ -72.183841613346118, -36.887016917413391 ], [ -72.184451405930645, -36.886837502777027 ], [ -72.185585730199463, -36.886505827080668 ], [ -72.185853762327426, -36.886434635593616 ], [ -72.186270082952575, -36.886270000534921 ], [ -72.186665053318393, -36.886027395646153 ], [ -72.187066462808147, -36.885610486769103 ], [ -72.187292637935428, -36.885363850399209 ], [ -72.187708952272402, -36.885199283445353 ], [ -72.188194626430757, -36.885113828336493 ], [ -72.189020808794197, -36.884958990913802 ], [ -72.189554013712566, -36.884894027476157 ], [ -72.189992335875658, -36.884788135387964 ], [ -72.190385108063964, -36.884603523533144 ], [ -72.190923987639962, -36.884383685996482 ], [ -72.191386401720678, -36.884278321310461 ], [ -72.192062113579084, -36.884274916977219 ], [ -72.192687548527658, -36.884328518323279 ], [ -72.193406542114758, -36.884461829593725 ], [ -72.194651834372323, -36.884723806251699 ], [ -72.195549168696147, -36.884929147573587 ], [ -72.196648280802464, -36.885226482570602 ], [ -72.197662273044031, -36.885870745858774 ], [ -72.198231164435356, -36.886814574948559 ], [ -72.199216141991585, -36.888252822120187 ], [ -72.199513315467343, -36.888705641058266 ], [ -72.200053006222049, -36.889125422006906 ], [ -72.200551570306416, -36.889350403780931 ], [ -72.201123101846392, -36.889557766640316 ], [ -72.201894689098424, -36.889575931645375 ], [ -72.20225082619281, -36.889594448694865 ], [ -72.202039234315848, -36.888887766416019 ], [ -72.201407329700572, -36.886776424394711 ], [ -72.200965553515232, -36.884950192033493 ], [ -72.200517140576522, -36.883534178447157 ], [ -72.199651991092708, -36.882264479349679 ], [ -72.19415769808397, -36.869631300107713 ], [ -72.191963819920673, -36.864772194456634 ], [ -72.191908373206402, -36.864649600593282 ], [ -72.190072154781902, -36.865303424352504 ], [ -72.188985654123869, -36.862742125507282 ], [ -72.190547081496206, -36.861662849102764 ], [ -72.18893815300828, -36.858092868430951 ], [ -72.187843848685347, -36.855633924665369 ], [ -72.185559645818557, -36.85069117835063 ], [ -72.183162257022587, -36.845669181605061 ], [ -72.180826819641908, -36.840549433812122 ], [ -72.180487363364009, -36.839844355374055 ], [ -72.180408418518525, -36.839874002803398 ], [ -72.179430149580867, -36.840310169814117 ], [ -72.177652804943463, -36.840713603769679 ], [ -72.175637469637834, -36.840817112605116 ], [ -72.173454302087677, -36.840708791274373 ], [ -72.172280546269448, -36.836617810543629 ], [ -72.176214446765044, -36.836165812339438 ], [ -72.178428151644979, -36.835560058071074 ], [ -72.17648784273355, -36.831336019435213 ], [ -72.174841147274435, -36.827494139793991 ], [ -72.173914313175004, -36.825973418259487 ], [ -72.175109435422243, -36.825355820718883 ], [ -72.174480003868965, -36.823719160180289 ], [ -72.173258676866567, -36.824188785438714 ], [ -72.165058246793677, -36.805959640957902 ], [ -72.164746405625948, -36.806015191024237 ], [ -72.164406297171183, -36.805723225644869 ], [ -72.163848430803327, -36.805655924880618 ], [ -72.163204578594787, -36.805870232691547 ], [ -72.16268080688522, -36.80711942516826 ], [ -72.162384281993099, -36.807770187135326 ], [ -72.162095930871729, -36.808200388456548 ], [ -72.161916773566418, -36.808430961727346 ], [ -72.161854953305195, -36.808427808622788 ], [ -72.16105060808799, -36.808566285458831 ], [ -72.160689055949078, -36.808647802804003 ], [ -72.160350126982266, -36.808549563388155 ], [ -72.159903347180759, -36.808282051476034 ], [ -72.159319635383881, -36.808196077378589 ], [ -72.15892972882132, -36.808150639148764 ], [ -72.158221632696936, -36.807903946260133 ], [ -72.157553318464892, -36.807887974926281 ], [ -72.15725327038021, -36.808065507126173 ], [ -72.156708158292773, -36.808259735159709 ], [ -72.155723705352699, -36.808420899698426 ], [ -72.155046283101981, -36.808670527528562 ], [ -72.154367481937314, -36.808938127267353 ], [ -72.153563938915681, -36.809076531977269 ], [ -72.153134389699645, -36.809214899037364 ], [ -72.152760936679826, -36.809178968821797 ], [ -72.152346071325425, -36.80893922192822 ], [ -72.151798532888407, -36.808745880267665 ], [ -72.151175538662429, -36.808830096677923 ], [ -72.150829275849674, -36.80897805504808 ], [ -72.151209494081883, -36.808330784425046 ], [ -72.151552487027033, -36.808009219893947 ], [ -72.152395199290012, -36.807219315639671 ], [ -72.152876205802144, -36.806807275505925 ], [ -72.152966888933449, -36.806458004161222 ], [ -72.152926304845536, -36.806379506051066 ], [ -72.151971572666639, -36.804532769463869 ], [ -72.151496218354254, -36.803732951554785 ], [ -72.151740969743315, -36.803635147468022 ], [ -72.151754790323949, -36.803629686731369 ], [ -72.151694171110265, -36.80353038785708 ], [ -72.147173476698057, -36.795771435750723 ], [ -72.150016387654119, -36.794740246419138 ], [ -72.148292802694883, -36.78953554090451 ], [ -72.147611463789559, -36.78930741069221 ], [ -72.146405134160801, -36.787264506839428 ], [ -72.146222469832622, -36.786981160713324 ], [ -72.146074754460571, -36.787040508751531 ], [ -72.145655992214444, -36.787305304198128 ], [ -72.145307307543661, -36.787513175568947 ], [ -72.144684139044557, -36.787773117586532 ], [ -72.144060413589955, -36.788032996852024 ], [ -72.143704131866812, -36.788461483162052 ], [ -72.143014519477688, -36.788665670865839 ], [ -72.14226726219681, -36.788593604087112 ], [ -72.14206304099676, -36.788588669610256 ], [ -72.141581764091711, -36.788685250480071 ], [ -72.141028568065025, -36.788892758400436 ], [ -72.140748217339592, -36.789106857007482 ], [ -72.140197210507239, -36.78925576641501 ], [ -72.139715926415661, -36.789356843470834 ], [ -72.139029043108394, -36.789502472612355 ], [ -72.138682163153007, -36.789660819862505 ], [ -72.138071417455947, -36.789587556926548 ], [ -72.137804621409842, -36.78941899104602 ], [ -72.137333688605281, -36.789240829301136 ], [ -72.136925061152212, -36.789231021580385 ], [ -72.1365781802985, -36.78938943629656 ], [ -72.136497996676255, -36.789716349377493 ], [ -72.136557726557811, -36.789938587175413 ], [ -72.13653947728281, -36.790429290157213 ], [ -72.136246816044718, -36.790971968389236 ], [ -72.135549179005181, -36.791392240094588 ], [ -72.135200170042566, -36.791604520297994 ], [ -72.134864183058326, -36.791519563397351 ], [ -72.134727764000957, -36.791484998193233 ], [ -72.134537093886948, -36.791348888917717 ], [ -72.134329401596645, -36.791200532474278 ], [ -72.134000865239358, -36.790863732606425 ], [ -72.133462042257193, -36.790684024640584 ], [ -72.133117164646578, -36.790788342128771 ], [ -72.132762187277223, -36.791162802519914 ], [ -72.132614190732497, -36.791488177893392 ], [ -72.132194617307675, -36.791752874520334 ], [ -72.131575680771874, -36.791900140025483 ], [ -72.131167126980642, -36.791890237686282 ], [ -72.130415803924777, -36.791926198314563 ], [ -72.130068801798515, -36.792084525448395 ], [ -72.129728050150007, -36.792076300735658 ], [ -72.129445629706154, -36.792344314555187 ], [ -72.129225034913404, -36.792776124015738 ], [ -72.128811694000021, -36.79287418727688 ], [ -72.128335241946374, -36.792862667186348 ], [ -72.127930733268883, -36.79274479945429 ], [ -72.126980319291548, -36.792613689220808 ], [ -72.126563757019568, -36.792819898097882 ], [ -72.126349125243692, -36.793089590493338 ], [ -72.125938447835139, -36.793133685956413 ], [ -72.125451040826604, -36.793396748241541 ], [ -72.124691499982504, -36.79365323531183 ], [ -72.124140244316834, -36.793806654229726 ], [ -72.122908287549677, -36.793938987502031 ], [ -72.122186350183384, -36.794003061418145 ], [ -72.121950671778706, -36.794023943158386 ], [ -72.121142859962831, -36.793734096642126 ], [ -72.120944799408989, -36.79356250630287 ], [ -72.120337906586187, -36.793385633235665 ], [ -72.120148246178559, -36.792993548232445 ], [ -72.119819755635362, -36.792656633233321 ], [ -72.119486692667365, -36.792455735100091 ], [ -72.119352717027567, -36.792374952271757 ], [ -72.11881188361582, -36.7922491900108 ], [ -72.118401299632055, -36.79229333127865 ], [ -72.117643682080995, -36.792495762116545 ], [ -72.117496912634934, -36.792767054109127 ], [ -72.117202162813797, -36.793363630540554 ], [ -72.116714724364215, -36.793626732320746 ], [ -72.115480811066362, -36.793812999769209 ], [ -72.115466589837098, -36.793813150836343 ], [ -72.114733862805934, -36.793819515798226 ], [ -72.113843602714965, -36.793827346829943 ], [ -72.113573597886642, -36.793766730767814 ], [ -72.112834535936102, -36.793473918752525 ], [ -72.112283250626021, -36.793627209981793 ], [ -72.111996049348207, -36.794003230469052 ], [ -72.111713559734085, -36.794271278550966 ], [ -72.111492761023769, -36.794702915294216 ], [ -72.111756663596367, -36.794930154702591 ], [ -72.111674429120313, -36.795311140244785 ], [ -72.111459826988821, -36.795580732512306 ], [ -72.111445396452098, -36.795963412478116 ], [ -72.11137765180159, -36.796199041464263 ], [ -72.111288327821313, -36.796509274160698 ], [ -72.110745345639401, -36.796441994792112 ], [ -72.11041493539642, -36.796159064578951 ], [ -72.109956333765794, -36.795652350318363 ], [ -72.109906948883051, -36.795160023397607 ], [ -72.109737707181822, -36.795015119330706 ], [ -72.109576550318181, -36.794877163981894 ], [ -72.109098042919143, -36.794919507501248 ], [ -72.108614545378728, -36.795074478410321 ], [ -72.108523391530198, -36.795119602847308 ], [ -72.108197824104948, -36.795280627431346 ], [ -72.108107338602991, -36.795299160853972 ], [ -72.108318462457703, -36.79423516436033 ], [ -72.108840733980742, -36.792960323170234 ], [ -72.110226271220455, -36.790800475456294 ], [ -72.111301331833346, -36.789014582352408 ], [ -72.112212890081395, -36.786843204566622 ], [ -72.113212465260972, -36.785484537248365 ], [ -72.114450610522127, -36.782510380913713 ], [ -72.11497619593024, -36.781140277524976 ], [ -72.118166091944587, -36.775113850579316 ], [ -72.121049058779178, -36.770939593813985 ], [ -72.122326196313566, -36.768490879541929 ], [ -72.123323635299371, -36.767179801185812 ], [ -72.12402659306035, -36.765813931538702 ], [ -72.124388544949568, -36.764058331903342 ], [ -72.124633838022731, -36.762252132847621 ], [ -72.124357398562026, -36.761720898371728 ], [ -72.124208201868072, -36.760954383454091 ], [ -72.12465402765875, -36.759981556999684 ], [ -72.12501689582956, -36.759674901529586 ], [ -72.125636079402071, -36.759205380104795 ], [ -72.125904350481889, -36.75898447530907 ], [ -72.126718969731002, -36.758274256858719 ], [ -72.127049508433046, -36.757876764291467 ], [ -72.127299056825706, -36.75736011753154 ], [ -72.12747643456845, -36.756733610015793 ], [ -72.127564432635367, -36.756420300000343 ], [ -72.127724756760756, -36.755441982817111 ], [ -72.127801541157979, -36.753602121365077 ], [ -72.128331448360925, -36.750515289221404 ], [ -72.128881843440567, -36.748418698669148 ], [ -72.129117732949354, -36.746910150231948 ], [ -72.12979187724757, -36.745390284613457 ], [ -72.1297949997915, -36.745381344426349 ], [ -72.130196563791486, -36.744539509570494 ], [ -72.132615400763186, -36.739628183552874 ], [ -72.133690248475347, -36.737730200259975 ], [ -72.133705121881519, -36.737703528196327 ], [ -72.133972653647845, -36.737173773018597 ], [ -72.134084478629347, -36.736951217406471 ], [ -72.134167757846086, -36.73634947433171 ], [ -72.134172440763678, -36.736241427796564 ], [ -72.134201003596445, -36.735606801433377 ], [ -72.134251231098929, -36.735044831264197 ], [ -72.134322862759689, -36.734249327651646 ], [ -72.134089602619753, -36.734174055003209 ], [ -72.133346933035, -36.733994026251864 ], [ -72.133225490690066, -36.733608057843981 ], [ -72.132947218666189, -36.733429443875515 ], [ -72.132693149951024, -36.733266357061787 ], [ -72.13243719746869, -36.73304566771894 ], [ -72.132230675683189, -36.732867745023654 ], [ -72.131351693042291, -36.732684280530734 ], [ -72.130402852015024, -36.732553214448977 ], [ -72.129863234922155, -36.732404356899906 ], [ -72.129525996584718, -36.732311290457524 ], [ -72.128862047266637, -36.731858174803769 ], [ -72.128837208849049, -36.731316635403978 ], [ -72.128824210226895, -36.731032704549186 ], [ -72.12871706367136, -36.73026419976393 ], [ -72.128528642040536, -36.729817982280821 ], [ -72.128201145932351, -36.729481203631948 ], [ -72.127932559543865, -36.729366543847263 ], [ -72.127676864878026, -36.728923349367619 ], [ -72.127552792265917, -36.728591405056164 ], [ -72.127424760778354, -36.728367486839041 ], [ -72.127018485114704, -36.728303689978276 ], [ -72.126746495907938, -36.728297112222194 ] ] ] } },
{ "type": "Feature", "properties": { "capa": "colegios", "popup": "<strong>ESCUELA ESPECIAL DE LENGUAJE CUMBRES DE SAN IGNACIO</strong><br><br><strong>Dirección:</strong> LOS CARRERAS 44", "etiqueta": "" }, "geometry": { "type": "Point", "coordinates": [ -72.09249, -36.88955 ] } },
{ "type": "Feature", "properties": { "capa": "colegios", "popup": "<strong>LICEO PUEBLO SECO</strong><br><br><strong>Dirección:</strong> LOS NOTROS 0", "etiqueta": "" }, "geometry": { "type": "Point", "coordinates": [ -72.09346, -36.880798 ] } },
{ "type": "Feature", "properties": { "capa": "colegios", "popup": "<strong>ESCUELA BASICA PUEBLO SECO</strong><br><br><strong>Dirección:</strong> AVENIDA LAS VIOLETAS 573", "etiqueta": "" }, "geometry": { "type": "Point", "coordinates": [ -72.093643, -36.880459 ] } },
{ "type": "Feature", "properties": { "capa": "colegios", "popup": "<strong>ESCUELA LAS QUILAS</strong><br><br><strong>Dirección:</strong> LAS QUILAS 21", "etiqueta": "" }, "geometry": { "type": "Point", "coordinates": [ -72.046631, -36.875938 ] } },
{ "type": "Feature", "properties": { "capa": "colegios", "popup": "<strong>ESCUELA ESPECIAL DE LENGUAJE SAN IGNACIO</strong><br><br><strong>Dirección:</strong> LAS VIOLETAS 88", "etiqueta": "" }, "geometry": { "type": "Point", "coordinates": [ -72.092924, -36.873294 ] } },
{ "type": "Feature", "properties": { "capa": "colegios", "popup": "<strong>ESCUELA SANTA JUANA</strong><br><br><strong>Dirección:</strong> SANTA JUANA 14", "etiqueta": "" }, "geometry": { "type": "Point", "coordinates": [ -71.969589, -36.850021 ] } },
{ "type": "Feature", "properties": { "capa": "colegios", "popup": "<strong>ESCUELA SANTA MARIA</strong><br><br><strong>Dirección:</strong> CALVARIO 18", "etiqueta": "" }, "geometry": { "type": "Point", "coordinates": [ -71.902367, -36.846432 ] } },
{ "type": "Feature", "properties": { "capa": "colegios", "popup": "<strong>ESCUELA CALLE ALEGRE</strong><br><br><strong>Dirección:</strong> CALLE ALEGRE 0", "etiqueta": "" }, "geometry": { "type": "Point", "coordinates": [ -72.068787, -36.84642 ] } },
{ "type": "Feature", "properties": { "capa": "colegios", "popup": "<strong>COLEGIO POLITECNICO VICTOR JARA</strong><br><br><strong>Dirección:</strong> CALLE CENTRAL 693", "etiqueta": "" }, "geometry": { "type": "Point", "coordinates": [ -72.101822, -36.841282 ] } },
{ "type": "Feature", "properties": { "capa": "colegios", "popup": "<strong>ESCUELA LOURDES</strong><br><br><strong>Dirección:</strong> CAMINO LOURDES 14", "etiqueta": "" }, "geometry": { "type": "Point", "coordinates": [ -72.087112, -36.832241 ] } },
{ "type": "Feature", "properties": { "capa": "colegios", "popup": "<strong>ESCUELA MAYULERMO</strong><br><br><strong>Dirección:</strong> CAMINO MAYULERMO 20", "etiqueta": "" }, "geometry": { "type": "Point", "coordinates": [ -71.895119, -36.818729 ] } },
{ "type": "Feature", "properties": { "capa": "colegios", "popup": "<strong>ESCUELA MARÍA LUISA ESPINOZA RUIZ</strong><br><br><strong>Dirección:</strong> CALLE ALCALDE ALIRO SAAVEDRA 1200", "etiqueta": "" }, "geometry": { "type": "Point", "coordinates": [ -71.960823, -36.815479 ] } },
{ "type": "Feature", "properties": { "capa": "colegios", "popup": "<strong>LICEO POLITÉCNICO MARÍA WARD</strong><br><br><strong>Dirección:</strong> LOS CARRERA 467", "etiqueta": "" }, "geometry": { "type": "Point", "coordinates": [ -72.032089, -36.800049 ] } },
{ "type": "Feature", "properties": { "capa": "colegios", "popup": "<strong>LICEO BICENTENARIO MANUEL JESUS ORTIZ</strong><br><br><strong>Dirección:</strong> MANUEL JESUS ORTIZ 497", "etiqueta": "" }, "geometry": { "type": "Point", "coordinates": [ -72.029907, -36.799286 ] } },
{ "type": "Feature", "properties": { "capa": "colegios", "popup": "<strong>ESCUELA COLTON VARIANTE</strong><br><br><strong>Dirección:</strong> COLTON VARIANTE 0", "etiqueta": "" }, "geometry": { "type": "Point", "coordinates": [ -72.110779, -36.78896 ] } },
{ "type": "Feature", "properties": { "capa": "colegios", "popup": "<strong>ESCUELA SELVA NEGRA</strong><br><br><strong>Dirección:</strong> SELVA NEGRA 18", "etiqueta": "" }, "geometry": { "type": "Point", "coordinates": [ -71.927368, -36.7873 ] } },
{ "type": "Feature", "properties": { "capa": "jardines", "popup": "<strong>FRUTILLITA</strong><br><br><strong>Dirección:</strong> ALCALDE ALIRO SAAVEDRA S/N SAN IGNACIO ", "etiqueta": "" }, "geometry": { "type": "MultiPoint", "coordinates": [ [ -72.029817, -36.801795 ] ] } },
{ "type": "Feature", "properties": { "capa": "jardines", "popup": "<strong>AROMITO</strong><br><br><strong>Dirección:</strong> SANTA JUANA-SAN IGNACIO ", "etiqueta": "" }, "geometry": { "type": "MultiPoint", "coordinates": [ [ -72.016001, -36.805408 ] ] } },
{ "type": "Feature", "properties": { "capa": "jardines", "popup": "<strong>RAYITO DE SOL</strong><br><br><strong>Dirección:</strong> LOS AMARANTOS #373 PUEBLO SECO ", "etiqueta": "" }, "geometry": { "type": "MultiPoint", "coordinates": [ [ -72.088161, -36.878807 ] ] } },
{ "type": "Feature", "properties": { "capa": "jardines", "popup": "<strong>SEMILLITAS DE QUIRIQUINA</strong><br><br><strong>Dirección:</strong> CALLE CENTRAL KM25, SECTOR QUIRIQUINA ", "etiqueta": "" }, "geometry": { "type": "MultiPoint", "coordinates": [ [ -72.101827, -36.840233 ] ] } },
{ "type": "Feature", "properties": { "capa": "jardines", "popup": "<strong>NA</strong><br><br><strong>Dirección:</strong> NA ", "etiqueta": "" }, "geometry": { "type": "MultiPoint", "coordinates": [ [ -72.025689999988273, -36.798349999892054 ] ] } },
{ "type": "Feature", "properties": { "capa": "bomberos", "popup": "<strong>Cuerpo de Bomberos</strong><br><br><strong>Dirección:</strong> Alcalde Remberto Váldes 509", "etiqueta": "" }, "geometry": { "type": "Point", "coordinates": [ -72.032770116598769, -36.798459063660474 ] } },
{ "type": "Feature", "properties": { "capa": "comisarias", "popup": "<strong>RETEN QUIRIQUINA</strong><br><br><strong>Dirección:</strong> CENTRAL S/N", "etiqueta": "" }, "geometry": { "type": "Point", "coordinates": [ -72.101309766534683, -36.840725353430656 ] } },
{ "type": "Feature", "properties": { "capa": "comisarias", "popup": "<strong>RETEN SAN IGNACIO</strong><br><br><strong>Dirección:</strong> MANUEL RODRIGUEZ 694", "etiqueta": "" }, "geometry": { "type": "Point", "coordinates": [ -72.028774206124552, -36.802097439855622 ] } },
{ "type": "Feature", "properties": { "capa": "comisarias", "popup": "<strong>RETEN SAN MIGUEL</strong><br><br><strong>Dirección:</strong> ALIRO SAAVEDRA 752", "etiqueta": "" }, "geometry": { "type": "Point", "coordinates": [ -71.967349031999902, -36.813939269999935 ] } },
{ "type": "Feature", "properties": { "capa": "salud", "popup": "<strong>Centro de Salud Familiar Pueblo Seco</strong><br><br><strong>Tipo de atención:</strong> Centro de Salud Familiar (CESFAM)<br><strong>Dirección:</strong>  NA", "etiqueta": "" }, "geometry": { "type": "Point", "coordinates": [ -72.087959, -36.879051 ] } },
{ "type": "Feature", "properties": { "capa": "salud", "popup": "<strong>Posta de Salud Rural El Calvario</strong><br><br><strong>Tipo de atención:</strong> Posta de Salud Rural (PSR)<br><strong>Dirección:</strong>  NA", "etiqueta": "" }, "geometry": { "type": "Point", "coordinates": [ -71.900979, -36.846459 ] } },
{ "type": "Feature", "properties": { "capa": "salud", "popup": "<strong>SUR Quiriquina</strong><br><br><strong>Tipo de atención:</strong> Servicio de Urgencia Rural (SUR)<br><strong>Dirección:</strong>  NA", "etiqueta": "" }, "geometry": { "type": "Point", "coordinates": [ -72.102638, -36.843283 ] } },
{ "type": "Feature", "properties": { "capa": "salud", "popup": "<strong>Centro de Salud Familiar Quiriquina</strong><br><br><strong>Tipo de atención:</strong> Centro de Salud Familiar (CESFAM)<br><strong>Dirección:</strong>  NA", "etiqueta": "" }, "geometry": { "type": "Point", "coordinates": [ -72.102545, -36.843297 ] } },
{ "type": "Feature", "properties": { "capa": "salud", "popup": "<strong>CESFAM DR. ALFONSO PARRA CARRIEL</strong><br><br><strong>Tipo de atención:</strong> Centro de Salud Familiar (CESFAM)<br><strong>Dirección:</strong>  NA", "etiqueta": "" }, "geometry": { "type": "Point", "coordinates": [ -72.03211, -36.79861 ] } },
{ "type": "Feature", "properties": { "capa": "salud", "popup": "<strong>SUR San Ignacio</strong><br><br><strong>Tipo de atención:</strong> Servicio de Urgencia Rural (SUR)<br><strong>Dirección:</strong>  NA", "etiqueta": "" }, "geometry": { "type": "Point", "coordinates": [ -72.032209, -36.798538 ] } },
{ "type": "Feature", "properties": { "capa": "municipios", "popup": "<strong>Municipalidad de San Ignacio</strong><br><br><strong>Dirección:</strong> Manuel Jesús Ortiz Nº 599<br><strong>Región:</strong> Ñuble", "etiqueta": "" }, "geometry": { "type": "Point", "coordinates": [ -72.032190409999941, -36.798658030999938 ] } }
]
}
