{
"type": "FeatureCollection",
"name": "16205",
"crs": { "type": "name", "properties": { "name": "urn:ogc:def:crs:OGC:1.3:CRS84" } },
"features": [
{ "type": "Feature", "properties": { "capa": "comuna", "popup": "", "etiqueta": "" }, "geometry": { "type": "Polygon", "coordinates": [ [ [ -72.502767663465491, -36.435267291936562 ], [ -72.501324962830992, -36.435365761047493 ], [ -72.500239830307123, -36.435548344280441 ], [ -72.500204820265552, -36.435555941486633 ], [ -72.498239973872145, -36.435701364387597 ], [ -72.49572483929866, -36.436009628930869 ], [ -72.493269020483339, -36.436718085572721 ], [ -72.492227029551003, -36.437519136692664 ], [ -72.491266263388326, -36.438284290665862 ], [ -72.490187400206821, -36.439186863460073 ], [ -72.489481019864627, -36.440078526368289 ], [ -72.489101401707032, -36.44086016373759 ], [ -72.488965802811521, -36.44153412898855 ], [ -72.488873599730766, -36.443178344889525 ], [ -72.489298801999141, -36.444338413596256 ], [ -72.4898466952707, -36.445461379841881 ], [ -72.49035477341225, -36.446619018224339 ], [ -72.490708880314088, -36.447580171104171 ], [ -72.490864578115762, -36.44827911965551 ], [ -72.490969937023877, -36.448778475838331 ], [ -72.491164158178194, -36.449409347238308 ], [ -72.491522488060198, -36.450001828467855 ], [ -72.491966586390561, -36.450658816132318 ], [ -72.492452118615105, -36.451314590094263 ], [ -72.492891821488797, -36.451871244989007 ], [ -72.493050552002885, -36.452637047914592 ], [ -72.492873551552549, -36.453312303222319 ], [ -72.492724767185294, -36.454154137570093 ], [ -72.492760812086075, -36.454957046238626 ], [ -72.492829279880411, -36.455558086827708 ], [ -72.492776462534948, -36.456229628937741 ], [ -72.492509084380529, -36.456739976937421 ], [ -72.491698798604361, -36.457165695473044 ], [ -72.490503719476251, -36.457334661476281 ], [ -72.489600143657839, -36.457528669408816 ], [ -72.489478827077022, -36.457586324463158 ], [ -72.489025650372369, -36.457695176638026 ], [ -72.488434394523736, -36.457997395275939 ], [ -72.487704963411346, -36.45858871775917 ], [ -72.487322304456498, -36.459047807035361 ], [ -72.486844448336058, -36.459631690666775 ], [ -72.486417052381768, -36.460214170442974 ], [ -72.485689314593671, -36.46084610263447 ], [ -72.484805157656766, -36.461360518143813 ], [ -72.482576506607117, -36.462239872535633 ], [ -72.481841528397865, -36.462709163791843 ], [ -72.481401810252805, -36.463080809489369 ], [ -72.480726798182019, -36.463583551172917 ], [ -72.477464465616436, -36.465755851701353 ], [ -72.47472266633379, -36.467510763583391 ], [ -72.472739391002335, -36.469076037116189 ], [ -72.472303195151511, -36.469524239120254 ], [ -72.472110952985759, -36.469864875013357 ], [ -72.471837508508216, -36.470241313448277 ], [ -72.471100787567309, -36.470463835145516 ], [ -72.470148097259028, -36.470491574280985 ], [ -72.467819387361502, -36.470358354245334 ], [ -72.466277801977157, -36.470202126435275 ], [ -72.464907753489555, -36.47017493693879 ], [ -72.461792020588433, -36.470064546964871 ], [ -72.4599603898601, -36.469916734492379 ], [ -72.458378873463062, -36.469795074012701 ], [ -72.457300377692505, -36.469792849025318 ], [ -72.455215950263437, -36.470020843440402 ], [ -72.454349004149037, -36.470112918584782 ], [ -72.453601824123268, -36.470101132700798 ], [ -72.453178714031182, -36.469912397218515 ], [ -72.452958150679478, -36.469617185346706 ], [ -72.452691791214576, -36.469222914234031 ], [ -72.452339682165942, -36.468764177778368 ], [ -72.451994908759886, -36.468472635715209 ], [ -72.451158928471656, -36.468329359845342 ], [ -72.45049612001398, -36.46834854783215 ], [ -72.449592287277397, -36.468542115711742 ], [ -72.448932447751744, -36.46862830569885 ], [ -72.448217905316866, -36.468414472953654 ], [ -72.447621649445352, -36.468063169292599 ], [ -72.447026794047375, -36.467745407340573 ], [ -72.446526769302338, -36.467692843496131 ], [ -72.445831508306739, -36.467913863382016 ], [ -72.445232376029665, -36.468433775782763 ], [ -72.443836677047457, -36.469644713844396 ], [ -72.44250348463936, -36.470691366702162 ], [ -72.441239505627266, -36.471745677829077 ], [ -72.440313610267282, -36.47246447902868 ], [ -72.439369621040868, -36.47277671500445 ], [ -72.438569493413922, -36.472921886819783 ], [ -72.438069696840984, -36.473017793572353 ], [ -72.437573401002695, -36.473194940509515 ], [ -72.437327047019195, -36.473324131371271 ], [ -72.43687753723755, -36.473418509824725 ], [ -72.436523318046284, -36.473388051310089 ], [ -72.436001948431795, -36.472995926753619 ], [ -72.435527197787295, -36.472521113099468 ], [ -72.435212676945085, -36.472245183425585 ], [ -72.434750506307793, -36.472054924613175 ], [ -72.434478666221352, -36.472035445703241 ], [ -72.434461867725545, -36.472027588401517 ], [ -72.433833161112688, -36.47187821933359 ], [ -72.432395130819373, -36.471249629959871 ], [ -72.431550285955893, -36.470905476342679 ], [ -72.430704154704955, -36.470527842685414 ], [ -72.429746903649985, -36.470454855086821 ], [ -72.42816677425175, -36.470366263728536 ], [ -72.426617782257878, -36.470511336034107 ], [ -72.425918010821235, -36.47063191035879 ], [ -72.425351217894388, -36.470949727660695 ], [ -72.425114464206317, -36.471224549473135 ], [ -72.42484658389364, -36.471734770607924 ], [ -72.424703022331457, -36.472241419848309 ], [ -72.424643718251346, -36.472779085825074 ], [ -72.424463043691503, -36.473387334724023 ], [ -72.42403832112349, -36.474103055732797 ], [ -72.423403526627979, -36.474757785568151 ], [ -72.422602862706825, -36.475417275189798 ], [ -72.422363139188406, -36.475625153115004 ], [ -72.422212191677957, -36.475964528438183 ], [ -72.422058294998422, -36.476236890965623 ], [ -72.421571475488093, -36.476485373551427 ], [ -72.420997262477016, -36.476635900311088 ], [ -72.420051805403418, -36.476830516547864 ], [ -72.419001295747222, -36.476525687120919 ], [ -72.418610746889243, -36.476134898153198 ], [ -72.418622761856156, -36.475464471102256 ], [ -72.41860510726589, -36.475062986013008 ], [ -72.418337514414105, -36.474635158232168 ], [ -72.417662863466063, -36.47438648623573 ], [ -72.416791391639251, -36.474377958103858 ], [ -72.415968714502057, -36.474535583921153 ], [ -72.415233234134547, -36.474791166180403 ], [ -72.414335102106762, -36.475118426309415 ], [ -72.413722466354344, -36.475336968321066 ], [ -72.413315478326666, -36.475516108686577 ], [ -72.412311931695228, -36.476750889414888 ], [ -72.412128302576406, -36.477292110470181 ], [ -72.411547856155579, -36.478246753597652 ], [ -72.411080073742738, -36.478930151719673 ], [ -72.410696642236758, -36.479644645624852 ], [ -72.410182999032017, -36.480228892746901 ], [ -72.409866300673556, -36.480572995574036 ], [ -72.40900786879142, -36.480865496113182 ], [ -72.408469261404946, -36.480880899781475 ], [ -72.407591847222548, -36.480738503492049 ], [ -72.406957147948447, -36.480455117166841 ], [ -72.406733401865665, -36.480355219520305 ], [ -72.406213841458168, -36.480300462655094 ], [ -72.405782683359448, -36.480312783657382 ], [ -72.405406322493079, -36.480478472705919 ], [ -72.405082786158658, -36.480758835413411 ], [ -72.404752561866957, -36.480884452751326 ], [ -72.404319887412043, -36.480858058638006 ], [ -72.404169328872115, -36.480707423067606 ], [ -72.403775932354691, -36.480486291591305 ], [ -72.403735757898531, -36.480481016642663 ], [ -72.403610490527129, -36.480398600127941 ], [ -72.403258022152357, -36.480408664650824 ], [ -72.40272018552038, -36.480790360029289 ], [ -72.402619644277166, -36.481128715968154 ], [ -72.402198117914921, -36.481693248619507 ], [ -72.401042875476406, -36.482694514051389 ], [ -72.399904987590844, -36.482998172238482 ], [ -72.398420104765535, -36.483040446285642 ], [ -72.397256832286686, -36.482763736446778 ], [ -72.396670129998213, -36.48250941196882 ], [ -72.396131448949873, -36.482253641369027 ], [ -72.395311961730258, -36.48216080491563 ], [ -72.394697796146914, -36.482371987245173 ], [ -72.394286890566292, -36.482848426340105 ], [ -72.393924004429167, -36.483323568915438 ], [ -72.393559238118172, -36.483759937944988 ], [ -72.393092041406874, -36.484044433139417 ], [ -72.392474381377085, -36.484178126567706 ], [ -72.391849973202866, -36.484157219176417 ], [ -72.388788175151419, -36.483237260927254 ], [ -72.384346331261568, -36.48146562151635 ], [ -72.383315211740822, -36.480913899996082 ], [ -72.382966335728867, -36.480613927470742 ], [ -72.382853739992825, -36.480229891689504 ], [ -72.382643598895044, -36.479809723587287 ], [ -72.382532686601863, -36.47946431866017 ], [ -72.382276310114719, -36.479084287457169 ], [ -72.381681352308789, -36.47863635742997 ], [ -72.380855182521771, -36.478388671957426 ], [ -72.380034154691444, -36.478257019927192 ], [ -72.378205534217614, -36.478115243623542 ], [ -72.377576126918839, -36.477978143374742 ], [ -72.376789498275684, -36.477535617900472 ], [ -72.376189544938455, -36.476971616932573 ], [ -72.375837355041412, -36.476594285151066 ], [ -72.375582792252843, -36.476252940602087 ], [ -72.375184451408089, -36.475915592709725 ], [ -72.373797962852493, -36.475634191806918 ], [ -72.373391609035409, -36.475604798898665 ], [ -72.372985364812791, -36.475676971900512 ], [ -72.37217765540484, -36.475699751004946 ], [ -72.371163727841989, -36.475880119957637 ], [ -72.370750505506237, -36.476135026729615 ], [ -72.370648755130617, -36.476197767660302 ], [ -72.37070023757957, -36.476550402557457 ], [ -72.370545278193049, -36.476947996685418 ], [ -72.370538136586546, -36.476968793338266 ], [ -72.370388290410631, -36.477404256963638 ], [ -72.370229434132412, -36.477914455475599 ], [ -72.370363186990019, -36.47814710302702 ], [ -72.370416861328252, -36.478661994590716 ], [ -72.370190903593254, -36.47910027510747 ], [ -72.370037696819878, -36.479397209682496 ], [ -72.36980774876838, -36.479905873900378 ], [ -72.369802846661869, -36.480050025471478 ], [ -72.369788391870628, -36.480477749684702 ], [ -72.369767091916927, -36.481108140731074 ], [ -72.36946604490565, -36.481615197460357 ], [ -72.368953017046891, -36.482122118693532 ], [ -72.368931105340494, -36.482135360317571 ], [ -72.3687038019292, -36.482412242858928 ], [ -72.367957404336025, -36.482898149305441 ], [ -72.366971523074653, -36.483390743108352 ], [ -72.366165628263602, -36.483607196099477 ], [ -72.365305005390482, -36.483670251667803 ], [ -72.363980321824727, -36.484094954162536 ], [ -72.362556592710732, -36.484444929866825 ], [ -72.36151947334217, -36.484861566270922 ], [ -72.360807549496357, -36.485036507809276 ], [ -72.360135197337115, -36.485016785150464 ], [ -72.359558618163575, -36.484994359079401 ], [ -72.35903498299794, -36.485086550052003 ], [ -72.358855047751575, -36.485362743850857 ], [ -72.358820579394134, -36.485673517303944 ], [ -72.358933166147011, -36.48605772616628 ], [ -72.359101860774217, -36.486633897216706 ], [ -72.359315238501964, -36.487131377034018 ], [ -72.359705780173414, -36.488398552252683 ], [ -72.359744246033884, -36.489288268501973 ], [ -72.35973320034914, -36.49014070206502 ], [ -72.359621174145019, -36.4908797962335 ], [ -72.359452938556913, -36.491426784281181 ], [ -72.359157709035415, -36.492364733204752 ], [ -72.358994480656733, -36.493027690380622 ], [ -72.358966704748141, -36.493493286888238 ], [ -72.358892570381002, -36.493998870207527 ], [ -72.358584040403414, -36.494627316207485 ], [ -72.358306535540777, -36.494867506414842 ], [ -72.357883728180965, -36.495073110783963 ], [ -72.357556700095046, -36.49527594295359 ], [ -72.357376738797527, -36.495552135085958 ], [ -72.357338829892555, -36.495785573153476 ], [ -72.357355550234928, -36.496172483983784 ], [ -72.357274807860563, -36.496523312864788 ], [ -72.356954462342031, -36.496880965880692 ], [ -72.35602453983465, -36.497565588306166 ], [ -72.355030040136427, -36.497864639460516 ], [ -72.353883458355554, -36.497974419343919 ], [ -72.353318468347496, -36.49822268850982 ], [ -72.353150268692019, -36.49876974096081 ], [ -72.353170305614427, -36.499233918635575 ], [ -72.353188582737204, -36.499659465168051 ], [ -72.353387685336756, -36.500090848392446 ], [ -72.35417118335117, -36.500771667249495 ], [ -72.354565179943194, -36.501208486787924 ], [ -72.35473042593803, -36.501374347775368 ], [ -72.355502187463244, -36.50173845129666 ], [ -72.35593942895305, -36.501910381836112 ], [ -72.356154749736774, -36.50208184263041 ], [ -72.356316179688278, -36.502360302417841 ], [ -72.356688723613004, -36.502913757290159 ], [ -72.357148216372408, -36.503433166965898 ], [ -72.357594817409165, -36.50433522769778 ], [ -72.357922061989072, -36.504743504544081 ], [ -72.358408685666689, -36.504961643832679 ], [ -72.358659063204357, -36.505129381380208 ], [ -72.35875421096263, -36.505325188211238 ], [ -72.359511319168917, -36.505630329614512 ], [ -72.359842270197689, -36.505912567463511 ], [ -72.36036965672794, -36.506446954140792 ], [ -72.360533602860571, -36.506630853840441 ], [ -72.360678178620716, -36.506895314719173 ], [ -72.360678963748256, -36.506913451956159 ], [ -72.36070951814601, -36.506977178110731 ], [ -72.360676577822872, -36.507454140252413 ], [ -72.360461812197997, -36.507737741170942 ], [ -72.360314277387317, -36.508076874009731 ], [ -72.360351603285693, -36.508478776468387 ], [ -72.360514415744404, -36.508716667348622 ], [ -72.360676670349363, -36.508950070782163 ], [ -72.361028252985236, -36.509138126325951 ], [ -72.361360998847957, -36.509366276445931 ], [ -72.361575218297119, -36.509591790493282 ], [ -72.361722515054254, -36.509775272611236 ], [ -72.361817431047172, -36.509980162303414 ], [ -72.361893870491329, -36.510256730866928 ], [ -72.361989127844069, -36.510452605594864 ], [ -72.362102617403792, -36.510621835207608 ], [ -72.362326048177906, -36.511068384620657 ], [ -72.362370588446311, -36.511258603941641 ], [ -72.362290065260865, -36.511635338722328 ], [ -72.362155894686666, -36.512073967677452 ], [ -72.362156289945403, -36.512556116306293 ], [ -72.362157839539265, -36.513024796718177 ], [ -72.362229394843212, -36.513422854149574 ], [ -72.362218720162701, -36.513738049815672 ], [ -72.36229104083128, -36.514113646230363 ], [ -72.362301887988323, -36.514803287086792 ], [ -72.362266188040635, -36.515338788480278 ], [ -72.362204447729468, -36.515657269252344 ], [ -72.362241276859478, -36.516072693778852 ], [ -72.362216137506238, -36.516319944694352 ], [ -72.362155501224564, -36.516606950389466 ], [ -72.362015648806192, -36.51721226622977 ], [ -72.36193015164902, -36.517714996013588 ], [ -72.361940290933646, -36.517908989957128 ], [ -72.361797835197578, -36.518099539722094 ], [ -72.361604925583563, -36.518248478188035 ], [ -72.361593948170807, -36.5182842939547 ], [ -72.36122959059324, -36.518699817001412 ], [ -72.361211546134129, -36.518694937392077 ], [ -72.360913590225735, -36.519026282308204 ], [ -72.360429028181713, -36.519403044972684 ], [ -72.360109044684236, -36.519624951870817 ], [ -72.359893736476934, -36.519774224543106 ], [ -72.359502857038947, -36.520103462579129 ], [ -72.359301390971865, -36.520306377168424 ], [ -72.359202852073409, -36.520493397310169 ], [ -72.359143932472236, -36.520708383608323 ], [ -72.359107412362661, -36.520878818062812 ], [ -72.359104016730882, -36.520977899647463 ], [ -72.359090184472151, -36.521076684396007 ], [ -72.359085603962512, -36.521211747624157 ], [ -72.359142746696037, -36.521357175911255 ], [ -72.359280983943549, -36.521499948716759 ], [ -72.359558659486083, -36.521789962182844 ], [ -72.359616084290607, -36.52190386274539 ], [ -72.35963208059087, -36.522030447124521 ], [ -72.359596322252685, -36.522178347136482 ], [ -72.359469921207364, -36.522283701168611 ], [ -72.359257062705851, -36.522508786302289 ], [ -72.359098634924024, -36.522653943602485 ], [ -72.358885699167402, -36.522883606692631 ], [ -72.35871402931997, -36.523109520989408 ], [ -72.358574044849249, -36.523304722140011 ], [ -72.358422354432051, -36.523846592449104 ], [ -72.358274653433043, -36.524271426887829 ], [ -72.358098305159601, -36.5246324066607 ], [ -72.358074968725163, -36.525010406044245 ], [ -72.35810742395806, -36.525267991005222 ], [ -72.358162230173548, -36.525769421045474 ], [ -72.358217628378796, -36.525946342668604 ], [ -72.358165490159706, -36.526269571566083 ], [ -72.358020495784658, -36.526613354324972 ], [ -72.357849068482352, -36.527136809816746 ], [ -72.357771998420858, -36.527549687346891 ], [ -72.357710857285994, -36.527690257161758 ], [ -72.35773428894187, -36.528231766143485 ], [ -72.357751030843829, -36.528618675057594 ], [ -72.358007383076441, -36.528998755535525 ], [ -72.358225914438989, -36.529612271987894 ], [ -72.358338487717134, -36.529996478657047 ], [ -72.35864457427715, -36.530413907961666 ], [ -72.35889926372819, -36.530755280878957 ], [ -72.359248198130629, -36.531055243962705 ], [ -72.359689711109624, -36.531275235640699 ], [ -72.359840202275905, -36.531425928759731 ], [ -72.360043771299061, -36.531691308960006 ], [ -72.360204223883542, -36.532074089095403 ], [ -72.360318576724268, -36.532496922233804 ], [ -72.360472421301495, -36.532724952236244 ], [ -72.360687634287387, -36.533261123579116 ], [ -72.360716120763371, -36.533918747218721 ], [ -72.360707337036516, -36.535933030020075 ], [ -72.361011490422044, -36.538519553384134 ], [ -72.36135171565779, -36.540833860184172 ], [ -72.361740953873777, -36.54206229834476 ], [ -72.36232692223868, -36.543401365609725 ], [ -72.362454723757523, -36.544133615403794 ], [ -72.362471495303865, -36.544520447648594 ], [ -72.362638793050806, -36.545057966884542 ], [ -72.362953265383993, -36.545668835789201 ], [ -72.363120569419124, -36.54620635353514 ], [ -72.363484788656137, -36.54685449606874 ], [ -72.363694944126976, -36.547274618598983 ], [ -72.36400784530673, -36.547846703303868 ], [ -72.364031344336254, -36.548388354759936 ], [ -72.364292831339029, -36.548884384092972 ], [ -72.364551063745566, -36.549303221144335 ], [ -72.364662112582664, -36.549648637087493 ], [ -72.364733498105025, -36.550188935093097 ], [ -72.364561935157141, -36.550658517605555 ], [ -72.363996610975789, -36.550906853732485 ], [ -72.363290816335152, -36.551236659236615 ], [ -72.363162090449904, -36.55158884702643 ], [ -72.363195654203835, -36.552362582896684 ], [ -72.363181200310919, -36.553288477657624 ], [ -72.363098234606241, -36.553423833897078 ], [ -72.363077741339652, -36.553761302316715 ], [ -72.362993544943009, -36.554142495333032 ], [ -72.362980573270335, -36.554583755989654 ], [ -72.363077594914259, -36.554995928452485 ], [ -72.363096628418504, -36.555320764882978 ], [ -72.362828455255055, -36.555999753472996 ], [ -72.362830818722571, -36.556157576089198 ], [ -72.362763434296468, -36.556494007191688 ], [ -72.362631773615163, -36.556833580060342 ], [ -72.362591673719194, -36.557233753590594 ], [ -72.362460437941039, -36.55739756281109 ], [ -72.362327755875256, -36.557502729599406 ], [ -72.362216028810096, -36.557667020264311 ], [ -72.362031765480708, -36.558095474491473 ], [ -72.361942511569026, -36.558174613881782 ], [ -72.36178705721079, -36.558720948094695 ], [ -72.36179131881849, -36.559004866172614 ], [ -72.361657727657658, -36.559610225409394 ], [ -72.361528730481169, -36.559891187604421 ], [ -72.361242952134774, -36.560903277865059 ], [ -72.361285009459749, -36.561043889503885 ], [ -72.361305794678785, -36.562071686248757 ], [ -72.361461500565298, -36.562258766291741 ], [ -72.376122495583971, -36.579867676296629 ], [ -72.376321431995223, -36.579852217306808 ], [ -72.376397361196283, -36.57991443052439 ], [ -72.377014297183976, -36.579741998154681 ], [ -72.377386131439621, -36.57946033340675 ], [ -72.377943174950673, -36.579018551170712 ], [ -72.378366364992814, -36.578812856804994 ], [ -72.378745028241269, -36.578685855373422 ], [ -72.379075705283881, -36.578560288564901 ], [ -72.379966778350166, -36.578070264132236 ], [ -72.380528767086872, -36.577744439107178 ], [ -72.381042765126125, -36.577420048281702 ], [ -72.381366673363061, -36.577139658428045 ], [ -72.381980106819455, -36.576889870758322 ], [ -72.382747452226738, -36.576868072957573 ], [ -72.383845546541835, -36.57672068875825 ], [ -72.38461119682816, -36.576660175474373 ], [ -72.385380319103049, -36.57667706347759 ], [ -72.385911285419738, -36.576739396841951 ], [ -72.386210958008633, -36.577002067005985 ], [ -72.386167952062706, -36.577119472298804 ], [ -72.385934958722416, -36.577280959742168 ], [ -72.385748389417685, -36.577376022300747 ], [ -72.385704991806307, -36.577381906716617 ], [ -72.38509297050156, -36.577368527010115 ], [ -72.385019817094715, -36.577529084778156 ], [ -72.384937177478463, -36.577968929229016 ], [ -72.385129832869239, -36.578302035698641 ], [ -72.38521658227792, -36.578360392196096 ], [ -72.38629035021512, -36.578820131212822 ], [ -72.386687609488277, -36.579118703078571 ], [ -72.386944376742576, -36.579498699735431 ], [ -72.387070711312546, -36.580192203997711 ], [ -72.387137221677861, -36.580616438824137 ], [ -72.387248425923516, -36.580961823702033 ], [ -72.38749834352376, -36.581187079208661 ], [ -72.38779973369148, -36.58148844943937 ], [ -72.387862860103127, -36.581835200986752 ], [ -72.387780506151131, -36.582147340608586 ], [ -72.387610727257382, -36.582655728422445 ], [ -72.387540125065939, -36.583238651857549 ], [ -72.387558739056942, -36.583664174839875 ], [ -72.387669862454231, -36.584009635527764 ], [ -72.388067150473475, -36.584308126732282 ], [ -72.388418142916208, -36.584646687212718 ], [ -72.388721150949749, -36.584986685970037 ], [ -72.388972783433886, -36.585250715175768 ], [ -72.38913538119526, -36.585672065067101 ], [ -72.389157734872782, -36.585900472681274 ], [ -72.389155874461821, -36.585956254834443 ], [ -72.389275255173203, -36.586454568276132 ], [ -72.38925875491806, -36.586945381975937 ], [ -72.389307943968078, -36.587496182384108 ], [ -72.389289428791741, -36.588045513911652 ], [ -72.389276526289322, -36.588428236387024 ], [ -72.389401433436319, -36.588759941704957 ], [ -72.389392223908018, -36.589034643130887 ], [ -72.389310971290584, -36.589415841681245 ], [ -72.389248335359071, -36.58955528703067 ], [ -72.389134832324615, -36.590048715113724 ], [ -72.388917051953655, -36.590558471072114 ], [ -72.388834695306713, -36.590870610761883 ], [ -72.388760714551495, -36.591376200320731 ], [ -72.388827340799509, -36.591800429941614 ], [ -72.388940175487392, -36.592184517887453 ], [ -72.389198694456496, -36.59260313677057 ], [ -72.38970040803423, -36.593092336164915 ], [ -72.390124772174445, -36.594009861019117 ], [ -72.390432995826529, -36.594465813390663 ], [ -72.39049445855828, -36.594773932995949 ], [ -72.390658693050099, -36.595233986081226 ], [ -72.390869235694822, -36.595654040966416 ], [ -72.391083263802841, -36.596151500616088 ], [ -72.391146422553831, -36.596498249759044 ], [ -72.391212976936586, -36.596922479348834 ], [ -72.391134016819748, -36.597312028032363 ], [ -72.390672931347353, -36.597751139525769 ], [ -72.390350669722324, -36.598070186635802 ], [ -72.390088267336253, -36.598658647107307 ], [ -72.389930241101368, -36.599437745890683 ], [ -72.390003659511223, -36.600016642420215 ], [ -72.390215818225144, -36.600475404346803 ], [ -72.390472678005892, -36.600855314614932 ], [ -72.390481156305555, -36.601048833807631 ], [ -72.390451884702031, -36.601475644682523 ], [ -72.390427608629764, -36.602018570838197 ], [ -72.390451334933061, -36.602560129460642 ], [ -72.390564201062006, -36.602944287886764 ], [ -72.390582845595702, -36.603369808230447 ], [ -72.390558662049941, -36.603912731872285 ], [ -72.390533026826688, -36.604002554238562 ], [ -72.390710178193984, -36.604420459976915 ], [ -72.390908543276694, -36.604587016168907 ], [ -72.391174555991896, -36.604759617307323 ], [ -72.391299504461387, -36.605091318768032 ], [ -72.391561830490659, -36.605371938085121 ], [ -72.391832341070483, -36.605431917576986 ], [ -72.392015904612265, -36.606039707947602 ], [ -72.391994531895037, -36.606673636326413 ], [ -72.391990138234974, -36.606805223456689 ], [ -72.392118776983665, -36.607028828615626 ], [ -72.392322591246895, -36.607033354348914 ], [ -72.392524650202077, -36.607091814597744 ], [ -72.39270199830041, -36.607319566778173 ], [ -72.392785145464785, -36.607426440962243 ], [ -72.392987849410318, -36.60748495427552 ], [ -72.393861723332208, -36.607778989078135 ], [ -72.394405716118811, -36.607790937156828 ], [ -72.395134866956838, -36.608356588480831 ], [ -72.395327654399949, -36.608689745520991 ], [ -72.395262198656781, -36.609196864582074 ], [ -72.395235943595978, -36.609399714734096 ], [ -72.395127646298576, -36.609869452108192 ], [ -72.394997201037867, -36.610435409070959 ], [ -72.395180624442446, -36.611043271059224 ], [ -72.395369829404231, -36.611484444545674 ], [ -72.395202315163317, -36.612413661257555 ], [ -72.395178325653646, -36.613125021003903 ], [ -72.395294213715189, -36.613731413192454 ], [ -72.395275749742851, -36.614280741808365 ], [ -72.395231609224737, -36.614570536902733 ], [ -72.395221813994866, -36.614635255889411 ], [ -72.395100787569888, -36.615430503209282 ], [ -72.395074964598734, -36.616196019239922 ], [ -72.395181459875673, -36.617305864466637 ], [ -72.395476896009683, -36.617267247271734 ], [ -72.396407318878701, -36.617211470450094 ], [ -72.396816276911778, -36.617220393100311 ], [ -72.397145694516368, -36.617252916962855 ], [ -72.397518900499463, -36.6173880457211 ], [ -72.39794939564149, -36.617689166421897 ], [ -72.398286486655238, -36.617962985429827 ], [ -72.398652949883811, -36.618300846670301 ], [ -72.399216884371398, -36.618846090672655 ], [ -72.399539119945302, -36.619094199596212 ], [ -72.399986750451376, -36.61935769607306 ], [ -72.40035736299825, -36.619568843444839 ], [ -72.400570331094229, -36.619789143310726 ], [ -72.400876389806484, -36.620112704983832 ], [ -72.400881210166276, -36.620122383622132 ], [ -72.401048887002275, -36.620412107011987 ], [ -72.40133333584204, -36.620752229356448 ], [ -72.401727790574881, -36.621109651699136 ], [ -72.402194950455225, -36.621471121422182 ], [ -72.402705655270665, -36.621833557725211 ], [ -72.403111612032404, -36.622412529130955 ], [ -72.403509525279077, -36.622898060812304 ], [ -72.403958466427156, -36.623623203797358 ], [ -72.404287608248936, -36.624393402552457 ], [ -72.404946410220433, -36.625184062762017 ], [ -72.405452438406499, -36.625686866643321 ], [ -72.405956160617222, -36.626259854883131 ], [ -72.406290437209179, -36.626688588826795 ], [ -72.406505453464007, -36.627064638434398 ], [ -72.406845855667882, -36.627501314669502 ], [ -72.406941495702924, -36.627849114561904 ], [ -72.408129379325615, -36.628740863500333 ], [ -72.408718882561146, -36.629033919713294 ], [ -72.409401101815462, -36.629246739764817 ], [ -72.409932352898082, -36.629308948481018 ], [ -72.410371163744685, -36.629451306997446 ], [ -72.410803057563626, -36.629438929009467 ], [ -72.411322452681119, -36.629230356368829 ], [ -72.411600139901736, -36.628990033479653 ], [ -72.412118773247869, -36.629168923288795 ], [ -72.412264706362407, -36.629172046272792 ], [ -72.414505774824221, -36.629923249287941 ], [ -72.417720317915013, -36.631538555536252 ], [ -72.422232313042002, -36.633462793545938 ], [ -72.424081507630788, -36.634205372136577 ], [ -72.42545182920621, -36.634937496198553 ], [ -72.427416695362538, -36.636139051499988 ], [ -72.428248638621895, -36.636883621203907 ], [ -72.42859075660796, -36.637272572299864 ], [ -72.42899200889255, -36.637662770632346 ], [ -72.429744866270923, -36.638155914758563 ], [ -72.430187624314897, -36.63838319025664 ], [ -72.431790819754696, -36.638915430622291 ], [ -72.432672251203044, -36.639308448393706 ], [ -72.43339171460903, -36.639956134515216 ], [ -72.434770353685693, -36.640442480466071 ], [ -72.436287781575416, -36.640685945656791 ], [ -72.437636866977527, -36.640750166267061 ], [ -72.439205966860726, -36.640748741962106 ], [ -72.440387784160293, -36.640598544676259 ], [ -72.44104000597234, -36.64064773877957 ], [ -72.442032500630845, -36.64095000694725 ], [ -72.443110919146278, -36.641289341646882 ], [ -72.444310957873071, -36.641473979356455 ], [ -72.445102868610107, -36.641683413360788 ], [ -72.445885738702117, -36.641735220366336 ], [ -72.447367853818022, -36.64173199986368 ], [ -72.448414380344232, -36.641719241107332 ], [ -72.449329083594094, -36.641738860370282 ], [ -72.450376698878429, -36.641690992502625 ], [ -72.451331503820867, -36.641816903455172 ], [ -72.451815232228327, -36.641825604857075 ], [ -72.452703781926999, -36.641796946881321 ], [ -72.454188544378056, -36.641637893804841 ], [ -72.454913454269615, -36.641577357914699 ], [ -72.455838570790235, -36.641281005628528 ], [ -72.457376884510325, -36.640892354440432 ], [ -72.458346708386003, -36.640561837748528 ], [ -72.459624789151434, -36.640132447927364 ], [ -72.459969823967214, -36.640245164176427 ], [ -72.460135965582396, -36.640494614109826 ], [ -72.460067093546186, -36.641265881861713 ], [ -72.460453977277808, -36.641867119583807 ], [ -72.461264766110531, -36.642409080914554 ], [ -72.461787619741855, -36.642706314704078 ], [ -72.462256020195625, -36.64285935208752 ], [ -72.462670953821984, -36.642937254205521 ], [ -72.463190199819152, -36.643053674045767 ], [ -72.463664474356563, -36.643223216578889 ], [ -72.4641313575558, -36.643423973437983 ], [ -72.464304089211893, -36.643570701166873 ], [ -72.464534338199002, -36.643766313678128 ], [ -72.465054071083046, -36.644158913881434 ], [ -72.465284417088199, -36.64435459697571 ], [ -72.465386923845259, -36.644375230409032 ], [ -72.465920325494665, -36.643926863728645 ], [ -72.466484542951576, -36.643640792968263 ], [ -72.467041469681647, -36.643578138130202 ], [ -72.467408612934904, -36.643660442014287 ], [ -72.467963107925485, -36.643672181994368 ], [ -72.469276260716242, -36.643104008296866 ], [ -72.469499766050504, -36.643002348687901 ], [ -72.470788867347835, -36.642092964177813 ], [ -72.471547485622125, -36.641512892923714 ], [ -72.471943993005368, -36.640701651225143 ], [ -72.472247894862619, -36.639888386318979 ], [ -72.472379280659453, -36.63869899352234 ], [ -72.472388587205785, -36.638681892756239 ], [ -72.473461397538912, -36.636709930701294 ], [ -72.473862524957667, -36.635749744349077 ], [ -72.474450968181159, -36.634718986268112 ], [ -72.475316609941757, -36.633694153630501 ], [ -72.475887978886647, -36.633184625784011 ], [ -72.476476465229297, -36.632153783647226 ], [ -72.477142548046146, -36.631571805780034 ], [ -72.477991186495061, -36.631068191079571 ], [ -72.479590917132796, -36.630207875117499 ], [ -72.480818690445687, -36.629414147795757 ], [ -72.481851888668032, -36.62891433334454 ], [ -72.482965402564986, -36.628788892247854 ], [ -72.484074174255554, -36.628812310414652 ], [ -72.484825326631508, -36.628455581985435 ], [ -72.485574151472562, -36.628173318626558 ], [ -72.486899047040708, -36.627232604878408 ], [ -72.48823113452103, -36.626068388743356 ], [ -72.489183979339515, -36.625194283637178 ], [ -72.490518406931145, -36.623955646736157 ], [ -72.493454772321172, -36.621781958678781 ], [ -72.494767348393495, -36.621213384186269 ], [ -72.495459830001622, -36.621080706996651 ], [ -72.495876005998014, -36.62123669650709 ], [ -72.496273554528699, -36.62151937604127 ], [ -72.496685798599088, -36.621924444291544 ], [ -72.497325225706533, -36.622161409997553 ], [ -72.497697093199861, -36.62209475357546 ], [ -72.498076250521734, -36.62180467818267 ], [ -72.499119005920392, -36.621006831120738 ], [ -72.4997946773546, -36.62043419244651 ], [ -72.500247128220508, -36.619916758440525 ], [ -72.500870424280379, -36.619508333476148 ], [ -72.501441102420813, -36.619379794787712 ], [ -72.502157060600567, -36.618797691620792 ], [ -72.503085520650686, -36.618407437419854 ], [ -72.503748974997038, -36.617899721362292 ], [ -72.504227653974269, -36.61738814233788 ], [ -72.504796315396888, -36.616952964060346 ], [ -72.505457350580187, -36.616519638533539 ], [ -72.506769835024357, -36.615951010809745 ], [ -72.508274324479061, -36.615162805501974 ], [ -72.509778597439748, -36.614374588531625 ], [ -72.510172587743597, -36.613450815638096 ], [ -72.510460911915487, -36.612613785974439 ], [ -72.510966137007685, -36.61194034411762 ], [ -72.51172663276094, -36.61128557085209 ], [ -72.512778648891839, -36.610189731915476 ], [ -72.513098812052363, -36.608855085371978 ], [ -72.513210270521256, -36.60826123597559 ], [ -72.513326595164003, -36.607518514157015 ], [ -72.513528037874892, -36.607001132650922 ], [ -72.513814690282047, -36.606709016669008 ], [ -72.514570435744062, -36.606203169179416 ], [ -72.515041728773042, -36.605914970947943 ], [ -72.516079237112123, -36.605265940837683 ], [ -72.518761817654578, -36.603756953946721 ], [ -72.519843068558117, -36.603183362164145 ], [ -72.521995913475862, -36.602333892810222 ], [ -72.523580364668931, -36.60191971789434 ], [ -72.524984823123489, -36.601352823664214 ], [ -72.526488743046286, -36.60056441434206 ], [ -72.528741000024951, -36.599493327865588 ], [ -72.53019941758366, -36.598939167943456 ], [ -72.533032201831517, -36.598240944545047 ], [ -72.534052793995485, -36.598113070692463 ], [ -72.535630079327532, -36.597922153446866 ], [ -72.537299531807747, -36.597733126005622 ], [ -72.539153688690149, -36.597547884433517 ], [ -72.540273877967977, -36.59719844412696 ], [ -72.541663957988078, -36.597078116015041 ], [ -72.542474093745611, -36.597068697005042 ], [ -72.543388984743331, -36.597058072850842 ], [ -72.543975153432527, -36.59705125091844 ], [ -72.544995886632009, -36.59692327917292 ], [ -72.545656514878459, -36.596489749507505 ], [ -72.546866565329111, -36.596216621632223 ], [ -72.54779482954649, -36.596086657935807 ], [ -72.549106626779476, -36.595517523992591 ], [ -72.54986907187687, -36.594788057603267 ], [ -72.55064551182808, -36.593611693400426 ], [ -72.551523772223476, -36.592139408343982 ], [ -72.551822061406824, -36.591474855443558 ], [ -72.552574861293024, -36.591043188492563 ], [ -72.553320792660543, -36.590834924550101 ], [ -72.554064284203761, -36.590701202627606 ], [ -72.555210235367312, -36.590497884245927 ], [ -72.555921065065121, -36.590055788669325 ], [ -72.556230618223807, -36.589404322083396 ], [ -72.556438765061657, -36.588663400816628 ], [ -72.556464651813201, -36.587844224033454 ], [ -72.556587482953589, -36.586877999055154 ], [ -72.556793366036914, -36.586211544913638 ], [ -72.557508079151702, -36.585311187103123 ], [ -72.558403046414753, -36.584977759590885 ], [ -72.558957098535899, -36.584989096633237 ], [ -72.559389761312715, -36.585033659265136 ], [ -72.559662071218057, -36.584687911022868 ], [ -72.559636374909346, -36.583959733718437 ], [ -72.559567548687227, -36.583213138783783 ], [ -72.559333319265093, -36.582678968000771 ], [ -72.558875549474422, -36.582002235858376 ], [ -72.558290460560187, -36.581217411628629 ], [ -72.55799910008264, -36.580789903675075 ], [ -72.557812262181628, -36.580270919669488 ], [ -72.558013252141592, -36.579753410988687 ], [ -72.558308905667914, -36.57925071231967 ], [ -72.558957788442044, -36.579102075305634 ], [ -72.559606474485122, -36.579040831688367 ], [ -72.560895661122402, -36.578706523697853 ], [ -72.561197330666161, -36.578402777186149 ], [ -72.561583051079495, -36.577889037509031 ], [ -72.562093511553172, -36.576623427281973 ], [ -72.562760853808072, -36.576180454364909 ], [ -72.563677621386432, -36.575919851847587 ], [ -72.564652089552141, -36.575586878661731 ], [ -72.565454267134555, -36.575006111480135 ], [ -72.565942631747191, -36.574401229275232 ], [ -72.566813393006598, -36.573152191660029 ], [ -72.567123165354246, -36.57211525880777 ], [ -72.567236511183523, -36.571446911112034 ], [ -72.567359106066974, -36.570480684355402 ], [ -72.567564861589545, -36.569814144213794 ], [ -72.568122311139092, -36.569089087679622 ], [ -72.568872050465117, -36.568788206551382 ], [ -72.569855535021318, -36.568550063924398 ], [ -72.570447525691876, -36.568539399049271 ], [ -72.571273355017411, -36.568591320859412 ], [ -72.572126098767157, -36.568714909720363 ], [ -72.574050883892156, -36.569201197862647 ], [ -72.574962562514443, -36.569592402983382 ], [ -72.576520418185197, -36.569996667500341 ], [ -72.577988384835379, -36.570324635489428 ], [ -72.579368592370528, -36.570501701897797 ], [ -72.58093586508042, -36.570608023938462 ], [ -72.582505370103803, -36.570639859703242 ], [ -72.583523347271964, -36.570586048328671 ], [ -72.585369821762072, -36.570623458806523 ], [ -72.586477796646975, -36.570645888202456 ], [ -72.588430485241332, -36.570238303311527 ], [ -72.589732449515196, -36.569966630801325 ], [ -72.590572606969516, -36.569685549413052 ], [ -72.591193392238182, -36.569382070432994 ], [ -72.591966334149674, -36.568612690996517 ], [ -72.592862475510813, -36.567347208671954 ], [ -72.594083336287582, -36.56606830158298 ], [ -72.59515442095703, -36.564934290355545 ], [ -72.596593319022929, -36.563765394226515 ], [ -72.596879343507723, -36.562963306764601 ], [ -72.597000905328599, -36.561990815550452 ], [ -72.59692509021356, -36.56148891616791 ], [ -72.596771728929951, -36.560818342899665 ], [ -72.596583437554813, -36.559866209428272 ], [ -72.596875023509526, -36.558888509198788 ], [ -72.597635510279588, -36.558236459964348 ], [ -72.599105637378031, -36.556667728271599 ], [ -72.599408578037938, -36.555813235551241 ], [ -72.599486821299166, -36.554690817216716 ], [ -72.599544436546537, -36.554235297422061 ], [ -72.599474904248609, -36.553671800330356 ], [ -72.599310813487236, -36.553020376017969 ], [ -72.599236956699528, -36.552422760898068 ], [ -72.600120677953527, -36.550726632848281 ], [ -72.601059799209438, -36.550223940813858 ], [ -72.602455971603803, -36.549879391980234 ], [ -72.604126631419746, -36.549614869464335 ], [ -72.604973413949295, -36.549110291721526 ], [ -72.605453387398853, -36.548523741231399 ], [ -72.60556169008612, -36.548004315244661 ], [ -72.605487793772539, -36.547406707525269 ], [ -72.605321597360131, -36.546807095409882 ], [ -72.604970822309681, -36.546203917845681 ], [ -72.604804545947232, -36.545604381559734 ], [ -72.604912076083366, -36.545272897177121 ], [ -72.60492318285354, -36.544911708460866 ], [ -72.605139708278045, -36.544538027573189 ], [ -72.605443217571519, -36.54418983476733 ], [ -72.605928181162497, -36.543656200231382 ], [ -72.606320302072206, -36.543285984714466 ], [ -72.606953664653176, -36.542684451176029 ], [ -72.608079050684907, -36.542269949734347 ], [ -72.60852162277763, -36.542160663549311 ], [ -72.609107581261043, -36.54214881284819 ], [ -72.610154362908801, -36.542382429382357 ], [ -72.611056398116517, -36.542565953546763 ], [ -72.611671652457972, -36.542554605224787 ], [ -72.612434677867043, -36.542499060924058 ], [ -72.612908637994096, -36.542319499576671 ], [ -72.613442563361318, -36.542093979154217 ], [ -72.613711707603599, -36.541910295089714 ], [ -72.614103788987435, -36.541540202566829 ], [ -72.614740716981771, -36.540820574468505 ], [ -72.615075008845082, -36.54042558826086 ], [ -72.615561336078642, -36.539844638293239 ], [ -72.615983965572056, -36.539427851725719 ], [ -72.616791451299477, -36.538877001520738 ], [ -72.61738893516798, -36.538487302364892 ], [ -72.617748042991025, -36.538234597220445 ], [ -72.618193488794333, -36.538030859935084 ], [ -72.619206373413164, -36.537460395134197 ], [ -72.619561197170611, -36.537349380011392 ], [ -72.619885904009834, -36.537261348752736 ], [ -72.620123634166617, -36.537147985425385 ], [ -72.620303497547738, -36.537009809593471 ], [ -72.620518379953609, -36.536683316963881 ], [ -72.620739534396762, -36.536156168495843 ], [ -72.62089446234225, -36.535875783330738 ], [ -72.62141001446696, -36.535295397540288 ], [ -72.62174270283748, -36.534947606288618 ], [ -72.622166819042675, -36.534483590100102 ], [ -72.622601732099284, -36.533665332048031 ], [ -72.622732531296222, -36.533219091326345 ], [ -72.62286550621279, -36.532701927886563 ], [ -72.623033494764186, -36.531996521086121 ], [ -72.623168551975567, -36.531408511873266 ], [ -72.623265691298812, -36.531103310419567 ], [ -72.623364380215946, -36.530750971553864 ], [ -72.623574969573042, -36.530566169855632 ], [ -72.624588441690065, -36.529972024979095 ], [ -72.624972334930106, -36.529861585960816 ], [ -72.625324936255538, -36.529821331192885 ], [ -72.625647427849273, -36.529804134105909 ], [ -72.62599712761633, -36.529858366561868 ], [ -72.626407407969538, -36.529842923550696 ], [ -72.626701421172129, -36.529801495784859 ], [ -72.626999060873544, -36.529642010373038 ], [ -72.62744443121835, -36.529438243952903 ], [ -72.627653464693395, -36.5293006455354 ], [ -72.62813455654549, -36.528884916669938 ], [ -72.628643487188228, -36.528517050072061 ], [ -72.628806347257665, -36.527976975971477 ], [ -72.628817940914729, -36.527599166495591 ], [ -72.628682442630534, -36.52724207480405 ], [ -72.628427059680092, -36.5269770583173 ], [ -72.628257291566115, -36.526784717085768 ], [ -72.628031927617542, -36.526496642516655 ], [ -72.627747260487141, -36.526231113834292 ], [ -72.627578311636711, -36.526015127927366 ], [ -72.627513659885722, -36.52591546302174 ], [ -72.624943783775436, -36.525110650343912 ], [ -72.623589199785471, -36.524493270012783 ], [ -72.622650218666749, -36.523496700246767 ], [ -72.621248844128573, -36.523063169857004 ], [ -72.620776424612231, -36.522945560420588 ], [ -72.620582843058401, -36.522612661421014 ], [ -72.620532442181073, -36.522590795608224 ], [ -72.620180554117979, -36.52243793110442 ], [ -72.619704954565506, -36.522428469782938 ], [ -72.619229902087071, -36.522418989690671 ], [ -72.618949464225054, -36.522688277424173 ], [ -72.618329984208501, -36.522950739351515 ], [ -72.618124638317695, -36.523000744821019 ], [ -72.617500275059257, -36.523425362281792 ], [ -72.617014570358165, -36.523744647169714 ], [ -72.616455997016189, -36.524229186176434 ], [ -72.615704009207022, -36.524376382474237 ], [ -72.615286483042752, -36.524696985933289 ], [ -72.615000892444243, -36.525132934136344 ], [ -72.614681466800576, -36.525427603823857 ], [ -72.614651917617607, -36.525454851168192 ], [ -72.614595639063381, -36.525465858385147 ], [ -72.613899826502177, -36.525602112990406 ], [ -72.613491758699539, -36.52559397381475 ], [ -72.613077683862585, -36.525806408545044 ], [ -72.612801236317054, -36.525967653133264 ], [ -72.612392112993945, -36.526013495769753 ], [ -72.612052513883938, -36.526006744801663 ], [ -72.611568368658197, -36.526271932808804 ], [ -72.611558247339886, -36.526600689860693 ], [ -72.611610791597485, -36.527092952972396 ], [ -72.611729868678296, -36.527645124384492 ], [ -72.611645272531334, -36.528193211936973 ], [ -72.611421447396836, -36.528846639978504 ], [ -72.610794576042125, -36.529325252456346 ], [ -72.610337783618462, -36.529543993051171 ], [ -72.610243399428185, -36.529589146375685 ], [ -72.609427947440821, -36.529572748315111 ], [ -72.608880898585625, -36.529398601809042 ], [ -72.608687719477032, -36.529337141214967 ], [ -72.608149319601381, -36.529164057455851 ], [ -72.607607536670386, -36.529099129651897 ], [ -72.606996501715798, -36.529086856834887 ], [ -72.606540733371574, -36.529064195934261 ], [ -72.60552731245852, -36.529359260653379 ], [ -72.605105778909774, -36.529788008946078 ], [ -72.604947378975723, -36.529957322595848 ], [ -72.604754221426688, -36.530163930236753 ], [ -72.604255024928364, -36.530275578617889 ], [ -72.604070375323403, -36.53031696354158 ], [ -72.603521887367108, -36.530468112560428 ], [ -72.602839000664545, -36.530567082250947 ], [ -72.602223042043903, -36.530716870130831 ], [ -72.601669483996133, -36.531034752008246 ], [ -72.600919092493228, -36.531127781063645 ], [ -72.600550827244192, -36.531138396243442 ], [ -72.600192853095052, -36.531203245822034 ], [ -72.599958153854018, -36.531437376883083 ], [ -72.599266687342165, -36.531811007762059 ], [ -72.599134325076648, -36.531836190618456 ], [ -72.598837686098463, -36.531892539467584 ], [ -72.598380252277693, -36.531901340610617 ], [ -72.597931684828765, -36.531892305598141 ], [ -72.597836842497713, -36.531890373287666 ], [ -72.596613024467018, -36.53191980474562 ], [ -72.595995182977532, -36.532128150332639 ], [ -72.595848959707155, -36.532454151149807 ], [ -72.595066816352201, -36.532819647363198 ], [ -72.594952226356256, -36.532873147954547 ], [ -72.594057279754452, -36.533238128983143 ], [ -72.592836842982493, -36.533159437565232 ], [ -72.592461849351963, -36.533038850860073 ], [ -72.592298356868568, -36.532986358028879 ], [ -72.591891068803605, -36.532978122907814 ], [ -72.591335741973054, -36.533349964926863 ], [ -72.590644371580936, -36.533719042098831 ], [ -72.589751570156039, -36.53420814823788 ], [ -72.589676552744976, -36.53424923295497 ], [ -72.589610116939824, -36.53425839545023 ], [ -72.588310974274222, -36.534437926436325 ], [ -72.586954479567666, -36.534356409684698 ], [ -72.586207357034056, -36.534341264230029 ], [ -72.58552440295783, -36.534440062951283 ], [ -72.584833726065114, -36.534809160183599 ], [ -72.583961066665523, -36.534897939122473 ], [ -72.583947318848402, -36.534899311969568 ], [ -72.583943083291842, -36.534898700612324 ], [ -72.582999825294067, -36.534771933023123 ], [ -72.582660091436765, -36.534765101978692 ], [ -72.581695595469029, -36.53518256978515 ], [ -72.581114239953138, -36.535548727251253 ], [ -72.580933104557559, -36.535662820481626 ], [ -72.580584825925271, -36.53593066546334 ], [ -72.580105705875226, -36.536029063731 ], [ -72.579149818462852, -36.536171902567084 ], [ -72.578752677767326, -36.535834863322414 ], [ -72.578494923264543, -36.53539258978897 ], [ -72.577901999244403, -36.534776671590656 ], [ -72.577435502320739, -36.534492270408464 ], [ -72.577029824935053, -36.534429906564924 ], [ -72.576655667636061, -36.534422320491949 ], [ -72.576418009344508, -36.534417500339728 ], [ -72.575732431289325, -36.534624379730907 ], [ -72.57510871212294, -36.534994732720584 ], [ -72.574139046350766, -36.535578884876251 ], [ -72.573864058567565, -36.535790260033941 ], [ -72.573790648242536, -36.5358466399259 ], [ -72.573708345494524, -36.535844975495529 ], [ -72.573315686493942, -36.535836975979961 ], [ -72.572565203362871, -36.535929902540126 ], [ -72.571946518355347, -36.536138002745517 ], [ -72.571746322506073, -36.536021259837078 ], [ -72.571414992388242, -36.535744148914212 ], [ -72.570874163468091, -36.535674597111317 ], [ -72.570662789881723, -36.535891144297672 ], [ -72.570447167264078, -36.536269758472137 ], [ -72.569811965831732, -36.537027413600825 ], [ -72.569522538528645, -36.537187767951174 ], [ -72.569051162854663, -36.537449009252697 ], [ -72.568577086844954, -36.537385270660096 ], [ -72.568316026541922, -36.537050909422852 ], [ -72.567850535731367, -36.536712411694502 ], [ -72.567722179952, -36.536489069839305 ], [ -72.567256693633013, -36.536150568929742 ], [ -72.567129328695387, -36.535873093248455 ], [ -72.566930704897857, -36.535706842807635 ], [ -72.566738944229115, -36.535319842317193 ], [ -72.56675276570806, -36.534878487565948 ], [ -72.566902561578331, -36.534444426927287 ], [ -72.566776828879583, -36.534112873763199 ], [ -72.566372954412685, -36.533992035192938 ], [ -72.566043530519892, -36.533656318895716 ], [ -72.565921162011904, -36.533216753393496 ], [ -72.565724519897884, -36.532991910184712 ], [ -72.565395011563481, -36.532656194598637 ], [ -72.565268230530776, -36.532383201841739 ], [ -72.564863720954975, -36.532262229920214 ], [ -72.564392045243693, -36.532144446797041 ], [ -72.564004354824945, -36.532180478450293 ], [ -72.563914649958988, -36.532188845748742 ], [ -72.563707511929209, -36.532292767780021 ], [ -72.562944925796316, -36.532772908661912 ], [ -72.562589686118883, -36.53325673138589 ], [ -72.562308102006554, -36.533579953554565 ], [ -72.562230123748307, -36.533907419281576 ], [ -72.562011842117442, -36.534344481998808 ], [ -72.561602817609, -36.534390222949931 ], [ -72.561198789530195, -36.534273873669612 ], [ -72.560857414450865, -36.534320911009409 ], [ -72.560515539908238, -36.534626077390058 ], [ -72.560437956908729, -36.534695342140544 ], [ -72.55995365537612, -36.534960329294876 ], [ -72.559071208831497, -36.534942267201494 ], [ -72.558327092959175, -36.534927003487859 ], [ -72.558317756768417, -36.534926840363056 ], [ -72.55818802836329, -36.534924146638836 ], [ -72.557582190162634, -36.534745022429043 ], [ -72.55738194939758, -36.534632759035468 ], [ -72.557157691275123, -36.534443490036665 ], [ -72.556785665678305, -36.534129318499865 ], [ -72.55605242121753, -36.533672698767234 ], [ -72.555941211581995, -36.533629001538259 ], [ -72.555313924307299, -36.533382674991621 ], [ -72.5548476025551, -36.533098177735098 ], [ -72.554514703978796, -36.532875093233059 ], [ -72.554044190687492, -36.532698628484731 ], [ -72.553842231445302, -36.53264043960133 ], [ -72.553461134660751, -36.53278666132848 ], [ -72.552967270561936, -36.532194155431483 ], [ -72.552426623101468, -36.531678329169331 ], [ -72.551954618606786, -36.53135317250382 ], [ -72.551576861758448, -36.531178729726768 ], [ -72.551245321434848, -36.531090815597857 ], [ -72.550689354105515, -36.530971209518825 ], [ -72.549847444038093, -36.530800705626106 ], [ -72.549511420222913, -36.530676679329098 ], [ -72.549293984805018, -36.530509925427644 ], [ -72.549116857692241, -36.530330602595114 ], [ -72.549080405854653, -36.530113578585322 ], [ -72.548975082879153, -36.52953457302187 ], [ -72.548841246478233, -36.529265905362919 ], [ -72.548741313394459, -36.529092622936894 ], [ -72.548529715229279, -36.528741388002508 ], [ -72.548419641064257, -36.52851829093369 ], [ -72.548351392458855, -36.528133852425285 ], [ -72.548299512954571, -36.527835357819129 ], [ -72.548291294268026, -36.527785632668014 ], [ -72.548278807685591, -36.527582582495256 ], [ -72.548296463174168, -36.527420706757361 ], [ -72.548352518047906, -36.527214581933919 ], [ -72.548557289016927, -36.526808724213922 ], [ -72.548911458800845, -36.526158162117419 ], [ -72.549096978873308, -36.525765425458893 ], [ -72.549140725031023, -36.525658129264436 ], [ -72.549142834275315, -36.525392348655217 ], [ -72.549213549654468, -36.52511891517797 ], [ -72.549326920636602, -36.524846349162054 ], [ -72.549331291838769, -36.524841938443828 ], [ -72.549430211622905, -36.524713291904163 ], [ -72.549783846010897, -36.524477189946658 ], [ -72.550046328347037, -36.524207708476048 ], [ -72.550156709735901, -36.524029784498971 ], [ -72.550207078273871, -36.523805448785936 ], [ -72.550202623528378, -36.523368254323692 ], [ -72.550124941714202, -36.523177480750441 ], [ -72.549883781789646, -36.522789486309357 ], [ -72.549773606114996, -36.522368137768723 ], [ -72.549789102053637, -36.521877203953181 ], [ -72.549837247261294, -36.521522292024414 ], [ -72.549901159698805, -36.521244187771096 ], [ -72.550055681605784, -36.520859827898569 ], [ -72.550143471263553, -36.520685897124686 ], [ -72.550211397373772, -36.520547545331155 ], [ -72.550439820984195, -36.519763734141989 ], [ -72.550600684997093, -36.518978393163501 ], [ -72.550679105226436, -36.518461818192335 ], [ -72.550678566237252, -36.517790379281408 ], [ -72.550662886143968, -36.517713492910211 ], [ -72.550513079493953, -36.516953354922329 ], [ -72.550319197004498, -36.516377062908617 ], [ -72.550224762508563, -36.516095706472996 ], [ -72.549732765108899, -36.514923050285581 ], [ -72.549261455011944, -36.513606508405203 ], [ -72.54889448603187, -36.51278788294551 ], [ -72.548494079061967, -36.51213972057991 ], [ -72.548207414078391, -36.511827403542789 ], [ -72.547910416672394, -36.511641093850884 ], [ -72.547616419639482, -36.51154038662019 ], [ -72.547228523506519, -36.511491854586254 ], [ -72.547095084160972, -36.511453091318856 ], [ -72.546331487423373, -36.511216600166364 ], [ -72.545988755887976, -36.511087815450011 ], [ -72.545543409797659, -36.510916468463904 ], [ -72.545251226463307, -36.510757244479578 ], [ -72.544422157812861, -36.510294096901056 ], [ -72.543938723154497, -36.50993713617008 ], [ -72.543540750619016, -36.509613503299434 ], [ -72.543528694329595, -36.509599763841898 ], [ -72.543166371436143, -36.509141620237124 ], [ -72.542829590341199, -36.508738146460821 ], [ -72.542304075001667, -36.50834427009152 ], [ -72.542015321435059, -36.508099535281126 ], [ -72.541988096193748, -36.507963720626094 ], [ -72.541999267642609, -36.507855846660284 ], [ -72.542006728151051, -36.507774875922799 ], [ -72.542034659468172, -36.507288812887062 ], [ -72.541980110170854, -36.506850595822982 ], [ -72.541798965792125, -36.506423228073579 ], [ -72.541622567213054, -36.505955491857087 ], [ -72.541622183632427, -36.505770680753571 ], [ -72.541629278526543, -36.505743824334587 ], [ -72.541747306375086, -36.505322694190966 ], [ -72.541827274401669, -36.505085450685847 ], [ -72.541965936552316, -36.504673745794676 ], [ -72.542046210904417, -36.504296916476918 ], [ -72.542057292521761, -36.50408083829462 ], [ -72.54204558028708, -36.504008482350194 ], [ -72.542625063713942, -36.502736175003477 ], [ -72.542570713842608, -36.50182932617107 ], [ -72.54258271263987, -36.501450984644187 ], [ -72.542991597909406, -36.500301401983961 ], [ -72.543249498837582, -36.500022773037614 ], [ -72.54358966747948, -36.49974590578185 ], [ -72.54361560992659, -36.499649252945218 ], [ -72.543662442695606, -36.499337190249022 ], [ -72.543653403847216, -36.499038895070356 ], [ -72.543440479768677, -36.498766295686245 ], [ -72.543183748447007, -36.49850533175978 ], [ -72.543049140393265, -36.498428364127747 ], [ -72.542658111834925, -36.49828757073147 ], [ -72.542516959554334, -36.498265565173277 ], [ -72.542101603719772, -36.498262855007773 ], [ -72.541606070551168, -36.498228057572042 ], [ -72.541112292690627, -36.498179624067824 ], [ -72.54062018659485, -36.498117705395636 ], [ -72.540133877327577, -36.498046533957144 ], [ -72.539647662383416, -36.497939337979084 ], [ -72.539213110449566, -36.497754062903475 ], [ -72.538835369770908, -36.497499415737174 ], [ -72.538477610319106, -36.49722173426975 ], [ -72.537386168927, -36.496589767183721 ], [ -72.536497936333646, -36.495778376866539 ], [ -72.536111912289741, -36.495499976457062 ], [ -72.535051941576995, -36.495090553181328 ], [ -72.535062035945828, -36.495059253199834 ], [ -72.534973368634041, -36.494575246504482 ], [ -72.534721376823796, -36.494515923310964 ], [ -72.534255303006603, -36.494384634493407 ], [ -72.533484488305731, -36.493922554552256 ], [ -72.532483006901117, -36.493604448714763 ], [ -72.532311140322633, -36.493501778973943 ], [ -72.531632914978076, -36.492847912370763 ], [ -72.531341738655129, -36.492219993574103 ], [ -72.530692224365367, -36.49140893735057 ], [ -72.530259540927304, -36.49121523159134 ], [ -72.529919891511639, -36.490906281541086 ], [ -72.529261184761566, -36.490099548427708 ], [ -72.528614039329213, -36.489410198099804 ], [ -72.528292120860613, -36.488961952214112 ], [ -72.528158687803256, -36.488594115391855 ], [ -72.528179311325545, -36.488337674431996 ], [ -72.528145194209372, -36.48820634047479 ], [ -72.527715821063126, -36.487670264998926 ], [ -72.527132762341452, -36.486396342222051 ], [ -72.526879128410883, -36.485287082715828 ], [ -72.52668329567895, -36.484647692363673 ], [ -72.526669866763754, -36.482808858560873 ], [ -72.526428207375915, -36.482073836186856 ], [ -72.526378711102069, -36.481482521649319 ], [ -72.526160813950128, -36.480702951328077 ], [ -72.525766664644493, -36.479870135722123 ], [ -72.525740472465756, -36.479463987842941 ], [ -72.525561871217604, -36.47880688812581 ], [ -72.525327233062001, -36.478576746104707 ], [ -72.525104220902833, -36.478481999772299 ], [ -72.525031119598268, -36.478429983502615 ], [ -72.524782298840989, -36.478275990927528 ], [ -72.524716861064121, -36.478257923549037 ], [ -72.524598486465877, -36.478225330314061 ], [ -72.524293570410677, -36.478218994123431 ], [ -72.524121218741939, -36.478249777227965 ], [ -72.52361780285672, -36.478243771861791 ], [ -72.522866698989787, -36.478088533634931 ], [ -72.522032970777957, -36.477985628077306 ], [ -72.517197707014518, -36.477867050136794 ], [ -72.516479444656042, -36.477689912433981 ], [ -72.515899360256256, -36.477308295685873 ], [ -72.5157338771062, -36.477052474690552 ], [ -72.515518024519835, -36.476822644563271 ], [ -72.515423168714037, -36.476626888462391 ], [ -72.515402227188133, -36.476450801091374 ], [ -72.515494635983103, -36.476200363023636 ], [ -72.515482223062506, -36.476162347768117 ], [ -72.515037897458342, -36.476153087379686 ], [ -72.514909216488846, -36.476201685625952 ], [ -72.514401494080161, -36.4761911192535 ], [ -72.514084053713262, -36.476184535134301 ], [ -72.513703681869131, -36.476043329299543 ], [ -72.513644564638625, -36.476021451776994 ], [ -72.513333759228388, -36.475809769614933 ], [ -72.51308975883093, -36.475496840126674 ], [ -72.512909158831278, -36.475185289060022 ], [ -72.512664979669054, -36.474872364273736 ], [ -72.512613067825399, -36.47451229015811 ], [ -72.512565597252532, -36.47429099869894 ], [ -72.512557831316911, -36.474254617200629 ], [ -72.512440630816741, -36.473944371501041 ], [ -72.512390944100048, -36.47365782166483 ], [ -72.512387008580788, -36.473635424812436 ], [ -72.512074514337854, -36.473475087576368 ], [ -72.511889079605339, -36.473317279733202 ], [ -72.511583134080809, -36.472951847082918 ], [ -72.511469352568611, -36.472539048176458 ], [ -72.511400381717706, -36.472323187677226 ], [ -72.511353865155684, -36.472177524969382 ], [ -72.510932535524489, -36.471450563237127 ], [ -72.510751859168025, -36.471138936669604 ], [ -72.510377691089246, -36.470925937984241 ], [ -72.5099967883408, -36.470918038671513 ], [ -72.509948083482726, -36.470936375767074 ], [ -72.50973962223452, -36.471015292988412 ], [ -72.509485686470001, -36.471010000780176 ], [ -72.509244948753647, -36.470594515073046 ], [ -72.50912947840871, -36.470233062259744 ], [ -72.508514404628613, -36.469604576573431 ], [ -72.508081707715817, -36.469236443411717 ], [ -72.507840895439287, -36.468821030552654 ], [ -72.507852825964591, -36.468449405147091 ], [ -72.507854013537383, -36.468410915077612 ], [ -72.507803743814094, -36.467999489861349 ], [ -72.507629742838489, -36.467482834107223 ], [ -72.507792829283389, -36.46635764300062 ], [ -72.50819824076774, -36.465596668515076 ], [ -72.508470215601477, -36.465038027165392 ], [ -72.508615231536112, -36.464476773030519 ], [ -72.508638139474158, -36.463759089812349 ], [ -72.508528945658128, -36.463273078535671 ], [ -72.508360099215651, -36.462522066205835 ], [ -72.508328571044117, -36.461746123437457 ], [ -72.508179531555328, -36.461567824720483 ], [ -72.508155772912687, -36.461539442278699 ], [ -72.507683999285035, -36.460785975501359 ], [ -72.507451928514541, -36.460385362286416 ], [ -72.507348287185252, -36.460206612498034 ], [ -72.506941519244833, -36.459625868816339 ], [ -72.506912755189418, -36.459470234221172 ], [ -72.506814540582781, -36.458941528857856 ], [ -72.506760220355872, -36.45864869053549 ], [ -72.506737387876299, -36.457161164574003 ], [ -72.506477730741736, -36.456407652364604 ], [ -72.506283533841938, -36.455831208901962 ], [ -72.505947860369702, -36.455251913648297 ], [ -72.505619574642381, -36.454635714694355 ], [ -72.505547308771057, -36.454500032449928 ], [ -72.505341196617323, -36.454070527596933 ], [ -72.505215253712791, -36.453808138545917 ], [ -72.504885044692443, -36.45305765594518 ], [ -72.504837799596714, -36.452313099757191 ], [ -72.504732964406429, -36.451166262088037 ], [ -72.504756783236175, -36.450423233341027 ], [ -72.50459205377264, -36.448928213853613 ], [ -72.504536325885667, -36.448471846674302 ], [ -72.504757345581552, -36.448188111153904 ], [ -72.504915984467473, -36.447677687373336 ], [ -72.504925042180474, -36.447393982188231 ], [ -72.504868656726728, -36.446933133018412 ], [ -72.505024796499526, -36.446476812634479 ], [ -72.505457057729387, -36.446260529827654 ], [ -72.505961732154333, -36.445982697254266 ], [ -72.506332056342004, -36.445476675648052 ], [ -72.506273826646961, -36.445074414526381 ], [ -72.506078470022118, -36.444556609514194 ], [ -72.50594918538475, -36.444152746593666 ], [ -72.50617275809266, -36.443810474419806 ], [ -72.506614216274428, -36.443305977158012 ], [ -72.506559593315245, -36.442791119595817 ], [ -72.506572414071002, -36.442390311537906 ], [ -72.506443773525675, -36.441986503826108 ], [ -72.506525810372381, -36.441645810504781 ], [ -72.50674312092444, -36.441479026008331 ], [ -72.506899075644284, -36.44145901115094 ], [ -72.507525781708992, -36.4413782058812 ], [ -72.507579289858882, -36.441065439495212 ], [ -72.507613345889624, -36.440866325927864 ], [ -72.507628001005173, -36.44040700473829 ], [ -72.508049657623133, -36.439938071399183 ], [ -72.508435472359551, -36.439509090803732 ], [ -72.508737275752296, -36.438943075869297 ], [ -72.508889707279593, -36.438603851421149 ], [ -72.508896172454698, -36.438400751678614 ], [ -72.508904352513667, -36.438144457579064 ], [ -72.508866397794606, -36.43805633591591 ], [ -72.508706428503743, -36.437685117387915 ], [ -72.508559861178625, -36.437339634633616 ], [ -72.508489560821118, -36.436594577079752 ], [ -72.508431875505153, -36.43601994927505 ], [ -72.508370614894346, -36.435410586248786 ], [ -72.506973172282173, -36.435432726013488 ], [ -72.50614996513896, -36.43536415227446 ], [ -72.504885998703273, -36.43518378736146 ], [ -72.503617177771801, -36.435157301803557 ], [ -72.502767663465491, -36.435267291936562 ] ] ] } },
{ "type": "Feature", "properties": { "capa": "colegios", "popup": "<strong>ESCUELA MEMBRILLAR</strong><br><br><strong>Dirección:</strong> CAMINO CONFLUENCIA-NIPAS 4", "etiqueta": "" }, "geometry": { "type": "Point", "coordinates": [ -72.475304, -36.60638 ] } },
{ "type": "Feature", "properties": { "capa": "colegios", "popup": "<strong>ESCUELA CUCHA URREJOLA</strong><br><br><strong>Dirección:</strong> SECTOR CUCHA URREJOLA 17", "etiqueta": "" }, "geometry": { "type": "Point", "coordinates": [ -72.48111, -36.586189 ] } },
{ "type": "Feature", "properties": { "capa": "colegios", "popup": "<strong>ESCUELA SAN FRANCISCO DE ASIS</strong><br><br><strong>Dirección:</strong> CAMINO A MEMBRILLAR 8", "etiqueta": "" }, "geometry": { "type": "Point", "coordinates": [ -72.479507, -36.57304 ] } },
{ "type": "Feature", "properties": { "capa": "colegios", "popup": "<strong>ESCUELA LOMAS DE CHUDAL</strong><br><br><strong>Dirección:</strong> CAMINO PORTEZUELO CHUDAL 12", "etiqueta": "" }, "geometry": { "type": "Point", "coordinates": [ -72.54641, -36.546478 ] } },
{ "type": "Feature", "properties": { "capa": "colegios", "popup": "<strong>LICEO NIBALDO SEPULVEDA FERNANDEZ</strong><br><br><strong>Dirección:</strong> SAN MARTIN 386", "etiqueta": "" }, "geometry": { "type": "Point", "coordinates": [ -72.429207, -36.527649 ] } },
{ "type": "Feature", "properties": { "capa": "colegios", "popup": "<strong>COLEGIO NUESTRA SEÑORA DEL CARMEN</strong><br><br><strong>Dirección:</strong> CATEDRAL 496", "etiqueta": "" }, "geometry": { "type": "Point", "coordinates": [ -72.428223, -36.527149 ] } },
{ "type": "Feature", "properties": { "capa": "jardines", "popup": "<strong>PULGARCITO</strong><br><br><strong>Dirección:</strong> JUVENAL SANTIBAÑEZ S/N, POB. GUILLERMO FUENZALIDA ", "etiqueta": "" }, "geometry": { "type": "MultiPoint", "coordinates": [ [ -72.426645, -36.53247 ] ] } },
{ "type": "Feature", "properties": { "capa": "jardines", "popup": "<strong>CAMPANITA</strong><br><br><strong>Dirección:</strong> BALMACEDA #365 ", "etiqueta": "" }, "geometry": { "type": "MultiPoint", "coordinates": [ [ -72.428278, -36.532038 ] ] } },
{ "type": "Feature", "properties": { "capa": "jardines", "popup": "<strong>NA</strong><br><br><strong>Dirección:</strong> NA ", "etiqueta": "" }, "geometry": { "type": "MultiPoint", "coordinates": [ [ -72.426207000151422, -36.528023999944494 ] ] } },
{ "type": "Feature", "properties": { "capa": "bomberos", "popup": "<strong>Cuerpo de Bomberos</strong><br><br><strong>Dirección:</strong> Pedro De Valdivia 361", "etiqueta": "" }, "geometry": { "type": "Point", "coordinates": [ -72.426359738091492, -36.527376063343567 ] } },
{ "type": "Feature", "properties": { "capa": "comisarias", "popup": "<strong>RETEN PORTEZUELO</strong><br><br><strong>Dirección:</strong> O'HIGGINS 537", "etiqueta": "" }, "geometry": { "type": "Point", "coordinates": [ -72.427063635999886, -36.527994443999937 ] } },
{ "type": "Feature", "properties": { "capa": "salud", "popup": "<strong>Posta de Salud Rural Cucha Cox</strong><br><br><strong>Tipo de atención:</strong> Posta de Salud Rural (PSR)<br><strong>Dirección:</strong>  NA", "etiqueta": "" }, "geometry": { "type": "Point", "coordinates": [ -72.39071, -36.6003 ] } },
{ "type": "Feature", "properties": { "capa": "salud", "popup": "<strong>Centro de Salud Familiar Portezuelo</strong><br><br><strong>Tipo de atención:</strong> Centro de Salud Familiar (CESFAM)<br><strong>Dirección:</strong>  150", "etiqueta": "" }, "geometry": { "type": "Point", "coordinates": [ -72.42895, -36.52974 ] } },
{ "type": "Feature", "properties": { "capa": "salud", "popup": "<strong>SUR Portezuelo</strong><br><br><strong>Tipo de atención:</strong> Servicio de Urgencia Rural (SUR)<br><strong>Dirección:</strong>  150", "etiqueta": "" }, "geometry": { "type": "Point", "coordinates": [ -72.428872, -36.529724 ] } },
{ "type": "Feature", "properties": { "capa": "municipios", "popup": "<strong>Municipalidad de Portezuelo</strong><br><br><strong>Dirección:</strong> OHiggins Nº 403<br><strong>Región:</strong> Ñuble", "etiqueta": "" }, "geometry": { "type": "Point", "coordinates": [ -72.429, -36.528204000999956 ] } }
]
}
