{
"type": "FeatureCollection",
"name": "5302",
"crs": { "type": "name", "properties": { "name": "urn:ogc:def:crs:OGC:1.3:CRS84" } },
"features": [
{ "type": "Feature", "properties": { "capa": "comuna", "popup": "", "etiqueta": "" }, "geometry": { "type": "Polygon", "coordinates": [ [ [ -70.588987127982918, -32.854156826450733 ], [ -70.589082833594958, -32.855106305044437 ], [ -70.589322896676549, -32.856875817667913 ], [ -70.589292893844373, -32.857505884173186 ], [ -70.581988961763784, -32.859309303967244 ], [ -70.581981224574236, -32.858721400431705 ], [ -70.582267442196795, -32.857421824905174 ], [ -70.58232159174382, -32.856594118895508 ], [ -70.582313855452597, -32.855820560439028 ], [ -70.582597881185862, -32.855385056455724 ], [ -70.582453357527996, -32.855266675636024 ], [ -70.582449631316194, -32.855056815939051 ], [ -70.582647812244304, -32.855012268098889 ], [ -70.583094718708239, -32.85496464664206 ], [ -70.58338933647704, -32.854751010824494 ], [ -70.583433825541491, -32.854456533176794 ], [ -70.583379553823605, -32.854205346354597 ], [ -70.583171767210175, -32.85370407989371 ], [ -70.582866627474473, -32.853330093650825 ], [ -70.582758923065143, -32.852869674932904 ], [ -70.582600106312825, -32.852325822879216 ], [ -70.582595722534236, -32.85207400366415 ], [ -70.582639380657042, -32.851737570447611 ], [ -70.582730686320829, -32.851274634227813 ], [ -70.582823391559828, -32.850895539253344 ], [ -70.583066886205813, -32.850598543325518 ], [ -70.583310949485352, -32.850343580552753 ], [ -70.583606386517673, -32.850171900673324 ], [ -70.583804556665982, -32.850127425092623 ], [ -70.584350850936332, -32.850078467515175 ], [ -70.584793913509188, -32.84982098264895 ], [ -70.584937149881256, -32.84948328586821 ], [ -70.584831678683727, -32.849148740839254 ], [ -70.584475436486471, -32.848691398385725 ], [ -70.584123587050939, -32.84848594632637 ], [ -70.583969247501955, -32.848193986643302 ], [ -70.583912741673956, -32.847816854279465 ], [ -70.583854831779178, -32.847355731505047 ], [ -70.58374647159971, -32.846853280720325 ], [ -70.583685492161592, -32.846224257032908 ], [ -70.58392366339119, -32.845633412491381 ], [ -70.584067644466614, -32.84533774912564 ], [ -70.584261330225019, -32.845041455345871 ], [ -70.584452773788485, -32.844619142944289 ], [ -70.584299098094505, -32.844369139594534 ], [ -70.583952021408081, -32.844180103975724 ], [ -70.583775071263403, -32.844299895059045 ], [ -70.583489153678144, -32.844631859130345 ], [ -70.582868834635121, -32.845296473351894 ], [ -70.5825859111347, -32.845792570035847 ], [ -70.58235592355733, -32.846534329920978 ], [ -70.582170219330223, -32.847029269531603 ], [ -70.582081093877633, -32.847481835060108 ], [ -70.581939495134336, -32.847729884055575 ], [ -70.581750961214098, -32.848060686666088 ], [ -70.581511495512174, -32.84826889355049 ], [ -70.581075396679395, -32.848356491142276 ], [ -70.58063565966971, -32.848238956001659 ], [ -70.580145171439753, -32.847998818292389 ], [ -70.579559556112784, -32.847883121849996 ], [ -70.578975484091458, -32.847849488467993 ], [ -70.578343482458152, -32.847857463246939 ], [ -70.577422072386398, -32.847992177056227 ], [ -70.576646367257098, -32.848125120925133 ], [ -70.576163057464569, -32.848295384450331 ], [ -70.575682010528226, -32.848588782221583 ], [ -70.575348291790064, -32.848962336396696 ], [ -70.575111623441941, -32.849334742648708 ], [ -70.575024637776352, -32.849910516700263 ], [ -70.575030941254695, -32.850029466139937 ], [ -70.575097136311356, -32.851264065996027 ], [ -70.575155947216388, -32.851837930330518 ], [ -70.574969378809953, -32.852291791216913 ], [ -70.57468566569041, -32.852746874571409 ], [ -70.573917247694695, -32.853290142970764 ], [ -70.572710513824063, -32.853797912210048 ], [ -70.570785968549274, -32.854971375647658 ], [ -70.570087154716703, -32.855328960776859 ], [ -70.569463135513018, -32.855788303473417 ], [ -70.568740977161156, -32.856207794034667 ], [ -70.568259141504015, -32.856460168986622 ], [ -70.567725753329341, -32.856548940970647 ], [ -70.567144424762901, -32.856679391609426 ], [ -70.566614008215183, -32.856932295710514 ], [ -70.565986264596319, -32.857186414763731 ], [ -70.565503694117268, -32.857397708456652 ], [ -70.56507257734107, -32.857772454793682 ], [ -70.564789517296731, -32.858268514930394 ], [ -70.564701648587203, -32.858803212796531 ], [ -70.564669559866942, -32.859747645548183 ], [ -70.564728312381462, -32.860321588569747 ], [ -70.564733269285199, -32.860608792229968 ], [ -70.564593939686318, -32.860979961141588 ], [ -70.56396760462583, -32.861316214431554 ], [ -70.563336943278912, -32.861406184343579 ], [ -70.562704841034304, -32.861414083201439 ], [ -70.561879694428399, -32.861506401993758 ], [ -70.561199014886483, -32.861514899217461 ], [ -70.560664870330328, -32.861562645435008 ], [ -70.559795370305579, -32.86190191101381 ], [ -70.558886618394496, -32.862775112008421 ], [ -70.55826248869802, -32.863234475003097 ], [ -70.557735417476437, -32.863692478933331 ], [ -70.557449518755789, -32.864024458734761 ], [ -70.557212017669386, -32.8643557627287 ], [ -70.556878164183942, -32.86472934483583 ], [ -70.556394725932321, -32.864899534241964 ], [ -70.555811978027734, -32.864947790971293 ], [ -70.555474534874406, -32.865116234706505 ], [ -70.554798035193514, -32.865370905271867 ], [ -70.554170197251537, -32.865624968458995 ], [ -70.553201237555157, -32.865842184761334 ], [ -70.552715727788495, -32.865889292577414 ], [ -70.552326747389003, -32.86589412159308 ], [ -70.552058986552268, -32.865876903887454 ], [ -70.551721443685949, -32.866045265877503 ], [ -70.55162848781697, -32.866292752156006 ], [ -70.551438197690359, -32.866541372554224 ], [ -70.551152890061161, -32.866914263363824 ], [ -70.550819715702062, -32.867328828608521 ], [ -70.550288385567711, -32.867540743254978 ], [ -70.549850817989437, -32.867546165987662 ], [ -70.549267248126355, -32.867553396548843 ], [ -70.548926837837655, -32.867557538861149 ], [ -70.548342641848819, -32.867523765806368 ], [ -70.548002944822443, -32.867568977376358 ], [ -70.547471606603253, -32.867780805433888 ], [ -70.547083330482948, -32.867826689147698 ], [ -70.546650659621292, -32.868119307046989 ], [ -70.546364615373577, -32.868451263486229 ], [ -70.545931227656325, -32.868702882290698 ], [ -70.545544369077533, -32.868830755760982 ], [ -70.545060972148434, -32.869000902588652 ], [ -70.544674024636421, -32.869128848061727 ], [ -70.544043996601786, -32.869259795525821 ], [ -70.543073634635263, -32.869394864651362 ], [ -70.542688191801346, -32.869604872260531 ], [ -70.54239635342006, -32.869608398048804 ], [ -70.54205531341232, -32.869571597202601 ], [ -70.541810014949277, -32.869451528629796 ], [ -70.541614095979085, -32.869371856806772 ], [ -70.541321635963598, -32.86933438058098 ], [ -70.540835302441835, -32.869340447550663 ], [ -70.54050065035409, -32.869672917006476 ], [ -70.540362625108997, -32.87012605663665 ], [ -70.540175132336159, -32.870538799852184 ], [ -70.539698812334834, -32.871119418927869 ], [ -70.539223192121142, -32.87174088725186 ], [ -70.538837728625992, -32.871950884777583 ], [ -70.538500048317431, -32.872119212600815 ], [ -70.538162544078659, -32.872287537086557 ], [ -70.536562695761617, -32.872594544734127 ], [ -70.536076428715177, -32.872600443986954 ], [ -70.535638745254246, -32.872605819632639 ], [ -70.535298316100906, -32.872610072616929 ], [ -70.535055224798498, -32.87261298338732 ], [ -70.534617542235893, -32.872618428444113 ], [ -70.534375071669331, -32.87266241063832 ], [ -70.533889509800389, -32.872709372989668 ], [ -70.533550494595318, -32.872795691001684 ], [ -70.533309524215284, -32.872921813471351 ], [ -70.532873958083471, -32.873050319141171 ], [ -70.532493413762822, -32.873547430055616 ], [ -70.532449686469747, -32.873835306872323 ], [ -70.532552592078801, -32.874162466913454 ], [ -70.53265408284129, -32.874407409126924 ], [ -70.532756990246966, -32.874734568565735 ], [ -70.532764846014132, -32.875185913130437 ], [ -70.532771203391391, -32.875555263158887 ], [ -70.532678805376221, -32.875843808687542 ], [ -70.532538612496353, -32.876173800297579 ], [ -70.532253815110238, -32.8765877979111 ], [ -70.531869813174055, -32.876879842944767 ], [ -70.531386963318965, -32.877090936567875 ], [ -70.531052159415935, -32.8774233837498 ], [ -70.530718764969592, -32.87783797228311 ], [ -70.530575036320769, -32.877962899350507 ], [ -70.530338279937737, -32.878335149899847 ], [ -70.530148608750338, -32.878624811982398 ], [ -70.530007610979965, -32.878913803945238 ], [ -70.529963254866189, -32.879160606257081 ], [ -70.52987092961456, -32.879449076678846 ], [ -70.529729930047552, -32.879738142150281 ], [ -70.52958752012556, -32.879945138533309 ], [ -70.529201996443277, -32.880155032885071 ], [ -70.529007473455039, -32.880157411547081 ], [ -70.528567638528983, -32.880039695992018 ], [ -70.528419676120208, -32.879918411146456 ], [ -70.52832170855028, -32.879878455091308 ], [ -70.528125778800288, -32.879798835640166 ], [ -70.527882668633282, -32.879801806527745 ], [ -70.52780932478359, -32.879854792117648 ], [ -70.527594315715277, -32.880010509245537 ], [ -70.527265358048126, -32.880440182175732 ], [ -70.524098388836464, -32.880937207894469 ], [ -70.518533831402834, -32.880928583528579 ], [ -70.512379360203596, -32.880812249562041 ], [ -70.511520012039895, -32.880822713937057 ], [ -70.511156890544157, -32.880750779726647 ], [ -70.510793121363122, -32.880640652043077 ], [ -70.510429263248867, -32.880530451044969 ], [ -70.509794193868871, -32.880423671159384 ], [ -70.509159683240981, -32.880354933062954 ], [ -70.508798503902895, -32.880397489355467 ], [ -70.508169814358041, -32.880672319075259 ], [ -70.507765957857444, -32.880868035658331 ], [ -70.507409299740189, -32.881177706056668 ], [ -70.507327822543914, -32.881713103927673 ], [ -70.507383422870106, -32.882323173026514 ], [ -70.507528169310163, -32.882855843649899 ], [ -70.50762450913281, -32.883198176566701 ], [ -70.507680673601001, -32.88384651198318 ], [ -70.507608334067797, -32.884916215370794 ], [ -70.507619321362043, -32.885564947839143 ], [ -70.507627725101514, -32.886061136141237 ], [ -70.507683330817613, -32.886671204728344 ], [ -70.507872617526075, -32.887165138865107 ], [ -70.507880374478546, -32.887623062927332 ], [ -70.507751780645634, -32.888044579178896 ], [ -70.507623184117762, -32.888466022517136 ], [ -70.507583736398701, -32.888809992552147 ], [ -70.507930722355283, -32.890599974046694 ], [ -70.508264228192715, -32.891588456544717 ], [ -70.50830016349903, -32.892370472557324 ], [ -70.508305339591701, -32.892675853002075 ], [ -70.508177387155897, -32.893135487248834 ], [ -70.508003604470915, -32.893557401945053 ], [ -70.507739287774982, -32.893980555446475 ], [ -70.50734118857703, -32.894519696442572 ], [ -70.50698512334786, -32.894867556970411 ], [ -70.506540455485592, -32.895331007078184 ], [ -70.506005331765806, -32.895795472283822 ], [ -70.505654423764668, -32.896448710326013 ], [ -70.505437936967724, -32.89702385716361 ], [ -70.505310610657659, -32.897521679896066 ], [ -70.505233715767673, -32.898324117103215 ], [ -70.505062494179569, -32.898898792423246 ], [ -70.504976067266071, -32.900484013083421 ], [ -70.505001993543488, -32.904682617807964 ], [ -70.504287092680826, -32.905225711278142 ], [ -70.503797730938231, -32.905727740811678 ], [ -70.503002202685551, -32.906844335431579 ], [ -70.502337703598528, -32.907692107786758 ], [ -70.502163135785992, -32.908075899009035 ], [ -70.501944025908415, -32.908498496706208 ], [ -70.501722978364768, -32.908806448312795 ], [ -70.501431717600198, -32.908981731193244 ], [ -70.500937256121716, -32.909178589640916 ], [ -70.500528835281159, -32.909107096261238 ], [ -70.500075697204082, -32.909074409955707 ], [ -70.499625863130603, -32.909232455872569 ], [ -70.499133326741784, -32.909543806951419 ], [ -70.498778455373639, -32.909967880317573 ], [ -70.498380234903152, -32.910507143450886 ], [ -70.497979524302679, -32.910893638920797 ], [ -70.497533445187074, -32.911280677197709 ], [ -70.497082953546837, -32.911400597091131 ], [ -70.496720912724399, -32.911404932677833 ], [ -70.49613274887696, -32.911411974894889 ], [ -70.495635051666838, -32.911417931141038 ], [ -70.494733330869465, -32.911619564693034 ], [ -70.494101258269254, -32.911703520531262 ], [ -70.493152330105389, -32.911791183656575 ], [ -70.492518245278958, -32.911760557907101 ], [ -70.492019264376296, -32.911690192549159 ], [ -70.491564281159597, -32.911542900603855 ], [ -70.490700789067489, -32.911324230700345 ], [ -70.48996975895389, -32.910913055279273 ], [ -70.488415425577344, -32.9099772665732 ], [ -70.487869352292549, -32.909792848262335 ], [ -70.487415023049394, -32.909683732562947 ], [ -70.486778952946167, -32.909538652253516 ], [ -70.486414452536465, -32.909390266208327 ], [ -70.486096419281509, -32.909317723203316 ], [ -70.485688007424088, -32.909246180915304 ], [ -70.485122769481009, -32.909272034428319 ], [ -70.484715546094748, -32.909276872392716 ], [ -70.484264408565792, -32.909358629048981 ], [ -70.483903098073682, -32.909401043202351 ], [ -70.483453230762549, -32.909559031219814 ], [ -70.482961183057256, -32.909908512943886 ], [ -70.4825150410596, -32.910295499720085 ], [ -70.481894324062907, -32.911066322641886 ], [ -70.481543265144808, -32.911719348497265 ], [ -70.481148743936643, -32.912487487114134 ], [ -70.4808861502094, -32.913025013969346 ], [ -70.480624188896144, -32.91360073261891 ], [ -70.480049980376648, -32.914447245750154 ], [ -70.479745270933961, -32.91517619051077 ], [ -70.479125766662875, -32.916023309205343 ], [ -70.47877394866839, -32.916638286500223 ], [ -70.478557875994781, -32.917251509264396 ], [ -70.478434815784013, -32.918016425910501 ], [ -70.478584535297472, -32.918854514428091 ], [ -70.478640607239186, -32.919502715551502 ], [ -70.478492639440532, -32.920134341954217 ], [ -70.478412952586623, -32.920784223566365 ], [ -70.478194966501462, -32.921283018169817 ], [ -70.477934233185195, -32.921934967264008 ], [ -70.477946290372941, -32.922660160033473 ], [ -70.477730201529667, -32.923273528829633 ], [ -70.477605858524655, -32.923962062822348 ], [ -70.477298649070534, -32.924538235137433 ], [ -70.476812921013263, -32.925269238225461 ], [ -70.476149939180743, -32.926231454266251 ], [ -70.475623344066264, -32.927230105744108 ], [ -70.475135690021006, -32.9278466775474 ], [ -70.47442493757832, -32.928656651342322 ], [ -70.473755574114037, -32.929237088591648 ], [ -70.473086290599809, -32.929817594415674 ], [ -70.472617093340403, -32.930185756079986 ], [ -70.472080407450306, -32.930573773861383 ], [ -70.471501503436812, -32.931153207051203 ], [ -70.471058368100429, -32.931731039530796 ], [ -70.470526720860775, -32.932424434127093 ], [ -70.469992449642163, -32.932965062324755 ], [ -70.469278455179619, -32.933584199833909 ], [ -70.468471437474463, -32.934051778738052 ], [ -70.467664323649558, -32.934519353662537 ], [ -70.466676846980235, -32.935027166426508 ], [ -70.465911855159021, -32.935303314154545 ], [ -70.465372592002367, -32.935538685662578 ], [ -70.465175528578499, -32.935941901201055 ], [ -70.46527042480848, -32.936207885293634 ], [ -70.465412417013866, -32.936587988272436 ], [ -70.465644448258473, -32.936928834820392 ], [ -70.465738721057662, -32.93715677507025 ], [ -70.465790307711174, -32.937537863118621 ], [ -70.465797864339351, -32.937995865944863 ], [ -70.465807309226236, -32.93856829565113 ], [ -70.465680968368048, -32.939142392316384 ], [ -70.46546412943151, -32.939717549768453 ], [ -70.465156071967755, -32.940255578418885 ], [ -70.465074386362332, -32.940790876954807 ], [ -70.464861316756725, -32.941595035082671 ], [ -70.464506785850062, -32.94205728313176 ], [ -70.464155938036072, -32.942748458017192 ], [ -70.464079908223681, -32.943627333434854 ], [ -70.463956422211453, -32.945747304268949 ], [ -70.463705583838049, -32.947009919997008 ], [ -70.46358173580478, -32.947736706612275 ], [ -70.463502552007427, -32.948424696641204 ], [ -70.463376183301463, -32.948998716497442 ], [ -70.463251160271795, -32.94964919264752 ], [ -70.463216464640567, -32.950298462430482 ], [ -70.463049633119269, -32.952533535509126 ], [ -70.463060952790158, -32.953220464558278 ], [ -70.463074789540485, -32.954060159034917 ], [ -70.463134467319762, -32.954937369222847 ], [ -70.463286093058244, -32.955889899198091 ], [ -70.463252116079261, -32.95657743230538 ], [ -70.463130768057425, -32.957456761937117 ], [ -70.46287288509555, -32.958299565317539 ], [ -70.462342907824009, -32.959107430113171 ], [ -70.461766360989813, -32.959839438615802 ], [ -70.460758076643572, -32.96048110983056 ], [ -70.459860252737897, -32.960949625077617 ], [ -70.458913893755764, -32.961227926626847 ], [ -70.458100215042762, -32.961313753605857 ], [ -70.456926965874359, -32.961556490552425 ], [ -70.456386894233972, -32.961753636009256 ], [ -70.455711535413485, -32.961990554575245 ], [ -70.454772030576962, -32.962688564257604 ], [ -70.454103001285958, -32.963307168031179 ], [ -70.453568449792982, -32.963847731005487 ], [ -70.453081072428844, -32.96450241351824 ], [ -70.452591188765055, -32.965004328292125 ], [ -70.451965470847171, -32.965507894553092 ], [ -70.451379346175429, -32.965667355310174 ], [ -70.450745591929007, -32.965674718798873 ], [ -70.450155811114058, -32.965605244974398 ], [ -70.449522592263548, -32.965650721511004 ], [ -70.448668540566729, -32.966042324930967 ], [ -70.448264165738223, -32.966237935686124 ], [ -70.447327757394461, -32.967126700861527 ], [ -70.446608357768852, -32.967440479993222 ], [ -70.445935414518175, -32.967829965970665 ], [ -70.445264418815, -32.968333950233593 ], [ -70.444771361403326, -32.968645023965983 ], [ -70.444171599407241, -32.96935816188936 ], [ -70.443907381525989, -32.969819307616255 ], [ -70.443686607070191, -32.970165428918946 ], [ -70.443375921135925, -32.970550712632232 ], [ -70.442884620828949, -32.97097635728214 ], [ -70.442167653841125, -32.971442656956278 ], [ -70.441445720966399, -32.971603713745793 ], [ -70.441238653903525, -32.971661444273884 ], [ -70.440589183631189, -32.97184264371446 ], [ -70.439828747166771, -32.97242395427228 ], [ -70.438036128474607, -32.974983102146943 ], [ -70.436793031699594, -32.976524260412198 ], [ -70.436172702775096, -32.977371181091364 ], [ -70.434526398981447, -32.979184198347468 ], [ -70.432690229065969, -32.98046503209288 ], [ -70.429370671121845, -32.982449820333315 ], [ -70.427843314153293, -32.98323075753396 ], [ -70.426538034197677, -32.98374189532985 ], [ -70.423962779873776, -32.985546251239654 ], [ -70.420314268754069, -32.989634165882073 ], [ -70.417957391282457, -32.992371236458027 ], [ -70.406659789298871, -33.001183151350467 ], [ -70.407870065226646, -33.001799455871442 ], [ -70.408465520699252, -33.002212556907367 ], [ -70.408787387963869, -33.002514294562744 ], [ -70.409109951422835, -33.002854222341327 ], [ -70.409477755836107, -33.003193638029764 ], [ -70.40993500011237, -33.00345571767128 ], [ -70.410255051881791, -33.003642874965664 ], [ -70.410620435335417, -33.0038296664844 ], [ -70.410804080623876, -33.003980239243177 ], [ -70.411805415603098, -33.004274285887711 ], [ -70.412442586142546, -33.004457997117761 ], [ -70.412853213245441, -33.00464419628338 ], [ -70.413265756454834, -33.004944895041028 ], [ -70.414044304752011, -33.00547041723901 ], [ -70.414641644890096, -33.005998137563786 ], [ -70.414964243383338, -33.006338048904318 ], [ -70.415194360318097, -33.006564411154358 ], [ -70.415333912699168, -33.006791874195748 ], [ -70.415522451111002, -33.007247826812424 ], [ -70.415622165904182, -33.007819309147663 ], [ -70.415494195502063, -33.008316902981676 ], [ -70.415271997216522, -33.008586666304389 ], [ -70.414778612818083, -33.008897629847148 ], [ -70.414375794769967, -33.009207638600628 ], [ -70.414108872061391, -33.009516032675904 ], [ -70.413841946657854, -33.0098244264261 ], [ -70.413581806229672, -33.010552633693592 ], [ -70.413308391396541, -33.01187266762647 ], [ -70.413289765727427, -33.013552519666817 ], [ -70.41349414323436, -33.01500072611352 ], [ -70.414182958817804, -33.016996919116806 ], [ -70.41474793535113, -33.018326513044642 ], [ -70.416185257772028, -33.020371539378132 ], [ -70.417477565156616, -33.021845583211999 ], [ -70.419589016604377, -33.023539340442511 ], [ -70.420934225776051, -33.025018729325467 ], [ -70.421152510101876, -33.025006564011662 ], [ -70.421589071567013, -33.024970854377329 ], [ -70.421990051662078, -33.024996947447434 ], [ -70.422428584929264, -33.025084010154096 ], [ -70.422612603916903, -33.025204635778429 ], [ -70.42279761015304, -33.025386647931157 ], [ -70.42320320489371, -33.025688868165481 ], [ -70.423293150508172, -33.024491195882277 ], [ -70.42342992799334, -33.023937342962824 ], [ -70.423857111945225, -33.023318850713494 ], [ -70.423994871288983, -33.022826384929978 ], [ -70.42409969300455, -33.022549078959038 ], [ -70.424347607361724, -33.022116605928211 ], [ -70.424666504795994, -33.02156074661103 ], [ -70.425226756190938, -33.021293532668842 ], [ -70.425627314077801, -33.021288956925815 ], [ -70.426316118881473, -33.021097036115144 ], [ -70.427152226730485, -33.020995415170702 ], [ -70.427989726968164, -33.020985759755085 ], [ -70.428755439238259, -33.021038393394477 ], [ -70.430504796862976, -33.021110410870968 ], [ -70.431161746508366, -33.02119486453244 ], [ -70.431890983584651, -33.021247897247811 ], [ -70.432437188023485, -33.021241628288251 ], [ -70.43309256382048, -33.021234102975292 ], [ -70.433784008772761, -33.021195496475222 ], [ -70.434258425243982, -33.021251369541666 ], [ -70.434697857724785, -33.021399777212444 ], [ -70.435066409536404, -33.021671647902195 ], [ -70.435399655760719, -33.022005321816714 ], [ -70.435731822210073, -33.022277609418296 ], [ -70.436064986687697, -33.022611283298772 ], [ -70.436695107248809, -33.023279118351617 ], [ -70.43702927334796, -33.023674101761571 ], [ -70.437253183822421, -33.024008956623121 ], [ -70.437586946578023, -33.024373354550143 ], [ -70.437811947607244, -33.024769667690087 ], [ -70.437926191751814, -33.025075196484337 ], [ -70.438188497119839, -33.025532402745036 ], [ -70.438267345845588, -33.025899590138664 ], [ -70.438622015092804, -33.026432497268445 ], [ -70.43903098121072, -33.02694941082958 ], [ -70.439476521337127, -33.027465825782485 ], [ -70.44010561602218, -33.028072181281757 ], [ -70.440768117256013, -33.028494099861256 ], [ -70.441098826637969, -33.028674402358796 ], [ -70.441501412920758, -33.028792474427938 ], [ -70.441904000101857, -33.028910544832677 ], [ -70.442270195632474, -33.029029035332769 ], [ -70.442747658290827, -33.029268961387828 ], [ -70.44319155629691, -33.029693394987248 ], [ -70.444157506637083, -33.030848121819417 ], [ -70.444900849059962, -33.031760047030701 ], [ -70.445753978186985, -33.032701285195429 ], [ -70.446054332597171, -33.033250093711054 ], [ -70.446244414314663, -33.033738781680249 ], [ -70.446381704737831, -33.034335509350385 ], [ -70.44649749578133, -33.034732997705184 ], [ -70.446649683865203, -33.035130137092118 ], [ -70.447058325691302, -33.035616289535916 ], [ -70.447617072408121, -33.036376879328309 ], [ -70.447877629654613, -33.036711362103254 ], [ -70.448245784410858, -33.036952533913599 ], [ -70.448722302939842, -33.037131121677241 ], [ -70.449163430541589, -33.037371443627222 ], [ -70.449493599137753, -33.037520992166115 ], [ -70.450041999059138, -33.037637341408981 ], [ -70.450480531427999, -33.037724303519148 ], [ -70.450811383642105, -33.037904577340989 ], [ -70.451142651776166, -33.038115506567209 ], [ -70.451440039050979, -33.038480215166913 ], [ -70.451664044746849, -33.038815113928692 ], [ -70.452201510374593, -33.039376441542345 ], [ -70.452499412384071, -33.039771876930082 ], [ -70.452799418247935, -33.040290009743138 ], [ -70.453023433825265, -33.040624906143186 ], [ -70.453137248575132, -33.040899687521723 ], [ -70.45336639263445, -33.041541292810813 ], [ -70.453626810642049, -33.041875763508479 ], [ -70.453887824232694, -33.042240963329846 ], [ -70.454075537991088, -33.042576280785056 ], [ -70.454262156703152, -33.042850211936084 ], [ -70.454741744775461, -33.043212860999141 ], [ -70.455258152096334, -33.043605666192789 ], [ -70.455774651943656, -33.043998542677095 ], [ -70.456325031751945, -33.044237562759193 ], [ -70.4569143373581, -33.044629510223551 ], [ -70.457135940958906, -33.044810967949722 ], [ -70.457357459219764, -33.044992501355694 ], [ -70.45746977647805, -33.045175235429809 ], [ -70.457583611889177, -33.045450086196901 ], [ -70.457813307514058, -33.046122411476162 ], [ -70.457981954530553, -33.046411914811351 ], [ -70.458166154079578, -33.046532557925254 ], [ -70.458461070987354, -33.04674381889177 ], [ -70.45883039624843, -33.047046341617097 ], [ -70.45920022995594, -33.04737952037042 ], [ -70.459425300155445, -33.047775715732826 ], [ -70.459722249950701, -33.048109820150565 ], [ -70.460061259765865, -33.048780860882687 ], [ -70.460213534088012, -33.049177907573934 ], [ -70.460293515589328, -33.049606535669298 ], [ -70.460411328740534, -33.050126706877741 ], [ -70.460490210703952, -33.05049402369167 ], [ -70.460680499033955, -33.050982610733008 ], [ -70.460874337505942, -33.051686085443599 ], [ -70.461026115059724, -33.052052473394191 ], [ -70.461250192620824, -33.052387352928953 ], [ -70.461474360911765, -33.052722304225277 ], [ -70.461881136937038, -33.053085630187205 ], [ -70.462287919250514, -33.053449101472012 ], [ -70.462585826649871, -33.053844509819804 ], [ -70.462661763935785, -33.054027665989629 ], [ -70.462851985790451, -33.054516323021559 ], [ -70.463170097198883, -33.055018921428854 ], [ -70.463359308448844, -33.05544619144068 ], [ -70.463697273523351, -33.056055908861467 ], [ -70.464145137591402, -33.056694924416853 ], [ -70.46437381183182, -33.057305922908689 ], [ -70.464565663230417, -33.05788661837542 ], [ -70.464574212496984, -33.058408141046044 ], [ -70.464550507753259, -33.05917541388807 ], [ -70.464597074620968, -33.059788476123344 ], [ -70.4646775978064, -33.060247830883078 ], [ -70.464980200699742, -33.060919283533394 ], [ -70.465059706992292, -33.06131717742182 ], [ -70.465211941788539, -33.061714290298248 ], [ -70.465291029466144, -33.062081527149495 ], [ -70.465590593358883, -33.062568893500767 ], [ -70.465887529679421, -33.062902907154118 ], [ -70.466293444220341, -33.063204975349841 ], [ -70.466697236940547, -33.063384273268987 ], [ -70.467229773512344, -33.063638820141584 ], [ -70.467562706224612, -33.063941743301086 ], [ -70.467932645035035, -33.064274891999823 ], [ -70.468342558875591, -33.064822276662341 ], [ -70.468714544048225, -33.065278194819953 ], [ -70.469265601186223, -33.065547882410549 ], [ -70.469922401711258, -33.065601465096037 ], [ -70.470322130453127, -33.065535354559387 ], [ -70.470722793442889, -33.065530629795184 ], [ -70.471125671678138, -33.065648598258718 ], [ -70.471528975714847, -33.06579722324102 ], [ -70.472333454781008, -33.065971846847901 ], [ -70.473028290873486, -33.066117096367648 ], [ -70.473503903900664, -33.066234199802523 ], [ -70.473981141081879, -33.06644333947046 ], [ -70.474569139639314, -33.066743154369341 ], [ -70.475484058484824, -33.066977848748913 ], [ -70.476693498081062, -33.067393019445966 ], [ -70.477173735635333, -33.067786157166552 ], [ -70.477396978661531, -33.068059690700359 ], [ -70.477659195096336, -33.068486146114324 ], [ -70.477703896163192, -33.068976501754129 ], [ -70.477710988362361, -33.069405979723271 ], [ -70.477576544700312, -33.070082578599227 ], [ -70.477549878211107, -33.070665840335153 ], [ -70.477628853599299, -33.071033142212691 ], [ -70.477927064629228, -33.071428434688166 ], [ -70.478100957806987, -33.072024686421756 ], [ -70.478181560942474, -33.072483880210115 ], [ -70.47819079742024, -33.07303612711695 ], [ -70.478135843881034, -33.074110610154527 ], [ -70.478221582685023, -33.074876657627541 ], [ -70.478379120236383, -33.075580455511698 ], [ -70.478866599110162, -33.07640313520676 ], [ -70.479203814091406, -33.076951343940941 ], [ -70.479615314356764, -33.077590802441392 ], [ -70.480025966612473, -33.078168872556539 ], [ -70.480215312609744, -33.078596112232589 ], [ -70.480513989865301, -33.079022201190341 ], [ -70.481465471939501, -33.080345536625167 ], [ -70.481687731310487, -33.080557675387958 ], [ -70.482279966322778, -33.081102843677968 ], [ -70.482977510835838, -33.081401387000909 ], [ -70.48385670368252, -33.081667102893242 ], [ -70.484989858344846, -33.081868390690367 ], [ -70.485976151932945, -33.082010020628253 ], [ -70.486742929604958, -33.082092936866864 ], [ -70.487107337488155, -33.082088590088887 ], [ -70.487928523421999, -33.082155482274175 ], [ -70.488329345413561, -33.082150697434685 ], [ -70.488877465060582, -33.08223621106557 ], [ -70.489390632158205, -33.082414125908372 ], [ -70.491191704895527, -33.083313037720949 ], [ -70.494936938520198, -33.08495575722295 ], [ -70.496609750699562, -33.085810097063991 ], [ -70.49683049820591, -33.08593009308747 ], [ -70.49719960068478, -33.086201837601031 ], [ -70.497604080616185, -33.086411758473631 ], [ -70.498189688756639, -33.086558103977502 ], [ -70.498810674349627, -33.086642697347997 ], [ -70.499140764792358, -33.08676144810682 ], [ -70.499654067535587, -33.086939392180035 ], [ -70.5002027459347, -33.087055510533972 ], [ -70.500530666047723, -33.0870514891445 ], [ -70.500821651927808, -33.087017398020379 ], [ -70.501512433923409, -33.08691694672838 ], [ -70.502132558032045, -33.086940210307681 ], [ -70.502717567894507, -33.087055880083334 ], [ -70.503413046282418, -33.087231610784961 ], [ -70.503926881726613, -33.08744019175262 ], [ -70.504515208169124, -33.087739929829965 ], [ -70.505798940236005, -33.088215310573297 ], [ -70.506314268680214, -33.088515922826907 ], [ -70.506976576776253, -33.088876078455264 ], [ -70.507382572165554, -33.089177933296909 ], [ -70.507895467971963, -33.089325185628269 ], [ -70.508624248704081, -33.089316367098291 ], [ -70.509132342116985, -33.089187496189936 ], [ -70.509461960944193, -33.088953726583526 ], [ -70.509528474004455, -33.088906596874544 ], [ -70.509815264752163, -33.088626946785013 ], [ -70.510102054601575, -33.088347370316974 ], [ -70.510350851104334, -33.087976120138116 ], [ -70.510562180673247, -33.087544000736273 ], [ -70.510845815639385, -33.087080344096456 ], [ -70.511096182397267, -33.086801206773664 ], [ -70.511418852755753, -33.086490456468468 ], [ -70.51150652293758, -33.086289907818021 ], [ -70.511610084316786, -33.085951226159317 ], [ -70.511747434028791, -33.08545860479029 ], [ -70.511960765044137, -33.0851492534565 ], [ -70.512245523802704, -33.084746902413222 ], [ -70.51245578707136, -33.084253470445994 ], [ -70.512558727714705, -33.083883985314223 ], [ -70.512843480185055, -33.083481707513222 ], [ -70.513168234634989, -33.083293647218625 ], [ -70.513710597877662, -33.083041622234475 ], [ -70.514292089039174, -33.08294250090546 ], [ -70.514725643843065, -33.082722527944497 ], [ -70.515080491855016, -33.082165937113686 ], [ -70.515252653979218, -33.081580904510915 ], [ -70.51556801205129, -33.080840748071182 ], [ -70.515962507208314, -33.080467716921014 ], [ -70.516540731197125, -33.080184581315393 ], [ -70.517048320655164, -33.080024949721867 ], [ -70.517771136573799, -33.079678651356382 ], [ -70.518421296752251, -33.079333234559179 ], [ -70.518904475390741, -33.07882109882248 ], [ -70.519155232017482, -33.078572602565146 ], [ -70.519365442285547, -33.078079159292422 ], [ -70.519571431370082, -33.077340326040968 ], [ -70.519525964040298, -33.076819263320942 ], [ -70.519556133959114, -33.076450735302551 ], [ -70.519623154567512, -33.076112418470416 ], [ -70.519688152169905, -33.075651405419791 ], [ -70.519643827497148, -33.075191726080732 ], [ -70.519490095209306, -33.074733305951767 ], [ -70.519413583899947, -33.074519533216872 ], [ -70.519295297336583, -33.073999357098749 ], [ -70.51932221535408, -33.073446749642507 ], [ -70.51946056129772, -33.073015580358067 ], [ -70.519638478927945, -33.07276789649962 ], [ -70.519854477939703, -33.072611881303914 ], [ -70.520178737417922, -33.0723931486704 ], [ -70.520306040371779, -33.072376229369524 ], [ -70.52062968270738, -33.0721268409362 ], [ -70.520985508086369, -33.071631618826672 ], [ -70.521269656888833, -33.071198593319941 ], [ -70.521841466008212, -33.070547351646077 ], [ -70.522162455618783, -33.070144536335626 ], [ -70.522625025108056, -33.069494550053101 ], [ -70.522946006633802, -33.069091732934268 ], [ -70.523196814464484, -33.068843302542433 ], [ -70.523410150869736, -33.068533783616871 ], [ -70.523583292157596, -33.068010124996533 ], [ -70.523612299656421, -33.067580285639814 ], [ -70.523606482166656, -33.067242782368602 ], [ -70.524109138975462, -33.065748626659079 ], [ -70.524140256616889, -33.065441408040783 ], [ -70.524354555117824, -33.065193347524684 ], [ -70.524641840837262, -33.064944393446432 ], [ -70.525141744309735, -33.064355339827486 ], [ -70.525279518924847, -33.063893434033993 ], [ -70.525310191900218, -33.063555558268227 ], [ -70.525303839912851, -33.063187400808019 ], [ -70.525296432405014, -33.062758006924064 ], [ -70.525322254477857, -33.062144087536659 ], [ -70.525314844275073, -33.061714546271702 ], [ -70.525416209273416, -33.061253085868131 ], [ -70.525552921181571, -33.060729869528089 ], [ -70.52579893111033, -33.06020524219975 ], [ -70.526047057469896, -33.059803307850942 ], [ -70.526670498158552, -33.058982589318845 ], [ -70.526848899082395, -33.058765699006159 ], [ -70.527095427339077, -33.058271724539985 ], [ -70.527194131527551, -33.057656912547522 ], [ -70.527296014853817, -33.057226179377075 ], [ -70.527436417939469, -33.056917622464198 ], [ -70.527573110982985, -33.05639432915725 ], [ -70.527634877345292, -33.055749308435473 ], [ -70.527557215294053, -33.055474083238089 ], [ -70.527332882611404, -33.055139329887048 ], [ -70.527069943931096, -33.05468232996725 ], [ -70.526914712355051, -33.054131951098626 ], [ -70.526906682314731, -33.053671828058825 ], [ -70.526971629611467, -33.05321081189129 ], [ -70.527038166027921, -33.052841835638574 ], [ -70.527212847028181, -33.052410136979077 ], [ -70.527534894854185, -33.052068693351011 ], [ -70.528485612462077, -33.051213293989655 ], [ -70.528809597954137, -33.050994543562105 ], [ -70.529206558986616, -33.050774896572705 ], [ -70.529605109138828, -33.050647288387324 ], [ -70.530184245815974, -33.050425404994357 ], [ -70.530800753307247, -33.050264457450893 ], [ -70.53134135944525, -33.049920320432939 ], [ -70.532024374606905, -33.049390388027525 ], [ -70.532382706285532, -33.049048412386732 ], [ -70.533786254746687, -33.048049395030361 ], [ -70.534183632597461, -33.047860389311872 ], [ -70.53454576325143, -33.047733213633094 ], [ -70.535126995698121, -33.047634002832055 ], [ -70.535597877298699, -33.047474823466388 ], [ -70.535920853982688, -33.047194744250206 ], [ -70.536096013784999, -33.046793688730922 ], [ -70.536344058397887, -33.046391810621621 ], [ -70.536629563656419, -33.046050793950016 ], [ -70.537096169276239, -33.045646147432798 ], [ -70.537492019991035, -33.045365165574559 ], [ -70.53799972712838, -33.045236112065417 ], [ -70.538542853939035, -33.04504536914925 ], [ -70.539015314777899, -33.044978143033077 ], [ -70.539560037894816, -33.044879361354582 ], [ -70.540030896139186, -33.044720166468039 ], [ -70.540462063221057, -33.04437734287368 ], [ -70.541162422155907, -33.043801117826064 ], [ -70.541450484019748, -33.043613439597408 ], [ -70.541847467510109, -33.04339375461992 ], [ -70.542536163617626, -33.043201195191244 ], [ -70.542896209281807, -33.042951227099309 ], [ -70.543216472155322, -33.042517780371362 ], [ -70.543353052011113, -33.041994473778942 ], [ -70.5434172851472, -33.041502796866261 ], [ -70.543700693737861, -33.041038995505865 ], [ -70.544167241865523, -33.040634397502892 ], [ -70.544707025146707, -33.040259552777798 ], [ -70.545360988792069, -33.040159393755033 ], [ -70.545943678306159, -33.040152173535539 ], [ -70.546380247856149, -33.040116100291876 ], [ -70.546889519858695, -33.040079050330029 ], [ -70.547468005257286, -33.039826433936817 ], [ -70.547794670423826, -33.039760984049749 ], [ -70.548304566755519, -33.039754729961928 ], [ -70.549174924671348, -33.03952914422851 ], [ -70.549862048727135, -33.039244506352951 ], [ -70.550111621374299, -33.038934567073525 ], [ -70.550214447931609, -33.038565128118883 ], [ -70.550352054561785, -33.038103124672439 ], [ -70.550492261814696, -33.037794618230635 ], [ -70.550776160885505, -33.037361530195952 ], [ -70.550987717728177, -33.036960077464443 ], [ -70.55148836500571, -33.036432234442344 ], [ -70.551884126787272, -33.036151135082207 ], [ -70.552244480573606, -33.035931872801704 ], [ -70.552851870164744, -33.035249388133671 ], [ -70.553135573402841, -33.034816298130835 ], [ -70.553272623975843, -33.03432370982177 ], [ -70.553374440826772, -33.033892810558513 ], [ -70.553472943792627, -33.033278055799137 ], [ -70.55346639507421, -33.032909902029715 ], [ -70.553423541841894, -33.03254227390093 ], [ -70.553308353567957, -33.032206209572166 ], [ -70.553154082290959, -33.031717174199621 ], [ -70.553075828249916, -33.031411384503144 ], [ -70.55303360293999, -33.031074410605108 ], [ -70.552919496237664, -33.0307997281204 ], [ -70.552663357804065, -33.030268443284008 ], [ -70.552467999382586, -33.029976891841414 ], [ -70.551909851842055, -33.029308837158851 ], [ -70.551352963739546, -33.028702160290095 ], [ -70.550637358597712, -33.027360982643565 ], [ -70.550301071576158, -33.026874280036886 ], [ -70.550183131762495, -33.02638486259476 ], [ -70.549957270147246, -33.025958109871553 ], [ -70.549846565364888, -33.02483970577812 ], [ -70.549792905399698, -33.023858459485723 ], [ -70.549710461616186, -33.023307203360851 ], [ -70.549704019797289, -33.022939121670646 ], [ -70.549696504491621, -33.022509729628126 ], [ -70.549688988287642, -33.022080263939841 ], [ -70.549346286396641, -33.021225400395565 ], [ -70.548864839710006, -33.020771156779006 ], [ -70.548680040984706, -33.020620068112969 ], [ -70.548274232444996, -33.020318265859352 ], [ -70.547944334241748, -33.020199637108391 ], [ -70.547464593455828, -33.019837352037534 ], [ -70.54739021205198, -33.019746289813106 ], [ -70.547277123140873, -33.019532986143687 ], [ -70.547202201849544, -33.01941112048241 ], [ -70.547050669535849, -33.019075498694122 ], [ -70.546898067328641, -33.018678567161366 ], [ -70.546819309332733, -33.018341967899694 ], [ -70.54686893137071, -33.018049882130178 ], [ -70.54755045263407, -33.01745848862231 ], [ -70.547725505536846, -33.017057419767923 ], [ -70.54786318672717, -33.016595564188016 ], [ -70.547820278697628, -33.01622786047772 ], [ -70.547449722744616, -33.015864292864322 ], [ -70.547189573333284, -33.015560754643552 ], [ -70.547001037616397, -33.015194854443813 ], [ -70.5469229093395, -33.014889057894642 ], [ -70.546917551787146, -33.014582285558703 ], [ -70.546947507906935, -33.014213750882725 ], [ -70.547196488564339, -33.013873164079016 ], [ -70.547483010715794, -33.013593433780322 ], [ -70.548021098876035, -33.013126537948743 ], [ -70.548489540652298, -33.01284454845208 ], [ -70.548814499918109, -33.012687206766024 ], [ -70.549391193177684, -33.012342547079761 ], [ -70.549660184706383, -33.012109059250456 ], [ -70.549800444959885, -33.011800552209557 ], [ -70.549830925695801, -33.01146267245894 ], [ -70.549822338699983, -33.010971821807779 ], [ -70.549780674837109, -33.010665499876929 ], [ -70.549772537897269, -33.010205379574266 ], [ -70.549911182979912, -33.009804758339627 ], [ -70.550157545048251, -33.009310815158791 ], [ -70.550405426167757, -33.008908912239256 ], [ -70.550685929606814, -33.008291821956618 ], [ -70.551040268273994, -33.007735137224657 ], [ -70.551509296650138, -33.007483791643374 ], [ -70.55205261300533, -33.00732365307946 ], [ -70.552451473076331, -33.007226707240001 ], [ -70.55325080030434, -33.007124628105259 ], [ -70.553973594663404, -33.006808791784032 ], [ -70.554368682708514, -33.006497105961778 ], [ -70.554725232129613, -33.00606310477346 ], [ -70.555260994551602, -33.005473486361893 ], [ -70.555436617884581, -33.005103135722422 ], [ -70.555502379953268, -33.004703417933413 ], [ -70.555679616660527, -33.004425104987284 ], [ -70.55618275406799, -33.004050669770201 ], [ -70.556563716105259, -33.003969227429074 ], [ -70.557072862343688, -33.003932141177934 ], [ -70.557400467148014, -33.003928053462701 ], [ -70.557867300939918, -33.003554064385206 ], [ -70.557965657480381, -33.002939232897539 ], [ -70.557991790370295, -33.002355890276242 ], [ -70.557984328963556, -33.001926497443911 ], [ -70.557978396489432, -33.001589070315859 ], [ -70.557971385138643, -33.001190259495054 ], [ -70.557856226509088, -33.000854196188421 ], [ -70.557631929759069, -33.000519568309066 ], [ -70.557438535054814, -32.999877641795507 ], [ -70.557431526398958, -32.999478831525749 ], [ -70.557459907772056, -32.999018255073707 ], [ -70.557634881623088, -32.998617173178182 ], [ -70.558099442677332, -32.998120491249679 ], [ -70.558493398845172, -32.99774740952077 ], [ -70.559030255415166, -32.99721915991519 ], [ -70.559676866349932, -32.996720124725087 ], [ -70.56043476507368, -32.996342488667722 ], [ -70.561282380341467, -32.995886961878718 ], [ -70.561715393461242, -32.99566683848861 ], [ -70.562325687305716, -32.995168244318236 ], [ -70.562715827430239, -32.994580417847892 ], [ -70.563216175568769, -32.994052607375366 ], [ -70.563754601495546, -32.99361622962995 ], [ -70.564295733147972, -32.993333345954618 ], [ -70.564799941347275, -32.993020186995793 ], [ -70.564974872079176, -32.992619169757866 ], [ -70.564970084957025, -32.992343052688625 ], [ -70.564926670277671, -32.991944772705565 ], [ -70.564919001360082, -32.99151530886305 ], [ -70.564910878793299, -32.99105518813267 ], [ -70.564977761959454, -32.990716849172827 ], [ -70.56529719389134, -32.990252622368459 ], [ -70.565548205639587, -32.990034768709116 ], [ -70.565980636651062, -32.989783829307363 ], [ -70.566593489795778, -32.989438638594443 ], [ -70.567315005852208, -32.989061345859177 ], [ -70.567894100308536, -32.988870029287305 ], [ -70.568510108336525, -32.988708907543582 ], [ -70.569198495423578, -32.98851613823517 ], [ -70.569887878742264, -32.988384823905321 ], [ -70.571535497669515, -32.987888503327362 ], [ -70.572439482221384, -32.987539546005792 ], [ -70.573157694274187, -32.986978217608659 ], [ -70.573765512361732, -32.986357026307267 ], [ -70.574371687430613, -32.98564364588298 ], [ -70.574617215862389, -32.985119004760321 ], [ -70.574970858335249, -32.984531601901054 ], [ -70.575325039797249, -32.983974852400941 ], [ -70.575860077278776, -32.983354422885597 ], [ -70.576397833960684, -32.982887412226169 ], [ -70.576931221237047, -32.982175013511259 ], [ -70.577141989358893, -32.981742790873753 ], [ -70.577307567730386, -32.980820182961381 ], [ -70.57746182373603, -32.980281395248703 ], [ -70.577637762377691, -32.979941598297223 ], [ -70.577920175635015, -32.979447219663541 ], [ -70.578240132183026, -32.979013541339945 ], [ -70.578777304959985, -32.978515941256298 ], [ -70.579388849259331, -32.97810930877948 ], [ -70.580324789580814, -32.977514523910259 ], [ -70.581688027940231, -32.976392700660085 ], [ -70.58244292000272, -32.975861517604926 ], [ -70.582873593011172, -32.975518631219394 ], [ -70.583628643177136, -32.974987365285443 ], [ -70.584279248919984, -32.974733670128089 ], [ -70.584569367027527, -32.974668664780985 ], [ -70.584968499288038, -32.974602201155747 ], [ -70.58543990999631, -32.974504232140525 ], [ -70.585945581551229, -32.974283030515821 ], [ -70.586450239806467, -32.974000442850077 ], [ -70.586880886763794, -32.973657469355338 ], [ -70.58731089412062, -32.973283842603067 ], [ -70.587845871415027, -32.972663362834147 ], [ -70.588274311211691, -32.972197766710515 ], [ -70.588848850311223, -32.971760898835996 ], [ -70.589352299434097, -32.971416990427436 ], [ -70.589819376669453, -32.971073544166828 ], [ -70.590505290694537, -32.970758045321787 ], [ -70.591409573487098, -32.970439611417937 ], [ -70.592274643919168, -32.969968361771059 ], [ -70.592597250497249, -32.969688144846657 ], [ -70.592990849135631, -32.969314963291943 ], [ -70.593094526397536, -32.969006801781298 ], [ -70.593089570392081, -32.968730762344656 ], [ -70.593084062821092, -32.968423993820807 ], [ -70.592896087652932, -32.968088891784262 ], [ -70.59263483421212, -32.967724061630364 ], [ -70.592300673502848, -32.967360087645226 ], [ -70.592004534886286, -32.967087760170656 ], [ -70.591745399672902, -32.966845622517731 ], [ -70.591557520624491, -32.966510516754724 ], [ -70.591479201904747, -32.966204676589946 ], [ -70.591399320116437, -32.9658068703297 ], [ -70.591171518140158, -32.965288154407254 ], [ -70.591237184987435, -32.964888494464041 ], [ -70.5913038633377, -32.964550143411401 ], [ -70.591551986104037, -32.964178746007384 ], [ -70.59183821091311, -32.963898994591972 ], [ -70.592053181353862, -32.963712135902256 ], [ -70.592341053673195, -32.96352434825662 ], [ -70.59251957137802, -32.963338027672556 ], [ -70.592732424489654, -32.96302847356678 ], [ -70.592690556709186, -32.962722243739528 ], [ -70.592612324227744, -32.962416402519672 ], [ -70.592535194877428, -32.962171944946533 ], [ -70.592295035676131, -32.96197552097474 ], [ -70.592035365066835, -32.96170272768633 ], [ -70.591773495381716, -32.961307167593539 ], [ -70.59169628069148, -32.961062710720071 ], [ -70.591653868531978, -32.960725824579875 ], [ -70.591751490250516, -32.96008016639631 ], [ -70.591920826274858, -32.959372418927011 ], [ -70.592423005179924, -32.958967119116707 ], [ -70.592745574028768, -32.95868690196918 ], [ -70.593104411458896, -32.958406148020032 ], [ -70.593426975816186, -32.958125929847398 ], [ -70.59378085364763, -32.957569133723332 ], [ -70.594102310382155, -32.957227531582681 ], [ -70.594496486637254, -32.956884998737301 ], [ -70.595035639301102, -32.956509877942629 ], [ -70.596667712882351, -32.955185125723162 ], [ -70.597096021524976, -32.954719353812578 ], [ -70.597306632441658, -32.954287174705698 ], [ -70.597479136823978, -32.953763349840081 ], [ -70.597610311516704, -32.952963950272235 ], [ -70.597459819452098, -32.952689772334914 ], [ -70.597090531920287, -32.952387655577112 ], [ -70.596687007796319, -32.952208770346488 ], [ -70.596285139267451, -32.952121847546067 ], [ -70.595914668654402, -32.951758418361095 ], [ -70.59583579747077, -32.951421851793313 ], [ -70.595608097902442, -32.950903216508976 ], [ -70.595570172827777, -32.9508116406612 ], [ -70.595383156162029, -32.950537926426698 ], [ -70.595161059386129, -32.950325908819991 ], [ -70.594682627445593, -32.950025252418143 ], [ -70.594569608603067, -32.949811915906444 ], [ -70.59448909260415, -32.949383383165937 ], [ -70.594298955191107, -32.948925661701438 ], [ -70.59429234538726, -32.948557510202221 ], [ -70.594398751730978, -32.948402769211278 ], [ -70.59446769922566, -32.948187108486856 ], [ -70.594765575183985, -32.947554259130463 ], [ -70.595195603202072, -32.947180679539763 ], [ -70.595696598127603, -32.946714058080971 ], [ -70.596056571028242, -32.946494605908967 ], [ -70.596488155826719, -32.946213060887928 ], [ -70.597172837363246, -32.945836071984537 ], [ -70.597930141402259, -32.945458223585533 ], [ -70.598328667299953, -32.945361066572303 ], [ -70.5989448666691, -32.945230459274519 ], [ -70.599484019332962, -32.944855319925836 ], [ -70.599805323353877, -32.944513779465986 ], [ -70.600311340760172, -32.944323179061008 ], [ -70.600639271652966, -32.944349639741965 ], [ -70.600967755009634, -32.94440675407705 ], [ -70.601477088995949, -32.944400225606344 ], [ -70.601909749077819, -32.94417989697471 ], [ -70.602303839992956, -32.943837416845575 ], [ -70.602586645814071, -32.943373567074396 ], [ -70.602977961833304, -32.94287766224506 ], [ -70.603839933975991, -32.942252921346402 ], [ -70.60423788585021, -32.942125090536926 ], [ -70.604565256194263, -32.942120886123476 ], [ -70.605075217204629, -32.942144996852491 ], [ -70.605551421323284, -32.942322995526929 ], [ -70.605737165974574, -32.94253538815849 ], [ -70.606069062031011, -32.942776562625312 ], [ -70.606505586665236, -32.942770949997076 ], [ -70.606868290444353, -32.94270488681039 ], [ -70.607267349941338, -32.942638430802859 ], [ -70.607594807421961, -32.942634142733134 ], [ -70.607924399299691, -32.942752621691319 ], [ -70.608144284423375, -32.942841850017693 ], [ -70.60851198912367, -32.943051969973041 ], [ -70.609011148791083, -32.943490394814333 ], [ -70.609307813820408, -32.943793411946174 ], [ -70.609640747431001, -32.944095887516475 ], [ -70.609827618569668, -32.944369655621031 ], [ -70.609978688251005, -32.944674472979088 ], [ -70.610092849750572, -32.94494917860208 ], [ -70.610428103709538, -32.945374416621661 ], [ -70.610576866517221, -32.945556616814429 ], [ -70.610872342177103, -32.945798247413883 ], [ -70.611057081613595, -32.94594924707414 ], [ -70.611463387819981, -32.946281506631564 ], [ -70.611577553811117, -32.946556137153593 ], [ -70.611513190419345, -32.947017187040885 ], [ -70.611601492116804, -32.947875165926412 ], [ -70.611790602755462, -32.948271549018642 ], [ -70.612124208305914, -32.948604818271342 ], [ -70.612348010084204, -32.948908693820876 ], [ -70.61253434133539, -32.949151729433311 ], [ -70.612722434182842, -32.949486800016793 ], [ -70.612837167010937, -32.949792156804172 ], [ -70.613030188016026, -32.950403267489662 ], [ -70.613408995893252, -32.951226830128867 ], [ -70.613632894689601, -32.951530701187814 ], [ -70.614072895803972, -32.951709134001504 ], [ -70.614473016211306, -32.95170396291492 ], [ -70.614761829066722, -32.951577509401417 ], [ -70.615049056395677, -32.951359016836321 ], [ -70.615295369955007, -32.950895611324022 ], [ -70.615543355279087, -32.950524243217977 ], [ -70.615935654953546, -32.950089610278759 ], [ -70.616296705832525, -32.949931482804736 ], [ -70.616766270502907, -32.949741362201671 ], [ -70.617307049117429, -32.949458258817366 ], [ -70.61770333282017, -32.949238274473451 ], [ -70.618243456562851, -32.948924439748787 ], [ -70.618819375474658, -32.948579477546737 ], [ -70.619287249515651, -32.948297311223477 ], [ -70.620119600610138, -32.948041077399459 ], [ -70.620626624129542, -32.947911780457048 ], [ -70.621242890872338, -32.947781063098176 ], [ -70.622097009942806, -32.947724018788215 ], [ -70.622533554339938, -32.947718275306443 ], [ -70.622753552651346, -32.947807476006382 ], [ -70.622938227409136, -32.947958458665937 ], [ -70.623272433932499, -32.948322349742512 ], [ -70.62353094481675, -32.948533695969346 ], [ -70.623863560423757, -32.948805548425405 ], [ -70.624450117185148, -32.949043361065286 ], [ -70.624779193429916, -32.949131139468705 ], [ -70.625144063945484, -32.949187716253512 ], [ -70.625727345449363, -32.94924152269995 ], [ -70.626273619058466, -32.949265073657756 ], [ -70.626819333017167, -32.949258041237776 ], [ -70.628125700832584, -32.949056829663 ], [ -70.629431501811027, -32.948825097430408 ], [ -70.63001300554896, -32.948786848225964 ], [ -70.631099349900154, -32.948496491447315 ], [ -70.631895221309264, -32.948240656977895 ], [ -70.633051448301345, -32.947796062929285 ], [ -70.633737672245189, -32.947510914182011 ], [ -70.634282154613643, -32.947442394760117 ], [ -70.634754575926607, -32.947405551621721 ], [ -70.635191768907404, -32.947430490886561 ], [ -70.635665231367781, -32.947454952210435 ], [ -70.636666542990795, -32.947487939443491 ], [ -70.637179189963874, -32.947665264738752 ], [ -70.637437344216963, -32.947845997769257 ], [ -70.637842620954032, -32.948116785665981 ], [ -70.638175100017108, -32.948388527083303 ], [ -70.638507669809997, -32.948660340032852 ], [ -70.638878207796708, -32.949023637974832 ], [ -70.639355731540491, -32.949262811433336 ], [ -70.639761021752307, -32.949533592728677 ], [ -70.640352724063632, -32.950047512632715 ], [ -70.641161618349429, -32.950497029818251 ], [ -70.641382208650597, -32.950616851332157 ], [ -70.64152999678619, -32.95073770314319 ], [ -70.641677129151617, -32.950827827229119 ], [ -70.64200631319423, -32.95091548475866 ], [ -70.642335411896894, -32.951003216828347 ], [ -70.642773193274195, -32.951058856185192 ], [ -70.643320046296665, -32.951112985630033 ], [ -70.643650281368153, -32.951262021592242 ], [ -70.64379920946584, -32.951444177237171 ], [ -70.643949360170637, -32.951687640822904 ], [ -70.64399026136384, -32.951932541989947 ], [ -70.644215316291977, -32.952297811986689 ], [ -70.644436482413226, -32.952448281933272 ], [ -70.644839528633455, -32.952596356062813 ], [ -70.64516863542093, -32.952684078926268 ], [ -70.645934397098372, -32.952766047995674 ], [ -70.646335740112789, -32.952822081984294 ], [ -70.646775151932346, -32.952969743917258 ], [ -70.64713899836849, -32.95296487291364 ], [ -70.64764780055215, -32.952927499899545 ], [ -70.64801156164836, -32.952922700503876 ], [ -70.648228181395964, -32.952827858301347 ], [ -70.648588610640786, -32.95263898542791 ], [ -70.648879085379491, -32.952604489511792 ], [ -70.649245210841528, -32.952722374687141 ], [ -70.649593970072488, -32.952886518464354 ], [ -70.650142461622039, -32.95303265386211 ], [ -70.650653629968147, -32.953117957378275 ], [ -70.65116813465724, -32.953387256976676 ], [ -70.651500014544013, -32.953628307616789 ], [ -70.651868433404971, -32.953868948294684 ], [ -70.652490968591806, -32.954075490972372 ], [ -70.653149294456185, -32.95425082136267 ], [ -70.653585867599432, -32.95424511599407 ], [ -70.653913272079464, -32.954240707128506 ], [ -70.654313571251535, -32.954235405785916 ], [ -70.655077549773125, -32.954225357882756 ], [ -70.655875684038449, -32.954092059110287 ], [ -70.658093345997202, -32.953970580214985 ], [ -70.658674864108164, -32.953932123685192 ], [ -70.659254088820219, -32.953771049001418 ], [ -70.659551619825464, -32.953640683279708 ], [ -70.659615070528943, -32.953612799215755 ], [ -70.659830443414933, -32.953456557237445 ], [ -70.659825370628511, -32.953180524243137 ], [ -70.659747404048375, -32.952905386646037 ], [ -70.659633168886955, -32.952630805246855 ], [ -70.659589841344157, -32.952263148594298 ], [ -70.659586401694952, -32.95207915310484 ], [ -70.659615967945896, -32.951710601655307 ], [ -70.659682287868378, -32.951372224264517 ], [ -70.659805944560503, -32.951171172032602 ], [ -70.660056608660753, -32.950953062905739 ], [ -70.660343054455396, -32.95070374319868 ], [ -70.660519767444825, -32.950425294680592 ], [ -70.660548753384091, -32.950026016034819 ], [ -70.660615157748225, -32.949687636718188 ], [ -70.660828311795456, -32.949408702553065 ], [ -70.661111308059432, -32.94897538483206 ], [ -70.661103363359032, -32.948546009777701 ], [ -70.66098789391242, -32.948210049121208 ], [ -70.660762123026998, -32.947814158761908 ], [ -70.660649524596039, -32.947631613441068 ], [ -70.660499909287154, -32.947418825224609 ], [ -70.660421550143226, -32.947113031303118 ], [ -70.660381665842934, -32.946929519614933 ], [ -70.660340145710506, -32.946653823560979 ], [ -70.660225831497343, -32.946379316973463 ], [ -70.659747124672322, -32.946078843150161 ], [ -70.659270227054279, -32.945870401679009 ], [ -70.658829599814169, -32.9456614764959 ], [ -70.658316924095018, -32.945484167535554 ], [ -70.657950245270754, -32.945335654055334 ], [ -70.657838801174918, -32.94521441416088 ], [ -70.657726211727095, -32.945031791855378 ], [ -70.657651212282332, -32.944910141444034 ], [ -70.657611421406841, -32.944726479687894 ], [ -70.657535760802034, -32.944574103646012 ], [ -70.657349319058071, -32.944331137620502 ], [ -70.657037510229685, -32.944197261542904 ], [ -70.656635053304299, -32.944079806011267 ], [ -70.656415120569918, -32.943990664121308 ], [ -70.656301964285163, -32.943777386926243 ], [ -70.656297961392269, -32.94356273641548 ], [ -70.656511114541189, -32.943283735431102 ], [ -70.656650897789277, -32.942975046642601 ], [ -70.656862244426193, -32.94260408477583 ], [ -70.657185116007298, -32.942354363073605 ], [ -70.657474980789914, -32.942289194434792 ], [ -70.658161562263246, -32.942034570081972 ], [ -70.65855770942207, -32.941814534094682 ], [ -70.658659896378893, -32.94144501935169 ], [ -70.658653595595496, -32.94110760534565 ], [ -70.658429661764842, -32.940803816821052 ], [ -70.658024928508524, -32.940563675844686 ], [ -70.65740542783071, -32.940510573535015 ], [ -70.65707626804263, -32.940422882317776 ], [ -70.656709040347735, -32.940243710518821 ], [ -70.656560766223578, -32.94009222163308 ], [ -70.656445241081414, -32.93975633062977 ], [ -70.656368441412823, -32.939542496639142 ], [ -70.656143373009954, -32.939177322460068 ], [ -70.655917647938622, -32.938781421057527 ], [ -70.655729507480459, -32.938446416957795 ], [ -70.655578382103599, -32.938141658045176 ], [ -70.655500928461478, -32.937897244911611 ], [ -70.655311736076129, -32.937500857529017 ], [ -70.655094721069787, -32.93659859231996 ], [ -70.654939512849936, -32.936079108603352 ], [ -70.654600661138247, -32.935469998635327 ], [ -70.653962922863542, -32.934435288281577 ], [ -70.653515030049391, -32.933827545222975 ], [ -70.653109202645055, -32.933526078760771 ], [ -70.652881794130892, -32.933038207966 ], [ -70.652870952363727, -32.932455413875985 ], [ -70.652852122777063, -32.931443169903773 ], [ -70.652946422525687, -32.930644207143864 ], [ -70.653101852629419, -32.930197300361712 ], [ -70.653017742471036, -32.929584814231845 ], [ -70.652823270686753, -32.928912317027525 ], [ -70.652666377227433, -32.928300718509831 ], [ -70.652433941740924, -32.927536812911526 ], [ -70.651900112493465, -32.926224539903629 ], [ -70.651489765664934, -32.925677687510678 ], [ -70.65086125398652, -32.925133715899712 ], [ -70.649297850320551, -32.923221502719059 ], [ -70.649006538351998, -32.922228219350764 ], [ -70.648998569397108, -32.921798693314429 ], [ -70.649062726176382, -32.921337628081012 ], [ -70.649236575336701, -32.920905849853398 ], [ -70.649486702244417, -32.920657109009888 ], [ -70.649953277321501, -32.920313377280351 ], [ -70.650273158411025, -32.919910330302471 ], [ -70.650517978970356, -32.919385556003732 ], [ -70.650823129485843, -32.91818491205391 ], [ -70.650961187968591, -32.917784193067384 ], [ -70.651136817589801, -32.917444372980526 ], [ -70.65131463730367, -32.917227245455102 ], [ -70.651635640388974, -32.916885577948349 ], [ -70.652171455811555, -32.916356880209712 ], [ -70.652818663227677, -32.915949426308067 ], [ -70.653936307578306, -32.915413097396616 ], [ -70.654857720345021, -32.915078769474661 ], [ -70.655469617682243, -32.914733166982735 ], [ -70.656005398070519, -32.914204453370864 ], [ -70.656325315092658, -32.913801391393314 ], [ -70.656570172482901, -32.913276531100664 ], [ -70.656708769056522, -32.912906459749664 ], [ -70.656876850134381, -32.912167911182564 ], [ -70.657396599188104, -32.910780363924225 ], [ -70.657620240167986, -32.910546661104512 ], [ -70.657753410917266, -32.910407472157715 ], [ -70.657998822568061, -32.90991326188275 ], [ -70.65806415703868, -32.909513573343041 ], [ -70.658420962479624, -32.909140680011646 ], [ -70.658817449201649, -32.908951301309479 ], [ -70.659251507062095, -32.908822819797855 ], [ -70.659937345628677, -32.908537537112259 ], [ -70.660441789186592, -32.908285397145178 ], [ -70.660508256432777, -32.907947015005639 ], [ -70.660359373250856, -32.907764876114371 ], [ -70.660104248116895, -32.907737677462826 ], [ -70.659921314294138, -32.907678635906919 ], [ -70.659882597803701, -32.907556504244241 ], [ -70.660062181808769, -32.907431398681112 ], [ -70.660242823130929, -32.907367601812382 ], [ -70.660423462656468, -32.907303806406013 ], [ -70.660676871109914, -32.90723911574004 ], [ -70.661038239094225, -32.907111594081044 ], [ -70.661741810404521, -32.906810773435708 ], [ -70.662099824079533, -32.906499249841211 ], [ -70.662311639637011, -32.906158860761131 ], [ -70.662706472560558, -32.905877506381096 ], [ -70.662993345054986, -32.905658912233839 ], [ -70.66339104090936, -32.905530826422783 ], [ -70.663752398113857, -32.905403297024094 ], [ -70.664185858594664, -32.905244219316003 ], [ -70.664581255660224, -32.904993514265094 ], [ -70.665016433719813, -32.904926320979364 ], [ -70.66545342098641, -32.904951160599026 ], [ -70.665817645613302, -32.904977042517451 ], [ -70.666583492630693, -32.905089553392301 ], [ -70.666913016236464, -32.905207878998723 ], [ -70.667279539652185, -32.905356371607454 ], [ -70.667609639078037, -32.905505349669696 ], [ -70.668231865244437, -32.90571182428792 ], [ -70.668930223631151, -32.906101396675055 ], [ -70.670363963570693, -32.906910621486247 ], [ -70.671386777268339, -32.907142461268784 ], [ -70.672516306330195, -32.907249998581328 ], [ -70.67367698177955, -32.907081006684429 ], [ -70.67552177731838, -32.90653475021761 ], [ -70.677221510210188, -32.906021073746942 ], [ -70.677216881191526, -32.905775623103892 ], [ -70.675840840941007, -32.904167989341303 ], [ -70.675540137086159, -32.903650405897068 ], [ -70.675439717115495, -32.903145579264404 ], [ -70.675468543154651, -32.902746298375988 ], [ -70.675456411406742, -32.902102201231386 ], [ -70.675802710152141, -32.901177123796053 ], [ -70.67653616392036, -32.89957185785353 ], [ -70.676477870444955, -32.896473762011524 ], [ -70.675928942314172, -32.89629707932886 ], [ -70.675344344778424, -32.896151460407388 ], [ -70.674699142402005, -32.895684593931968 ], [ -70.672927411336815, -32.892363993802881 ], [ -70.672807456601973, -32.891782660758849 ], [ -70.672676949357509, -32.890649192126197 ], [ -70.672587565190099, -32.889760611794486 ], [ -70.672610061699757, -32.8890239159429 ], [ -70.672604837098078, -32.887781417937191 ], [ -70.672743421095262, -32.887411402977861 ], [ -70.672847801738001, -32.887164493139252 ], [ -70.673059046865291, -32.886793580183408 ], [ -70.673622325582741, -32.885804206846906 ], [ -70.673830014279787, -32.885249149190031 ], [ -70.674025096020131, -32.884019262776263 ], [ -70.674237393972916, -32.883709582692681 ], [ -70.674558855199038, -32.883398514213475 ], [ -70.674958609992046, -32.883069552081309 ], [ -70.674441528934707, -32.882179312263709 ], [ -70.67418782763049, -32.881767781245401 ], [ -70.674054195147136, -32.881199043605811 ], [ -70.673853350714225, -32.880319935193228 ], [ -70.673563679069403, -32.877989764633412 ], [ -70.673490532849073, -32.877368349921539 ], [ -70.673294402774786, -32.876748581570865 ], [ -70.672845746392653, -32.875769128012038 ], [ -70.672315200487532, -32.873701431288247 ], [ -70.672117227968585, -32.872977951591281 ], [ -70.671981675785474, -32.87230543031518 ], [ -70.671910495079004, -32.871787720320199 ], [ -70.671773976308629, -32.871063419211737 ], [ -70.671386811404332, -32.870083062331176 ], [ -70.671133160405759, -32.869671521933157 ], [ -70.670810373266306, -32.868845976463447 ], [ -70.670738229565814, -32.868276411967472 ], [ -70.670854308070204, -32.867911797896134 ], [ -70.671030942007903, -32.867494433843895 ], [ -70.671075436462232, -32.867047508605367 ], [ -70.671082569983909, -32.866975082584794 ], [ -70.671073813206505, -32.866508328741467 ], [ -70.670944121632303, -32.866147071856311 ], [ -70.670875870331969, -32.865784920130537 ], [ -70.670868088226669, -32.865370020953193 ], [ -70.670920864249609, -32.864902519210602 ], [ -70.670972576667253, -32.864383092408289 ], [ -70.670847391940839, -32.863762517969263 ], [ -70.6701095948182, -32.862418973209849 ], [ -70.669343118081812, -32.8613376495735 ], [ -70.668080860241801, -32.860346790819818 ], [ -70.667023146097037, -32.859647250846706 ], [ -70.664312464455847, -32.858339773152068 ], [ -70.662800684274316, -32.857627690925533 ], [ -70.662405564788173, -32.857441510303254 ], [ -70.661594993347734, -32.856654556568181 ], [ -70.660821631024689, -32.855195427019822 ], [ -70.660178735521939, -32.852726859106099 ], [ -70.660168483049603, -32.852181141436077 ], [ -70.660156060247544, -32.851509554436412 ], [ -70.660289541813924, -32.850668167070047 ], [ -70.661053979374628, -32.84897856573923 ], [ -70.661440750816823, -32.848385683779732 ], [ -70.661581346141958, -32.84792204255335 ], [ -70.661523729996233, -32.84750292563259 ], [ -70.661368360977974, -32.847169112736864 ], [ -70.66121603275694, -32.847003197109174 ], [ -70.660865586489862, -32.846881879152313 ], [ -70.660712479429463, -32.846674007118054 ], [ -70.660658866176675, -32.846464814628476 ], [ -70.660654174275948, -32.846212932743867 ], [ -70.660647919306626, -32.845877139935702 ], [ -70.660864548037395, -32.844152916751653 ], [ -70.660804680713596, -32.843607931265581 ], [ -70.660743163184634, -32.842978960804231 ], [ -70.660734649850667, -32.842517225711262 ], [ -70.660677825120757, -32.842140137150615 ], [ -70.66072048880855, -32.841761655249364 ], [ -70.66091312353808, -32.841423221362966 ], [ -70.661057622043103, -32.841169506992159 ], [ -70.661150852796553, -32.840832319199372 ], [ -70.6611461599975, -32.840580437934385 ], [ -70.661036122663404, -32.840344287230934 ], [ -70.661050035770515, -32.840344177037309 ], [ -70.660986231130849, -32.83969100256207 ], [ -70.659995935548153, -32.829553810265573 ], [ -70.658553334626646, -32.829530972496137 ], [ -70.658829865715489, -32.825558917617315 ], [ -70.65884800809097, -32.825339240684464 ], [ -70.65885827763131, -32.825215251042508 ], [ -70.658768712902543, -32.825242512760077 ], [ -70.658329612798383, -32.82532273299897 ], [ -70.656794825864111, -32.825715063720295 ], [ -70.655962045374906, -32.825949288399038 ], [ -70.655260025455107, -32.826107376856314 ], [ -70.653291612750024, -32.826877404116708 ], [ -70.651932972866547, -32.82726734940001 ], [ -70.651011375945231, -32.827465512572282 ], [ -70.647827115062654, -32.828571079619707 ], [ -70.645880159516452, -32.829271339367153 ], [ -70.643846517443649, -32.83003073144792 ], [ -70.641306889405598, -32.830973864140347 ], [ -70.639555954339244, -32.83179601281995 ], [ -70.637706378864763, -32.832774153976629 ], [ -70.636874281993514, -32.833059467680542 ], [ -70.63442888812709, -32.833672899757808 ], [ -70.633003285127387, -32.834024876460802 ], [ -70.631847951060692, -32.834283383112528 ], [ -70.632114015878173, -32.834977751159798 ], [ -70.632527367571328, -32.836097299951959 ], [ -70.632687359320059, -32.836594768165973 ], [ -70.632674992213538, -32.836709706426468 ], [ -70.632376829692646, -32.836932270192776 ], [ -70.632361057072885, -32.836944044759917 ], [ -70.631937157361676, -32.836942384244146 ], [ -70.631883166816451, -32.836943088453815 ], [ -70.631387062319334, -32.836987643100407 ], [ -70.631025794946368, -32.837036017661823 ], [ -70.630663725377843, -32.837180269419555 ], [ -70.630478338256012, -32.837162822726974 ], [ -70.630298991406178, -32.837151411237095 ], [ -70.63023353566301, -32.837161095794812 ], [ -70.63014606939872, -32.8371485921407 ], [ -70.630106528254871, -32.837142938852125 ], [ -70.63002616496955, -32.837141167387671 ], [ -70.629973440150579, -32.837140005783958 ], [ -70.629906380016308, -32.837138527173401 ], [ -70.629784053729111, -32.837168492619362 ], [ -70.629667737171175, -32.837196986238659 ], [ -70.629084223901984, -32.837246972890426 ], [ -70.628723278125875, -32.837279167911227 ], [ -70.628550644386138, -32.837278665229725 ], [ -70.628188895516175, -32.837266874856596 ], [ -70.628025980649511, -32.837263495719228 ], [ -70.627791476342892, -32.8372753223221 ], [ -70.627683892307857, -32.837271789210511 ], [ -70.627619282777673, -32.837269666777239 ], [ -70.627573370781803, -32.837270264560736 ], [ -70.627432823965705, -32.837272092630904 ], [ -70.627139351548919, -32.837362560923737 ], [ -70.62699531926954, -32.837425698696812 ], [ -70.626902561928233, -32.837455203632778 ], [ -70.626582569447621, -32.837497192541541 ], [ -70.626058194968508, -32.837585797821724 ], [ -70.625791688179902, -32.837633222551503 ], [ -70.62539470379123, -32.837782232936064 ], [ -70.625219448767496, -32.837871250037267 ], [ -70.624992614276792, -32.838051433558249 ], [ -70.624735767970762, -32.838252864211697 ], [ -70.624588331974749, -32.838302877440555 ], [ -70.624255552874374, -32.838286019687999 ], [ -70.623948623694631, -32.838263082270693 ], [ -70.62375516431166, -32.838294482151873 ], [ -70.623596440984116, -32.83834944361611 ], [ -70.62337787099402, -32.838568834763677 ], [ -70.623107151106751, -32.838740803520601 ], [ -70.622844863705026, -32.838808843260807 ], [ -70.622522916490354, -32.838921639656263 ], [ -70.6222301878786, -32.83907231816611 ], [ -70.621991488439633, -32.839123585346726 ], [ -70.621837544149386, -32.839125580935765 ], [ -70.621746313045762, -32.839126763646803 ], [ -70.621587411851792, -32.839172119508405 ], [ -70.621355215317138, -32.839381627316286 ], [ -70.621343586625812, -32.839385313560001 ], [ -70.621289821557724, -32.839440630595007 ], [ -70.621174057463691, -32.839663488662822 ], [ -70.621079347184974, -32.839825975571934 ], [ -70.621035040478532, -32.839881582158199 ], [ -70.62096082077143, -32.839958573164886 ], [ -70.620941322838192, -32.839973290871868 ], [ -70.620853063361537, -32.840039908466487 ], [ -70.620788000182145, -32.840082391270833 ], [ -70.620662960982784, -32.840108097406869 ], [ -70.620593385565726, -32.84007370406092 ], [ -70.620148139188416, -32.839948084344229 ], [ -70.619786241198099, -32.839868933219556 ], [ -70.619751392853289, -32.839818146493869 ], [ -70.619647078685858, -32.839774732949095 ], [ -70.619584341244732, -32.839775545066381 ], [ -70.619447924882323, -32.839806125502797 ], [ -70.619170925771201, -32.840046313305116 ], [ -70.61903340897257, -32.840159923260941 ], [ -70.618860836318277, -32.840302495149409 ], [ -70.61873984852086, -32.840402449077764 ], [ -70.618656805561045, -32.840543165402941 ], [ -70.618487708488601, -32.84083217277847 ], [ -70.618380428084109, -32.840896141323796 ], [ -70.618075038616766, -32.841039585269876 ], [ -70.617831779329393, -32.841158285458079 ], [ -70.617485701569549, -32.841263760123994 ], [ -70.617246993147418, -32.841315019246323 ], [ -70.617002421421418, -32.841356673488065 ], [ -70.61664226346781, -32.841318031424557 ], [ -70.616227855355902, -32.841260595485849 ], [ -70.616070263007302, -32.841238753969776 ], [ -70.615927460521519, -32.841230992943238 ], [ -70.615742978003198, -32.841306332911778 ], [ -70.61545791291914, -32.841458858000053 ], [ -70.615198867537302, -32.841609779758009 ], [ -70.614776712354356, -32.8418557266153 ], [ -70.614361598166624, -32.842112583254718 ], [ -70.614081992144548, -32.842301833847806 ], [ -70.6138674690648, -32.842447853690572 ], [ -70.613537107330856, -32.842673726906924 ], [ -70.613249022110821, -32.842863201212971 ], [ -70.612357577142006, -32.843390001644309 ], [ -70.611888281067905, -32.843712102634022 ], [ -70.61132428549486, -32.844089110553817 ], [ -70.610881676571225, -32.844381833174886 ], [ -70.610394721415275, -32.844692599289729 ], [ -70.610224553551006, -32.844778944568638 ], [ -70.609751844777136, -32.844906198192959 ], [ -70.609231121949634, -32.845030816938277 ], [ -70.608370218802165, -32.845235243799443 ], [ -70.608147638732646, -32.845288641737525 ], [ -70.607771322782042, -32.845451665512464 ], [ -70.607565880771489, -32.845572152228414 ], [ -70.607356953297653, -32.845683816272945 ], [ -70.607147960246806, -32.845748194900118 ], [ -70.606807870656652, -32.845732705332566 ], [ -70.606417464630795, -32.845694037250084 ], [ -70.606124072164064, -32.845646748145676 ], [ -70.60607125481863, -32.845985050458424 ], [ -70.606071442566517, -32.845985048194329 ], [ -70.606070521793342, -32.845985867047091 ], [ -70.606070150789151, -32.845992777862349 ], [ -70.606070053771091, -32.845992770315327 ], [ -70.606069489629093, -32.845996187610247 ], [ -70.606068366734988, -32.846003493888986 ], [ -70.606068259835482, -32.846005259893708 ], [ -70.606067808881193, -32.846007323251278 ], [ -70.606067639099606, -32.846008572284461 ], [ -70.606067584302366, -32.846008558699808 ], [ -70.606021743273416, -32.846302163272476 ], [ -70.605849677268964, -32.8466658405397 ], [ -70.605712371574413, -32.847052738252302 ], [ -70.605615975157903, -32.847517750009295 ], [ -70.605533623002557, -32.84763510120635 ], [ -70.605185789934652, -32.847667247932819 ], [ -70.604947175835619, -32.8476934590228 ], [ -70.605012035995756, -32.848053791860259 ], [ -70.605003728376019, -32.848059933490106 ], [ -70.605010229483725, -32.848064122748518 ], [ -70.605085306183597, -32.848262830422236 ], [ -70.605163093998982, -32.848446842482581 ], [ -70.605302351732647, -32.848776263621481 ], [ -70.605359401939708, -32.848911257530922 ], [ -70.605398668199101, -32.849050248004261 ], [ -70.605430723681707, -32.849267766767582 ], [ -70.605443398012042, -32.849353773274444 ], [ -70.605444040307475, -32.84935813453756 ], [ -70.605471301481401, -32.849483273793453 ], [ -70.605518659764869, -32.849700664710511 ], [ -70.605575625530292, -32.849962151936744 ], [ -70.605621047944297, -32.850170736221493 ], [ -70.605710154532289, -32.850350463106018 ], [ -70.605829672685914, -32.850508001736571 ], [ -70.605900909087921, -32.850594640958995 ], [ -70.606102165847545, -32.850839482997024 ], [ -70.606270185839975, -32.851043888931137 ], [ -70.606402902041737, -32.851191685950702 ], [ -70.606575357915034, -32.851241116839347 ], [ -70.606713148699839, -32.851241858668459 ], [ -70.606748563881609, -32.851337011220757 ], [ -70.606687279914595, -32.851579994757991 ], [ -70.606599103082942, -32.851879141180184 ], [ -70.606466340168794, -32.852137407929412 ], [ -70.60632682911023, -32.852264654775439 ], [ -70.60617009195775, -32.8524075664319 ], [ -70.606035668058652, -32.852637447885343 ], [ -70.605693527614704, -32.852694520268578 ], [ -70.605330053081076, -32.85273952507842 ], [ -70.605288887783175, -32.852874165822016 ], [ -70.605223090680184, -32.853116915738482 ], [ -70.605144126970089, -32.853466427663726 ], [ -70.605069557818339, -32.853852910861427 ], [ -70.605025930238256, -32.854079483272422 ], [ -70.604955476268842, -32.854360651222443 ], [ -70.604788441728275, -32.855027146308771 ], [ -70.604612702512625, -32.855505513082761 ], [ -70.604523118919232, -32.855749398294329 ], [ -70.604286562860509, -32.856270264904836 ], [ -70.604068975627342, -32.856731077993352 ], [ -70.603987073527946, -32.856995533508218 ], [ -70.603928358742664, -32.857231815727708 ], [ -70.603562364434651, -32.857307738251862 ], [ -70.600558062154647, -32.857556691715807 ], [ -70.59811174931167, -32.857760268712717 ], [ -70.597334915000047, -32.857701256484546 ], [ -70.596640266655456, -32.857675621094963 ], [ -70.596149805374964, -32.857647524180273 ], [ -70.595863965943124, -32.857651171180521 ], [ -70.59557697936269, -32.857585823976414 ], [ -70.595289465471154, -32.857486126347254 ], [ -70.594750115177945, -32.85701046194432 ], [ -70.593176577617271, -32.855789839124398 ], [ -70.592471478272657, -32.855178480411496 ], [ -70.591975489658196, -32.854840195036267 ], [ -70.591687196927325, -32.854705994960881 ], [ -70.591440391091226, -32.854605696428585 ], [ -70.591154121366372, -32.854574906776556 ], [ -70.590867061124072, -32.854509622959327 ], [ -70.590576487570701, -32.854237579747519 ], [ -70.590450275171591, -32.854032381258136 ], [ -70.590284511747157, -32.85389669332843 ], [ -70.589996312441073, -32.853762487298106 ], [ -70.58962646166556, -32.853629318692001 ], [ -70.589419917422177, -32.853494147828407 ], [ -70.589213899591542, -32.853393326469842 ], [ -70.589006741798826, -32.853223657573587 ], [ -70.588883077920173, -32.853156220522976 ], [ -70.588760557596871, -32.853157850549763 ], [ -70.588723380818848, -32.853177336913902 ], [ -70.588987127982918, -32.854156826450733 ] ], [ [ -70.619551947097264, -32.839816698872873 ], [ -70.619610040248389, -32.839830396928932 ], [ -70.619559171348797, -32.839819271079477 ], [ -70.619348078036808, -32.839939102766905 ], [ -70.619349563850292, -32.839934439139142 ], [ -70.619551947097264, -32.839816698872873 ] ] ] } },
{ "type": "Feature", "properties": { "capa": "ds19", "popup": "<strong>EL GUINDAL DE CALLE LARGA</strong><br><br><strong>Programa:</strong> DS19<br><strong>Comuna:</strong> Calle Larga<br><strong>Región:</strong> Valparaíso<br><strong>Año de inicio:</strong> 2023", "etiqueta": "EL GUINDAL DE CALLE LARGA" }, "geometry": { "type": "Polygon", "coordinates": [ [ [ -70.654408690263722, -32.869797374208851 ], [ -70.654034714424398, -32.869529369203072 ], [ -70.653431990682847, -32.869812264274231 ], [ -70.653177903103057, -32.869598851333556 ], [ -70.652894267238608, -32.869708036781901 ], [ -70.652303352749783, -32.87032344960555 ], [ -70.652811532400946, -32.870591460510568 ], [ -70.653177895018217, -32.870933911716271 ], [ -70.654330183796077, -32.871906674376717 ], [ -70.655773719863802, -32.871211830227587 ], [ -70.655253698620569, -32.870601381347768 ], [ -70.654822327621119, -32.870169600195325 ], [ -70.654408690263722, -32.869797374208851 ] ] ] } },
{ "type": "Feature", "properties": { "capa": "colegios", "popup": "<strong>ESCUELA BASICA CRISTO REDENTOR</strong><br><br><strong>Dirección:</strong> EL ESTERO 0", "etiqueta": "" }, "geometry": { "type": "Point", "coordinates": [ -70.59169, -32.887718 ] } },
{ "type": "Feature", "properties": { "capa": "colegios", "popup": "<strong>INSTITUTO AGRICOLA PASCUAL BABURIZZA</strong><br><br><strong>Dirección:</strong> HACIENDA SAN VICENTE 0", "etiqueta": "" }, "geometry": { "type": "Point", "coordinates": [ -70.588898, -32.878819 ] } },
{ "type": "Feature", "properties": { "capa": "colegios", "popup": "<strong>ESCUELA BASICA MARIA ISABEL DE BROWN</strong><br><br><strong>Dirección:</strong> LOS AROMOS 104", "etiqueta": "" }, "geometry": { "type": "Point", "coordinates": [ -70.651497, -32.8722 ] } },
{ "type": "Feature", "properties": { "capa": "colegios", "popup": "<strong>ESCUELA BASICA PEDRO AGUIRRE CERDA</strong><br><br><strong>Dirección:</strong> PEDRO AGUIRRE CERDA 0", "etiqueta": "" }, "geometry": { "type": "Point", "coordinates": [ -70.619431, -32.86895 ] } },
{ "type": "Feature", "properties": { "capa": "colegios", "popup": "<strong>ESCUELA ESP.DE LENGUAJE VOCES DEL VALLE</strong><br><br><strong>Dirección:</strong> O'HIGGINS 165", "etiqueta": "" }, "geometry": { "type": "Point", "coordinates": [ -70.60635, -32.860935 ] } },
{ "type": "Feature", "properties": { "capa": "colegios", "popup": "<strong>SUN VALLEY COLLEGE</strong><br><br><strong>Dirección:</strong> AVENIDA PASCUAL BABURIZA 0", "etiqueta": "" }, "geometry": { "type": "Point", "coordinates": [ -70.58512, -32.860901 ] } },
{ "type": "Feature", "properties": { "capa": "colegios", "popup": "<strong>ESCUELA BASICA LA PAMPILLA</strong><br><br><strong>Dirección:</strong> LA PAMPILLA 150", "etiqueta": "" }, "geometry": { "type": "Point", "coordinates": [ -70.624107, -32.858551 ] } },
{ "type": "Feature", "properties": { "capa": "colegios", "popup": "<strong>COLEGIO PARTICULAR SAN JOSE</strong><br><br><strong>Dirección:</strong> CALLE LARGA 2103", "etiqueta": "" }, "geometry": { "type": "Point", "coordinates": [ -70.628227, -32.856899 ] } },
{ "type": "Feature", "properties": { "capa": "colegios", "popup": "<strong>COLEGIO EDUCENTER</strong><br><br><strong>Dirección:</strong> BEJARES 801", "etiqueta": "" }, "geometry": { "type": "Point", "coordinates": [ -70.606506, -32.85247 ] } },
{ "type": "Feature", "properties": { "capa": "colegios", "popup": "<strong>LICEO TEC.PROFESIONAL PEDRO AGUIRRE CERDA</strong><br><br><strong>Dirección:</strong> AVENIDA CALLE LARGA 1950", "etiqueta": "" }, "geometry": { "type": "Point", "coordinates": [ -70.6203, -32.850552 ] } },
{ "type": "Feature", "properties": { "capa": "colegios", "popup": "<strong>ESCUELA VICTOR KOERNER</strong><br><br><strong>Dirección:</strong> CALLE LARGA 1191", "etiqueta": "" }, "geometry": { "type": "Point", "coordinates": [ -70.613243, -32.843189 ] } },
{ "type": "Feature", "properties": { "capa": "jardines", "popup": "<strong>RINCONCITO</strong><br><br><strong>Dirección:</strong> CALLE LARGA 2088 ", "etiqueta": "" }, "geometry": { "type": "MultiPoint", "coordinates": [ [ -70.627518, -32.856061 ] ] } },
{ "type": "Feature", "properties": { "capa": "jardines", "popup": "<strong>ESTRELLITA DEL VALLE</strong><br><br><strong>Dirección:</strong> VILLA SOL DEL VALLE PSJE AMAPOLAS VALLE ALEGRE ", "etiqueta": "" }, "geometry": { "type": "MultiPoint", "coordinates": [ [ -70.660223, -32.859583 ] ] } },
{ "type": "Feature", "properties": { "capa": "jardines", "popup": "<strong>LOS ANGELITOS</strong><br><br><strong>Dirección:</strong> EL ESTERO S/N, SAN VICENTE ", "etiqueta": "" }, "geometry": { "type": "MultiPoint", "coordinates": [ [ -70.592199, -32.888127 ] ] } },
{ "type": "Feature", "properties": { "capa": "jardines", "popup": "<strong>NA</strong><br><br><strong>Dirección:</strong> NA ", "etiqueta": "" }, "geometry": { "type": "MultiPoint", "coordinates": [ [ -70.63066363764581, -32.843332927105472 ] ] } },
{ "type": "Feature", "properties": { "capa": "comisarias", "popup": "<strong>TCIA. CALLE LARGA</strong><br><br><strong>Dirección:</strong> CALLE LARGA 2090", "etiqueta": "" }, "geometry": { "type": "Point", "coordinates": [ -70.626744, -32.855668 ] } },
{ "type": "Feature", "properties": { "capa": "salud", "popup": "<strong>Posta de Salud Rural San Vicente (Calle Larga)</strong><br><br><strong>Tipo de atención:</strong> Posta de Salud Rural (PSR)<br><strong>Dirección:</strong>  NA", "etiqueta": "" }, "geometry": { "type": "Point", "coordinates": [ -70.59135, -32.88772 ] } },
{ "type": "Feature", "properties": { "capa": "salud", "popup": "<strong>SUR Calle Larga</strong><br><br><strong>Tipo de atención:</strong> Servicio de Urgencia Rural (SUR)<br><strong>Dirección:</strong>  151", "etiqueta": "" }, "geometry": { "type": "Point", "coordinates": [ -70.628351, -32.861202 ] } },
{ "type": "Feature", "properties": { "capa": "salud", "popup": "<strong>Centro de Salud Familiar José Joaquín Aguirre</strong><br><br><strong>Tipo de atención:</strong> Centro de Salud Familiar (CESFAM)<br><strong>Dirección:</strong>  164", "etiqueta": "" }, "geometry": { "type": "Point", "coordinates": [ -70.628343, -32.861207 ] } }
]
}
