{
"type": "FeatureCollection",
"name": "5303",
"crs": { "type": "name", "properties": { "name": "urn:ogc:def:crs:OGC:1.3:CRS84" } },
"features": [
{ "type": "Feature", "properties": { "capa": "comuna", "popup": "", "etiqueta": "" }, "geometry": { "type": "Polygon", "coordinates": [ [ [ -70.710347889730258, -32.800296352701885 ], [ -70.710742056103882, -32.80057830032969 ], [ -70.710811407840453, -32.800677686587385 ], [ -70.711266747688285, -32.801330431400757 ], [ -70.711711121801486, -32.801693700107407 ], [ -70.711907032686838, -32.801773179733971 ], [ -70.712153054293708, -32.801933984938096 ], [ -70.712450154107628, -32.80221725403905 ], [ -70.712696266444325, -32.802378056929776 ], [ -70.712896024814057, -32.802662656561331 ], [ -70.712902408242471, -32.802990834066563 ], [ -70.712765268736248, -32.803444212990783 ], [ -70.712675183882922, -32.803814862846281 ], [ -70.712630491799217, -32.804020721799823 ], [ -70.712733171931148, -32.804306650358519 ], [ -70.713124214862532, -32.804424464127969 ], [ -70.714051402898193, -32.804616947388439 ], [ -70.714587372830991, -32.804691691723185 ], [ -70.714880547905437, -32.804769760494843 ], [ -70.715272384947525, -32.804928560900862 ], [ -70.715614892802435, -32.805047032250521 ], [ -70.716005942022008, -32.805164835978118 ], [ -70.71654437064376, -32.80536262789002 ], [ -70.716691749147586, -32.805442692418318 ], [ -70.716745024633838, -32.805688214681915 ], [ -70.716604044829765, -32.805936401570527 ], [ -70.716219213748573, -32.806146926298382 ], [ -70.715637758519676, -32.806236980821303 ], [ -70.71525143264185, -32.806365364854706 ], [ -70.714963069842398, -32.806533558107631 ], [ -70.714628437517575, -32.806825401084673 ], [ -70.714583747230506, -32.807031262126465 ], [ -70.714477624754437, -32.807833094157168 ], [ -70.714487870040244, -32.808366540478929 ], [ -70.71449417531521, -32.808694866049997 ], [ -70.714499690971053, -32.808982049512423 ], [ -70.71455541616308, -32.809350703423021 ], [ -70.714708316610952, -32.809717952238472 ], [ -70.714810133461896, -32.809962810364311 ], [ -70.714960672238888, -32.810207075134983 ], [ -70.715256144305499, -32.81040820125525 ], [ -70.715597884100845, -32.810485602111775 ], [ -70.715842360605407, -32.8105644094735 ], [ -70.716136346858562, -32.810683543753811 ], [ -70.716383276662185, -32.810885258451883 ], [ -70.716386346205496, -32.81104945901658 ], [ -70.716245356519977, -32.811297646034426 ], [ -70.715858924640941, -32.811426106562408 ], [ -70.715618301908947, -32.81155249444145 ], [ -70.715427188027178, -32.811719356638193 ], [ -70.715285318890992, -32.811926475486665 ], [ -70.714806521336129, -32.812302452659814 ], [ -70.714371535515994, -32.812431500626062 ], [ -70.713789249345467, -32.812480552952564 ], [ -70.713403596305781, -32.812650001499968 ], [ -70.713116784896812, -32.812900254969612 ], [ -70.713020478311833, -32.812942577866252 ], [ -70.712447548094971, -32.81348400309443 ], [ -70.712064246844719, -32.813776505746958 ], [ -70.711680247603468, -32.814028085554497 ], [ -70.711637208419901, -32.814315932767386 ], [ -70.711789233908689, -32.814642265133436 ], [ -70.712036167305556, -32.814844136183424 ], [ -70.712187493006766, -32.815129324784884 ], [ -70.712188980616872, -32.815211388720613 ], [ -70.712339522088811, -32.815455656428533 ], [ -70.712344245430572, -32.815701845594269 ], [ -70.71249399908001, -32.815904970488305 ], [ -70.71259748050916, -32.816231892678573 ], [ -70.712602206545881, -32.816478155188918 ], [ -70.712508084663668, -32.816643611474184 ], [ -70.712120923352614, -32.81673099340113 ], [ -70.711682764682905, -32.81669590701415 ], [ -70.711388853888238, -32.81657683590597 ], [ -70.711090309583355, -32.816211500561472 ], [ -70.71069449659781, -32.815847493952873 ], [ -70.710496897778029, -32.815686025396843 ], [ -70.710105807235919, -32.815568205416533 ], [ -70.709717862593948, -32.815614584958894 ], [ -70.709281194229291, -32.815661554856376 ], [ -70.708941097452623, -32.815666198620022 ], [ -70.708358001001699, -32.815674231401957 ], [ -70.707824236432913, -32.815722520938493 ], [ -70.707143868606394, -32.815731802419478 ], [ -70.706661876642372, -32.815943624366021 ], [ -70.706324043620228, -32.816071320200493 ], [ -70.70579036349308, -32.816119673692491 ], [ -70.705352906407597, -32.816125634831884 ], [ -70.70491483936604, -32.816090523292317 ], [ -70.704283102735744, -32.816099126783413 ], [ -70.703700783327548, -32.816148059312056 ], [ -70.702781323498272, -32.816365894236384 ], [ -70.702155148337894, -32.816661670689591 ], [ -70.701671488202393, -32.816791410654851 ], [ -70.701282749449717, -32.816796695312966 ], [ -70.700793698524208, -32.816639172353739 ], [ -70.700254450638937, -32.816400245427992 ], [ -70.699959770886394, -32.816240004679756 ], [ -70.699222948435846, -32.815839585754894 ], [ -70.698635248119089, -32.815601309720485 ], [ -70.69802657303876, -32.815548023026423 ], [ -70.697202030999037, -32.815641290196744 ], [ -70.695896246190244, -32.81598725491034 ], [ -70.695264508661637, -32.815995887099866 ], [ -70.694778501228313, -32.816002468822958 ], [ -70.694100548971591, -32.816134736591096 ], [ -70.691364557297277, -32.817009357999211 ], [ -70.688737573487742, -32.817849053972985 ], [ -70.686979342304639, -32.818282523360217 ], [ -70.684334735345857, -32.818934479827185 ], [ -70.681724410793251, -32.819708419394793 ], [ -70.679401831897522, -32.820273120661675 ], [ -70.671782714221408, -32.822242690027039 ], [ -70.662156622758332, -32.824792528031246 ], [ -70.659203483126987, -32.82544739131248 ], [ -70.658829541423671, -32.825559037642719 ], [ -70.658553010334828, -32.829531092516177 ], [ -70.659995612154646, -32.829553930285584 ], [ -70.660985907737341, -32.839691122568368 ], [ -70.661049712377007, -32.840344296287959 ], [ -70.661035799269897, -32.840344407236344 ], [ -70.661145836603993, -32.84058055718473 ], [ -70.661150528504734, -32.840832439204092 ], [ -70.661057298649595, -32.841169626996468 ], [ -70.660912800144573, -32.841423341366919 ], [ -70.660720165415043, -32.841761775252863 ], [ -70.66067750172725, -32.842140257153602 ], [ -70.66073432645716, -32.842517345713695 ], [ -70.660742839791126, -32.842979080806103 ], [ -70.660804356421778, -32.843608050511826 ], [ -70.660864223745577, -32.844153035997188 ], [ -70.660647595014808, -32.845877259933602 ], [ -70.66065385088244, -32.846213052741312 ], [ -70.660658542783182, -32.846464933870905 ], [ -70.66071215603597, -32.846674127114937 ], [ -70.660865263096369, -32.846881998394203 ], [ -70.661215709363432, -32.847003317105603 ], [ -70.661368036686156, -32.847169231978356 ], [ -70.661523405704429, -32.847503045628329 ], [ -70.66158102274845, -32.847922161793797 ], [ -70.661440427423315, -32.848385803019596 ], [ -70.661053655981121, -32.848978685732952 ], [ -70.660289218420431, -32.850668286306856 ], [ -70.660155736854037, -32.851509673672098 ], [ -70.660168159656095, -32.852181261425478 ], [ -70.660178412128431, -32.852726979094761 ], [ -70.660821306732885, -32.855195546250492 ], [ -70.661594669954226, -32.856654676551507 ], [ -70.662405241394666, -32.857441630285535 ], [ -70.662800360880809, -32.857627810152948 ], [ -70.664312141062339, -32.858339893133149 ], [ -70.667022821805233, -32.859647370071428 ], [ -70.668080536848308, -32.860346910798178 ], [ -70.669342793789994, -32.861337768795927 ], [ -70.670109270526382, -32.862419092430827 ], [ -70.670847068547332, -32.863762637943019 ], [ -70.670972253273746, -32.864383212381199 ], [ -70.670920539957791, -32.864902639182802 ], [ -70.670867764833162, -32.86537014092476 ], [ -70.670875546938461, -32.865785040101521 ], [ -70.670943798238795, -32.866147191826833 ], [ -70.671073489813011, -32.866508448711457 ], [ -70.671082245692077, -32.866975201799669 ], [ -70.671075113068724, -32.867047628574667 ], [ -70.671030618614395, -32.867494553812591 ], [ -70.670853984676697, -32.867911917109737 ], [ -70.67073790617232, -32.868276531935116 ], [ -70.670810049872799, -32.868846096430332 ], [ -70.671132836113941, -32.869671641898897 ], [ -70.671386488010825, -32.870083182296383 ], [ -70.671773652016824, -32.871063538421083 ], [ -70.671910170787172, -32.871787840283062 ], [ -70.671981352391967, -32.872305549522899 ], [ -70.672116903676766, -32.872978071552517 ], [ -70.672314876195713, -32.873701550494062 ], [ -70.672845422999146, -32.875769247215082 ], [ -70.673294079381279, -32.876748701527013 ], [ -70.673490209455579, -32.877368469876842 ], [ -70.673563354777585, -32.877989883833479 ], [ -70.673853027320718, -32.880320055144566 ], [ -70.674053871753642, -32.881199163555976 ], [ -70.674187503338672, -32.881767901194777 ], [ -70.674441204642903, -32.882179432212531 ], [ -70.674958285700228, -32.883069672028903 ], [ -70.67455853180553, -32.883398634160663 ], [ -70.674237069681112, -32.883709702639436 ], [ -70.674024772626623, -32.884019382722585 ], [ -70.673829689987969, -32.885249269134704 ], [ -70.673622001290909, -32.88580432679084 ], [ -70.673058722573472, -32.886793700125992 ], [ -70.672847478344522, -32.887164612326998 ], [ -70.672743096803444, -32.887411522919585 ], [ -70.67260451370457, -32.887781537878404 ], [ -70.672609737407939, -32.889024035882429 ], [ -70.672587241796592, -32.889760730978722 ], [ -70.672676625964002, -32.890649311309218 ], [ -70.672807132310155, -32.891782779940364 ], [ -70.672927087044997, -32.892364113737933 ], [ -70.674698819008512, -32.895684713108217 ], [ -70.675344021384916, -32.896151579582998 ], [ -70.675928618022354, -32.896297199258548 ], [ -70.676477547051448, -32.896473881941006 ], [ -70.676535839628542, -32.899571977778812 ], [ -70.675802386758633, -32.901177243719175 ], [ -70.67545608711491, -32.902102320398981 ], [ -70.675468219761143, -32.902746417542744 ], [ -70.675439392823662, -32.903145698430606 ], [ -70.675539813692652, -32.903650525062602 ], [ -70.675840516649188, -32.904168109260382 ], [ -70.677216557798019, -32.905775743020754 ], [ -70.677221186816681, -32.906021193663499 ], [ -70.675521453026562, -32.90653486937925 ], [ -70.673676657487746, -32.907081125845359 ], [ -70.672515982038377, -32.907250118496201 ], [ -70.671386453874831, -32.907142581183813 ], [ -70.670363640177186, -32.906910741401582 ], [ -70.668929900237657, -32.906101515837285 ], [ -70.668231540952618, -32.905711944204882 ], [ -70.667609314786219, -32.905505469586942 ], [ -70.667279216258677, -32.905356491524905 ], [ -70.666912692842956, -32.905207998916367 ], [ -70.666583169237185, -32.90508967331013 ], [ -70.665817321321484, -32.904977162435429 ], [ -70.665453096694606, -32.904951280517032 ], [ -70.665016109428024, -32.904926440143221 ], [ -70.664580932266716, -32.904993634183022 ], [ -70.664185535201156, -32.905244338479399 ], [ -70.663752073822039, -32.905403416941461 ], [ -70.663390717515853, -32.905530946340001 ], [ -70.662993021661478, -32.90565903215083 ], [ -70.662706149167079, -32.90587762629783 ], [ -70.662311316243503, -32.906158980677489 ], [ -70.662099499787701, -32.906499369002901 ], [ -70.661741486112703, -32.906810892596965 ], [ -70.661037914802392, -32.907111713996095 ], [ -70.660676546818095, -32.907239235654941 ], [ -70.660423139262974, -32.907303925566637 ], [ -70.660242498839111, -32.907367721727098 ], [ -70.660061858415261, -32.907431518595757 ], [ -70.659882274410194, -32.90755662340451 ], [ -70.659920990002306, -32.907678755821209 ], [ -70.660103924723387, -32.907737797377038 ], [ -70.660359048959023, -32.90776499602854 ], [ -70.66050793303927, -32.907947134919553 ], [ -70.660441465793085, -32.908285516304453 ], [ -70.659937021336859, -32.908537657025356 ], [ -70.659251183668587, -32.908822938956448 ], [ -70.658817125808142, -32.908951420467865 ], [ -70.65842063818782, -32.909140799923975 ], [ -70.658063832746848, -32.909513693254866 ], [ -70.657998498276228, -32.909913381794041 ], [ -70.657753087523758, -32.910407592068339 ], [ -70.657619916774479, -32.910546780260809 ], [ -70.657396274896286, -32.910780483834316 ], [ -70.656876525842577, -32.9121680310908 ], [ -70.656708444764703, -32.912906579656884 ], [ -70.656569848191097, -32.913276651007401 ], [ -70.656324991699165, -32.913801511299333 ], [ -70.656005073778715, -32.914204573276329 ], [ -70.65546929428875, -32.914733286887483 ], [ -70.654857396053188, -32.915078888624805 ], [ -70.653935984184798, -32.915413217300397 ], [ -70.65281833983417, -32.915949546211159 ], [ -70.652171132418047, -32.916357000112271 ], [ -70.651635316097156, -32.916885697850169 ], [ -70.651314313011852, -32.917227365356489 ], [ -70.651136493297983, -32.917444492881586 ], [ -70.650960864575111, -32.91778431221389 ], [ -70.650822806092336, -32.918185031953975 ], [ -70.650517655576863, -32.919385675148099 ], [ -70.650272834119207, -32.919910450200199 ], [ -70.649952953927993, -32.920313496423475 ], [ -70.649486377952584, -32.920657228152528 ], [ -70.649236251044869, -32.920905969749775 ], [ -70.649062401884578, -32.921337747222758 ], [ -70.648998246003615, -32.921798813209591 ], [ -70.649006214060179, -32.922228339245308 ], [ -70.649297526028718, -32.92322162261231 ], [ -70.650860929694687, -32.925133835790362 ], [ -70.651489441373116, -32.925677806646547 ], [ -70.651899788201632, -32.926224659038787 ], [ -70.65243361744912, -32.927536932798922 ], [ -70.652666052935629, -32.928300838396204 ], [ -70.652822946394934, -32.928912436913038 ], [ -70.653017418179232, -32.929584934116463 ], [ -70.653101529235911, -32.930197419491527 ], [ -70.65294609913218, -32.930644327027068 ], [ -70.652851798485244, -32.931443289785875 ], [ -70.65287062897022, -32.932455533756716 ], [ -70.652881470737384, -32.933038327845942 ], [ -70.653108879251562, -32.933526198640081 ], [ -70.653514705757573, -32.933827665101852 ], [ -70.653962598571724, -32.934435408159629 ], [ -70.654600336846428, -32.935470118511986 ], [ -70.654939188558117, -32.936079228479144 ], [ -70.655094396777969, -32.936598712195064 ], [ -70.655311411784311, -32.937500977402927 ], [ -70.65550060416966, -32.93789736478498 ], [ -70.65557805781178, -32.938141777918219 ], [ -70.655729184086951, -32.938446536076462 ], [ -70.655917323646818, -32.938781540175768 ], [ -70.65614304961646, -32.93917744233169 ], [ -70.656368117120991, -32.93954261651028 ], [ -70.656444916789582, -32.939756450500596 ], [ -70.656560441931774, -32.94009234150343 ], [ -70.656708716055931, -32.940243830388994 ], [ -70.657075943750812, -32.940423002187693 ], [ -70.657405103538892, -32.940510693404832 ], [ -70.658024604216706, -32.940563795714404 ], [ -70.658429337473024, -32.940803935936593 ], [ -70.658653272201988, -32.94110772521465 ], [ -70.6586595729854, -32.941445138466342 ], [ -70.658557385130251, -32.941814653962737 ], [ -70.658161237971427, -32.942034689949729 ], [ -70.657474656498096, -32.942289314302215 ], [ -70.657184792613791, -32.942354482940928 ], [ -70.656861920134361, -32.942604204642798 ], [ -70.656650573497473, -32.942975166509079 ], [ -70.656510790249385, -32.943283855297146 ], [ -70.656297637100437, -32.943562855527304 ], [ -70.656301639993345, -32.943777506791605 ], [ -70.656414796278113, -32.943990783986415 ], [ -70.656634729012495, -32.944079925876217 ], [ -70.657037185937867, -32.944197381407704 ], [ -70.657348995664563, -32.944331257485153 ], [ -70.657535437408526, -32.944574222756465 ], [ -70.657611097115023, -32.944726598798113 ], [ -70.657650888888824, -32.944910261307868 ], [ -70.657725888333601, -32.945031911719063 ], [ -70.6578384768831, -32.945214534024309 ], [ -70.657949921877247, -32.945335773918607 ], [ -70.658316599803186, -32.945484287398656 ], [ -70.658829275522351, -32.945661596358711 ], [ -70.659269903660785, -32.945870521541572 ], [ -70.659746800380503, -32.946078962258575 ], [ -70.660225508103835, -32.946379436835315 ], [ -70.660339821418688, -32.946653943422447 ], [ -70.660381341551115, -32.946929639476068 ], [ -70.660421225851408, -32.947113151163975 ], [ -70.66049958589366, -32.947418945085062 ], [ -70.660649200304221, -32.947631733301243 ], [ -70.660761798735209, -32.947814277867984 ], [ -70.660987570518927, -32.948210168980587 ], [ -70.661103039965525, -32.948546129636597 ], [ -70.661110984665925, -32.948975504690395 ], [ -70.660827988401948, -32.949408822410817 ], [ -70.660614833456393, -32.949687755821742 ], [ -70.660548429092287, -32.950026135891704 ], [ -70.660519443153021, -32.95042541378313 ], [ -70.660342731061888, -32.950703863054677 ], [ -70.660056284368935, -32.950953182761403 ], [ -70.659805621166996, -32.951171291887938 ], [ -70.65968196357656, -32.951372344119598 ], [ -70.659615643654078, -32.951710721509926 ], [ -70.659586078301444, -32.952079272958954 ], [ -70.659589517052368, -32.952263268448185 ], [ -70.659632845493462, -32.952630925100237 ], [ -70.659747079756571, -32.952905506499029 ], [ -70.659825046336707, -32.953180644095774 ], [ -70.6598301191231, -32.953456676335911 ], [ -70.659614747135436, -32.953612919067808 ], [ -70.659551295533646, -32.953640803131741 ], [ -70.659876859365653, -32.953636476398756 ], [ -70.660729411774255, -32.954332940488968 ], [ -70.661744543977917, -32.954744115383974 ], [ -70.663010245958731, -32.955081167545615 ], [ -70.664024160945203, -32.955421634512206 ], [ -70.665958779029296, -32.955608182844486 ], [ -70.667137828619474, -32.955804788306772 ], [ -70.668149105253946, -32.956003697594525 ], [ -70.668743377645313, -32.956349656694115 ], [ -70.669088513970735, -32.956840500590566 ], [ -70.669268273147296, -32.957475186689784 ], [ -70.669871879034474, -32.958316544962798 ], [ -70.67105896495319, -32.958937682519284 ], [ -70.67240603094254, -32.959132063073163 ], [ -70.674011667104963, -32.95967671271363 ], [ -70.675438590628133, -32.959657577647995 ], [ -70.676696478164274, -32.959569989841327 ], [ -70.677867660309218, -32.959341848089537 ], [ -70.678957491022018, -32.959256422445215 ], [ -70.680213940355415, -32.959097966158446 ], [ -70.682140526602538, -32.958859692900127 ], [ -70.683479556263364, -32.958629312957072 ], [ -70.684481493113822, -32.958332611818143 ], [ -70.685476707871004, -32.957682244797098 ], [ -70.686224136730104, -32.957247406608637 ], [ -70.686886192399555, -32.956742937750725 ], [ -70.687718798615592, -32.95637779315895 ], [ -70.688800588508286, -32.955867641962449 ], [ -70.690052252516153, -32.955461424568 ], [ -70.690807640448682, -32.955451200421876 ], [ -70.69181499953018, -32.955437632546946 ], [ -70.692742296262011, -32.955637331103617 ], [ -70.69324993782233, -32.955842861107861 ], [ -70.694515849110601, -32.956179587975519 ], [ -70.695791145996949, -32.957011700934814 ], [ -70.696132286615992, -32.957290185235131 ], [ -70.696564127434328, -32.957921405378698 ], [ -70.697333151792861, -32.958618746224047 ], [ -70.698344428427333, -32.958817334867746 ], [ -70.699854074211743, -32.958726016708766 ], [ -70.701191689924329, -32.958424687897782 ], [ -70.702031032606655, -32.958413251317964 ], [ -70.702954396514158, -32.958400664520866 ], [ -70.703541935134155, -32.958392651450843 ], [ -70.704217573330709, -32.958595843717092 ], [ -70.70497706027588, -32.95879781445371 ], [ -70.705315602967104, -32.958934675846258 ], [ -70.705991161213589, -32.9591378600825 ], [ -70.70641491629604, -32.959344407782361 ], [ -70.706757459185241, -32.959693620489496 ], [ -70.706852367991658, -32.960258554815184 ], [ -70.706944470461096, -32.960682042899563 ], [ -70.707364150785423, -32.960676305535898 ], [ -70.707781108316127, -32.960529047663705 ], [ -70.708194066547165, -32.96016950461329 ], [ -70.709010257848021, -32.958954949970916 ], [ -70.709754850725787, -32.958378527009373 ], [ -70.710250271604963, -32.957946996684854 ], [ -70.711169534703188, -32.957722068507685 ], [ -70.712007500268214, -32.957639805548865 ], [ -70.712835995793512, -32.957062214730385 ], [ -70.713163617665842, -32.956632973933147 ], [ -70.713569530410112, -32.955919617211983 ], [ -70.714148938378486, -32.955486919350172 ], [ -70.714898937317628, -32.955193581548713 ], [ -70.715819437395993, -32.955039307454463 ], [ -70.716319004898537, -32.954820181229621 ], [ -70.71698360190193, -32.954457078219406 ], [ -70.717485897587991, -32.954379319825378 ], [ -70.718241266655895, -32.954369002839101 ], [ -70.719075169140879, -32.954074413063381 ], [ -70.719653079617657, -32.953570932398847 ], [ -70.719979197710202, -32.953070990176705 ], [ -70.719999169953908, -32.953029858049767 ], [ -70.720221471545699, -32.952572128330601 ], [ -70.720458084198285, -32.95179022881095 ], [ -70.720782907818489, -32.951219524233068 ], [ -70.721104895457358, -32.950507225138828 ], [ -70.721341583568417, -32.949725397057769 ], [ -70.721153157445983, -32.948666238742135 ], [ -70.721056887691944, -32.948030482262453 ], [ -70.721040516794204, -32.947181288643492 ], [ -70.72076946453025, -32.946194119662032 ], [ -70.721147330074743, -32.944030010771286 ], [ -70.720874914168206, -32.942971933883754 ], [ -70.720846122265044, -32.941485973673771 ], [ -70.721236910074879, -32.939994086189202 ], [ -70.721721289760907, -32.938996432989761 ], [ -70.722048719393769, -32.938567246955742 ], [ -70.722373400181851, -32.937996466064874 ], [ -70.722197341165952, -32.937574220318766 ], [ -70.722015796138606, -32.936868932902485 ], [ -70.722006193148218, -32.936373539704455 ], [ -70.722154814920401, -32.93538058644814 ], [ -70.722229209798982, -32.934884034391658 ], [ -70.722464478571879, -32.934031369975656 ], [ -70.723126152457326, -32.933526719624858 ], [ -70.723620002183097, -32.933024454946427 ], [ -70.723691555690422, -32.932386383661083 ], [ -70.723515502064402, -32.931964139028551 ], [ -70.723335333256088, -32.93132961433971 ], [ -70.722632517428934, -32.929711242649823 ], [ -70.722620083847076, -32.929074402868359 ], [ -70.722693102506653, -32.928507164085211 ], [ -70.722847191425629, -32.927797102385085 ], [ -70.723423543325396, -32.927222922277444 ], [ -70.724424983407516, -32.926925989813469 ], [ -70.725175994747957, -32.926703285475959 ], [ -70.726010989584353, -32.926479343234654 ], [ -70.726591524938399, -32.92611742753553 ], [ -70.727418259765713, -32.925468990596379 ], [ -70.727912041219525, -32.924966710329691 ], [ -70.728235061920969, -32.924571629048877 ], [ -70.728321827499315, -32.924465516792182 ], [ -70.728302562229729, -32.923474804349283 ], [ -70.728683613200204, -32.921487574609174 ], [ -70.728756501604039, -32.920920334691942 ], [ -70.729081167120768, -32.920349537206874 ], [ -70.729407117228348, -32.91984950066017 ], [ -70.729649170078289, -32.919350771122545 ], [ -70.729882955732663, -32.918427333815501 ], [ -70.729951790039635, -32.917647739284746 ], [ -70.730360245016172, -32.917075852135611 ], [ -70.731102887651431, -32.916428482358228 ], [ -70.732098666550613, -32.915848452764486 ], [ -70.732761619637031, -32.915414515127267 ], [ -70.734006200428894, -32.914689388167673 ], [ -70.734501266473544, -32.914257844464167 ], [ -70.734904241726852, -32.913402904390679 ], [ -70.734967330409262, -32.912340195741265 ], [ -70.73503473819153, -32.911489838942948 ], [ -70.735102057040606, -32.910639556933113 ], [ -70.735339997403187, -32.90992838955529 ], [ -70.735326101364052, -32.909220793468535 ], [ -70.735150043246463, -32.908798489573847 ], [ -70.734887342619714, -32.908235904542046 ], [ -70.734513116150453, -32.907801943162951 ], [ -70.734299697998523, -32.90639316644728 ], [ -70.734500849655262, -32.905807741210864 ], [ -70.734720016126687, -32.903429317345221 ], [ -70.734999402061533, -32.90140867991451 ], [ -70.735190837540145, -32.900330372155224 ], [ -70.735553067907119, -32.899832327622129 ], [ -70.735967392475715, -32.899288786238102 ], [ -70.73626510224571, -32.898209002229095 ], [ -70.736683815982801, -32.896522589131422 ], [ -70.7371764116604, -32.89454375602822 ], [ -70.737485152742082, -32.891312513362095 ], [ -70.737628739457108, -32.890503799269723 ], [ -70.738357382746983, -32.88973172243854 ], [ -70.740395810145316, -32.886678183283266 ], [ -70.74090852000046, -32.88572985969487 ], [ -70.741952148561566, -32.8847741383832 ], [ -70.742630205921188, -32.884137281586476 ], [ -70.743674760645334, -32.883226306877162 ], [ -70.745037756459638, -32.882310952599497 ], [ -70.745877726166057, -32.88180628498656 ], [ -70.746773455200469, -32.88143515044132 ], [ -70.747723017574913, -32.881108177929413 ], [ -70.748678819647324, -32.881094814412364 ], [ -70.749848039871679, -32.881123303732366 ], [ -70.750697572144304, -32.881111338128569 ], [ -70.751649848329222, -32.880918837360412 ], [ -70.752231326914313, -32.880776223616152 ], [ -70.752759754592006, -32.880634278802518 ], [ -70.753440259860753, -32.880131722295879 ], [ -70.753589867084784, -32.879636683720328 ], [ -70.753572216986086, -32.878740593563684 ], [ -70.753627602614927, -32.877507316930014 ], [ -70.753404662320989, -32.876972655637431 ], [ -70.753019684814404, -32.876305799615423 ], [ -70.752640970361966, -32.875952484737333 ], [ -70.752202960812582, -32.875286369459062 ], [ -70.751766719147668, -32.874709847222277 ], [ -70.751432247621324, -32.873907740115349 ], [ -70.751636749994049, -32.873501626258026 ], [ -70.751793404501498, -32.873364892991781 ], [ -70.752265136806656, -32.873044580620984 ], [ -70.752685412714015, -32.872814679625172 ], [ -70.753522599439691, -32.872175388198471 ], [ -70.753776597187951, -32.871589192092998 ], [ -70.753821698005112, -32.871185236770003 ], [ -70.753803257388952, -32.870244384426812 ], [ -70.753687878672181, -32.868430866008723 ], [ -70.753685232235355, -32.868296437505521 ], [ -70.753612784005995, -32.867311421796529 ], [ -70.753436647734986, -32.866462325884463 ], [ -70.753526051665318, -32.86560950575209 ], [ -70.753732290481523, -32.865292984839776 ], [ -70.754077077362282, -32.864730338569736 ], [ -70.754092428672166, -32.86470522509228 ], [ -70.75407831164749, -32.863988321838761 ], [ -70.754122612964039, -32.863539531028451 ], [ -70.754212890955145, -32.862731545200177 ], [ -70.754460684938067, -32.861831730913458 ], [ -70.754742489137627, -32.861312301217858 ], [ -70.755369013742651, -32.860765795005307 ], [ -70.755993672546836, -32.860129470508198 ], [ -70.756717502663406, -32.859133422517175 ], [ -70.75675471986564, -32.858326106627651 ], [ -70.756786552566055, -32.857250080997183 ], [ -70.756932571020542, -32.856575701813753 ], [ -70.757292743347179, -32.855988007301512 ], [ -70.757493556339057, -32.855402550880804 ], [ -70.757692599649829, -32.854727499616729 ], [ -70.758161560652326, -32.8542727388391 ], [ -70.75868177862661, -32.853727563451109 ], [ -70.759039189532075, -32.853005510834045 ], [ -70.759288678635926, -32.852195208871755 ], [ -70.759593933355987, -32.851518660870397 ], [ -70.759686809274925, -32.85084509843486 ], [ -70.760162345945304, -32.849381820743169 ], [ -70.760843551001642, -32.848924063663347 ], [ -70.761580430944377, -32.848599912254507 ], [ -70.762105115342266, -32.848278891598305 ], [ -70.762305880723417, -32.847693428835264 ], [ -70.762237794713087, -32.846932439956049 ], [ -70.762010372724205, -32.846173769786446 ], [ -70.761945747024342, -32.845592044026326 ], [ -70.761721074778521, -32.844967725328871 ], [ -70.761703366289325, -32.844071635784978 ], [ -70.761881192291398, -32.842321224480429 ], [ -70.762080175415022, -32.841646092567153 ], [ -70.762437515353582, -32.840924031459309 ], [ -70.762955860340512, -32.840289246243344 ], [ -70.763049674998882, -32.839660441709654 ], [ -70.763039044335827, -32.839122801904431 ], [ -70.762654259967022, -32.838455967726603 ], [ -70.76218942133336, -32.83776787338293 ], [ -70.761700115286303, -32.837192053765961 ], [ -70.761361377660648, -32.83616601574257 ], [ -70.761595760694703, -32.834594119668665 ], [ -70.762166297799638, -32.833913830276643 ], [ -70.762898623283874, -32.833365650975438 ], [ -70.764100647287449, -32.832407522045322 ], [ -70.764938270594357, -32.831813074097496 ], [ -70.765246080123063, -32.831270869123848 ], [ -70.765338898549814, -32.830597303995141 ], [ -70.765433577387498, -32.83001333090526 ], [ -70.765739517522121, -32.829381606319153 ], [ -70.766143674958343, -32.828345095037228 ], [ -70.766395700904567, -32.827669208417156 ], [ -70.76654249730008, -32.827039726464477 ], [ -70.766783871023662, -32.825826200173857 ], [ -70.767856820595654, -32.825811120801504 ], [ -70.766504460834327, -32.825304396993907 ], [ -70.766022555108592, -32.824923389200222 ], [ -70.765509840761851, -32.824484225653116 ], [ -70.765030546438652, -32.824044515659317 ], [ -70.7645831998002, -32.82363597378184 ], [ -70.764039945428763, -32.823138497890021 ], [ -70.763226158019606, -32.822717161561641 ], [ -70.762280885100637, -32.822261470548156 ], [ -70.76185742197066, -32.822051030800246 ], [ -70.761653570876504, -32.821715591998661 ], [ -70.761579349372781, -32.821590446060092 ], [ -70.76128783977488, -32.820706110927354 ], [ -70.76081658178019, -32.820099517211936 ], [ -70.7604437468013, -32.819523010033649 ], [ -70.760093736217158, -32.81917625131193 ], [ -70.759477100266778, -32.818815139942842 ], [ -70.759220124603345, -32.818611289414442 ], [ -70.759118022088131, -32.818545123048807 ], [ -70.75899053497966, -32.818429589035233 ], [ -70.758946860687161, -32.818344572489728 ], [ -70.758858208646728, -32.818215046175453 ], [ -70.758780131573815, -32.818049242524204 ], [ -70.758532001620992, -32.817872381683742 ], [ -70.758356585798822, -32.817762175182715 ], [ -70.758171809531405, -32.817652025920701 ], [ -70.758027283178592, -32.817586378997383 ], [ -70.757440577296848, -32.816909135399328 ], [ -70.757222461854312, -32.816443264990177 ], [ -70.757121412164622, -32.815768214141734 ], [ -70.756625145970744, -32.814990619431022 ], [ -70.756007072715917, -32.814656550664097 ], [ -70.755461400978049, -32.814217731967105 ], [ -70.75519539185612, -32.813504430566582 ], [ -70.754891973292487, -32.812872924535775 ], [ -70.75439799959922, -32.812041057607118 ], [ -70.754280978762097, -32.811384328806398 ], [ -70.754058833477174, -32.810765200319032 ], [ -70.753611599128149, -32.809265218386514 ], [ -70.753074405689915, -32.80859642045148 ], [ -70.753025848155559, -32.8085384370996 ], [ -70.752636474293979, -32.808237275203162 ], [ -70.752543560645819, -32.808165876343338 ], [ -70.752541089380486, -32.808164801943491 ], [ -70.752098580169829, -32.807968927238356 ], [ -70.751509018543814, -32.807648843146019 ], [ -70.751016719310243, -32.807327320320844 ], [ -70.75047418538766, -32.806924415676178 ], [ -70.750076565890055, -32.806478549772933 ], [ -70.749825640380067, -32.806071638801868 ], [ -70.749430526283817, -32.805748751190279 ], [ -70.748938960973831, -32.805468289283269 ], [ -70.748253952450554, -32.805231605775894 ], [ -70.747374522448666, -32.804997706267798 ], [ -70.746934806100228, -32.804880606027524 ], [ -70.746250610552281, -32.804684979293086 ], [ -70.745613352876248, -32.804406610066174 ], [ -70.745315429307226, -32.804082354279601 ], [ -70.744663747382674, -32.803065350983069 ], [ -70.744118063068385, -32.802498365750026 ], [ -70.743622612544797, -32.802012689641082 ], [ -70.743177310471921, -32.801608470474534 ], [ -70.742832469692232, -32.801367019672192 ], [ -70.742094789350588, -32.800925713795671 ], [ -70.74131266665691, -32.800690341862534 ], [ -70.74048512154917, -32.800619765272728 ], [ -70.739901334293791, -32.800586874363894 ], [ -70.739366883412146, -32.800594300662368 ], [ -70.738495505908446, -32.800770572942866 ], [ -70.737915708969567, -32.800942791573299 ], [ -70.737093749586293, -32.801159372575185 ], [ -70.736513861917558, -32.801331659164937 ], [ -70.735834497509202, -32.801382086581455 ], [ -70.735300042135975, -32.801389568689558 ], [ -70.734569657012742, -32.801317532325022 ], [ -70.733694367346004, -32.801288651919613 ], [ -70.733011019807677, -32.801133945118515 ], [ -70.730620693566479, -32.800674430647554 ], [ -70.728083891628316, -32.800175887617904 ], [ -70.726762685441045, -32.799701610592997 ], [ -70.725017648712836, -32.798679035097329 ], [ -70.719818266323685, -32.793661027163864 ], [ -70.71942489495909, -32.793420176267034 ], [ -70.718639645229885, -32.793020460281454 ], [ -70.71804880889448, -32.79261822027653 ], [ -70.717603665823432, -32.79221383002217 ], [ -70.717305885086517, -32.791889575831163 ], [ -70.716759651003287, -32.791281393651524 ], [ -70.716316098848608, -32.790959136507773 ], [ -70.716019901841548, -32.790716941637797 ], [ -70.715570837624256, -32.790107349073907 ], [ -70.715092439819713, -32.789231509896787 ], [ -70.714299372950904, -32.788421448417921 ], [ -70.712910034040902, -32.78692178275444 ], [ -70.712429783011927, -32.787215685353402 ], [ -70.712288030656723, -32.787422797856856 ], [ -70.712099230835136, -32.787712713619761 ], [ -70.712006709750767, -32.787960307260228 ], [ -70.711962895321108, -32.788207160121416 ], [ -70.712066250986126, -32.788534086011104 ], [ -70.712024094846456, -32.788863002130952 ], [ -70.711883038685599, -32.789111184635495 ], [ -70.711743554576486, -32.789441504772881 ], [ -70.711701224163676, -32.78977042206818 ], [ -70.711712232119169, -32.790344939031527 ], [ -70.711622149960789, -32.790715515116652 ], [ -70.711630099152728, -32.791125830445111 ], [ -70.711782079725765, -32.791452091632429 ], [ -70.71198425725855, -32.791859825436347 ], [ -70.712184162951999, -32.792144351503858 ], [ -70.712578300579537, -32.792426368025772 ], [ -70.712875191984295, -32.792709566982388 ], [ -70.713125212890802, -32.793075564541276 ], [ -70.712894950428975, -32.793735392564116 ], [ -70.712510161568602, -32.793945904652318 ], [ -70.712124671123988, -32.794115346245647 ], [ -70.711595843696003, -32.794409909986946 ], [ -70.711307507846016, -32.794577946891131 ], [ -70.711023104820313, -32.794951325018168 ], [ -70.71073546516466, -32.795160430432091 ], [ -70.71054428840084, -32.795327285644362 ], [ -70.710498807596323, -32.795492077522667 ], [ -70.71050194990319, -32.795656203825381 ], [ -70.710506752296681, -32.795902391956346 ], [ -70.710654808130244, -32.796023459381324 ], [ -70.710802079734549, -32.796103605568049 ], [ -70.711046600256566, -32.796182349413101 ], [ -70.711292690135394, -32.796343081665718 ], [ -70.711591255101553, -32.796708491887543 ], [ -70.711644597063099, -32.796954017130432 ], [ -70.711651674889239, -32.79732333861083 ], [ -70.711413441675873, -32.797572849160254 ], [ -70.711027147239093, -32.797701219277656 ], [ -70.710638407588092, -32.797706531499905 ], [ -70.710349362967321, -32.797833644162452 ], [ -70.710111038125831, -32.798083228035772 ], [ -70.709967693057621, -32.798208275691685 ], [ -70.709687197703417, -32.798786698664742 ], [ -70.709694179409794, -32.799155947593995 ], [ -70.709797719229456, -32.799482946499339 ], [ -70.709851844521964, -32.799769541301018 ], [ -70.710100214324967, -32.800053408536677 ], [ -70.710347889730258, -32.800296352701885 ] ] ] } },
{ "type": "Feature", "properties": { "capa": "ds19", "popup": "<strong>CONDOMINIO LA CAPELLANIA</strong><br><br><strong>Programa:</strong> DS19<br><strong>Comuna:</strong> Rinconada<br><strong>Región:</strong> Vaparaíso<br><strong>Año de inicio:</strong> 2021", "etiqueta": "CONDOMINIO LA CAPELLANIA" }, "geometry": { "type": "Polygon", "coordinates": [ [ [ -70.682900365687303, -32.859229522671896 ], [ -70.683007483496723, -32.858429495556841 ], [ -70.682441397544025, -32.858293028815481 ], [ -70.682286068949921, -32.859147162112542 ], [ -70.682900365687303, -32.859229522671896 ] ] ] } },
{ "type": "Feature", "properties": { "capa": "colegios", "popup": "<strong>ESCUELA BASICA EMIGDIO GALDAMES ROBLES</strong><br><br><strong>Dirección:</strong> CARRETERA SAN MARTIN 3363", "etiqueta": "" }, "geometry": { "type": "Point", "coordinates": [ -70.679642, -32.872311 ] } },
{ "type": "Feature", "properties": { "capa": "colegios", "popup": "<strong>ESCUELA BASICA MANUEL LEON SALINAS</strong><br><br><strong>Dirección:</strong> BANDURRIAS 30", "etiqueta": "" }, "geometry": { "type": "Point", "coordinates": [ -70.694656, -32.859428 ] } },
{ "type": "Feature", "properties": { "capa": "colegios", "popup": "<strong>ESCUELA BASICA VALLE ALEGRE</strong><br><br><strong>Dirección:</strong> VALLE ALEGRE 0", "etiqueta": "" }, "geometry": { "type": "Point", "coordinates": [ -70.662666, -32.857368 ] } },
{ "type": "Feature", "properties": { "capa": "colegios", "popup": "<strong>ESC.ESP.DE LENG. MI PEQUEÑO RINCON</strong><br><br><strong>Dirección:</strong> SARGENTO ALDEA 110", "etiqueta": "" }, "geometry": { "type": "Point", "coordinates": [ -70.68268, -32.84691 ] } },
{ "type": "Feature", "properties": { "capa": "colegios", "popup": "<strong>LICEO PARROQUIAL TERESITA DE LOS ANDES</strong><br><br><strong>Dirección:</strong> CARRETERA SAN MARTIN 975", "etiqueta": "" }, "geometry": { "type": "Point", "coordinates": [ -70.686813, -32.84053 ] } },
{ "type": "Feature", "properties": { "capa": "colegios", "popup": "<strong>ESCUELA ESPECIAL NUEVA ESPERANZA</strong><br><br><strong>Dirección:</strong> CALLE NUEVA 1", "etiqueta": "" }, "geometry": { "type": "Point", "coordinates": [ -70.68033675, -32.8350195 ] } },
{ "type": "Feature", "properties": { "capa": "colegios", "popup": "<strong>CENTRO DE FORMACIÓN ACADÉMICA PERFECTO DE LA FUENTE DEL VILLAR</strong><br><br><strong>Dirección:</strong> PERFECTO DE LA FUENTE 100", "etiqueta": "" }, "geometry": { "type": "Point", "coordinates": [ -70.691704, -32.832932 ] } },
{ "type": "Feature", "properties": { "capa": "jardines", "popup": "<strong>NA</strong><br><br><strong>Dirección:</strong> NA ", "etiqueta": "" }, "geometry": { "type": "MultiPoint", "coordinates": [ [ -70.689216000518357, -32.832255999765053 ] ] } },
{ "type": "Feature", "properties": { "capa": "bomberos", "popup": "<strong>Cuerpo de Bomberos</strong><br><br><strong>Dirección:</strong> San Martin 2502", "etiqueta": "" }, "geometry": { "type": "Point", "coordinates": [ -70.684254971025581, -32.851800402732707 ] } },
{ "type": "Feature", "properties": { "capa": "comisarias", "popup": "<strong>TCIA. RINCONADA</strong><br><br><strong>Dirección:</strong> SAN MARTIN 593", "etiqueta": "" }, "geometry": { "type": "Point", "coordinates": [ -70.688712, -32.832811 ] } },
{ "type": "Feature", "properties": { "capa": "salud", "popup": "<strong>Centro de Salud Familiar Rinconada</strong><br><br><strong>Tipo de atención:</strong> Centro de Salud Familiar (CESFAM)<br><strong>Dirección:</strong>  NA", "etiqueta": "" }, "geometry": { "type": "Point", "coordinates": [ -70.68723, -32.84529 ] } },
{ "type": "Feature", "properties": { "capa": "salud", "popup": "<strong>SUR Rinconada</strong><br><br><strong>Tipo de atención:</strong> Servicio de Urgencia Rural (SUR)<br><strong>Dirección:</strong>  31", "etiqueta": "" }, "geometry": { "type": "Point", "coordinates": [ -70.690007499999965, -32.833432799999983 ] } },
{ "type": "Feature", "properties": { "capa": "municipios", "popup": "<strong>Municipalidad de Rinconada</strong><br><br><strong>Dirección:</strong> Carretera General San Martín Nº 607<br><strong>Región:</strong> Valparaíso", "etiqueta": "" }, "geometry": { "type": "Point", "coordinates": [ -70.688588, -32.832977000999954 ] } }
]
}
