{
"type": "FeatureCollection",
"name": "5502",
"crs": { "type": "name", "properties": { "name": "urn:ogc:def:crs:OGC:1.3:CRS84" } },
"features": [
{ "type": "Feature", "properties": { "capa": "comuna", "popup": "", "etiqueta": "" }, "geometry": { "type": "Polygon", "coordinates": [ [ [ -71.193690509397115, -32.814801775689119 ], [ -71.19356388017971, -32.814652122768891 ], [ -71.195397900426698, -32.813156896392933 ], [ -71.195733740087263, -32.812883088891205 ], [ -71.207738567727731, -32.803093946905868 ], [ -71.208393484485626, -32.802559813537577 ], [ -71.211250000426674, -32.80023000053842 ], [ -71.214550000250441, -32.798449999360145 ], [ -71.215439999829968, -32.797900000379641 ], [ -71.217340000436266, -32.796720001453011 ], [ -71.22267999971011, -32.793560000431818 ], [ -71.223699999884303, -32.79295999892792 ], [ -71.224809999571875, -32.792289999953049 ], [ -71.22681398107062, -32.791026396507341 ], [ -71.22948647982065, -32.789291612806799 ], [ -71.229911057759921, -32.789015997883247 ], [ -71.229667182228255, -32.788543489651367 ], [ -71.229347097221165, -32.788284374140204 ], [ -71.228920315714518, -32.788223405097447 ], [ -71.228158208383661, -32.788284374140204 ], [ -71.227533280084927, -32.78829961545037 ], [ -71.227121742090333, -32.788116710493604 ], [ -71.226694961481996, -32.787476538672621 ], [ -71.226313906918264, -32.786973547502932 ], [ -71.225969191004381, -32.78661040821514 ], [ -71.225429861372419, -32.786043776468404 ], [ -71.225033565991566, -32.785754173966545 ], [ -71.225050894493393, -32.785446686975462 ], [ -71.224578629487283, -32.785004346732912 ], [ -71.22354268421681, -32.784212052766584 ], [ -71.222677264340064, -32.783464371748984 ], [ -71.222374931839624, -32.782659041446443 ], [ -71.222357234130214, -32.781944029947439 ], [ -71.222173599621527, -32.781374984902122 ], [ -71.221822010697409, -32.78085664263407 ], [ -71.221248284573235, -32.780485334413093 ], [ -71.220448778580462, -32.780118028289891 ], [ -71.219594080096641, -32.779799269875504 ], [ -71.218733471596579, -32.779242290902999 ], [ -71.218214965811214, -32.778822340867343 ], [ -71.217475412482202, -32.778596900462937 ], [ -71.217283826984925, -32.77856579367846 ], [ -71.216681938676587, -32.778467928005064 ], [ -71.215892011419712, -32.77848191044059 ], [ -71.215835542422624, -32.77848283565433 ], [ -71.214974969855163, -32.777925829559152 ], [ -71.214683359645946, -32.777549499305763 ], [ -71.214223708783052, -32.777223789845195 ], [ -71.213763973478521, -32.776898079192399 ], [ -71.213306690574726, -32.776667695814169 ], [ -71.21268600142578, -32.776678665673522 ], [ -71.211619831439251, -32.776935967550628 ], [ -71.211282386489287, -32.776989577238794 ], [ -71.210601691676004, -32.776858575252028 ], [ -71.210086857305228, -32.776581472400878 ], [ -71.209451938842193, -32.776020517038255 ], [ -71.208818293291912, -32.775507111952308 ], [ -71.207501708038464, -32.774767277186683 ], [ -71.20595702077145, -32.773936073400932 ], [ -71.205094196127575, -32.773283589780661 ], [ -71.20445824280533, -32.772674830220431 ], [ -71.203598969201749, -32.772165368294885 ], [ -71.202970082027562, -32.77184259247943 ], [ -71.202227184270726, -32.771474095016423 ], [ -71.200900149813904, -32.770305232057957 ], [ -71.20031466564096, -32.769457093882863 ], [ -71.199893972915305, -32.768415312307077 ], [ -71.199299305265214, -32.767185839664997 ], [ -71.198831556988353, -32.766526444705384 ], [ -71.198085116276047, -32.7660148876598 ], [ -71.196149312415784, -32.765333516587461 ], [ -71.193870190420242, -32.764467382846625 ], [ -71.193801569013999, -32.764446644217017 ], [ -71.193418208474924, -32.765595984867012 ], [ -71.188676474603895, -32.765583567077442 ], [ -71.186871064800386, -32.765615105192637 ], [ -71.185516984765286, -32.765638741964324 ], [ -71.179364772829004, -32.765650578099397 ], [ -71.168863589328524, -32.765546752577904 ], [ -71.165928483376547, -32.765549822467783 ], [ -71.165758121476173, -32.765505119451717 ], [ -71.165740593548335, -32.762453247616996 ], [ -71.1590705163255, -32.760875393607172 ], [ -71.159113104554791, -32.762639184669723 ], [ -71.157025510564353, -32.762675155067065 ], [ -71.156929928021484, -32.763392141156856 ], [ -71.156535058266982, -32.763398940553323 ], [ -71.155180986316722, -32.763422321831392 ], [ -71.154334696962295, -32.763436807463727 ], [ -71.153488324962851, -32.763451437375913 ], [ -71.15253149791269, -32.763563184987923 ], [ -71.151232644504617, -32.763537850273828 ], [ -71.15010308310346, -32.763509597428474 ], [ -71.149145105311419, -32.763573688867943 ], [ -71.148417372913229, -32.763824572220287 ], [ -71.147750593003707, -32.764265301487924 ], [ -71.147312994882711, -32.764845049563625 ], [ -71.146707240225382, -32.76547540178008 ], [ -71.146155649488108, -32.766009448906814 ], [ -71.145544070154457, -32.766401423516214 ], [ -71.14442599461249, -32.766849866760694 ], [ -71.141625346695605, -32.767756156841934 ], [ -71.140257316722469, -32.768375723777538 ], [ -71.139591599519918, -32.768863969747514 ], [ -71.139037577043169, -32.769302654248534 ], [ -71.138314329933195, -32.76974422580394 ], [ -71.137756962130325, -32.770039863530414 ], [ -71.13685764342803, -32.770198235732018 ], [ -71.135838559535429, -32.770072595782494 ], [ -71.134932320212172, -32.76994502422825 ], [ -71.134304726611987, -32.769669524610727 ], [ -71.133513696223929, -32.7696352799965 ], [ -71.132434744109219, -32.769367533128282 ], [ -71.130617830480176, -32.76892158467254 ], [ -71.129650687177303, -32.768604187345254 ], [ -71.128903556558882, -32.768044643331962 ], [ -71.128383246058107, -32.767528816598194 ], [ -71.127804209992277, -32.766918685196387 ], [ -71.127160869823456, -32.765975868376628 ], [ -71.126856138821182, -32.765027224307808 ], [ -71.126559174652883, -32.764412222341676 ], [ -71.126475590907276, -32.763269072822055 ], [ -71.126407793256163, -32.762793351075224 ], [ -71.12640334479886, -32.762602603130091 ], [ -71.12610875038628, -32.762083081096982 ], [ -71.125424953690327, -32.761808488578154 ], [ -71.12485390724062, -32.761532054253038 ], [ -71.124221961302865, -32.761065825708137 ], [ -71.12313068789571, -32.760273606423951 ], [ -71.122261787945561, -32.75933458481331 ], [ -71.121456144662801, -32.7586804621195 ], [ -71.12025096847087, -32.757842494889744 ], [ -71.119346550032716, -32.756593991948606 ], [ -71.11910508288436, -32.755930379333698 ], [ -71.118580386808361, -32.755223906016717 ], [ -71.117837952582235, -32.754854961268563 ], [ -71.117092139792319, -32.754342969243829 ], [ -71.116116175033355, -32.753644037452204 ], [ -71.115590301266025, -32.752889919689316 ], [ -71.115238307201736, -32.752323540136373 ], [ -71.114662932669006, -32.751856378685396 ], [ -71.113692648855888, -32.75139587910607 ], [ -71.11301000829171, -32.751168920928755 ], [ -71.112219142295345, -32.751134533962514 ], [ -71.111140471353323, -32.750866590931679 ], [ -71.110514295294635, -32.750638667371469 ], [ -71.109996442584475, -32.750218165340776 ], [ -71.109231798411273, -32.749289553088751 ], [ -71.108629044126985, -32.749668937259706 ], [ -71.108187791659432, -32.750105515515273 ], [ -71.107352924383818, -32.750596512014738 ], [ -71.106347559562238, -32.751042571144538 ], [ -71.103653150004121, -32.751660246254822 ], [ -71.102752730865603, -32.751770664624225 ], [ -71.101855673222886, -32.752024194509964 ], [ -71.100844667879628, -32.752231977449604 ], [ -71.099886752969653, -32.75229568943562 ], [ -71.098812658944013, -32.752218314244288 ], [ -71.097902166996192, -32.751899714295639 ], [ -71.096820168694364, -32.751488602353426 ], [ -71.095969496459659, -32.751312087367261 ], [ -71.095232850078901, -32.751181310508301 ], [ -71.094499379242677, -32.75119357542723 ], [ -71.092725165234057, -32.751342464790369 ], [ -71.091769394602679, -32.751501527541819 ], [ -71.091042692572103, -32.751799786245066 ], [ -71.090151164958272, -32.752291543258487 ], [ -71.089654555607964, -32.752776779904785 ], [ -71.089103795812335, -32.75335821953081 ], [ -71.088263134403135, -32.753610712146092 ], [ -71.087584680886494, -32.753666198913635 ], [ -71.087442305998806, -32.753821720330869 ], [ -71.087362411634061, -32.754084576867115 ], [ -71.086720893248639, -32.754749079590475 ], [ -71.085883449604808, -32.756178887129522 ], [ -71.085163702331172, -32.757539132176561 ], [ -71.085004578355012, -32.758551758446643 ], [ -71.084458173591869, -32.760549409340598 ], [ -71.084496164243546, -32.760697566162278 ], [ -71.084444011651414, -32.760860816906934 ], [ -71.084827417106254, -32.761941096826249 ], [ -71.085100037828667, -32.76291957087696 ], [ -71.085204038484051, -32.764473473600063 ], [ -71.085493993098211, -32.765722196163026 ], [ -71.086374910710205, -32.767227033133977 ], [ -71.086513270128592, -32.768663191545244 ], [ -71.086133934940321, -32.769449580385007 ], [ -71.085739161305554, -32.770601474461799 ], [ -71.085620345634496, -32.771351902715537 ], [ -71.085635712215748, -32.771369673528476 ], [ -71.085606937380561, -32.771654284015895 ], [ -71.085968104142225, -32.771932327491314 ], [ -71.086547750164158, -32.77245924108724 ], [ -71.086958550641882, -32.772907847930732 ], [ -71.087442663528279, -32.772994416309473 ], [ -71.08793847697126, -32.773473222647745 ], [ -71.088216747198501, -32.773675956090713 ], [ -71.088867646690431, -32.773890573962042 ], [ -71.089225448363052, -32.774240840262188 ], [ -71.089321768422749, -32.774654053415126 ], [ -71.089360155231475, -32.775095345393417 ], [ -71.089626556018871, -32.775564305650732 ], [ -71.090137446785576, -32.776353872974198 ], [ -71.090716885296658, -32.776880843473485 ], [ -71.091190634319631, -32.777211068541803 ], [ -71.091661092813695, -32.777613523989942 ], [ -71.092440528646378, -32.778173197420259 ], [ -71.093417164446876, -32.778810684728434 ], [ -71.093854531700828, -32.779348953855717 ], [ -71.094283282314564, -32.77976569001649 ], [ -71.094580119820421, -32.780076253192753 ], [ -71.094876721967665, -32.780932548132995 ], [ -71.095267026483882, -32.781286759343885 ], [ -71.096630438218156, -32.7823191211397 ], [ -71.097087010554574, -32.782798397664848 ], [ -71.097359386935238, -32.783258299051838 ], [ -71.097493329337368, -32.783409349896935 ], [ -71.097710974961032, -32.78433913789361 ], [ -71.097765227814293, -32.784586234168557 ], [ -71.097825865892602, -32.784684360461291 ], [ -71.098295436851174, -32.785686535393211 ], [ -71.098626939445538, -32.786361828289394 ], [ -71.099320419980245, -32.787635363168924 ], [ -71.099653656323099, -32.788495464014659 ], [ -71.10013466373357, -32.789312599388886 ], [ -71.100363240955929, -32.78999862605437 ], [ -71.100724178647184, -32.790276626555908 ], [ -71.101010911004423, -32.79028533373932 ], [ -71.101705327583659, -32.79016094251844 ], [ -71.102460399309194, -32.789967932563584 ], [ -71.103566901855359, -32.789615644628917 ], [ -71.104228479621085, -32.789586500639956 ], [ -71.105044797584384, -32.789951543666973 ], [ -71.105717200947581, -32.790337027809301 ], [ -71.106595296951298, -32.790606385046807 ], [ -71.106934037271884, -32.790735952352343 ], [ -71.107067005900262, -32.790981719126627 ], [ -71.107094893199928, -32.791147988616672 ], [ -71.107178093364922, -32.791263830710683 ], [ -71.107321834590167, -32.792221880782051 ], [ -71.107764902552915, -32.79326952754883 ], [ -71.107994873062268, -32.793667026056696 ], [ -71.108284992966432, -32.79400027433794 ], [ -71.108557455585355, -32.794333892145062 ], [ -71.108933785909031, -32.794913688996928 ], [ -71.109187318329973, -32.795360360486022 ], [ -71.109432240398931, -32.795671907522404 ], [ -71.1096199927849, -32.795966318857552 ], [ -71.109725046265794, -32.79620346425078 ], [ -71.109957033492975, -32.796474596383717 ], [ -71.109991710259564, -32.796672444631767 ], [ -71.110045240867336, -32.796779771579544 ], [ -71.109967577019447, -32.797146620772068 ], [ -71.111189765506211, -32.797071642047726 ], [ -71.112221897428327, -32.796916008172389 ], [ -71.113257296523116, -32.796898607940093 ], [ -71.114342890781032, -32.796696028601673 ], [ -71.115854525435495, -32.796071940825357 ], [ -71.117102511740597, -32.795820569201155 ], [ -71.118189090552065, -32.795664113064191 ], [ -71.119168819252081, -32.795601507425289 ], [ -71.120088787527806, -32.795309632886536 ], [ -71.12084398232254, -32.794974518283873 ], [ -71.121868414784345, -32.794496688517533 ], [ -71.122737000324122, -32.794343887958469 ], [ -71.123715702249768, -32.79423516558726 ], [ -71.124580995464029, -32.793944259945967 ], [ -71.125170563378262, -32.793519807642824 ], [ -71.125547727338514, -32.793329230520833 ], [ -71.125981463602074, -32.793229816415071 ], [ -71.12647185661065, -32.793221413090784 ], [ -71.127126929675384, -32.79325638338981 ], [ -71.127946504929909, -32.793334505246754 ], [ -71.129470050346711, -32.793216548405375 ], [ -71.130175199098659, -32.793066403784195 ], [ -71.130928225360293, -32.79263914339564 ], [ -71.131897008986883, -32.792116228565746 ], [ -71.132816718547801, -32.791824267071135 ], [ -71.13352506260722, -32.791812197295975 ], [ -71.134449250269839, -32.791704320634224 ], [ -71.135043156148569, -32.791463995319909 ], [ -71.135414698451768, -32.79104321414237 ], [ -71.135458161640173, -32.790582003508668 ], [ -71.135447159074573, -32.790121795624728 ], [ -71.135710863119485, -32.789748951523201 ], [ -71.136084596413639, -32.789420179898961 ], [ -71.136715824597502, -32.789194355528778 ], [ -71.136622830100976, -32.789134846884522 ], [ -71.137160041505496, -32.788803282567265 ], [ -71.137914099931393, -32.788422062389166 ], [ -71.138505771700011, -32.788089710767252 ], [ -71.139479968574506, -32.787796770912166 ], [ -71.140026998565077, -32.787879471036568 ], [ -71.140844412473044, -32.787865496119586 ], [ -71.142034339762986, -32.787476798461498 ], [ -71.142796005122733, -32.787417740278109 ], [ -71.143880298620118, -32.787168905839572 ], [ -71.144798899659989, -32.786830926274092 ], [ -71.145666169167896, -32.78663189311149 ], [ -71.146806016279072, -32.786428181738643 ], [ -71.147616773670762, -32.786137981605549 ], [ -71.148430670674387, -32.785985870543541 ], [ -71.149621642705014, -32.785643108233124 ], [ -71.150270013439439, -32.785401703194438 ], [ -71.150864938906025, -32.785207311433581 ], [ -71.151459861677651, -32.785012918492683 ], [ -71.151993580432347, -32.784543351743821 ], [ -71.152204954917025, -32.784263496609832 ], [ -71.152740880832383, -32.783885864712019 ], [ -71.153235652229625, -32.784061529679192 ], [ -71.153787196254498, -32.784328338904778 ], [ -71.155229367781288, -32.785362530039087 ], [ -71.156463631422113, -32.786814727111334 ], [ -71.156682772740737, -32.786856977844572 ], [ -71.156725013322017, -32.786349758528182 ], [ -71.156572667134668, -32.784556613495177 ], [ -71.156800622722841, -32.782710891751961 ], [ -71.15897342012137, -32.780141060776479 ], [ -71.159826211481843, -32.779343567275816 ], [ -71.162649285839791, -32.778880398733236 ], [ -71.163791280822849, -32.781024779914858 ], [ -71.16452971574931, -32.782255195002335 ], [ -71.165583873463873, -32.783019752159277 ], [ -71.167415374834817, -32.784369384722204 ], [ -71.169745099828617, -32.786032747346717 ], [ -71.171861526146429, -32.787883788496323 ], [ -71.173250612629843, -32.788964784099932 ], [ -71.174909815332654, -32.789948948116169 ], [ -71.176014217617677, -32.790528294776195 ], [ -71.178266307509688, -32.791225886530441 ], [ -71.18010720885178, -32.791426474873539 ], [ -71.180044951111, -32.791591930974285 ], [ -71.179704352176074, -32.792852630367157 ], [ -71.179248953937744, -32.793756885556256 ], [ -71.17853265888975, -32.794844902028579 ], [ -71.17695818797948, -32.796642414176411 ], [ -71.176500557427659, -32.797457014529577 ], [ -71.176139060984283, -32.797866584417001 ], [ -71.175672688028115, -32.798322890599202 ], [ -71.175256017958304, -32.798643807174628 ], [ -71.174945401194321, -32.798962877876058 ], [ -71.174849165576234, -32.799367907966392 ], [ -71.174245463569321, -32.800722775905044 ], [ -71.174145863760529, -32.800993411757155 ], [ -71.173947926275872, -32.801579428576467 ], [ -71.172993569592762, -32.803791865182419 ], [ -71.172443891368729, -32.805190629991024 ], [ -71.171963413964264, -32.806162521681614 ], [ -71.171604216309703, -32.806661650268246 ], [ -71.17113659828857, -32.807073120452259 ], [ -71.17088119467688, -32.807480835475943 ], [ -71.170532303393571, -32.808274691157649 ], [ -71.170126864959755, -32.809196887226307 ], [ -71.169671290651621, -32.810101038851123 ], [ -71.169202554227937, -32.810467606571528 ], [ -71.168726286328933, -32.810520777021509 ], [ -71.16825536789743, -32.810797768095853 ], [ -71.167996765385013, -32.811071153183001 ], [ -71.167950212890347, -32.811340791886671 ], [ -71.167649320389316, -32.812063036163245 ], [ -71.16713192761658, -32.812609807526506 ], [ -71.166768241080561, -32.812929779378535 ], [ -71.166242137344511, -32.813118108425982 ], [ -71.165870748653234, -32.813124536345846 ], [ -71.165344643120562, -32.813312934438756 ], [ -71.164821793082481, -32.813635654898818 ], [ -71.164244772836156, -32.813914541067767 ], [ -71.16361692680934, -32.814283912880015 ], [ -71.162985730964834, -32.814518887941425 ], [ -71.162248543798299, -32.81475569091517 ], [ -71.161401932846985, -32.814859926332069 ], [ -71.160113649914877, -32.815352754975883 ], [ -71.159536513785866, -32.815631548180072 ], [ -71.159223702437629, -32.815861009986449 ], [ -71.159021303919261, -32.816267861036984 ], [ -71.15882531667711, -32.816943433534377 ], [ -71.158570913788637, -32.817395950101123 ], [ -71.158209344581749, -32.81780547114937 ], [ -71.158055597920864, -32.818032186151989 ], [ -71.157964686617476, -32.818661177817475 ], [ -71.158144439505818, -32.819509564010545 ], [ -71.158108691947405, -32.820227213867547 ], [ -71.158116276423357, -32.82054075808248 ], [ -71.157916029370099, -32.821037181072612 ], [ -71.157294518262688, -32.821675245859957 ], [ -71.156347165743838, -32.822005324220335 ], [ -71.155737339921629, -32.822389122576311 ], [ -71.155615220246958, -32.822465988338863 ], [ -71.154729682599466, -32.823153506000899 ], [ -71.154214222102908, -32.823789804992934 ], [ -71.153541827722833, -32.824518339691153 ], [ -71.153346953493312, -32.825238727039988 ], [ -71.152847778554545, -32.826547005680219 ], [ -71.152679847495335, -32.827289238890046 ], [ -71.152484961587703, -32.82800962565539 ], [ -71.152121076523997, -32.828329633382019 ], [ -71.151486594642193, -32.828430156361023 ], [ -71.150742777908846, -32.828398101553532 ], [ -71.149894941655475, -32.828457515222532 ], [ -71.149317777678704, -32.828736338256604 ], [ -71.148584661677006, -32.829152214914153 ], [ -71.147901393190452, -32.829432779456184 ], [ -71.147113107155576, -32.829760057967043 ], [ -71.145641531074602, -32.830367884782113 ], [ -71.14460087054718, -32.831237215860327 ], [ -71.143665119770233, -32.832059824807182 ], [ -71.142632041023816, -32.8332426847414 ], [ -71.141872663673112, -32.834779369253859 ], [ -71.141116488816394, -32.83645044752636 ], [ -71.140892298965881, -32.837059250514756 ], [ -71.140532723120586, -32.83755837459772 ], [ -71.14016230191487, -32.83760955434407 ], [ -71.139737885672361, -32.837616814517183 ], [ -71.139366475421511, -32.837623166696439 ], [ -71.138844376375019, -32.837990611112879 ], [ -71.138534656129679, -32.838354350362422 ], [ -71.138491231568835, -32.838758526146862 ], [ -71.138456399393689, -32.839520853103139 ], [ -71.138469294709594, -32.840058445212385 ], [ -71.138320922669067, -32.840509184318861 ], [ -71.138009944782326, -32.840828174884386 ], [ -71.1372768503402, -32.841243988114982 ], [ -71.136642169032399, -32.841344441377444 ], [ -71.135951169644514, -32.841311473464884 ], [ -71.135472561634174, -32.841274802015889 ], [ -71.134946220742904, -32.841463081533448 ], [ -71.134264959092675, -32.841833224849658 ], [ -71.133801273895841, -32.842423718077427 ], [ -71.133335526167116, -32.842924633159818 ], [ -71.132654246550587, -32.843294768117097 ], [ -71.132282809350272, -32.843301026304047 ], [ -71.131748950458388, -32.84317567229013 ], [ -71.131165120083878, -32.843185694308232 ], [ -71.130159068949425, -32.843292441297109 ], [ -71.129214586547903, -32.843756650109633 ], [ -71.128538631246073, -32.844350737333734 ], [ -71.127760356036731, -32.845336921210361 ], [ -71.1282690872535, -32.8463997572916 ], [ -71.128433051352417, -32.846735096813781 ], [ -71.128611411852077, -32.847061177239567 ], [ -71.128820158764526, -32.847373295435503 ], [ -71.129064713422522, -32.847671210048482 ], [ -71.129321059366944, -32.847964417438398 ], [ -71.12957502657251, -32.848253231600339 ], [ -71.12983266878588, -32.848541909734337 ], [ -71.130102344830803, -32.848821442485495 ], [ -71.130392063188026, -32.849082534587964 ], [ -71.130462576446263, -32.849139917165608 ], [ -71.130634804147462, -32.84946159202763 ], [ -71.131374514681667, -32.850134406524113 ], [ -71.132536348957743, -32.850817971361515 ], [ -71.133599664098313, -32.851111000819678 ], [ -71.13496611303654, -32.851511506731583 ], [ -71.136211698144891, -32.852035882448583 ], [ -71.137719076581533, -32.852731521307035 ], [ -71.138610823384298, -32.853437743060972 ], [ -71.139580781108961, -32.854120013910496 ], [ -71.140901659411142, -32.854679030558586 ], [ -71.142312955841632, -32.855827264477277 ], [ -71.143550482163548, -32.857420233441616 ], [ -71.144782190995713, -32.859369588117652 ], [ -71.144813152330286, -32.859423132995374 ], [ -71.144993000440067, -32.859749236969968 ], [ -71.145113567825916, -32.85997256168411 ], [ -71.145599365951796, -32.861150145669335 ], [ -71.146020130542652, -32.862527123184293 ], [ -71.146216589400353, -32.863763744870496 ], [ -71.14623187603155, -32.864300037168974 ], [ -71.14632631681566, -32.864771881465742 ], [ -71.146324748357188, -32.865258893261576 ], [ -71.146339070197754, -32.865813227246257 ], [ -71.146121336539196, -32.866407668552881 ], [ -71.145735705059096, -32.866878666376444 ], [ -71.145552985933648, -32.867102760861535 ], [ -71.145488282080379, -32.867338350668952 ], [ -71.145522145871638, -32.867319670980983 ], [ -71.146271988503926, -32.866923538739108 ], [ -71.147355145632488, -32.866323324208807 ], [ -71.148058819350723, -32.866049720636639 ], [ -71.149379562905622, -32.865733963375881 ], [ -71.150546626274988, -32.865416329964589 ], [ -71.151033326309388, -32.865340289127545 ], [ -71.152249405353913, -32.865156986663912 ], [ -71.154052742744057, -32.864792316003005 ], [ -71.156125387869864, -32.864350874774608 ], [ -71.15666003817752, -32.864021481282059 ], [ -71.15676334353688, -32.863722058137334 ], [ -71.156803086801688, -32.863324590862156 ], [ -71.156789190762552, -32.86259886165891 ], [ -71.156750379949031, -32.861932293674656 ], [ -71.156798467664501, -32.861340760675631 ], [ -71.15695580938312, -32.860833037627316 ], [ -71.157158207901489, -32.860324537472572 ], [ -71.157389987617833, -32.859666672400195 ], [ -71.157526200961001, -32.859497513529725 ], [ -71.157510628665534, -32.859479757315484 ], [ -71.157687996526818, -32.859025764171776 ], [ -71.158063245278868, -32.858180735455967 ], [ -71.158233030460821, -32.857388673559036 ], [ -71.158374110876196, -32.856723359070664 ], [ -71.158745776248594, -32.855954998797039 ], [ -71.15880746984736, -32.855575177499503 ], [ -71.158806129560958, -32.855079204176548 ], [ -71.158832530148842, -32.854474599795132 ], [ -71.158967343916785, -32.853962757134845 ], [ -71.159128646307522, -32.853355749162148 ], [ -71.159262077568258, -32.852884487848002 ], [ -71.159369954454093, -32.852720322364902 ], [ -71.159465324096232, -32.852357943757596 ], [ -71.159831206114816, -32.851720365087068 ], [ -71.160079610952124, -32.851197546630324 ], [ -71.160288232100456, -32.850535644340404 ], [ -71.160428875036274, -32.849892941951929 ], [ -71.160532920607437, -32.849570969803253 ], [ -71.160935765605018, -32.849126671088051 ], [ -71.161408505819921, -32.848627086796121 ], [ -71.161582728679377, -32.848254258724879 ], [ -71.161967672948307, -32.847693025831603 ], [ -71.162246017735697, -32.846998370838584 ], [ -71.162586666077985, -32.846415370513412 ], [ -71.162991323875801, -32.845934909484775 ], [ -71.163007242920955, -32.845916533963276 ], [ -71.163087877497489, -32.845784455450968 ], [ -71.163284483678893, -32.845411311290086 ], [ -71.163395118392657, -32.844935933848582 ], [ -71.163355394890786, -32.844287259580227 ], [ -71.163407547482919, -32.843605526717312 ], [ -71.163387007503943, -32.843033277849187 ], [ -71.16334232260678, -32.842497422282669 ], [ -71.163346715368519, -32.841870665145976 ], [ -71.163549039326682, -32.841362082726519 ], [ -71.163872316048, -32.840666646830527 ], [ -71.164114919565179, -32.840274680293781 ], [ -71.16438330383275, -32.839805659063863 ], [ -71.164625816620088, -32.839413693253938 ], [ -71.164657656507032, -32.839377091213521 ], [ -71.164707093492055, -32.839092113301682 ], [ -71.164905405574174, -32.838678379181133 ], [ -71.165193071280981, -32.838290137704789 ], [ -71.165478370825326, -32.837956013158291 ], [ -71.165588638128128, -32.837480712778436 ], [ -71.165764551616974, -32.837067366652079 ], [ -71.166112960504961, -32.836831362088041 ], [ -71.166684572893303, -32.836659159423739 ], [ -71.167236735857415, -32.836410535289332 ], [ -71.167792285470142, -32.836085316951241 ], [ -71.16837334364368, -32.835682970685639 ], [ -71.168730933313896, -32.835234926599036 ], [ -71.169132038274768, -32.834831190670805 ], [ -71.169644749028222, -32.834443543004376 ], [ -71.170314614650763, -32.834084712074727 ], [ -71.170950167324392, -32.833987990656382 ], [ -71.171596408153249, -32.8336475887874 ], [ -71.171698780163055, -32.833546670910984 ], [ -71.171863736002038, -32.833453679930315 ], [ -71.172201049797977, -32.833226864648623 ], [ -71.172895030694292, -32.832831476899941 ], [ -71.173413538276293, -32.83231302929098 ], [ -71.173755892519281, -32.831693846623807 ], [ -71.174014741170083, -32.830922823231973 ], [ -71.174306830181337, -32.830417244991068 ], [ -71.174665416083172, -32.829951068003851 ], [ -71.175123568556202, -32.829262272921952 ], [ -71.175477980885248, -32.828890873965697 ], [ -71.175778936268358, -32.828709818874081 ], [ -71.176302817572378, -32.828592480399905 ], [ -71.176872523735682, -32.828456318027172 ], [ -71.177530879244458, -32.828363746697939 ], [ -71.177942666970708, -32.8282212401813 ], [ -71.178628527096876, -32.828015452387447 ], [ -71.179338254561813, -32.82777311994581 ], [ -71.18006801715255, -32.827584584937902 ], [ -71.180842316418435, -32.827417727627079 ], [ -71.181303494417307, -32.827184296407495 ], [ -71.181567482329854, -32.826909164320796 ], [ -71.181679416007498, -32.82683503728218 ], [ -71.182106683502738, -32.826331590923388 ], [ -71.18227903966303, -32.825994966528995 ], [ -71.182836184683708, -32.825629024496216 ], [ -71.18359179090686, -32.82536784302782 ], [ -71.184488842261374, -32.824955329010002 ], [ -71.185316307419029, -32.824602756233944 ], [ -71.186077591893081, -32.824206196245299 ], [ -71.186896884178282, -32.82350654426007 ], [ -71.187132954248426, -32.823267940026433 ], [ -71.187687124947203, -32.822960610705323 ], [ -71.18820142482042, -32.822536811796603 ], [ -71.188350493055282, -32.822218612333323 ], [ -71.188553506021279, -32.821692029010393 ], [ -71.189110597143056, -32.821326060945836 ], [ -71.189800956930483, -32.821007401176679 ], [ -71.190167046459891, -32.820883755014215 ], [ -71.190722409223056, -32.820558367328836 ], [ -71.191297574448313, -32.82029128633819 ], [ -71.19188820327291, -32.820190815296499 ], [ -71.192436133375409, -32.820036865369218 ], [ -71.192991485358775, -32.81971154177031 ], [ -71.193053429587508, -32.81959772371362 ], [ -71.193227266171391, -32.819472931872617 ], [ -71.193542729346348, -32.818948875642839 ], [ -71.193765859184822, -32.818480514823527 ], [ -71.194090187833325, -32.817744431002239 ], [ -71.194346677508193, -32.817031993642061 ], [ -71.194431524285108, -32.816832153095937 ], [ -71.194392885948091, -32.816616377315761 ], [ -71.19415046209393, -32.816221557331232 ], [ -71.194149096654726, -32.816219365693847 ], [ -71.193968481383678, -32.815794208161428 ], [ -71.193741265108969, -32.815387890965852 ], [ -71.193591128777243, -32.814867860286149 ], [ -71.193690509397115, -32.814801775689119 ] ] ] } },
{ "type": "Feature", "properties": { "capa": "ds19", "popup": "<strong>CONDOMINIO DON MARTÍN 4</strong><br><br><strong>Programa:</strong> DS19<br><strong>Comuna:</strong> Calera<br><strong>Región:</strong> Vaparaíso<br><strong>Año de inicio:</strong> 2021", "etiqueta": "CONDOMINIO DON MARTÍN 4" }, "geometry": { "type": "Polygon", "coordinates": [ [ [ -71.210886160278719, -32.796602283190452 ], [ -71.210252875851197, -32.796233826354658 ], [ -71.209898418606386, -32.796490086991362 ], [ -71.209162332774369, -32.797014647180404 ], [ -71.209601864968164, -32.797277059770174 ], [ -71.209740644798089, -32.797385995140431 ], [ -71.210886160278719, -32.796602283190452 ] ] ] } },
{ "type": "Feature", "properties": { "capa": "ds19", "popup": "<strong>CONDOMINIO DON MARTÍN 3</strong><br><br><strong>Programa:</strong> DS19<br><strong>Comuna:</strong> Calera<br><strong>Región:</strong> Vaparaíso<br><strong>Año de inicio:</strong> 2021", "etiqueta": "CONDOMINIO DON MARTÍN 3" }, "geometry": { "type": "Polygon", "coordinates": [ [ [ -71.200987296277944, -32.793873718023903 ], [ -71.202983864878959, -32.792108175530856 ], [ -71.202694485186584, -32.791948513239966 ], [ -71.200718656888839, -32.793724930756547 ], [ -71.200987296277944, -32.793873718023903 ] ] ] } },
{ "type": "Feature", "properties": { "capa": "ds19", "popup": "<strong>CONDOMINIO LOS OLIVOS</strong><br><br><strong>Programa:</strong> DS19<br><strong>Comuna:</strong> Calera<br><strong>Región:</strong> Vaparaíso<br><strong>Año de inicio:</strong> 2017", "etiqueta": "CONDOMINIO LOS OLIVOS" }, "geometry": { "type": "Polygon", "coordinates": [ [ [ -71.175390087921201, -32.78398754513357 ], [ -71.173571012047276, -32.785212638751354 ], [ -71.174580596255737, -32.78598188830621 ], [ -71.176199451127587, -32.784857530107317 ], [ -71.175748463617268, -32.784398783421388 ], [ -71.175390087921201, -32.78398754513357 ] ] ] } },
{ "type": "Feature", "properties": { "capa": "ds19", "popup": "<strong>CONDOMINIO RAVELLO</strong><br><br><strong>Programa:</strong> DS19<br><strong>Comuna:</strong> Calera<br><strong>Región:</strong> Vaparaíso<br><strong>Año de inicio:</strong> 2018", "etiqueta": "CONDOMINIO RAVELLO" }, "geometry": { "type": "Polygon", "coordinates": [ [ [ -71.205977200525993, -32.793745593089604 ], [ -71.203554601409877, -32.795790277183244 ], [ -71.204140023599081, -32.796171719500265 ], [ -71.206297004360394, -32.794302693450064 ], [ -71.206057139806475, -32.79414963731913 ], [ -71.206283535021015, -32.793939799302827 ], [ -71.205977200525993, -32.793745593089604 ] ] ] } },
{ "type": "Feature", "properties": { "capa": "ds19", "popup": "<strong>DON MARTIN 2</strong><br><br><strong>Programa:</strong> DS19<br><strong>Comuna:</strong> Calera<br><strong>Región:</strong> Vaparaíso<br><strong>Año de inicio:</strong> 2019", "etiqueta": "DON MARTIN 2" }, "geometry": { "type": "Polygon", "coordinates": [ [ [ -71.208511095515888, -32.798599449255185 ], [ -71.211211372869457, -32.796763725253101 ], [ -71.210922808847357, -32.79660547358371 ], [ -71.208197987723608, -32.7984715667234 ], [ -71.208511095515888, -32.798599449255185 ] ] ] } },
{ "type": "Feature", "properties": { "capa": "ds19", "popup": "<strong>CONDOMINIO NUEVA CARRERA 1837</strong><br><br><strong>Programa:</strong> DS19<br><strong>Comuna:</strong> Calera<br><strong>Región:</strong> Vaparaíso<br><strong>Año de inicio:</strong> 2022", "etiqueta": "CONDOMINIO NUEVA CARRERA 1837" }, "geometry": { "type": "Polygon", "coordinates": [ [ [ -71.210321436171995, -32.796065193008538 ], [ -71.210918970346171, -32.796404713427194 ], [ -71.212025874439249, -32.795466427946536 ], [ -71.211618064453091, -32.795192754731957 ], [ -71.211116964424676, -32.795579206888412 ], [ -71.21080517266428, -32.795843635378439 ], [ -71.210673349387903, -32.795781887693252 ], [ -71.210321436171995, -32.796065193008538 ] ] ] } },
{ "type": "Feature", "properties": { "capa": "ds19", "popup": "<strong>CONDOMINIO TRES ESQUINAS</strong><br><br><strong>Programa:</strong> DS19<br><strong>Comuna:</strong> Calera<br><strong>Región:</strong> Valparaíso<br><strong>Año de inicio:</strong> 2023", "etiqueta": "CONDOMINIO TRES ESQUINAS" }, "geometry": { "type": "Polygon", "coordinates": [ [ [ -71.173994512008193, -32.788437009150833 ], [ -71.174734950177765, -32.78797481457547 ], [ -71.175567338103178, -32.78854058820702 ], [ -71.177197706681994, -32.787494615142158 ], [ -71.176235918236529, -32.786494375034167 ], [ -71.176525238640096, -32.786314370147892 ], [ -71.176084001443897, -32.785674460253809 ], [ -71.174275931728829, -32.786835024775094 ], [ -71.174609785214273, -32.787215381006838 ], [ -71.174971119960901, -32.786998846848185 ], [ -71.175130785621178, -32.787226911436207 ], [ -71.173663345383758, -32.788232944705399 ], [ -71.173994512008193, -32.788437009150833 ] ] ] } },
{ "type": "Feature", "properties": { "capa": "ds19", "popup": "<strong>HUERTOS DE LA CALERA</strong><br><br><strong>Programa:</strong> DS19<br><strong>Comuna:</strong> Calera<br><strong>Región:</strong> Valparaíso<br><strong>Año de inicio:</strong> 2023", "etiqueta": "HUERTOS DE LA CALERA" }, "geometry": { "type": "Polygon", "coordinates": [ [ [ -71.218725148705474, -32.790850555746559 ], [ -71.218338088904062, -32.791226724012112 ], [ -71.218220016139739, -32.791151100668088 ], [ -71.217201550288053, -32.792190168592327 ], [ -71.217581071427617, -32.792419406977714 ], [ -71.218686149245727, -32.79132051284877 ], [ -71.218576940158329, -32.791244009058374 ], [ -71.218870761121451, -32.79095766090439 ], [ -71.218725148705474, -32.790850555746559 ] ] ] } },
{ "type": "Feature", "properties": { "capa": "colegios", "popup": "<strong>ESCUELA MONTE CARMELO</strong><br><br><strong>Dirección:</strong> CALLE PRINCIPAL PACHACAMITA 0", "etiqueta": "" }, "geometry": { "type": "Point", "coordinates": [ -71.177193, -32.81678 ] } },
{ "type": "Feature", "properties": { "capa": "colegios", "popup": "<strong>ESCUELA BASICA VILLA LA FLORIDA</strong><br><br><strong>Dirección:</strong> PRINCIPAL LAS CABRITAS 591", "etiqueta": "" }, "geometry": { "type": "Point", "coordinates": [ -71.175339, -32.80611 ] } },
{ "type": "Feature", "properties": { "capa": "colegios", "popup": "<strong>COLEGIO BECARB II</strong><br><br><strong>Dirección:</strong> AVENIDA ALONSO ZUMAETA 1883", "etiqueta": "" }, "geometry": { "type": "Point", "coordinates": [ -71.214104, -32.794159 ] } },
{ "type": "Feature", "properties": { "capa": "colegios", "popup": "<strong>ESCUELA ESPECIAL DE LENGUAJE CARACOLITO</strong><br><br><strong>Dirección:</strong> CARRERA 1658", "etiqueta": "" }, "geometry": { "type": "Point", "coordinates": [ -71.206154, -32.793804 ] } },
{ "type": "Feature", "properties": { "capa": "colegios", "popup": "<strong>ESCUELA ESPECIAL DE LENGUAJE KUMELEN</strong><br><br><strong>Dirección:</strong> LIBERTAD 520", "etiqueta": "" }, "geometry": { "type": "Point", "coordinates": [ -71.21631, -32.793476 ] } },
{ "type": "Feature", "properties": { "capa": "colegios", "popup": "<strong>COLEGIO FUNDADORES DE LA CALERA</strong><br><br><strong>Dirección:</strong> CARRERA 1624", "etiqueta": "" }, "geometry": { "type": "Point", "coordinates": [ -71.20487053, -32.79332594 ] } },
{ "type": "Feature", "properties": { "capa": "colegios", "popup": "<strong>ESCUELA DE PARVULOS ANNY SCHOOL</strong><br><br><strong>Dirección:</strong> CAUPOLICA 1092", "etiqueta": "" }, "geometry": { "type": "Point", "coordinates": [ -71.21543, -32.792656 ] } },
{ "type": "Feature", "properties": { "capa": "colegios", "popup": "<strong>COLEGIO SAN FRANCISCO DE ASIS</strong><br><br><strong>Dirección:</strong> SAN MIGUEL 789", "etiqueta": "" }, "geometry": { "type": "Point", "coordinates": [ -71.218338, -32.792629 ] } },
{ "type": "Feature", "properties": { "capa": "colegios", "popup": "<strong>COLEGIO PARTICULAR BECARB</strong><br><br><strong>Dirección:</strong> EL BOSQUE 436", "etiqueta": "" }, "geometry": { "type": "Point", "coordinates": [ -71.209244, -32.79261 ] } },
{ "type": "Feature", "properties": { "capa": "colegios", "popup": "<strong>COLEGIO APUMANQUE</strong><br><br><strong>Dirección:</strong> CARRERA 1566", "etiqueta": "" }, "geometry": { "type": "Point", "coordinates": [ -71.203621, -32.792591 ] } },
{ "type": "Feature", "properties": { "capa": "colegios", "popup": "<strong>LICEO INDUSTRIAL A-16 OSCAR CORONA BARAHO</strong><br><br><strong>Dirección:</strong> AVENIDA BEATO ALBERTO HURTADO 1001", "etiqueta": "" }, "geometry": { "type": "Point", "coordinates": [ -71.191063, -32.792519 ] } },
{ "type": "Feature", "properties": { "capa": "colegios", "popup": "<strong>ESCUELA ESPECIAL DE LENGUAJE AITUE</strong><br><br><strong>Dirección:</strong> AVENIDA ALONSO ZUMAETA 1979", "etiqueta": "" }, "geometry": { "type": "Point", "coordinates": [ -71.20991, -32.791817 ] } },
{ "type": "Feature", "properties": { "capa": "colegios", "popup": "<strong>ESCUELA PART. SAGRADOS CORAZONES</strong><br><br><strong>Dirección:</strong> AMTHOR 1939", "etiqueta": "" }, "geometry": { "type": "Point", "coordinates": [ -71.223557, -32.791168 ] } },
{ "type": "Feature", "properties": { "capa": "colegios", "popup": "<strong>LICEO PARTICULAR SAN JOSE</strong><br><br><strong>Dirección:</strong> IGNACIO CARRERA PINTO 600", "etiqueta": "" }, "geometry": { "type": "Point", "coordinates": [ -71.202797, -32.790581 ] } },
{ "type": "Feature", "properties": { "capa": "colegios", "popup": "<strong>ESCUELA BASICA PALESTINA</strong><br><br><strong>Dirección:</strong> ALONSO DE ERCILLA 50", "etiqueta": "" }, "geometry": { "type": "Point", "coordinates": [ -71.185272, -32.790249 ] } },
{ "type": "Feature", "properties": { "capa": "colegios", "popup": "<strong>COLEGIO TERESA BROWN DE ARIZTIA</strong><br><br><strong>Dirección:</strong> IGNACIO CARRERA PINTO 100", "etiqueta": "" }, "geometry": { "type": "Point", "coordinates": [ -71.201752, -32.78986 ] } },
{ "type": "Feature", "properties": { "capa": "colegios", "popup": "<strong>ESCUELA BASICA SANTA ROSA DEL HUERTO</strong><br><br><strong>Dirección:</strong> SANTA ROSA 311", "etiqueta": "" }, "geometry": { "type": "Point", "coordinates": [ -71.214638, -32.789589 ] } },
{ "type": "Feature", "properties": { "capa": "colegios", "popup": "<strong>COLEGIO JOHN CRANE</strong><br><br><strong>Dirección:</strong> SANTA ROSA 308", "etiqueta": "" }, "geometry": { "type": "Point", "coordinates": [ -71.215118, -32.789558 ] } },
{ "type": "Feature", "properties": { "capa": "colegios", "popup": "<strong>ESCUELA DE PARVULOS MIGUEL FENOLLERA</strong><br><br><strong>Dirección:</strong> AVENIDA LATORRE 522", "etiqueta": "" }, "geometry": { "type": "Point", "coordinates": [ -71.1884, -32.789173 ] } },
{ "type": "Feature", "properties": { "capa": "colegios", "popup": "<strong>ESCUELA SAN GABRIEL DE LA RIVERA</strong><br><br><strong>Dirección:</strong> BLANCO ENCALADA 186", "etiqueta": "" }, "geometry": { "type": "Point", "coordinates": [ -71.195923, -32.78915 ] } },
{ "type": "Feature", "properties": { "capa": "colegios", "popup": "<strong>COLEGIO LUCERO</strong><br><br><strong>Dirección:</strong> IGNACIO CARRERA PINTO 308", "etiqueta": "" }, "geometry": { "type": "Point", "coordinates": [ -71.20318, -32.788869 ] } },
{ "type": "Feature", "properties": { "capa": "colegios", "popup": "<strong>COLEGIO ESPECIAL ARMONIA</strong><br><br><strong>Dirección:</strong> FREIRE 972", "etiqueta": "" }, "geometry": { "type": "Point", "coordinates": [ -71.194201, -32.788772 ] } },
{ "type": "Feature", "properties": { "capa": "colegios", "popup": "<strong>CENTRO DE ESTUDIOS BORDEMAR</strong><br><br><strong>Dirección:</strong> ARTURO PRAT 416", "etiqueta": "" }, "geometry": { "type": "Point", "coordinates": [ -71.187245, -32.787885 ] } },
{ "type": "Feature", "properties": { "capa": "colegios", "popup": "<strong>ESCUELA EL AVE MARIA</strong><br><br><strong>Dirección:</strong> DIEGO LILLO 283", "etiqueta": "" }, "geometry": { "type": "Point", "coordinates": [ -71.192108, -32.787781 ] } },
{ "type": "Feature", "properties": { "capa": "colegios", "popup": "<strong>ESCUELA BASICA IRMA SAPIAIN</strong><br><br><strong>Dirección:</strong> ALDUNATE 299", "etiqueta": "" }, "geometry": { "type": "Point", "coordinates": [ -71.190727, -32.787628 ] } },
{ "type": "Feature", "properties": { "capa": "colegios", "popup": "<strong>LICEO PEDRO DE VALDIVIA</strong><br><br><strong>Dirección:</strong> CAUPOLICAN 0", "etiqueta": "" }, "geometry": { "type": "Point", "coordinates": [ -71.198257, -32.787609 ] } },
{ "type": "Feature", "properties": { "capa": "colegios", "popup": "<strong>ESCUELA BASICA EL LIBERTADOR</strong><br><br><strong>Dirección:</strong> CALAMA 1561", "etiqueta": "" }, "geometry": { "type": "Point", "coordinates": [ -71.209541, -32.787441 ] } },
{ "type": "Feature", "properties": { "capa": "colegios", "popup": "<strong>COLEGIO ANTUMAPU</strong><br><br><strong>Dirección:</strong> AMTHOR 1790", "etiqueta": "" }, "geometry": { "type": "Point", "coordinates": [ -71.218132, -32.787319 ] } },
{ "type": "Feature", "properties": { "capa": "colegios", "popup": "<strong>INSTITUTO DE EDUCACIÓN DE ADULTOS ACONCAGUA</strong><br><br><strong>Dirección:</strong> IGNACIO CARRERA PINTO 450", "etiqueta": "" }, "geometry": { "type": "Point", "coordinates": [ -71.18796881, -32.78704132 ] } },
{ "type": "Feature", "properties": { "capa": "colegios", "popup": "<strong>ESCUELA ESPECIAL JESUS DE NAZARETH</strong><br><br><strong>Dirección:</strong> AMSTERDAM 465", "etiqueta": "" }, "geometry": { "type": "Point", "coordinates": [ -71.2016449, -32.7868576 ] } },
{ "type": "Feature", "properties": { "capa": "colegios", "popup": "<strong>JARDIN INFANTIL BURBUJITAS</strong><br><br><strong>Dirección:</strong> IQUIQUE 1609", "etiqueta": "" }, "geometry": { "type": "Point", "coordinates": [ -71.2124, -32.78645 ] } },
{ "type": "Feature", "properties": { "capa": "colegios", "popup": "<strong>COLEGIO SAULO DE TARSO</strong><br><br><strong>Dirección:</strong> JOSEFINA 1044", "etiqueta": "" }, "geometry": { "type": "Point", "coordinates": [ -71.195793, -32.785839 ] } },
{ "type": "Feature", "properties": { "capa": "colegios", "popup": "<strong>ESCUELA DE PARVULOS NENITA</strong><br><br><strong>Dirección:</strong> JOSEFINA 1028", "etiqueta": "" }, "geometry": { "type": "Point", "coordinates": [ -71.19573, -32.785805 ] } },
{ "type": "Feature", "properties": { "capa": "colegios", "popup": "<strong>ESC.ESPEC.DE LENGUAJE PEQUEÑOS REYES</strong><br><br><strong>Dirección:</strong> CALLE ALDUNATE 615", "etiqueta": "" }, "geometry": { "type": "Point", "coordinates": [ -71.19126, -32.785526 ] } },
{ "type": "Feature", "properties": { "capa": "colegios", "popup": "<strong>ESCUELA BASICA JOSEFINA HUICI</strong><br><br><strong>Dirección:</strong> ALDUNATE 550", "etiqueta": "" }, "geometry": { "type": "Point", "coordinates": [ -71.191689, -32.784889 ] } },
{ "type": "Feature", "properties": { "capa": "colegios", "popup": "<strong>COLEGIO VALLE DE ARAUCO</strong><br><br><strong>Dirección:</strong> LORD COCRHANE 568", "etiqueta": "" }, "geometry": { "type": "Point", "coordinates": [ -71.194344, -32.784851 ] } },
{ "type": "Feature", "properties": { "capa": "colegios", "popup": "<strong>COLEGIO ESPECIAL DE LENGUAJE LOS CAPULLITOS</strong><br><br><strong>Dirección:</strong> HUICI 520", "etiqueta": "" }, "geometry": { "type": "Point", "coordinates": [ -71.19542, -32.78482 ] } },
{ "type": "Feature", "properties": { "capa": "colegios", "popup": "<strong>SAINT MARY SCHOOL</strong><br><br><strong>Dirección:</strong> LAS TORCAZAS 567", "etiqueta": "" }, "geometry": { "type": "Point", "coordinates": [ -71.178421, -32.782162 ] } },
{ "type": "Feature", "properties": { "capa": "colegios", "popup": "<strong>ESCUELA BASICA GABRIELA MISTRAL</strong><br><br><strong>Dirección:</strong> ACONCAGUA 1150", "etiqueta": "" }, "geometry": { "type": "Point", "coordinates": [ -71.197853, -32.78215 ] } },
{ "type": "Feature", "properties": { "capa": "colegios", "popup": "<strong>COLEGIO ADVENTISTA</strong><br><br><strong>Dirección:</strong> JJ NUNEZ 220", "etiqueta": "" }, "geometry": { "type": "Point", "coordinates": [ -71.185448, -32.779251 ] } },
{ "type": "Feature", "properties": { "capa": "colegios", "popup": "<strong>PARVULARIO EL OLIVITO</strong><br><br><strong>Dirección:</strong> BIEN COMUN 1 0", "etiqueta": "" }, "geometry": { "type": "Point", "coordinates": [ -71.16301, -32.778927 ] } },
{ "type": "Feature", "properties": { "capa": "colegios", "popup": "<strong>LICEO BICENTENARIO COMPLEJO EDUCACIONAL LAS ACACIAS DE ARTIFICIO</strong><br><br><strong>Dirección:</strong> JJ NUNEZ 203", "etiqueta": "" }, "geometry": { "type": "Point", "coordinates": [ -71.185722, -32.778709 ] } },
{ "type": "Feature", "properties": { "capa": "colegios", "popup": "<strong>COLEGIO DE LENGUAJE AYELEN</strong><br><br><strong>Dirección:</strong> AVENIDA LOS TILOS 320", "etiqueta": "" }, "geometry": { "type": "Point", "coordinates": [ -71.18384, -32.77842 ] } },
{ "type": "Feature", "properties": { "capa": "colegios", "popup": "<strong>ESCUELA ESPECIAL DE LENGUAJE MANANTIAL</strong><br><br><strong>Dirección:</strong> J.J. GODOY 206", "etiqueta": "" }, "geometry": { "type": "Point", "coordinates": [ -71.194907, -32.776875 ] } },
{ "type": "Feature", "properties": { "capa": "jardines", "popup": "<strong>ALEGRE DESPERTAR</strong><br><br><strong>Dirección:</strong> CALLE CHAÑARAL ESQ. CHUQUICAMATA,POB. O,HIGGINS ", "etiqueta": "" }, "geometry": { "type": "MultiPoint", "coordinates": [ [ -71.209848, -32.78885 ] ] } },
{ "type": "Feature", "properties": { "capa": "jardines", "popup": "<strong>LAS ACACIAS</strong><br><br><strong>Dirección:</strong> J.J. NUÑEZ #203 ARTIFICIO ", "etiqueta": "" }, "geometry": { "type": "MultiPoint", "coordinates": [ [ -71.185608, -32.77884 ] ] } },
{ "type": "Feature", "properties": { "capa": "jardines", "popup": "<strong>SANTA ROSA DEL HUERTO</strong><br><br><strong>Dirección:</strong> SANTA ROSA 311-A ", "etiqueta": "" }, "geometry": { "type": "MultiPoint", "coordinates": [ [ -71.214744, -32.790093 ] ] } },
{ "type": "Feature", "properties": { "capa": "jardines", "popup": "<strong>LOS AROMITOS</strong><br><br><strong>Dirección:</strong> AV. PRINCIPAL 591, LAS CABRITAS ", "etiqueta": "" }, "geometry": { "type": "MultiPoint", "coordinates": [ [ -71.175405, -32.805958 ] ] } },
{ "type": "Feature", "properties": { "capa": "jardines", "popup": "<strong>JOSEFINA HUICI</strong><br><br><strong>Dirección:</strong> JOSEFINA 761,CENTRO CALERA ", "etiqueta": "" }, "geometry": { "type": "MultiPoint", "coordinates": [ [ -71.191564, -32.784969 ] ] } },
{ "type": "Feature", "properties": { "capa": "jardines", "popup": "<strong>REPUBLICA PALESTINA</strong><br><br><strong>Dirección:</strong> CALLE ERCILLA 50 ", "etiqueta": "" }, "geometry": { "type": "MultiPoint", "coordinates": [ [ -71.185383, -32.790746 ] ] } },
{ "type": "Feature", "properties": { "capa": "jardines", "popup": "<strong>SAN ALBERTO HURTADO</strong><br><br><strong>Dirección:</strong> ARTURO ALESSANDRI 520, POB. SAN ALBERTO HURTADO ", "etiqueta": "" }, "geometry": { "type": "MultiPoint", "coordinates": [ [ -71.192694, -32.794778 ] ] } },
{ "type": "Feature", "properties": { "capa": "jardines", "popup": "<strong>PEDRO DE VALDIVIA</strong><br><br><strong>Dirección:</strong> CALLE PEDRO DE VALDIVIA #435 ", "etiqueta": "" }, "geometry": { "type": "MultiPoint", "coordinates": [ [ -71.198689, -32.786899 ] ] } },
{ "type": "Feature", "properties": { "capa": "jardines", "popup": "<strong>LOS PITUFOS</strong><br><br><strong>Dirección:</strong> CHAÑARAL 600 VILLA LOS LAGOS,ARTIFICIO ", "etiqueta": "" }, "geometry": { "type": "MultiPoint", "coordinates": [ [ -71.196888, -32.769198 ] ] } },
{ "type": "Feature", "properties": { "capa": "jardines", "popup": "<strong>LA ARBOLEDA</strong><br><br><strong>Dirección:</strong> CALLE TORCAZA 695, POB. ARBOLEDA, ARTIFICIO ", "etiqueta": "" }, "geometry": { "type": "MultiPoint", "coordinates": [ [ -71.177653, -32.782733 ] ] } },
{ "type": "Feature", "properties": { "capa": "jardines", "popup": "<strong>EL BOSQUE EDUCATIVO</strong><br><br><strong>Dirección:</strong> CALLE EL BOSQUE,N 481,SECTOR ARTIFICIO ", "etiqueta": "" }, "geometry": { "type": "MultiPoint", "coordinates": [ [ -71.1932, -32.774099 ] ] } },
{ "type": "Feature", "properties": { "capa": "jardines", "popup": "<strong>NA</strong><br><br><strong>Dirección:</strong> NA ", "etiqueta": "" }, "geometry": { "type": "MultiPoint", "coordinates": [ [ -71.186005999468563, -32.787228999793655 ] ] } },
{ "type": "Feature", "properties": { "capa": "jardines", "popup": "<strong>NA</strong><br><br><strong>Dirección:</strong> NA ", "etiqueta": "" }, "geometry": { "type": "MultiPoint", "coordinates": [ [ -71.207884999555816, -32.783067000358599 ] ] } },
{ "type": "Feature", "properties": { "capa": "jardines", "popup": "<strong>NA</strong><br><br><strong>Dirección:</strong> NA ", "etiqueta": "" }, "geometry": { "type": "MultiPoint", "coordinates": [ [ -71.186857999652034, -32.774498999863617 ] ] } },
{ "type": "Feature", "properties": { "capa": "jardines", "popup": "<strong>NA</strong><br><br><strong>Dirección:</strong> NA ", "etiqueta": "" }, "geometry": { "type": "MultiPoint", "coordinates": [ [ -71.202287999828158, -32.783823999735915 ] ] } },
{ "type": "Feature", "properties": { "capa": "comisarias", "popup": "<strong>7MA. COM. LA CALERA</strong><br><br><strong>Dirección:</strong> JOSE JOAQUIN PEREZ 598", "etiqueta": "" }, "geometry": { "type": "Point", "coordinates": [ -71.190474467999934, -32.784179556999909 ] } },
{ "type": "Feature", "properties": { "capa": "salud", "popup": "<strong>Posta de Salud Rural Pachacama</strong><br><br><strong>Tipo de atención:</strong> Posta de Salud Rural (PSR)<br><strong>Dirección:</strong>  NA", "etiqueta": "" }, "geometry": { "type": "Point", "coordinates": [ -71.14945, -32.84027 ] } },
{ "type": "Feature", "properties": { "capa": "salud", "popup": "<strong>Posta de Salud Rural Pachacamita</strong><br><br><strong>Tipo de atención:</strong> Posta de Salud Rural (PSR)<br><strong>Dirección:</strong>  48", "etiqueta": "" }, "geometry": { "type": "Point", "coordinates": [ -71.175361, -32.818544 ] } },
{ "type": "Feature", "properties": { "capa": "salud", "popup": "<strong>Posta de Salud Rural Manuel Rodríguez</strong><br><br><strong>Tipo de atención:</strong> Posta de Salud Rural (PSR)<br><strong>Dirección:</strong>  NA", "etiqueta": "" }, "geometry": { "type": "Point", "coordinates": [ -71.193637, -32.795267 ] } },
{ "type": "Feature", "properties": { "capa": "salud", "popup": "<strong>Centro Comunitario de Salud Familiar Patricia Guerra</strong><br><br><strong>Tipo de atención:</strong> Centro Comunitario de Salud Familiar (CECOSF)<br><strong>Dirección:</strong>  NA", "etiqueta": "" }, "geometry": { "type": "Point", "coordinates": [ -71.21715, -32.79333 ] } },
{ "type": "Feature", "properties": { "capa": "salud", "popup": "<strong>Hospital Dr. Mario Sánchez Vergara (La Calera)</strong><br><br><strong>Tipo de atención:</strong> Hospital<br><strong>Dirección:</strong>  1603", "etiqueta": "" }, "geometry": { "type": "Point", "coordinates": [ -71.20454, -32.7926 ] } },
{ "type": "Feature", "properties": { "capa": "salud", "popup": "<strong>Centro de Salud Familiar La Calera</strong><br><br><strong>Tipo de atención:</strong> Centro de Salud Familiar (CESFAM)<br><strong>Dirección:</strong>  1934", "etiqueta": "" }, "geometry": { "type": "Point", "coordinates": [ -71.22, -32.79211 ] } },
{ "type": "Feature", "properties": { "capa": "salud", "popup": "<strong>Clínica Los Leones</strong><br><br><strong>Tipo de atención:</strong> Clínica<br><strong>Dirección:</strong>  54", "etiqueta": "" }, "geometry": { "type": "Point", "coordinates": [ -71.183588, -32.790085 ] } },
{ "type": "Feature", "properties": { "capa": "salud", "popup": "<strong>Asociación Chilena de Seguridad AChS La Calera</strong><br><br><strong>Tipo de atención:</strong> Centro de Salud Privado<br><strong>Dirección:</strong>  98", "etiqueta": "" }, "geometry": { "type": "Point", "coordinates": [ -71.183408, -32.78995 ] } },
{ "type": "Feature", "properties": { "capa": "salud", "popup": "<strong>Centro de Salud Mutual CCHC La Calera</strong><br><br><strong>Tipo de atención:</strong> Centro de Salud Privado<br><strong>Dirección:</strong>  53", "etiqueta": "" }, "geometry": { "type": "Point", "coordinates": [ -71.18349, -32.789924 ] } },
{ "type": "Feature", "properties": { "capa": "salud", "popup": "<strong>Centro Comunitario de Salud Familiar Susana Guerra  Guajardo.</strong><br><br><strong>Tipo de atención:</strong> Centro Comunitario de Salud Familiar (CECOSF)<br><strong>Dirección:</strong>  926", "etiqueta": "" }, "geometry": { "type": "Point", "coordinates": [ -71.19495, -32.78255 ] } },
{ "type": "Feature", "properties": { "capa": "salud", "popup": "<strong>SAPU Artificio</strong><br><br><strong>Tipo de atención:</strong> Servicio de Atención Primaria de Urgencia (SAPU)<br><strong>Dirección:</strong>  88", "etiqueta": "" }, "geometry": { "type": "Point", "coordinates": [ -71.188956, -32.775443 ] } },
{ "type": "Feature", "properties": { "capa": "salud", "popup": "<strong>Centro de Salud Familiar Artificio</strong><br><br><strong>Tipo de atención:</strong> Centro de Salud Familiar (CESFAM)<br><strong>Dirección:</strong>  88", "etiqueta": "" }, "geometry": { "type": "Point", "coordinates": [ -71.18897, -32.77523 ] } },
{ "type": "Feature", "properties": { "capa": "salud", "popup": "<strong>Centro de Salud CLINAR LTDA</strong><br><br><strong>Tipo de atención:</strong> Centro de Salud Privado<br><strong>Dirección:</strong>  169", "etiqueta": "" }, "geometry": { "type": "Point", "coordinates": [ -71.191867579999951, -32.77688448 ] } },
{ "type": "Feature", "properties": { "capa": "municipios", "popup": "<strong>Municipalidad de Calera</strong><br><br><strong>Dirección:</strong> Avenida Marathon Nº 312<br><strong>Región:</strong> Valparaíso", "etiqueta": "" }, "geometry": { "type": "Point", "coordinates": [ -71.201069559999951, -32.788913521 ] } }
]
}
