{
"type": "FeatureCollection",
"name": "5504",
"crs": { "type": "name", "properties": { "name": "urn:ogc:def:crs:OGC:1.3:CRS84" } },
"features": [
{ "type": "Feature", "properties": { "capa": "comuna", "popup": "", "etiqueta": "" }, "geometry": { "type": "Polygon", "coordinates": [ [ [ -71.272317550696229, -32.780784958957 ], [ -71.271258805285512, -32.781328743832816 ], [ -71.270426951857701, -32.781916127337361 ], [ -71.269364461370557, -32.782316872778395 ], [ -71.268076264676722, -32.782721770992602 ], [ -71.26701876612762, -32.783313146537914 ], [ -71.26573779548194, -32.784004003099746 ], [ -71.264692175355833, -32.785072071920105 ], [ -71.263808690358758, -32.785851015107177 ], [ -71.26276060974709, -32.786823742757633 ], [ -71.261934684301821, -32.787649428745937 ], [ -71.261161592371678, -32.788330989190506 ], [ -71.260899920315921, -32.789146402741352 ], [ -71.260800336676795, -32.789672850403043 ], [ -71.260818435034835, -32.790387839804268 ], [ -71.261017932893125, -32.791576407041276 ], [ -71.261034740372097, -32.792243771353981 ], [ -71.261001284415954, -32.79315050736723 ], [ -71.260788834647911, -32.793678919630729 ], [ -71.260130874397831, -32.794453839566181 ], [ -71.259523346466139, -32.794989309141421 ], [ -71.258972289328142, -32.79552383006714 ], [ -71.258537621511607, -32.796199341262351 ], [ -71.257988874840507, -32.796829186695582 ], [ -71.257356180606124, -32.797484405582267 ], [ -71.256977969210268, -32.798158893811781 ], [ -71.256771509408509, -32.798925655838943 ], [ -71.256680325017285, -32.799785635411126 ], [ -71.256529046028504, -32.800503678636275 ], [ -71.256375358656427, -32.801126469784663 ], [ -71.256110084356393, -32.801798845612602 ], [ -71.255392019627294, -32.802431733587724 ], [ -71.254833582829221, -32.802680258024616 ], [ -71.253996697937509, -32.803076888418175 ], [ -71.25316444116612, -32.803664098093556 ], [ -71.252501533893792, -32.804248327452378 ], [ -71.251501186163054, -32.80488627269542 ], [ -71.250721859924838, -32.805329421615625 ], [ -71.249721489736231, -32.805967427808675 ], [ -71.248886862310826, -32.806459281180693 ], [ -71.248393267706604, -32.807040373877555 ], [ -71.24795606574267, -32.807620525784237 ], [ -71.247122702246841, -32.808160067939902 ], [ -71.246176272297788, -32.808701708040708 ], [ -71.245564966052001, -32.809094087248312 ], [ -71.24481801240168, -32.809703573802487 ], [ -71.243983237652557, -32.810195472184716 ], [ -71.243377904305078, -32.810826272440821 ], [ -71.242413245742284, -32.8117829384584 ], [ -71.242365440996124, -32.810987510492616 ], [ -71.242387756046099, -32.810274081992013 ], [ -71.242385265017816, -32.810251520883249 ], [ -71.242307275081473, -32.809755305658676 ], [ -71.242293388923827, -32.809202610245158 ], [ -71.242282370188548, -32.808760526337558 ], [ -71.242328336981643, -32.807985654085847 ], [ -71.242378467466068, -32.807376554407043 ], [ -71.242623676995905, -32.806708627918063 ], [ -71.242805997269343, -32.806152415450768 ], [ -71.243040006604218, -32.805042480803237 ], [ -71.242820108904141, -32.804106378748486 ], [ -71.242673948515844, -32.803500869243017 ], [ -71.242249358898476, -32.802236740257293 ], [ -71.240706939877555, -32.800771520577406 ], [ -71.239698925025877, -32.799739002956954 ], [ -71.238959714853323, -32.798978177009239 ], [ -71.238553213712507, -32.79843250201921 ], [ -71.238077168595694, -32.797722295243886 ], [ -71.238062907840543, -32.797153352649303 ], [ -71.238003922662358, -32.796949628374648 ], [ -71.238160128012169, -32.796422331231916 ], [ -71.238436366250255, -32.796178927180868 ], [ -71.238821796507736, -32.795790475782347 ], [ -71.238922799485024, -32.795311812957387 ], [ -71.238567470874401, -32.794650495414707 ], [ -71.23787705089984, -32.794138261836537 ], [ -71.23678321280255, -32.793299396785862 ], [ -71.236547935944813, -32.792922115883684 ], [ -71.236509841986859, -32.792726379013075 ], [ -71.236480429347836, -32.792719842385971 ], [ -71.235870742764504, -32.792704601078093 ], [ -71.23545920476991, -32.792597905808776 ], [ -71.234666612211569, -32.792293062123974 ], [ -71.233980715254489, -32.792171125716749 ], [ -71.233462480760338, -32.791957735280327 ], [ -71.232913762835338, -32.79183579765818 ], [ -71.232207389679672, -32.79163742287129 ], [ -71.231940948468079, -32.791562595065741 ], [ -71.231183554597536, -32.791242159651475 ], [ -71.230950510053262, -32.791009116704949 ], [ -71.230542683897426, -32.790309983446356 ], [ -71.230251378217091, -32.789698242623039 ], [ -71.229911057759921, -32.789015997883247 ], [ -71.22948647982065, -32.789291612806799 ], [ -71.22681398107062, -32.791026396507341 ], [ -71.224809999571875, -32.792289999953049 ], [ -71.223699999884303, -32.79295999892792 ], [ -71.22267999971011, -32.793560000431818 ], [ -71.217340000436266, -32.796720001453011 ], [ -71.215439999829968, -32.797900000379641 ], [ -71.214550000250441, -32.798449999360145 ], [ -71.211250000426674, -32.80023000053842 ], [ -71.208393484485626, -32.802559813537577 ], [ -71.207738567727731, -32.803093946905868 ], [ -71.195733740087263, -32.812883088891205 ], [ -71.195397900426698, -32.813156896392933 ], [ -71.19356388017971, -32.814652122768891 ], [ -71.193690509397115, -32.814801775689119 ], [ -71.193591128777243, -32.814867860286149 ], [ -71.193741265108969, -32.815387890965852 ], [ -71.193968481383678, -32.815794208161428 ], [ -71.194149096654726, -32.816219365693847 ], [ -71.19415046209393, -32.816221557331232 ], [ -71.194392885948091, -32.816616377315761 ], [ -71.194431524285108, -32.816832153095937 ], [ -71.194346677508193, -32.817031993642061 ], [ -71.194090187833325, -32.817744431002239 ], [ -71.193765859184822, -32.818480514823527 ], [ -71.193542729346348, -32.818948875642839 ], [ -71.193227266171391, -32.819472931872617 ], [ -71.193053429587508, -32.81959772371362 ], [ -71.192991485358775, -32.81971154177031 ], [ -71.192436133375409, -32.820036865369218 ], [ -71.19188820327291, -32.820190815296499 ], [ -71.191297574448313, -32.82029128633819 ], [ -71.190722409223056, -32.820558367328836 ], [ -71.190167046459891, -32.820883755014215 ], [ -71.189800956930483, -32.821007401176679 ], [ -71.189110597143056, -32.821326060945836 ], [ -71.188553506021279, -32.821692029010393 ], [ -71.188350493055282, -32.822218612333323 ], [ -71.18820142482042, -32.822536811796603 ], [ -71.187687124947203, -32.822960610705323 ], [ -71.187132954248426, -32.823267940026433 ], [ -71.186896884178282, -32.82350654426007 ], [ -71.186077591893081, -32.824206196245299 ], [ -71.185316307419029, -32.824602756233944 ], [ -71.184488842261374, -32.824955329010002 ], [ -71.18359179090686, -32.82536784302782 ], [ -71.182836184683708, -32.825629024496216 ], [ -71.18227903966303, -32.825994966528995 ], [ -71.182106683502738, -32.826331590923388 ], [ -71.181679416007498, -32.82683503728218 ], [ -71.181567482329854, -32.826909164320796 ], [ -71.181303494417307, -32.827184296407495 ], [ -71.180842316418435, -32.827417727627079 ], [ -71.18006801715255, -32.827584584937902 ], [ -71.179338254561813, -32.82777311994581 ], [ -71.178628527096876, -32.828015452387447 ], [ -71.177942666970708, -32.8282212401813 ], [ -71.177530879244458, -32.828363746697939 ], [ -71.176872523735682, -32.828456318027172 ], [ -71.176302817572378, -32.828592480399905 ], [ -71.175778936268358, -32.828709818874081 ], [ -71.175477980885248, -32.828890873965697 ], [ -71.175123568556202, -32.829262272921952 ], [ -71.174665416083172, -32.829951068003851 ], [ -71.174306830181337, -32.830417244991068 ], [ -71.174014741170083, -32.830922823231973 ], [ -71.173755892519281, -32.831693846623807 ], [ -71.173413538276293, -32.83231302929098 ], [ -71.172895030694292, -32.832831476899941 ], [ -71.172201049797977, -32.833226864648623 ], [ -71.171863736002038, -32.833453679930315 ], [ -71.171698780163055, -32.833546670910984 ], [ -71.171596408153249, -32.8336475887874 ], [ -71.170950167324392, -32.833987990656382 ], [ -71.170314614650763, -32.834084712074727 ], [ -71.169644749028222, -32.834443543004376 ], [ -71.169132038274768, -32.834831190670805 ], [ -71.168730933313896, -32.835234926599036 ], [ -71.16837334364368, -32.835682970685639 ], [ -71.167792285470142, -32.836085316951241 ], [ -71.167236735857415, -32.836410535289332 ], [ -71.166684572893303, -32.836659159423739 ], [ -71.166112960504961, -32.836831362088041 ], [ -71.165764551616974, -32.837067366652079 ], [ -71.165588638128128, -32.837480712778436 ], [ -71.165478370825326, -32.837956013158291 ], [ -71.165193071280981, -32.838290137704789 ], [ -71.164905405574174, -32.838678379181133 ], [ -71.164707093492055, -32.839092113301682 ], [ -71.164657656507032, -32.839377091213521 ], [ -71.164625816620088, -32.839413693253938 ], [ -71.16438330383275, -32.839805659063863 ], [ -71.164114919565179, -32.840274680293781 ], [ -71.163872316048, -32.840666646830527 ], [ -71.163549039326682, -32.841362082726519 ], [ -71.163346715368519, -32.841870665145976 ], [ -71.16334232260678, -32.842497422282669 ], [ -71.163387007503943, -32.843033277849187 ], [ -71.163407547482919, -32.843605526717312 ], [ -71.163355394890786, -32.844287259580227 ], [ -71.163395118392657, -32.844935933848582 ], [ -71.163284483678893, -32.845411311290086 ], [ -71.163087877497489, -32.845784455450968 ], [ -71.163007242920955, -32.845916533963276 ], [ -71.162991323875801, -32.845934909484775 ], [ -71.162586666077985, -32.846415370513412 ], [ -71.162246017735697, -32.846998370838584 ], [ -71.161967672948307, -32.847693025831603 ], [ -71.161582728679377, -32.848254258724879 ], [ -71.161408505819921, -32.848627086796121 ], [ -71.160935765605018, -32.849126671088051 ], [ -71.160532920607437, -32.849570969803253 ], [ -71.160428875036274, -32.849892941951929 ], [ -71.160288232100456, -32.850535644340404 ], [ -71.160079610952124, -32.851197546630324 ], [ -71.159831206114816, -32.851720365087068 ], [ -71.159465324096232, -32.852357943757596 ], [ -71.159369954454093, -32.852720322364902 ], [ -71.159262077568258, -32.852884487848002 ], [ -71.159128646307522, -32.853355749162148 ], [ -71.158967343916785, -32.853962757134845 ], [ -71.158832530148842, -32.854474599795132 ], [ -71.158806129560958, -32.855079204176548 ], [ -71.15880746984736, -32.855575177499503 ], [ -71.158745776248594, -32.855954998797039 ], [ -71.158374110876196, -32.856723359070664 ], [ -71.158233030460821, -32.857388673559036 ], [ -71.158063245278868, -32.858180735455967 ], [ -71.157687996526818, -32.859025764171776 ], [ -71.157510628665534, -32.859479757315484 ], [ -71.157526200961001, -32.859497513529725 ], [ -71.157389987617833, -32.859666672400195 ], [ -71.157158207901489, -32.860324537472572 ], [ -71.15695580938312, -32.860833037627316 ], [ -71.156798467664501, -32.861340760675631 ], [ -71.156750379949031, -32.861932293674656 ], [ -71.156789190762552, -32.86259886165891 ], [ -71.156803086801688, -32.863324590862156 ], [ -71.15676334353688, -32.863722058137334 ], [ -71.15666003817752, -32.864021481282059 ], [ -71.156125387869864, -32.864350874774608 ], [ -71.154052742744057, -32.864792316003005 ], [ -71.152249405353913, -32.865156986663912 ], [ -71.151033326309388, -32.865340289127545 ], [ -71.150546626274988, -32.865416329964589 ], [ -71.149379562905622, -32.865733963375881 ], [ -71.148058819350723, -32.866049720636639 ], [ -71.147355145632488, -32.866323324208807 ], [ -71.146271988503926, -32.866923538739108 ], [ -71.145522145871638, -32.867319670980983 ], [ -71.145488282080379, -32.867338350668952 ], [ -71.145422234347436, -32.867492774654266 ], [ -71.145383744232447, -32.867795510226614 ], [ -71.145420189781831, -32.867909317800354 ], [ -71.146832345001727, -32.867378741698687 ], [ -71.147338778327992, -32.867274598870431 ], [ -71.148458763688268, -32.866825851098831 ], [ -71.149412790689681, -32.866523189932558 ], [ -71.150370178288568, -32.866363559513189 ], [ -71.15132880107096, -32.866251624964292 ], [ -71.15234385871446, -32.866138710137569 ], [ -71.153355453352532, -32.865882677580046 ], [ -71.154421257724749, -32.865530257544933 ], [ -71.155094936695662, -32.865327830188804 ], [ -71.155880415495261, -32.865075674383732 ], [ -71.156724812099398, -32.864917944313675 ], [ -71.157629110163299, -32.864902418101963 ], [ -71.158478036971417, -32.864935416486091 ], [ -71.159186320843702, -32.864994773254033 ], [ -71.160203664699608, -32.864977203002923 ], [ -71.161042176440304, -32.864580929006472 ], [ -71.161710040616384, -32.864139878336658 ], [ -71.162216348178518, -32.864035752077669 ], [ -71.162953379936511, -32.864118451417411 ], [ -71.163577453937435, -32.864203101941378 ], [ -71.163974188594466, -32.864243959955068 ], [ -71.164875082941776, -32.864085196937182 ], [ -71.165609883284603, -32.864072473729941 ], [ -71.166119664631935, -32.864111367713178 ], [ -71.166635336232588, -32.864388772634427 ], [ -71.167099128328928, -32.864857891806146 ], [ -71.167630971401309, -32.8658030598951 ], [ -71.16809826063907, -32.866415357960705 ], [ -71.168506619495886, -32.866933155913181 ], [ -71.169136439121345, -32.867256291902997 ], [ -71.1695910504355, -32.867343777186619 ], [ -71.170441074984879, -32.867424472452832 ], [ -71.171175902277184, -32.867411715016686 ], [ -71.172080304545673, -32.86739608209961 ], [ -71.172985693164335, -32.867428073779834 ], [ -71.174627159530203, -32.867494983134492 ], [ -71.175419674833392, -32.867528920685558 ], [ -71.176040195997388, -32.867470400867681 ], [ -71.176828045451003, -32.867313445423505 ], [ -71.177557034592269, -32.867062137312793 ], [ -71.178348294050735, -32.86704842912448 ], [ -71.179084280169732, -32.867083328109437 ], [ -71.179597582014665, -32.867265199790275 ], [ -71.179942482981474, -32.867497875209814 ], [ -71.180402854293249, -32.867823834808952 ], [ -71.180750178914693, -32.868151763247184 ], [ -71.181158710248027, -32.86866966197352 ], [ -71.181643305529718, -32.869251223593665 ], [ -71.182074956803518, -32.869507027619477 ], [ -71.182471480356455, -32.869543187919753 ], [ -71.182802635302792, -32.869515867375462 ], [ -71.183131150100522, -32.869380888220206 ], [ -71.183434415052233, -32.8692571192964 ], [ -71.183587497858099, -32.869254446084952 ], [ -71.183791874466706, -32.86926164783565 ], [ -71.183957715146263, -32.869258751290843 ], [ -71.184160770333094, -32.869212122866692 ], [ -71.184302152582404, -32.869252734867374 ], [ -71.184432363382825, -32.86935816180209 ], [ -71.184564159709723, -32.869528184633779 ], [ -71.184822469371369, -32.86965291365987 ], [ -71.185026580976967, -32.86964934713027 ], [ -71.185393100799402, -32.869502928404962 ], [ -71.185669526785375, -32.869325772439808 ], [ -71.185956331007816, -32.869051502093306 ], [ -71.186484455953234, -32.868729929953076 ], [ -71.187116482739384, -32.868481929863343 ], [ -71.187645921920065, -32.868214181943479 ], [ -71.188211512901049, -32.867859635891044 ], [ -71.188720458815155, -32.867796877412324 ], [ -71.189126027504685, -32.867682074484456 ], [ -71.189645611268375, -32.867532963402354 ], [ -71.190418472331501, -32.867304022202759 ], [ -71.19105899628191, -32.866883530046337 ], [ -71.19170882588034, -32.86632285790926 ], [ -71.192779342814532, -32.865744035663539 ], [ -71.193614635891578, -32.865460128606038 ], [ -71.194275314443715, -32.865340833904249 ], [ -71.194709028249406, -32.865333222875243 ], [ -71.195037243908118, -32.865187448945441 ], [ -71.195439076504385, -32.864921907922621 ], [ -71.195791473912251, -32.864721855990425 ], [ -71.196297740151863, -32.864551410452513 ], [ -71.197186689600841, -32.864374240822499 ], [ -71.198426961174263, -32.863953943029983 ], [ -71.199349648650355, -32.863593069616158 ], [ -71.199651008275353, -32.863393904306754 ], [ -71.200102512316917, -32.863073624580771 ], [ -71.200669681637862, -32.86267527684511 ], [ -71.200665913205256, -32.862540882627165 ], [ -71.200658665597544, -32.862496026910968 ], [ -71.200649457865879, -32.862439046098928 ], [ -71.200640614850215, -32.862365443722723 ], [ -71.200636182562604, -32.862280838982365 ], [ -71.20063854603012, -32.862191386080134 ], [ -71.200646559900775, -32.862103445992375 ], [ -71.200669092343034, -32.862013699384825 ], [ -71.20073246579139, -32.86191724910892 ], [ -71.200832370129078, -32.861826366687659 ], [ -71.200945576719505, -32.861747854577565 ], [ -71.201062203196216, -32.861675793213394 ], [ -71.201178742536342, -32.861607055672287 ], [ -71.201296482025683, -32.861539955496333 ], [ -71.201414030173865, -32.861473986372026 ], [ -71.201530787804614, -32.861408162830976 ], [ -71.201642328918496, -32.861344837630313 ], [ -71.201751970095557, -32.861284122452069 ], [ -71.201864843410988, -32.861222065600735 ], [ -71.201980952458101, -32.861155912878509 ], [ -71.202094751038288, -32.861090811229275 ], [ -71.202208309768309, -32.861028590499913 ], [ -71.202320290158369, -32.860968248620118 ], [ -71.202430139744564, -32.860908267386684 ], [ -71.202539169168901, -32.860850535505485 ], [ -71.202647669485557, -32.860794640981865 ], [ -71.202755722441196, -32.860742716255395 ], [ -71.202848857074912, -32.860705449928446 ], [ -71.202924174523275, -32.860685044632675 ], [ -71.202979305928892, -32.860671275092379 ], [ -71.203058907442852, -32.860657525923592 ], [ -71.203131124805154, -32.860651951099456 ], [ -71.203215485593503, -32.860644809015803 ], [ -71.203295759047293, -32.860631676333469 ], [ -71.203379933884349, -32.860614383657513 ], [ -71.203478764735294, -32.860594437124696 ], [ -71.203580825029661, -32.860572798821437 ], [ -71.203684672971434, -32.860542255724098 ], [ -71.203785895137671, -32.860508415103872 ], [ -71.203875115811684, -32.8604646653285 ], [ -71.203952911711923, -32.860411531571152 ], [ -71.204021413642209, -32.86035245772198 ], [ -71.204079920916683, -32.86029208746271 ], [ -71.204135805110496, -32.860233577961182 ], [ -71.204194211773654, -32.860173518508951 ], [ -71.204251556628108, -32.860111104717497 ], [ -71.204310669367089, -32.86004865918963 ], [ -71.204371313733589, -32.859985993279274 ], [ -71.20443545883478, -32.859920421419815 ], [ -71.204503789186859, -32.859851816834471 ], [ -71.204573207398738, -32.859779830897629 ], [ -71.20464271274723, -32.859707418561129 ], [ -71.204712965494025, -32.859633603388389 ], [ -71.20478398809702, -32.859559082614858 ], [ -71.204863479118202, -32.859492061630569 ], [ -71.204960210606302, -32.859431543640945 ], [ -71.205081884716591, -32.859380646621432 ], [ -71.205224362910542, -32.8593397290186 ], [ -71.205366903088262, -32.859299266414524 ], [ -71.205480539073378, -32.859281698808061 ], [ -71.205575972495907, -32.859269548400171 ], [ -71.205658304888317, -32.859265400418614 ], [ -71.205728329463028, -32.859263938777666 ], [ -71.205782467331957, -32.859263121556609 ], [ -71.205996813443576, -32.859266654547326 ], [ -71.206077843278834, -32.859265783750416 ], [ -71.206164344752494, -32.859260587643043 ], [ -71.206272475861553, -32.859249980369214 ], [ -71.206379790402025, -32.859240690608765 ], [ -71.206498093135039, -32.859229992781692 ], [ -71.206625409563642, -32.859216988924878 ], [ -71.206754646590298, -32.859203603997912 ], [ -71.206872466928033, -32.85919374527122 ], [ -71.206985952894485, -32.859183570369908 ], [ -71.207101955042077, -32.859174066298692 ], [ -71.207220909053689, -32.859166509071038 ], [ -71.207338913546039, -32.859163216790819 ], [ -71.207453035519734, -32.859166142339873 ], [ -71.207552534717252, -32.859171686319115 ], [ -71.207622293390628, -32.859179143940352 ], [ -71.207687584742118, -32.859193753571731 ], [ -71.207753674695866, -32.859199734457228 ], [ -71.207828609461927, -32.859205905499188 ], [ -71.207910102827867, -32.85920984597108 ], [ -71.20799439803919, -32.859209187968126 ], [ -71.208080200623556, -32.859204911703401 ], [ -71.208163231006949, -32.859194045598301 ], [ -71.208245883199609, -32.859194866592972 ], [ -71.208331231236443, -32.859211980707727 ], [ -71.208408091990478, -32.8592347014255 ], [ -71.208417645573519, -32.859238921094544 ], [ -71.208464464867802, -32.859259603657534 ], [ -71.20851161114885, -32.85928524085314 ], [ -71.208569115903458, -32.859318534862524 ], [ -71.208637003386116, -32.859350865248821 ], [ -71.208723901915121, -32.859374701968378 ], [ -71.208818466666756, -32.859387289268938 ], [ -71.20891290924753, -32.859396559394732 ], [ -71.209009692837924, -32.85940271231285 ], [ -71.20910710075745, -32.859408397385437 ], [ -71.209203450461558, -32.859413625176863 ], [ -71.209302099852806, -32.859419108773579 ], [ -71.209404495218777, -32.859426533926701 ], [ -71.209509788549866, -32.859433672335506 ], [ -71.209619497998872, -32.859438262498081 ], [ -71.209729642232475, -32.859442037704788 ], [ -71.209840064943847, -32.859446849715937 ], [ -71.209953812320066, -32.859453879462365 ], [ -71.210067084487505, -32.859462673435921 ], [ -71.210179669443747, -32.859470924105032 ], [ -71.210294828971598, -32.859479937662066 ], [ -71.210406367390547, -32.859486984006821 ], [ -71.210512046098856, -32.859493754171751 ], [ -71.210609618410089, -32.85950564497066 ], [ -71.210687363106345, -32.859515753431303 ], [ -71.210777216194316, -32.859523440418315 ], [ -71.210800134013851, -32.859523435890786 ], [ -71.210897398202931, -32.859523417026097 ], [ -71.210980345941323, -32.859522462472434 ], [ -71.211064518981743, -32.859525476296383 ], [ -71.211159193327873, -32.859530602966139 ], [ -71.211267096264848, -32.859536849443856 ], [ -71.211378260086292, -32.859542908783361 ], [ -71.211476821442659, -32.859547667967917 ], [ -71.211481196238083, -32.859547879252467 ], [ -71.211577510907901, -32.859553840494833 ], [ -71.211668213802128, -32.859558746823375 ], [ -71.211721404846742, -32.859561608219416 ], [ -71.211754373915994, -32.859563382254727 ], [ -71.211854635783169, -32.859563031371508 ], [ -71.211956961978856, -32.859557083712346 ], [ -71.21205890100066, -32.859555161023174 ], [ -71.212168334666885, -32.859542688443767 ], [ -71.21227846273085, -32.859526178817681 ], [ -71.212376086246024, -32.859507566906366 ], [ -71.212424403031889, -32.859496185454667 ], [ -71.212462002018114, -32.85948732809905 ], [ -71.212554348829329, -32.859459516238033 ], [ -71.212644187544271, -32.859427240976316 ], [ -71.212741356511913, -32.859390496272276 ], [ -71.212848742917615, -32.859353991512407 ], [ -71.212963278116334, -32.859327063233955 ], [ -71.213079453638755, -32.859314208800136 ], [ -71.213192306292953, -32.859316907212701 ], [ -71.21329849075282, -32.859334858143633 ], [ -71.213371790585043, -32.859356424308352 ], [ -71.213427814017749, -32.859372526487853 ], [ -71.213498060476326, -32.859387035727032 ], [ -71.213586964943374, -32.859410450621702 ], [ -71.213686856704641, -32.859436024388266 ], [ -71.213796807800463, -32.859461527216148 ], [ -71.213916821824114, -32.859494861152534 ], [ -71.214043388159439, -32.859534677740228 ], [ -71.214172672796821, -32.859582004718561 ], [ -71.214297995863802, -32.859632540929972 ], [ -71.21441413904688, -32.859679379638585 ], [ -71.214525481633075, -32.859723417298639 ], [ -71.214643496905211, -32.859762793105602 ], [ -71.214762716818143, -32.859796006949686 ], [ -71.214884198688964, -32.859821678701181 ], [ -71.215008945037525, -32.859839992485462 ], [ -71.215126119486555, -32.859847312715999 ], [ -71.215236924880216, -32.859839795538697 ], [ -71.215341498660763, -32.859822382729298 ], [ -71.215446399428075, -32.859803843320336 ], [ -71.215562088961931, -32.859789234544046 ], [ -71.215686173252109, -32.859779437003894 ], [ -71.215812178140396, -32.859771562147188 ], [ -71.215939197226618, -32.85976471277197 ], [ -71.216068107266523, -32.85975362337804 ], [ -71.216199953000782, -32.85974836014109 ], [ -71.216331829277749, -32.859754642823596 ], [ -71.216454682876005, -32.859770744930842 ], [ -71.216570871873159, -32.859790130991755 ], [ -71.216684846523151, -32.859803357367277 ], [ -71.216795628560632, -32.859812086411843 ], [ -71.216907389761744, -32.859816435087517 ], [ -71.217022690325095, -32.859822729838548 ], [ -71.217129695845117, -32.859832454179148 ], [ -71.217233398259836, -32.859841807262789 ], [ -71.217338049295478, -32.85985237145448 ], [ -71.217443306693937, -32.859864794942332 ], [ -71.217548241597228, -32.859876878110647 ], [ -71.217653991272485, -32.859890880940938 ], [ -71.217762007397184, -32.859899940484979 ], [ -71.217869605805291, -32.859902474380277 ], [ -71.217977444063578, -32.859893815520991 ], [ -71.218082250507777, -32.859875464773189 ], [ -71.218187341717908, -32.859855967052312 ], [ -71.21829916849606, -32.859834587391632 ], [ -71.218418277017904, -32.859813881570538 ], [ -71.218542115169697, -32.859795062963144 ], [ -71.218660606548937, -32.859775258862797 ], [ -71.218772310257876, -32.859756673414232 ], [ -71.218880216788136, -32.8597351269661 ], [ -71.218993907570507, -32.859710855701685 ], [ -71.219112885836608, -32.85968624486673 ], [ -71.219238316701421, -32.859659807170544 ], [ -71.219366916822551, -32.859631854255852 ], [ -71.219496445801667, -32.859606967974656 ], [ -71.21963351613762, -32.859581990381407 ], [ -71.219772857414597, -32.859556809797077 ], [ -71.2199086970586, -32.859532739204241 ], [ -71.220106915715931, -32.859497152836603 ], [ -71.22017146236405, -32.859485528406204 ], [ -71.220298728486966, -32.859459417386951 ], [ -71.220426079949874, -32.859434540867028 ], [ -71.220553553583613, -32.859405359410701 ], [ -71.220679821678274, -32.85937301017951 ], [ -71.220806779679052, -32.85933981655095 ], [ -71.220929830008373, -32.859307896657448 ], [ -71.221031860658329, -32.859281133620215 ], [ -71.221123796939466, -32.859255002921451 ], [ -71.221204360549081, -32.859231922269259 ], [ -71.221285060702627, -32.859208229638149 ], [ -71.221379254450071, -32.859178258050768 ], [ -71.221487367592829, -32.859146442232671 ], [ -71.22160692976388, -32.8591205491905 ], [ -71.22173355179477, -32.859109457452242 ], [ -71.221864045564516, -32.859127029620353 ], [ -71.221984874360103, -32.859166580002594 ], [ -71.222103939762818, -32.859203012398865 ], [ -71.222230323740121, -32.859250585550576 ], [ -71.222373990405202, -32.85926417798273 ], [ -71.222518898542006, -32.859262434125029 ], [ -71.222621752048781, -32.85925067459219 ], [ -71.222737619449077, -32.859238527198393 ], [ -71.22285500769712, -32.859228088195579 ], [ -71.222969610269502, -32.859210616408035 ], [ -71.223081622100594, -32.859201754496333 ], [ -71.22318898874336, -32.859196627052967 ], [ -71.223294856996219, -32.859185386669857 ], [ -71.223403434567985, -32.859168677010693 ], [ -71.223513480885231, -32.859147914439852 ], [ -71.223621881488882, -32.859120209624429 ], [ -71.223727157751981, -32.859088553004341 ], [ -71.223834642972335, -32.859058109001992 ], [ -71.223946986281774, -32.859030795037199 ], [ -71.224066013056927, -32.859002522731757 ], [ -71.224190156635913, -32.858969545532645 ], [ -71.224315862385211, -32.858936680001023 ], [ -71.224425837735552, -32.858901490310309 ], [ -71.22453959319661, -32.858870305233076 ], [ -71.22465159334962, -32.858839950197918 ], [ -71.224763120090458, -32.858814779212622 ], [ -71.224868171774716, -32.858794279912303 ], [ -71.224949680412024, -32.858778724708614 ], [ -71.225024305259311, -32.858763241188647 ], [ -71.225218243444303, -32.85872664939226 ], [ -71.225545251767286, -32.858664948429805 ], [ -71.225638433113389, -32.858647102252043 ], [ -71.225739693008848, -32.858626135063737 ], [ -71.225851341022263, -32.858606284672064 ], [ -71.225962493165625, -32.858584969605417 ], [ -71.226069907419088, -32.858570618700213 ], [ -71.226174623133446, -32.858561223979777 ], [ -71.226276778649236, -32.858543979948927 ], [ -71.226381348836526, -32.858527879128182 ], [ -71.226488178286729, -32.858513959088313 ], [ -71.226595039177994, -32.858498944126644 ], [ -71.226706519206445, -32.858483296810356 ], [ -71.226825872070023, -32.858467699294728 ], [ -71.226945219543751, -32.858445573002953 ], [ -71.227065439281574, -32.858423541030305 ], [ -71.227189348400287, -32.858396757352111 ], [ -71.227316894797582, -32.858373059215744 ], [ -71.227447749690086, -32.858352351544333 ], [ -71.22758062758858, -32.858332028713015 ], [ -71.227714679585191, -32.858309487358405 ], [ -71.22785000000296, -32.858285815609669 ], [ -71.227986180108431, -32.858262187621314 ], [ -71.228122977356549, -32.858233880359343 ], [ -71.228258151348925, -32.858199115229148 ], [ -71.228388746628283, -32.858167192661334 ], [ -71.228508923247006, -32.858137529353485 ], [ -71.228625881202049, -32.858106721307621 ], [ -71.228745324795483, -32.858080570643295 ], [ -71.228868108325159, -32.858053468420216 ], [ -71.228986864707394, -32.858026110379214 ], [ -71.229094878137161, -32.858004931755922 ], [ -71.229189811198083, -32.857986303678793 ], [ -71.229269922056787, -32.857982013772265 ], [ -71.22935734879519, -32.857962416027846 ], [ -71.22977291124225, -32.858094775235379 ], [ -71.229876710675015, -32.85811545580134 ], [ -71.230027777661391, -32.858139799943864 ], [ -71.230106391926881, -32.858147410835549 ], [ -71.230249608535971, -32.858144856515928 ], [ -71.230526919362504, -32.858135404400805 ], [ -71.230618380434834, -32.858124760771638 ], [ -71.230653500070872, -32.858115121513592 ], [ -71.230675683068498, -32.858092194503236 ], [ -71.230935440814363, -32.858010954224632 ], [ -71.231406241566575, -32.857872972353348 ], [ -71.231833534214616, -32.857747739285728 ], [ -71.231954186940428, -32.857712378583003 ], [ -71.232033188379773, -32.857689223578298 ], [ -71.232381565826742, -32.857587025306572 ], [ -71.233145951285152, -32.857362783776807 ], [ -71.234279537138804, -32.857022368922919 ], [ -71.235107390368668, -32.856787418788883 ], [ -71.235199429057744, -32.856739869218394 ], [ -71.235364565458099, -32.856714429750035 ], [ -71.235030092135091, -32.855753227235994 ], [ -71.235031261741597, -32.855752992549228 ], [ -71.234996399922068, -32.855652431837903 ], [ -71.236575127050131, -32.855128222383229 ], [ -71.237137400552768, -32.854951359929558 ], [ -71.237652163058357, -32.854818467792505 ], [ -71.237831945591111, -32.854772054391539 ], [ -71.238922656652889, -32.854478122411756 ], [ -71.238727124856567, -32.85390105361364 ], [ -71.238530212349673, -32.852807707280377 ], [ -71.238623989278807, -32.852042991266025 ], [ -71.238664844657933, -32.851422242198851 ], [ -71.238765895245933, -32.850943654178451 ], [ -71.23914915158042, -32.85045986695394 ], [ -71.239194882116607, -32.850029844228935 ], [ -71.239178113265183, -32.849362477688288 ], [ -71.239107230799377, -32.848791523990016 ], [ -71.239315130600531, -32.848072412966658 ], [ -71.239473795537592, -32.847640441385472 ], [ -71.239800611621092, -32.847157663289309 ], [ -71.239845142008051, -32.846680012997901 ], [ -71.239833162973724, -32.846203375963491 ], [ -71.239710648040344, -32.845824014045249 ], [ -71.239430784201772, -32.844803736141699 ], [ -71.239128059137556, -32.843998395530292 ], [ -71.239054876984625, -32.843332111192076 ], [ -71.238993187877426, -32.842576383135288 ], [ -71.242555585595696, -32.841560635589204 ], [ -71.243775140222041, -32.841331846233992 ], [ -71.245242297490151, -32.841202097585615 ], [ -71.250189661119606, -32.840596012178224 ], [ -71.251415798600348, -32.840625734182879 ], [ -71.253011916214035, -32.840752130330571 ], [ -71.254669265692399, -32.84087740172604 ], [ -71.257428992653161, -32.84098283521471 ], [ -71.25823028629334, -32.841175216630134 ], [ -71.259399041190363, -32.841360955896221 ], [ -71.260504039956743, -32.841444486965777 ], [ -71.261483783928114, -32.841426777706339 ], [ -71.262217385020051, -32.841361727997622 ], [ -71.263191965475173, -32.84113725526695 ], [ -71.263793834020575, -32.840712675895155 ], [ -71.264331839535799, -32.840185679942913 ], [ -71.264563704592106, -32.839664298516823 ], [ -71.264709548773439, -32.839377173482283 ], [ -71.264739505791525, -32.83935077577496 ], [ -71.265277586765251, -32.838823848723479 ], [ -71.265634435325339, -32.838403623862021 ], [ -71.265927425346845, -32.8378810590538 ], [ -71.266099366485477, -32.837412545217951 ], [ -71.266200792569265, -32.83658318375781 ], [ -71.266668335131911, -32.835695404350602 ], [ -71.267087793572372, -32.835325826445363 ], [ -71.267571098873333, -32.835058438126289 ], [ -71.267816081129411, -32.83505399690695 ], [ -71.268433666599037, -32.835249643579523 ], [ -71.269358779526385, -32.835491494440355 ], [ -71.270399763447315, -32.835472605762419 ], [ -71.271197079347402, -32.835509843437983 ], [ -71.271934489296143, -32.835599875747612 ], [ -71.272738571306959, -32.835895609289139 ], [ -71.273296266994905, -32.836144103532639 ], [ -71.27409754446542, -32.83633638372612 ], [ -71.274832324146999, -32.836323024029504 ], [ -71.275873401492717, -32.836304087976977 ], [ -71.276975613685067, -32.836284030309137 ], [ -71.277711712991803, -32.836322340948904 ], [ -71.278326685262257, -32.83641456357374 ], [ -71.278639502898713, -32.83666756845318 ], [ -71.279318343589253, -32.836861970710785 ], [ -71.279866809985975, -32.836748628255613 ], [ -71.280533842322086, -32.83647784165602 ], [ -71.280729453170167, -32.836270756650194 ], [ -71.282733193920421, -32.835740666106943 ], [ -71.28422963357184, -32.835298483286223 ], [ -71.285819863627125, -32.83441273578994 ], [ -71.287873741150037, -32.833946878681431 ], [ -71.288768293391428, -32.83388995954455 ], [ -71.288889729448158, -32.833824575972372 ], [ -71.289741529966875, -32.833380676228366 ], [ -71.290514435945738, -32.833231267463987 ], [ -71.291434291033752, -32.833124223057418 ], [ -71.293726994658073, -32.832383375399424 ], [ -71.295152827626495, -32.83172148074555 ], [ -71.296264844930178, -32.831272689014412 ], [ -71.297005507678577, -32.830871410162352 ], [ -71.297719450038826, -32.830547149800609 ], [ -71.299032398912004, -32.83025701594017 ], [ -71.29936569184872, -32.830264408810933 ], [ -71.30149962453477, -32.830554344125808 ], [ -71.302541457363645, -32.830557705402484 ], [ -71.303087439918613, -32.830710026281793 ], [ -71.303631907015685, -32.830803645136754 ], [ -71.303940972389171, -32.83091969445708 ], [ -71.304736559032364, -32.831067411008313 ], [ -71.305425301852253, -32.831356784374258 ], [ -71.306318114955275, -32.831498118897976 ], [ -71.306511336284657, -32.831458507120189 ], [ -71.308094999655239, -32.831429225129781 ], [ -71.308926361704621, -32.831346292272869 ], [ -71.310115997042118, -32.831130489852349 ], [ -71.310975219441701, -32.831042374808156 ], [ -71.311556507583944, -32.830946016923676 ], [ -71.311807099818978, -32.830959486124954 ], [ -71.312361333399821, -32.830899600850685 ], [ -71.314084332657487, -32.830899358549821 ], [ -71.315295403594291, -32.83104826097285 ], [ -71.31550658314454, -32.831080401629137 ], [ -71.316218663297221, -32.831229516610215 ], [ -71.316949505662933, -32.831518045552407 ], [ -71.317521131525979, -32.831615679980445 ], [ -71.317997465002009, -32.831760139063398 ], [ -71.318520292582207, -32.83208412854389 ], [ -71.319712843851121, -32.833053971887495 ], [ -71.32045090597677, -32.833292777783385 ], [ -71.322147745395014, -32.833193625763293 ], [ -71.323195783785877, -32.832732266998747 ], [ -71.323731515665116, -32.832244440347424 ], [ -71.324349431714779, -32.832120233144742 ], [ -71.324670958517913, -32.831857258435825 ], [ -71.325265772593383, -32.831535131037818 ], [ -71.326188404373937, -32.831540509926882 ], [ -71.326321489783268, -32.831574084573582 ], [ -71.326450928930882, -32.831598714527772 ], [ -71.326712612664721, -32.831661513709221 ], [ -71.327138152699632, -32.832095425197444 ], [ -71.327125143297692, -32.832059617986147 ], [ -71.327123215513097, -32.832046135364884 ], [ -71.327068791979926, -32.831663901974878 ], [ -71.326946728899102, -32.831512888580889 ], [ -71.326763663922307, -32.831290837344788 ], [ -71.326873126334633, -32.830878518410493 ], [ -71.326885250896026, -32.830729515310111 ], [ -71.32727032272571, -32.830239896996034 ], [ -71.327861904662811, -32.82951654593721 ], [ -71.328455967746706, -32.828734418673839 ], [ -71.328847373597469, -32.828591875009494 ], [ -71.32923922680925, -32.828489950453829 ], [ -71.329984132300723, -32.828304771536011 ], [ -71.330310848671232, -32.828050699617016 ], [ -71.330331677907722, -32.827545325443673 ], [ -71.329942116298241, -32.826763484276313 ], [ -71.329866407184412, -32.826625129228461 ], [ -71.329496802547283, -32.825635630416556 ], [ -71.329295523329776, -32.824561738803936 ], [ -71.328980785993593, -32.823665846403344 ], [ -71.328261751982296, -32.822367193378525 ], [ -71.327699601548858, -32.821520962569757 ], [ -71.327274508874936, -32.820766882553791 ], [ -71.327040351318018, -32.81963501711617 ], [ -71.326936162914748, -32.818739781645505 ], [ -71.326823359667898, -32.818597534484574 ], [ -71.326764953004741, -32.818350632376742 ], [ -71.326604914543609, -32.81811470716503 ], [ -71.326510392911104, -32.817999156737983 ], [ -71.32603204631053, -32.817674443976081 ], [ -71.325215766974765, -32.81703134363088 ], [ -71.324447851137307, -32.816058166578451 ], [ -71.323975037260539, -32.81560259013483 ], [ -71.323092728158159, -32.814861490624914 ], [ -71.322067246464101, -32.814181622353779 ], [ -71.321554803408603, -32.813839500233733 ], [ -71.32119913972636, -32.813084034554109 ], [ -71.321130316199188, -32.812197074962626 ], [ -71.32115120202954, -32.811691772917982 ], [ -71.320968190951646, -32.811032313720659 ], [ -71.320559445819285, -32.810724313155589 ], [ -71.31986273853606, -32.810588377830079 ], [ -71.318955404166488, -32.810442971512884 ], [ -71.317621252357668, -32.810445081752185 ], [ -71.316263236803294, -32.810168162059256 ], [ -71.315544801968301, -32.809703504341464 ], [ -71.315113820837709, -32.809093759571105 ], [ -71.314095421461346, -32.80823344194696 ], [ -71.31304853021912, -32.807224791502165 ], [ -71.312162900045138, -32.806578300157803 ], [ -71.31130809196685, -32.806017000152252 ], [ -71.31101084213428, -32.805567067546889 ], [ -71.310015489036559, -32.804999266203943 ], [ -71.309255251998124, -32.804711305758168 ], [ -71.308141214383355, -32.804474781062048 ], [ -71.30724593809984, -32.804058469490208 ], [ -71.306711235689903, -32.803392024422308 ], [ -71.30597286634044, -32.80257146354402 ], [ -71.304865060338798, -32.801351921046901 ], [ -71.304069627307541, -32.80020337146442 ], [ -71.30376221393584, -32.799153908821289 ], [ -71.303388537235534, -32.798610732044146 ], [ -71.303319691250479, -32.798373022209866 ], [ -71.303246011430872, -32.798103856886364 ], [ -71.303178945906708, -32.797843582193906 ], [ -71.303121032418645, -32.797578632581576 ], [ -71.303109453134653, -32.797312831163261 ], [ -71.303124041774865, -32.797037461593327 ], [ -71.303118119182201, -32.796767123298949 ], [ -71.303107822692397, -32.796496791733858 ], [ -71.303098487399964, -32.796226442734138 ], [ -71.303092823522093, -32.79595595170349 ], [ -71.303094852816329, -32.795685393398493 ], [ -71.303109763053413, -32.795419103790863 ], [ -71.303145450424708, -32.795147926151941 ], [ -71.303206401116739, -32.794876210028249 ], [ -71.303316600147596, -32.794621759340735 ], [ -71.303422018344492, -32.794371829713263 ], [ -71.303520034423457, -32.794113023423286 ], [ -71.303652230500674, -32.793867107476864 ], [ -71.303797042517729, -32.79362546498799 ], [ -71.30395295681339, -32.793383617196803 ], [ -71.304125304888842, -32.793155060933657 ], [ -71.304320669598511, -32.792944029693004 ], [ -71.304522182378022, -32.792737392956745 ], [ -71.304709358045542, -32.79251749970885 ], [ -71.304886220155325, -32.792284352116454 ], [ -71.305069839392658, -32.792055512108114 ], [ -71.305245563336968, -32.791822385204277 ], [ -71.305398526666906, -32.791585097483853 ], [ -71.305516115239286, -32.791339447917515 ], [ -71.305580696921695, -32.791090195514322 ], [ -71.305583072965618, -32.790819703963699 ], [ -71.305547216711048, -32.790545336792128 ], [ -71.305495100051544, -32.790271269334355 ], [ -71.305450063913071, -32.78999699713377 ], [ -71.305415141008083, -32.789718107665188 ], [ -71.305361832284191, -32.789448568003785 ], [ -71.305261608146253, -32.789197916983937 ], [ -71.305105700138782, -32.788961810171379 ], [ -71.304925872690276, -32.788717132085239 ], [ -71.304725180970962, -32.788490861122185 ], [ -71.30450444334609, -32.788287564076704 ], [ -71.304265667550297, -32.788120649589281 ], [ -71.303999290119108, -32.788039786324312 ], [ -71.303681307169782, -32.788050217837636 ], [ -71.303340794473129, -32.788106051674433 ], [ -71.30301071570851, -32.788152754420771 ], [ -71.30269767798481, -32.788212586945107 ], [ -71.30237925665763, -32.788195839007891 ], [ -71.302060078948983, -32.788183683403354 ], [ -71.301740494303488, -32.788149003369945 ], [ -71.301421814261516, -32.788118812955737 ], [ -71.301106105846486, -32.788074973891433 ], [ -71.300792789645058, -32.788022151754987 ], [ -71.300480319656629, -32.787964806718264 ], [ -71.30016994723438, -32.787893830346455 ], [ -71.29986112081275, -32.787818318203342 ], [ -71.299551946743122, -32.78774288529187 ], [ -71.299243411375613, -32.787671872493448 ], [ -71.298936830742193, -32.787591810842045 ], [ -71.298635410031764, -32.787498133618996 ], [ -71.298341276454906, -32.787395384824983 ], [ -71.298054895338964, -32.787274393257299 ], [ -71.297773701095466, -32.787144219767498 ], [ -71.297496330081842, -32.787009617570263 ], [ -71.297220267913545, -32.78687491623743 ], [ -71.296943506855968, -32.786740152773675 ], [ -71.296665409105273, -32.786601055724631 ], [ -71.296384716121707, -32.786466363590826 ], [ -71.296105451459425, -32.786336225168604 ], [ -71.295827822629292, -32.786201623259089 ], [ -71.29555269830216, -32.786062320705426 ], [ -71.295282353012354, -32.785918423215385 ], [ -71.295018596865162, -32.785765466692681 ], [ -71.294765624992948, -32.785603299292191 ], [ -71.294524107538905, -32.785427402496886 ], [ -71.294293518090313, -32.785237712031709 ], [ -71.294071326093018, -32.785034423410607 ], [ -71.293858514303878, -32.784835393025297 ], [ -71.293651008863151, -32.784631834624967 ], [ -71.293446881986185, -32.784423559372016 ], [ -71.293242906924519, -32.784210995447566 ], [ -71.293036771414577, -32.784002756215543 ], [ -71.292955174742389, -32.783614202542928 ], [ -71.292911969370479, -32.783450478458882 ], [ -71.292673348084918, -32.78325753475302 ], [ -71.292360216038134, -32.783197447401953 ], [ -71.291967603749953, -32.78307306741543 ], [ -71.291457192683609, -32.782917895416169 ], [ -71.29063720420406, -32.782834206601763 ], [ -71.289858640635515, -32.782848374895273 ], [ -71.289431259952565, -32.782889063412192 ], [ -71.288771075473861, -32.782966954964742 ], [ -71.288071236663555, -32.783012693704549 ], [ -71.287719124021649, -32.782953307804739 ], [ -71.287327361539695, -32.782861845345366 ], [ -71.286817044796479, -32.782706577817358 ], [ -71.28642182739398, -32.782483460562808 ], [ -71.286218839580798, -32.782158210982104 ], [ -71.28617616870649, -32.781867929702287 ], [ -71.285705276326127, -32.781113566886766 ], [ -71.285299302496398, -32.780691775301761 ], [ -71.284842963721971, -32.780509363746908 ], [ -71.283661713259335, -32.780674007105652 ], [ -71.282872932252758, -32.780736039438324 ], [ -71.281571525832661, -32.780616668660826 ], [ -71.280097163177643, -32.780357416770556 ], [ -71.279908266338026, -32.780305747111363 ], [ -71.279314353272767, -32.78021136510894 ], [ -71.278568083240359, -32.779961737877514 ], [ -71.278249853254323, -32.779704318620382 ], [ -71.277970610151655, -32.779446263437855 ], [ -71.277537457792988, -32.77925668030737 ], [ -71.277182936767801, -32.779098612739141 ], [ -71.276791949531969, -32.779039901705509 ], [ -71.276364579628805, -32.779080619153945 ], [ -71.276093717807711, -32.779151290630686 ], [ -71.275836733161114, -32.779275858119995 ], [ -71.275670535850395, -32.779356446125583 ], [ -71.275131410135998, -32.779596506577199 ], [ -71.274786101334044, -32.779800170151809 ], [ -71.274285031848365, -32.780006735738191 ], [ -71.273668017707266, -32.780248205263874 ], [ -71.273155051832248, -32.780393002377679 ], [ -71.272317550696229, -32.780784958957 ] ] ] } },
{ "type": "Feature", "properties": { "capa": "ds19", "popup": "<strong>CONDOMINIO CAMINOS DEL ACONCAGUA</strong><br><br><strong>Programa:</strong> DS19<br><strong>Comuna:</strong> La Cruz<br><strong>Región:</strong> Vaparaíso<br><strong>Año de inicio:</strong> 2021", "etiqueta": "CONDOMINIO CAMINOS DEL ACONCAGUA" }, "geometry": { "type": "Polygon", "coordinates": [ [ [ -71.229260123233672, -32.838174125943937 ], [ -71.229346408213331, -32.838367983734059 ], [ -71.230209065770566, -32.838144023469297 ], [ -71.230381890851461, -32.838399982863578 ], [ -71.231868140014299, -32.838098141007684 ], [ -71.231864522498668, -32.838092062843977 ], [ -71.231889836125049, -32.837602748544491 ], [ -71.231683653004396, -32.837645299690045 ], [ -71.230330819830925, -32.8380221695923 ], [ -71.230287413236397, -32.837930993995933 ], [ -71.229260123233672, -32.838174125943937 ] ] ] } },
{ "type": "Feature", "properties": { "capa": "ds19", "popup": "<strong>CONDOMINIO SANTA FLORENCIA</strong><br><br><strong>Programa:</strong> DS19<br><strong>Comuna:</strong> La Cruz<br><strong>Región:</strong> Vaparaíso<br><strong>Año de inicio:</strong> 2021", "etiqueta": "CONDOMINIO SANTA FLORENCIA" }, "geometry": { "type": "Polygon", "coordinates": [ [ [ -71.232816621715472, -32.842735940131142 ], [ -71.232726367080545, -32.842296389948793 ], [ -71.230267267617833, -32.842848957200658 ], [ -71.2303226900776, -32.843331943643001 ], [ -71.232816621715472, -32.842735940131142 ] ] ] } },
{ "type": "Feature", "properties": { "capa": "ds19", "popup": "<strong>SANTA MARIA ISABEL DE LA CRUZ</strong><br><br><strong>Programa:</strong> DS19<br><strong>Comuna:</strong> La Cruz<br><strong>Región:</strong> Vaparaíso<br><strong>Año de inicio:</strong> 2021", "etiqueta": "SANTA MARIA ISABEL DE LA CRUZ" }, "geometry": { "type": "Polygon", "coordinates": [ [ [ -71.230249608535971, -32.842324835883403 ], [ -71.230244217745962, -32.842390404897742 ], [ -71.232548020055631, -32.841853245036262 ], [ -71.232439190057278, -32.841532122992525 ], [ -71.230209735015464, -32.842058780376561 ], [ -71.230242939443315, -32.842250561710109 ], [ -71.230249608535971, -32.842324835883403 ] ] ] } },
{ "type": "Feature", "properties": { "capa": "ds19", "popup": "<strong>CONDOMINIO VILLA GENOVA</strong><br><br><strong>Programa:</strong> DS19<br><strong>Comuna:</strong> La Cruz<br><strong>Región:</strong> Vaparaíso<br><strong>Año de inicio:</strong> 2017", "etiqueta": "CONDOMINIO VILLA GENOVA" }, "geometry": { "type": "Polygon", "coordinates": [ [ [ -71.229181805412253, -32.848325306886487 ], [ -71.228939386049689, -32.847709684823975 ], [ -71.227575951857546, -32.848059698028244 ], [ -71.227740012076197, -32.848734831718943 ], [ -71.229181805412253, -32.848325306886487 ] ] ] } },
{ "type": "Feature", "properties": { "capa": "ds19", "popup": "<strong>CONDOMINIO VILLA MILAN</strong><br><br><strong>Programa:</strong> DS19<br><strong>Comuna:</strong> La Cruz<br><strong>Región:</strong> Vaparaíso<br><strong>Año de inicio:</strong> 2017", "etiqueta": "CONDOMINIO VILLA MILAN" }, "geometry": { "type": "Polygon", "coordinates": [ [ [ -71.229185007906239, -32.848333763110475 ], [ -71.227756338956482, -32.848744038810082 ], [ -71.227904673267787, -32.849117378003541 ], [ -71.227415465137099, -32.849268069392295 ], [ -71.227574386992316, -32.849700708481436 ], [ -71.229534660062598, -32.849225621171549 ], [ -71.229185007906239, -32.848333763110475 ] ] ] } },
{ "type": "Feature", "properties": { "capa": "ds19", "popup": "<strong>CONDOMINIO PUERTA DE ALCALA</strong><br><br><strong>Programa:</strong> DS19<br><strong>Comuna:</strong> La Cruz<br><strong>Región:</strong> Vaparaíso<br><strong>Año de inicio:</strong> 2017", "etiqueta": "CONDOMINIO PUERTA DE ALCALA" }, "geometry": { "type": "Polygon", "coordinates": [ [ [ -71.230432679800984, -32.846888314439738 ], [ -71.230782147802728, -32.847754760084065 ], [ -71.230935676172976, -32.847708608638385 ], [ -71.231015707081639, -32.847860432940642 ], [ -71.231790799559917, -32.847618302582489 ], [ -71.231334364665742, -32.846569178865273 ], [ -71.230432679800984, -32.846888314439738 ] ] ] } },
{ "type": "Feature", "properties": { "capa": "ds19", "popup": "<strong>CUMBRES DEL VALLE</strong><br><br><strong>Programa:</strong> DS19<br><strong>Comuna:</strong> La Cruz<br><strong>Región:</strong> Vaparaíso<br><strong>Año de inicio:</strong> 2017", "etiqueta": "CUMBRES DEL VALLE" }, "geometry": { "type": "Polygon", "coordinates": [ [ [ -71.228274987573968, -32.833590692857697 ], [ -71.22827054270995, -32.832713697020907 ], [ -71.225601889647635, -32.833005312856223 ], [ -71.225847518690728, -32.833867273851475 ], [ -71.228274987573968, -32.833590692857697 ] ] ] } },
{ "type": "Feature", "properties": { "capa": "ds19", "popup": "<strong>CONDOMINIO PUERTA DE ALCALA 2</strong><br><br><strong>Programa:</strong> DS19<br><strong>Comuna:</strong> La Cruz<br><strong>Región:</strong> Vaparaíso<br><strong>Año de inicio:</strong> 2018", "etiqueta": "CONDOMINIO PUERTA DE ALCALA 2" }, "geometry": { "type": "Polygon", "coordinates": [ [ [ -71.231852685398152, -32.846335031975038 ], [ -71.231354832779488, -32.846520467620564 ], [ -71.231814267148408, -32.847612113376691 ], [ -71.232629613134563, -32.847310465859955 ], [ -71.232251721538944, -32.846782060818889 ], [ -71.231852685398152, -32.846335031975038 ] ] ] } },
{ "type": "Feature", "properties": { "capa": "ds19", "popup": "<strong>DON CESAR</strong><br><br><strong>Programa:</strong> DS19<br><strong>Comuna:</strong> La Cruz<br><strong>Región:</strong> Vaparaíso<br><strong>Año de inicio:</strong> 2018", "etiqueta": "DON CESAR" }, "geometry": { "type": "Polygon", "coordinates": [ [ [ -71.226998595641291, -32.846395930210349 ], [ -71.227063820517415, -32.845969741306263 ], [ -71.226047098295709, -32.846249976484224 ], [ -71.226109701887864, -32.846616441818455 ], [ -71.226262417282797, -32.847198037849012 ], [ -71.227131268723909, -32.846983718445472 ], [ -71.226998595641291, -32.846395930210349 ] ] ] } },
{ "type": "Feature", "properties": { "capa": "ds19", "popup": "<strong>CONDOMINIO SAN ANDRES</strong><br><br><strong>Programa:</strong> DS19<br><strong>Comuna:</strong> La Cruz<br><strong>Región:</strong> Vaparaíso<br><strong>Año de inicio:</strong> 2018", "etiqueta": "CONDOMINIO SAN ANDRES" }, "geometry": { "type": "Polygon", "coordinates": [ [ [ -71.231337984876347, -32.853365337621774 ], [ -71.231669787508011, -32.854185791544595 ], [ -71.234396855318295, -32.853424496115736 ], [ -71.234345657635288, -32.853232661955055 ], [ -71.23377481510316, -32.853361507822399 ], [ -71.233647038737146, -32.852977881073961 ], [ -71.233875394973936, -32.852934873172806 ], [ -71.233785956009328, -32.852668467622181 ], [ -71.231337984876347, -32.853365337621774 ] ] ] } },
{ "type": "Feature", "properties": { "capa": "ds19", "popup": "<strong>EL ALBA</strong><br><br><strong>Programa:</strong> DS19<br><strong>Comuna:</strong> La Cruz<br><strong>Región:</strong> Valparaíso<br><strong>Año de inicio:</strong> 2023", "etiqueta": "EL ALBA" }, "geometry": { "type": "Polygon", "coordinates": [ [ [ -71.229509968070388, -32.849795098959724 ], [ -71.228327184183556, -32.85013865228467 ], [ -71.227630087031514, -32.850280180288351 ], [ -71.227854846413919, -32.851158091555668 ], [ -71.228416668962268, -32.852345312444669 ], [ -71.229722429516542, -32.852020429447158 ], [ -71.229582446842457, -32.851383726017545 ], [ -71.230920438050802, -32.851202359843342 ], [ -71.230778210486832, -32.850760252534918 ], [ -71.233482453902383, -32.850386917989447 ], [ -71.233322401068207, -32.850022465833455 ], [ -71.230613291478775, -32.8503931530363 ], [ -71.229835409731521, -32.850550322560281 ], [ -71.229509968070388, -32.849795098959724 ] ] ] } },
{ "type": "Feature", "properties": { "capa": "colegios", "popup": "<strong>ESCUELA ESPECIAL DE LENGUAJE ANTU</strong><br><br><strong>Dirección:</strong> AVENIDA 21 DE MAYO 1841", "etiqueta": "" }, "geometry": { "type": "Point", "coordinates": [ -71.23357, -32.850372 ] } },
{ "type": "Feature", "properties": { "capa": "colegios", "popup": "<strong>COLEGIO LEONARDO DA VINCI</strong><br><br><strong>Dirección:</strong> CALLE CALAMA 47", "etiqueta": "" }, "geometry": { "type": "Point", "coordinates": [ -71.230637, -32.849751 ] } },
{ "type": "Feature", "properties": { "capa": "colegios", "popup": "<strong>LICEO SAN ISIDRO</strong><br><br><strong>Dirección:</strong> 21 DE MAYO 1833", "etiqueta": "" }, "geometry": { "type": "Point", "coordinates": [ -71.233467, -32.84951 ] } },
{ "type": "Feature", "properties": { "capa": "colegios", "popup": "<strong>COLEGIO DOMINGO SANTA CRUZ WILSON</strong><br><br><strong>Dirección:</strong> CAMINO POCOCHAY 0", "etiqueta": "" }, "geometry": { "type": "Point", "coordinates": [ -71.193878, -32.837769 ] } },
{ "type": "Feature", "properties": { "capa": "colegios", "popup": "<strong>JARDIN INFANTIL SAN JOSÉ</strong><br><br><strong>Dirección:</strong> CAUPOLICAN 145", "etiqueta": "" }, "geometry": { "type": "Point", "coordinates": [ -71.232192, -32.833025 ] } },
{ "type": "Feature", "properties": { "capa": "colegios", "popup": "<strong>LICEO TECNICO AGRICOLA OBISPO RAFAEL LIRA INF</strong><br><br><strong>Dirección:</strong> AVENIDA SANTA CRUZ 51", "etiqueta": "" }, "geometry": { "type": "Point", "coordinates": [ -71.224609, -32.828781 ] } },
{ "type": "Feature", "properties": { "capa": "colegios", "popup": "<strong>ESCUELA ESPECIAL DE LENGUAJE PEQUEÑOS REYES</strong><br><br><strong>Dirección:</strong> ALFREDO NAZAR 5", "etiqueta": "" }, "geometry": { "type": "Point", "coordinates": [ -71.22582, -32.8276 ] } },
{ "type": "Feature", "properties": { "capa": "colegios", "popup": "<strong>COLEGIO MARIA ALONSO CHACON</strong><br><br><strong>Dirección:</strong> SIMPSON 18", "etiqueta": "" }, "geometry": { "type": "Point", "coordinates": [ -71.225594, -32.825729 ] } },
{ "type": "Feature", "properties": { "capa": "colegios", "popup": "<strong>ESCUELA BASICA</strong><br><br><strong>Dirección:</strong> LOS CASTAÑOS 1", "etiqueta": "" }, "geometry": { "type": "Point", "coordinates": [ -71.25135, -32.817539 ] } },
{ "type": "Feature", "properties": { "capa": "colegios", "popup": "<strong>ESCUELA PART. ANNY SCHOOL</strong><br><br><strong>Dirección:</strong> BOLONIA CALLE DOS 102", "etiqueta": "" }, "geometry": { "type": "Point", "coordinates": [ -71.229233, -32.80761 ] } },
{ "type": "Feature", "properties": { "capa": "colegios", "popup": "<strong>COLEGIO BOLONIA</strong><br><br><strong>Dirección:</strong> CALLE 2 121", "etiqueta": "" }, "geometry": { "type": "Point", "coordinates": [ -71.230453, -32.80685 ] } },
{ "type": "Feature", "properties": { "capa": "colegios", "popup": "<strong>PARVULARIO HAPPY CHILDREN</strong><br><br><strong>Dirección:</strong> PASAJE YERBAS BUENAS 644", "etiqueta": "" }, "geometry": { "type": "Point", "coordinates": [ -71.21969, -32.796635 ] } },
{ "type": "Feature", "properties": { "capa": "jardines", "popup": "<strong>VILLA OHIGGINS</strong><br><br><strong>Dirección:</strong> VILLA OHIGGINS PASAJE 2 2050 ", "etiqueta": "" }, "geometry": { "type": "MultiPoint", "coordinates": [ [ -71.218609, -32.796557 ] ] } },
{ "type": "Feature", "properties": { "capa": "jardines", "popup": "<strong>LEONARDO DA VINCI</strong><br><br><strong>Dirección:</strong> CALAMA 47 ", "etiqueta": "" }, "geometry": { "type": "MultiPoint", "coordinates": [ [ -71.230743, -32.85025 ] ] } },
{ "type": "Feature", "properties": { "capa": "jardines", "popup": "<strong>LOS PALTINES</strong><br><br><strong>Dirección:</strong> CALLE 2 N 120 Y 121 POB.BOLONIA ", "etiqueta": "" }, "geometry": { "type": "MultiPoint", "coordinates": [ [ -71.230778, -32.807009 ] ] } },
{ "type": "Feature", "properties": { "capa": "jardines", "popup": "<strong>MARIA ALONSO CHACON</strong><br><br><strong>Dirección:</strong> CALLE SIMPSON 18 ", "etiqueta": "" }, "geometry": { "type": "MultiPoint", "coordinates": [ [ -71.225415, -32.825789 ] ] } },
{ "type": "Feature", "properties": { "capa": "jardines", "popup": "<strong>DOMINGO SANTA CRUZ WILSON</strong><br><br><strong>Dirección:</strong> PEDRO AGUIRRE CERDA S/N, POCOCHAY ", "etiqueta": "" }, "geometry": { "type": "MultiPoint", "coordinates": [ [ -71.194005, -32.837761 ] ] } },
{ "type": "Feature", "properties": { "capa": "jardines", "popup": "<strong>NA</strong><br><br><strong>Dirección:</strong> NA ", "etiqueta": "" }, "geometry": { "type": "MultiPoint", "coordinates": [ [ -71.22608400029155, -32.841180000445178 ] ] } },
{ "type": "Feature", "properties": { "capa": "bomberos", "popup": "<strong>Cuerpo de Bomberos</strong><br><br><strong>Dirección:</strong> Veintiuno De Mayo 3302", "etiqueta": "" }, "geometry": { "type": "Point", "coordinates": [ -71.22702115103165, -32.827802641616124 ] } },
{ "type": "Feature", "properties": { "capa": "comisarias", "popup": "<strong>TCIA. LA CRUZ</strong><br><br><strong>Dirección:</strong> 21 DE MAYO 2040", "etiqueta": "" }, "geometry": { "type": "Point", "coordinates": [ -71.232483, -32.847344 ] } },
{ "type": "Feature", "properties": { "capa": "salud", "popup": "<strong>Centro de Salud Familiar La Cruz</strong><br><br><strong>Tipo de atención:</strong> Centro de Salud Familiar (CESFAM)<br><strong>Dirección:</strong>  5010", "etiqueta": "" }, "geometry": { "type": "Point", "coordinates": [ -71.22798, -32.82879 ] } },
{ "type": "Feature", "properties": { "capa": "salud", "popup": "<strong>SUR La Cruz</strong><br><br><strong>Tipo de atención:</strong> Servicio de Urgencia Rural (SUR)<br><strong>Dirección:</strong>  5010", "etiqueta": "" }, "geometry": { "type": "Point", "coordinates": [ -71.227984, -32.828776 ] } }
]
}
