{
"type": "FeatureCollection",
"name": "5506",
"crs": { "type": "name", "properties": { "name": "urn:ogc:def:crs:OGC:1.3:CRS84" } },
"features": [
{ "type": "Feature", "properties": { "capa": "comuna", "popup": "", "etiqueta": "" }, "geometry": { "type": "Polygon", "coordinates": [ [ [ -71.155246021648352, -32.597837536083794 ], [ -71.154391920544199, -32.598590449824101 ], [ -71.153973655964762, -32.599335958824668 ], [ -71.153010565860455, -32.600090733021119 ], [ -71.152040839002822, -32.600568722260981 ], [ -71.151297856804376, -32.601412059171182 ], [ -71.150334634647706, -32.602166817390462 ], [ -71.149473838399743, -32.602642921045273 ], [ -71.148390694745927, -32.602938351229618 ], [ -71.147736805660713, -32.602949537700212 ], [ -71.146548995699888, -32.603431215264969 ], [ -71.145803825205391, -32.604182285465832 ], [ -71.145280891623997, -32.60511402763688 ], [ -71.144753549111186, -32.605861297009255 ], [ -71.143999461040863, -32.606243342360692 ], [ -71.143149580221916, -32.607180659090318 ], [ -71.142624492480479, -32.608020153936444 ], [ -71.14209272037499, -32.608583015719653 ], [ -71.141563134768916, -32.609237962571079 ], [ -71.141153497609466, -32.610352376566986 ], [ -71.14073296208899, -32.611005534516067 ], [ -71.139981006619166, -32.611479720650493 ], [ -71.139540620127562, -32.611302753936634 ], [ -71.13920710351033, -32.611031542115484 ], [ -71.138769001434468, -32.610946732493936 ], [ -71.13789919957577, -32.611053819960354 ], [ -71.137151613511506, -32.611712535970518 ], [ -71.136290654668471, -32.612188628990673 ], [ -71.135420924675003, -32.612295698324978 ], [ -71.133895038248554, -32.61232156858992 ], [ -71.132918512940861, -32.612522783440518 ], [ -71.132162129674995, -32.612812526371144 ], [ -71.130653716379143, -32.613576396482273 ], [ -71.12882269650521, -32.614530267208835 ], [ -71.127516915289689, -32.614644675655633 ], [ -71.126204673390617, -32.614482358945153 ], [ -71.125108132262653, -32.614224030698963 ], [ -71.12358220451371, -32.614249850466749 ], [ -71.122710257478118, -32.614264596401199 ], [ -71.121849192633874, -32.614740594889874 ], [ -71.121663785749135, -32.616127982337503 ], [ -71.12168555282679, -32.617050499320747 ], [ -71.121053396683251, -32.617983992396184 ], [ -71.120523601769719, -32.618638933290782 ], [ -71.119773647746342, -32.619205314735289 ], [ -71.119252778493461, -32.619587785128395 ], [ -71.119130497122043, -32.619677542437245 ], [ -71.118365311264725, -32.619598183388867 ], [ -71.117480275775449, -32.619059472007187 ], [ -71.116982051254254, -32.618913616935458 ], [ -71.116586880564142, -32.618803035676642 ], [ -71.116184824287359, -32.618715102481936 ], [ -71.115772573030441, -32.618672404342568 ], [ -71.115355286716351, -32.61865690401708 ], [ -71.114937981537651, -32.618636895685121 ], [ -71.11452482118564, -32.618585196628544 ], [ -71.114110749941943, -32.618524497412672 ], [ -71.113702366830637, -32.618445822850781 ], [ -71.113308879583371, -32.61833971044485 ], [ -71.112939531864399, -32.618183542033208 ], [ -71.112588012110578, -32.61799102078691 ], [ -71.112239599629319, -32.617789508002971 ], [ -71.111891136842402, -32.617596933701257 ], [ -71.1115460427378, -32.61739536176897 ], [ -71.111200097030306, -32.617198310322237 ], [ -71.110849736103191, -32.617010197436151 ], [ -71.11048324323022, -32.616845108881527 ], [ -71.110070578748264, -32.616784373680204 ], [ -71.10965189465557, -32.61680936191258 ], [ -71.109234164573735, -32.616875041017394 ], [ -71.108850093467268, -32.61699873805987 ], [ -71.108504151353046, -32.617184959363371 ], [ -71.108182403564356, -32.617420272653469 ], [ -71.107876050204709, -32.617664413028237 ], [ -71.107614658423316, -32.617934911680919 ], [ -71.107355028238231, -32.618209813126334 ], [ -71.10705006457232, -32.618453854499215 ], [ -71.106744384050799, -32.618693474218368 ], [ -71.106478971410198, -32.618963964465451 ], [ -71.106250404967639, -32.619260947884513 ], [ -71.106020369779571, -32.619562389851914 ], [ -71.105792446530742, -32.619868302428557 ], [ -71.105497834151834, -32.620085127512674 ], [ -71.105079525554956, -32.620141788358545 ], [ -71.104657563509804, -32.62018040989954 ], [ -71.104240367027245, -32.620210010278633 ], [ -71.103828340349125, -32.620180788964838 ], [ -71.103420059645757, -32.620106438417089 ], [ -71.103012181387641, -32.620023140792156 ], [ -71.102602384328065, -32.619962332841446 ], [ -71.102188040894859, -32.619942231737078 ], [ -71.101770315304577, -32.61994922668282 ], [ -71.101352906819599, -32.6199698082388 ], [ -71.100938204958581, -32.620012802353926 ], [ -71.100525023945337, -32.62008731489572 ], [ -71.100114212687814, -32.620121227270836 ], [ -71.099706235614988, -32.620078479865278 ], [ -71.099299668897189, -32.619995147409867 ], [ -71.098894878148698, -32.619898117034218 ], [ -71.098490475472403, -32.619810165243017 ], [ -71.098086859720311, -32.619722273138478 ], [ -71.09768444681238, -32.619629779172712 ], [ -71.097283850297941, -32.619532747644428 ], [ -71.096886186782925, -32.619426725808381 ], [ -71.09648583371191, -32.619325105888691 ], [ -71.096079726033224, -32.619246262546319 ], [ -71.095670183196873, -32.619180994515581 ], [ -71.095258073873765, -32.619129213300944 ], [ -71.094842372187841, -32.619095591094627 ], [ -71.094425031974822, -32.619089035682229 ], [ -71.094009996838835, -32.619113985440045 ], [ -71.093595729762399, -32.619156947431264 ], [ -71.093185040675763, -32.619222381937121 ], [ -71.092778750639056, -32.619296828553829 ], [ -71.09237799422452, -32.619402727214016 ], [ -71.092005266145136, -32.619557731326601 ], [ -71.091659484829336, -32.61975284365711 ], [ -71.091327124343891, -32.619965832205182 ], [ -71.090997938504657, -32.620187780865493 ], [ -71.090678191264104, -32.620414003095888 ], [ -71.090357399282894, -32.620640389696334 ], [ -71.090009951592251, -32.620835526148603 ], [ -71.089634001255945, -32.620995083332105 ], [ -71.08923564154658, -32.621091920339929 ], [ -71.088814275084474, -32.621130404524699 ], [ -71.08840589556641, -32.621096638557532 ], [ -71.088016854979784, -32.620963332168301 ], [ -71.087644013712691, -32.620798281924351 ], [ -71.087280299328867, -32.620623918976342 ], [ -71.086930215981212, -32.620431300834909 ], [ -71.086599264054101, -32.620220337344833 ], [ -71.086278996689018, -32.61999574967853 ], [ -71.085964277319121, -32.619761907975821 ], [ -71.085648882416123, -32.619532730998728 ], [ -71.085334082197846, -32.619298962235781 ], [ -71.085021640057207, -32.619065228423871 ], [ -71.084703017507394, -32.618835954328112 ], [ -71.08435687596716, -32.618643337636094 ], [ -71.084008028701305, -32.61845069102101 ], [ -71.083696448045004, -32.61821235768646 ], [ -71.083342333058326, -32.618033390114817 ], [ -71.082952124661858, -32.617909099028843 ], [ -71.082554289568591, -32.61779845372839 ], [ -71.082158708348388, -32.617683263164061 ], [ -71.081759320966327, -32.617577147584399 ], [ -71.081373114564428, -32.61744827894713 ], [ -71.081014801750428, -32.617264867603083 ], [ -71.080718885916056, -32.617012673175743 ], [ -71.080529666581228, -32.616704779776697 ], [ -71.080403136178532, -32.616359645301202 ], [ -71.080306990391989, -32.616018514457174 ], [ -71.080251910190341, -32.615667689557156 ], [ -71.080198840418305, -32.615316905655369 ], [ -71.08015074282136, -32.614965964507093 ], [ -71.080124127536124, -32.614619174557369 ], [ -71.080112226655245, -32.614263126953183 ], [ -71.080118315436238, -32.613911288803777 ], [ -71.080152242109563, -32.613558989214496 ], [ -71.080199606681248, -32.613206540687258 ], [ -71.080239918579608, -32.612858641441782 ], [ -71.080262310884706, -32.612502100290598 ], [ -71.080186047510338, -32.612156133152276 ], [ -71.080062247087767, -32.611815459223685 ], [ -71.079886548296287, -32.611502758101331 ], [ -71.079639836783301, -32.6112182003342 ], [ -71.079363704546424, -32.610952303285153 ], [ -71.079111412698893, -32.61066783532938 ], [ -71.078902840059598, -32.610360184958118 ], [ -71.078796673566046, -32.610019217406823 ], [ -71.078677787826393, -32.609683042290413 ], [ -71.07853743684305, -32.60934714740776 ], [ -71.078376806392143, -32.609025108169561 ], [ -71.078177123480884, -32.608712802146094 ], [ -71.0779037221225, -32.608451214725925 ], [ -71.07760498557812, -32.608203640213773 ], [ -71.077317543551828, -32.607942431180305 ], [ -71.07706084906107, -32.60766704569243 ], [ -71.076921764702263, -32.607340214878803 ], [ -71.07683407385916, -32.60698992730935 ], [ -71.076755212557018, -32.606643999415049 ], [ -71.076658728105613, -32.606298437957726 ], [ -71.076583794237862, -32.605952445340307 ], [ -71.076578993640993, -32.605600786426763 ], [ -71.076641723895591, -32.605248010692641 ], [ -71.076779312559466, -32.604916603331304 ], [ -71.076996918657258, -32.604610838697937 ], [ -71.077274285179314, -32.604349224919289 ], [ -71.077557596751944, -32.604092019221341 ], [ -71.077764644051882, -32.603786501502704 ], [ -71.077936372289798, -32.603463468322595 ], [ -71.078069486445244, -32.603127627304545 ], [ -71.078153008207096, -32.602783519647566 ], [ -71.07825694687871, -32.60243914807053 ], [ -71.078404121464985, -32.602107507826844 ], [ -71.078549987205875, -32.601775961708775 ], [ -71.07865142586607, -32.601440569943264 ], [ -71.078710219703112, -32.601087858800554 ], [ -71.078729316987719, -32.600735803912457 ], [ -71.078701565333645, -32.600384599023606 ], [ -71.07863856648278, -32.600033903589541 ], [ -71.078569896567529, -32.599683302138345 ], [ -71.078490949027085, -32.599337377055654 ], [ -71.078396927756202, -32.598996281268469 ], [ -71.07828189758574, -32.598659966396859 ], [ -71.0781614433876, -32.598319308489508 ], [ -71.078066724125733, -32.597978150552471 ], [ -71.077993349733333, -32.597627699986312 ], [ -71.077850002868502, -32.597300865842854 ], [ -71.077660189747277, -32.596983814590651 ], [ -71.077480762049049, -32.596666664587289 ], [ -71.077390464295007, -32.596316419287199 ], [ -71.077207948188843, -32.596012839760164 ], [ -71.076918015134254, -32.595751522523202 ], [ -71.076587232988771, -32.595531512832224 ], [ -71.076237623053245, -32.595338927753723 ], [ -71.075873337340894, -32.595164610594537 ], [ -71.075499260890297, -32.595008406311067 ], [ -71.075116283931848, -32.594874955130003 ], [ -71.074714162976377, -32.594777947487586 ], [ -71.074306873114764, -32.594698974306908 ], [ -71.073898134270607, -32.594629038402722 ], [ -71.073487002314508, -32.594572660364008 ], [ -71.073077759515471, -32.594507310020106 ], [ -71.072673945235692, -32.594423769102058 ], [ -71.07227624488975, -32.594317666075128 ], [ -71.071883378378331, -32.594197887638174 ], [ -71.071493287661156, -32.594073482491019 ], [ -71.071103985664777, -32.593949136961427 ], [ -71.070716762369983, -32.593820322875715 ], [ -71.070325471503594, -32.593700514257179 ], [ -71.069924301864006, -32.593598893148744 ], [ -71.069518018115517, -32.593506368418105 ], [ -71.069109354729832, -32.59345451635204 ], [ -71.068691797124515, -32.593452380540612 ], [ -71.068273547816446, -32.593499830053659 ], [ -71.06788072172921, -32.593605517785896 ], [ -71.06752156809209, -32.593782757868247 ], [ -71.067175526264876, -32.593991400353374 ], [ -71.066829678473752, -32.594181939570205 ], [ -71.066489111878184, -32.594385909181831 ], [ -71.066150305980571, -32.594594430682939 ], [ -71.065810800295353, -32.594802888124946 ], [ -71.06524888971208, -32.594933957667301 ], [ -71.064986714599783, -32.595055441771208 ], [ -71.064836365367327, -32.595121080067237 ], [ -71.064466192096603, -32.595294059996739 ], [ -71.064170364297141, -32.595519821389438 ], [ -71.064002329931668, -32.595788623529366 ], [ -71.063978531763155, -32.59596484742282 ], [ -71.064007866248744, -32.596433352283988 ], [ -71.063947907296793, -32.597232457700883 ], [ -71.064046545908255, -32.597830588603244 ], [ -71.064167815776671, -32.598486934691643 ], [ -71.064164748928292, -32.599019065376275 ], [ -71.064141753853647, -32.599078103781295 ], [ -71.063854427710027, -32.599366891995764 ], [ -71.063676112126132, -32.599446509633488 ], [ -71.063249210245232, -32.599498590567357 ], [ -71.061896250409291, -32.59957947344332 ], [ -71.060565601131756, -32.599727574373972 ], [ -71.059210801546115, -32.599857957116001 ], [ -71.058035446726691, -32.599881730884491 ], [ -71.057162150421561, -32.59985548014533 ], [ -71.055813963334728, -32.599832491917162 ], [ -71.054964030413501, -32.599850835730614 ], [ -71.05478950661842, -32.59989432536387 ], [ -71.054664405435318, -32.600099319527118 ], [ -71.054621585440671, -32.600456267254785 ], [ -71.054661282891388, -32.600807284937794 ], [ -71.054707017919128, -32.601162784398724 ], [ -71.054726040643587, -32.601514213269461 ], [ -71.054739390507038, -32.601865661194473 ], [ -71.054751693833154, -32.602217126659909 ], [ -71.054766808886114, -32.602573200965871 ], [ -71.054783474431275, -32.602924594789954 ], [ -71.054799531816968, -32.603276072749573 ], [ -71.054801383244779, -32.603632289657256 ], [ -71.054786831435493, -32.603988774552874 ], [ -71.054932852584912, -32.604301999096208 ], [ -71.055209887628664, -32.604577099041293 ], [ -71.055489945503325, -32.604843061179267 ], [ -71.055786358106047, -32.605095161990462 ], [ -71.056134540618601, -32.605278888093601 ], [ -71.056535765953726, -32.605385056841172 ], [ -71.056943584024722, -32.605455063807476 ], [ -71.057351243093919, -32.605529505979014 ], [ -71.057752106407989, -32.60563116955467 ], [ -71.058143086457306, -32.605751022758902 ], [ -71.058438424674947, -32.605867934361044 ], [ -71.058819529544351, -32.605933792513753 ], [ -71.059212140035896, -32.606094248012766 ], [ -71.059579971398662, -32.606255034674291 ], [ -71.059839655482691, -32.606602514614927 ], [ -71.059939404411836, -32.607173517855422 ], [ -71.059802376296687, -32.609159871597008 ], [ -71.059647941526308, -32.609829756881275 ], [ -71.059773568223846, -32.61095502209146 ], [ -71.059975039680822, -32.611492809131661 ], [ -71.060635967964586, -32.61237930202919 ], [ -71.061041543840645, -32.612814590593089 ], [ -71.061444554128244, -32.613313014057624 ], [ -71.061426785451914, -32.613714543708099 ], [ -71.061204820728378, -32.614214287845265 ], [ -71.060637386404423, -32.614620333767135 ], [ -71.060311387787834, -32.614724904717797 ], [ -71.060104643220129, -32.614868150075409 ], [ -71.05976373885801, -32.615076617091297 ], [ -71.059403421004305, -32.615249347379901 ], [ -71.05901873275522, -32.615390930277918 ], [ -71.058619659783531, -32.615487681035404 ], [ -71.058210368475457, -32.615557484887361 ], [ -71.05781467496584, -32.61567227791592 ], [ -71.057441094385268, -32.615822613121125 ], [ -71.057098507478628, -32.616026667387715 ], [ -71.056762215965492, -32.61623504998802 ], [ -71.056688179514722, -32.616299429589205 ], [ -71.056400703352452, -32.61664228451869 ], [ -71.056302538153147, -32.617739671299752 ], [ -71.056435319931907, -32.618697927741941 ], [ -71.056472815611883, -32.619261013710876 ], [ -71.056533281213646, -32.619530642719702 ], [ -71.056568445765436, -32.619877226004263 ], [ -71.056574061134285, -32.620233379907958 ], [ -71.056566133501903, -32.620585249203387 ], [ -71.056561274514522, -32.620941501676157 ], [ -71.056558076512118, -32.621297799640857 ], [ -71.056549799435075, -32.621649674588305 ], [ -71.056541173811738, -32.622001481571608 ], [ -71.056542234722073, -32.622353203946375 ], [ -71.056549580246156, -32.622704823555338 ], [ -71.056551092110794, -32.623060970748867 ], [ -71.056534176833992, -32.623412987057094 ], [ -71.056487838138366, -32.623761052596471 ], [ -71.056424319162943, -32.624113758425942 ], [ -71.056344742801812, -32.624466801813952 ], [ -71.056243144241506, -32.624811192338036 ], [ -71.056114179404361, -32.625142437553372 ], [ -71.056106808727449, -32.625156077850399 ], [ -71.055968404393312, -32.62538382412545 ], [ -71.055640681909679, -32.625831063032905 ], [ -71.055302769835777, -32.626260441724419 ], [ -71.055004346803443, -32.626477288396892 ], [ -71.054913304346044, -32.626573491526294 ], [ -71.054635196713832, -32.62683507063975 ], [ -71.054340909525081, -32.627087900141213 ], [ -71.054027326524022, -32.627314004311096 ], [ -71.053696690803918, -32.627531300850919 ], [ -71.053361049671054, -32.627739738379198 ], [ -71.053034250655529, -32.627956970335013 ], [ -71.052720954217037, -32.628192080546157 ], [ -71.052413345012624, -32.628431603081957 ], [ -71.052115889465838, -32.628679972776794 ], [ -71.051832688386, -32.628937122224698 ], [ -71.051566216631699, -32.629212023926698 ], [ -71.051312504547695, -32.629491297577765 ], [ -71.051069989963693, -32.62977932650783 ], [ -71.050836987640238, -32.630067199421404 ], [ -71.050622546307196, -32.630372795423519 ], [ -71.050423047550595, -32.630682728316955 ], [ -71.050221259886641, -32.630988117198498 ], [ -71.050008037567423, -32.631293692655603 ], [ -71.049788427328224, -32.63159486563093 ], [ -71.049545800454837, -32.631878386505534 ], [ -71.049276752332275, -32.632144312942344 ], [ -71.048993633897439, -32.632405962015277 ], [ -71.048703678384996, -32.632658781830067 ], [ -71.048411974750977, -32.63291155553992 ], [ -71.048106708352805, -32.633155463779289 ], [ -71.047787750731402, -32.633377208006294 ], [ -71.047458298990847, -32.633594469397934 ], [ -71.04713226713659, -32.633816253388055 ], [ -71.045830515763427, -32.634586025743893 ], [ -71.04605396001223, -32.634789761873691 ], [ -71.046685060635326, -32.634901225121212 ], [ -71.047055277025152, -32.634913214776489 ], [ -71.047428045528704, -32.634880094002298 ], [ -71.048074864872618, -32.634738774930149 ], [ -71.048491267244472, -32.634754511522807 ], [ -71.048908424201173, -32.634761223138661 ], [ -71.049324455568822, -32.634745416193205 ], [ -71.049740091677734, -32.634716096741684 ], [ -71.050158801821553, -32.634718196770343 ], [ -71.050569553790268, -32.634765640307528 ], [ -71.05096682024994, -32.634876395507519 ], [ -71.051347192992381, -32.635023478830597 ], [ -71.0517101024857, -32.635193453315409 ], [ -71.052061483898967, -32.635386147865063 ], [ -71.052392955950623, -32.635601627390606 ], [ -71.052693190884867, -32.635844729448728 ], [ -71.052963149000803, -32.636115440953944 ], [ -71.053192772760468, -32.636409195541603 ], [ -71.053402285935846, -32.636716947026514 ], [ -71.053687911568645, -32.636973806342283 ], [ -71.053970570066056, -32.637230713334901 ], [ -71.054162910148165, -32.637543251209124 ], [ -71.054371365108167, -32.637846437290968 ], [ -71.054613711707191, -32.638131042795706 ], [ -71.054798231954763, -32.63845272089187 ], [ -71.05501313232692, -32.638949733777196 ], [ -71.05506114817716, -32.639300611906876 ], [ -71.055111888617674, -32.639656026620116 ], [ -71.0551207882272, -32.640003039546983 ], [ -71.055056193968397, -32.640351329522865 ], [ -71.054928128344855, -32.64069615060383 ], [ -71.054752569690564, -32.641014712015583 ], [ -71.054516322652304, -32.641302644848416 ], [ -71.054244048679578, -32.641573140894977 ], [ -71.054138081612038, -32.641674095608472 ], [ -71.053941470939051, -32.642164324316184 ], [ -71.05358477509256, -32.643157631351855 ], [ -71.053011899672953, -32.644091380859358 ], [ -71.052561954208386, -32.645785181158601 ], [ -71.052527099575357, -32.646579434094434 ], [ -71.052305661264555, -32.647340612980898 ], [ -71.052090469838248, -32.647966342360277 ], [ -71.051764826954496, -32.648963717029005 ], [ -71.050755121473458, -32.650571948801847 ], [ -71.050112797299221, -32.651664700591944 ], [ -71.049525807549855, -32.652201861825162 ], [ -71.048407703261802, -32.652725157593117 ], [ -71.04631971401264, -32.653241659897866 ], [ -71.046137632691071, -32.653276249487654 ], [ -71.046088560422035, -32.653299582496629 ], [ -71.045704548604377, -32.65343668516789 ], [ -71.045315000469628, -32.653564714633944 ], [ -71.044927461866152, -32.653692784002374 ], [ -71.044548101525052, -32.653838745752914 ], [ -71.044174635030529, -32.653998130635827 ], [ -71.043803334374132, -32.65415297195986 ], [ -71.043431380642531, -32.654321417100448 ], [ -71.043146577866537, -32.654574066820729 ], [ -71.042910099961261, -32.654866490161446 ], [ -71.042711569588533, -32.655176395673614 ], [ -71.042593722301348, -32.655516459075187 ], [ -71.04257851202695, -32.655872878777203 ], [ -71.042406100171107, -32.656186939009039 ], [ -71.042158772413828, -32.6564749561038 ], [ -71.041936024359345, -32.656776241693663 ], [ -71.041731185118365, -32.65708166779612 ], [ -71.041591928283026, -32.657417645211105 ], [ -71.041676791229591, -32.657754410183848 ], [ -71.041848141276773, -32.65808082774749 ], [ -71.042079014593, -32.658374655400685 ], [ -71.042223902068557, -32.658620310063334 ], [ -71.042263456687138, -32.6586467802897 ], [ -71.043048057832706, -32.659305862953772 ], [ -71.043328931377644, -32.660027225763976 ], [ -71.043446894547486, -32.660904614102172 ], [ -71.043318001575599, -32.661695816571402 ], [ -71.043044642437991, -32.662214320298631 ], [ -71.04221696258297, -32.662534469581395 ], [ -71.041571000231855, -32.66299143499505 ], [ -71.040972105110015, -32.66379020945805 ], [ -71.039873644282295, -32.66457915320057 ], [ -71.039094332417108, -32.66503827478158 ], [ -71.039005285117938, -32.665120842319524 ], [ -71.038700936798008, -32.665364787499172 ], [ -71.038392801180819, -32.66559978123675 ], [ -71.038095885521543, -32.665848110493485 ], [ -71.037808063507867, -32.666100798720436 ], [ -71.037527866394356, -32.666362376435387 ], [ -71.037258087043156, -32.666632797430573 ], [ -71.037031305553043, -32.66688899987259 ], [ -71.037015885971215, -32.666925376427791 ], [ -71.037038513634897, -32.667822272416153 ], [ -71.036315997753576, -32.668596067749277 ], [ -71.035714670892276, -32.669449085828631 ], [ -71.035179539087608, -32.670228846300553 ], [ -71.034335410181441, -32.670914397108412 ], [ -71.033573549887294, -32.671156736212502 ], [ -71.033343080812941, -32.67141299222763 ], [ -71.03335715921007, -32.671737463404554 ], [ -71.03327719028519, -32.672221191268946 ], [ -71.033438499862427, -32.672547782092387 ], [ -71.033599445621988, -32.672869798395581 ], [ -71.03376206673957, -32.673196293083073 ], [ -71.033902246144692, -32.673469146400734 ], [ -71.034028310321773, -32.673566248730531 ], [ -71.03463660900799, -32.674043468995315 ], [ -71.035138485180809, -32.67489653639192 ], [ -71.035267406000514, -32.676039793932162 ], [ -71.035306900431991, -32.677179994152866 ], [ -71.035180253248271, -32.678016293190119 ], [ -71.034617730912302, -32.678530458094571 ], [ -71.034960217207626, -32.67892170593425 ], [ -71.035475427972528, -32.67946788260253 ], [ -71.036080537639492, -32.680021759191895 ], [ -71.036489077955977, -32.680944082275069 ], [ -71.036801378162821, -32.682021191142361 ], [ -71.036933922786361, -32.683087699558669 ], [ -71.038682669556692, -32.684209137009901 ], [ -71.03997927448161, -32.685391985445627 ], [ -71.039952317836551, -32.685996679456828 ], [ -71.040169244807984, -32.687079911129537 ], [ -71.040332228844946, -32.687343297884091 ], [ -71.040532571119599, -32.687651215772263 ], [ -71.040759242116934, -32.68794511100598 ], [ -71.041021746910943, -32.688220397574561 ], [ -71.041336936099739, -32.688449685087868 ], [ -71.041700502261534, -32.688624178150683 ], [ -71.042074662255459, -32.688780398215741 ], [ -71.042447266367319, -32.688941148173178 ], [ -71.042780114637964, -32.689147685534351 ], [ -71.043081139191372, -32.689395299147378 ], [ -71.043424122255033, -32.689601669131378 ], [ -71.043751838450461, -32.689812793300284 ], [ -71.044002948115107, -32.69009727192158 ], [ -71.044197138726716, -32.690414297196256 ], [ -71.044346660610799, -32.69074549672839 ], [ -71.044457088712051, -32.691086346351639 ], [ -71.044498017753028, -32.691432983477192 ], [ -71.044420953081413, -32.691781396640152 ], [ -71.044332518433293, -32.692125488609818 ], [ -71.044251087949405, -32.692474046491299 ], [ -71.04413048373263, -32.69280972299147 ], [ -71.043934953732943, -32.693124088097463 ], [ -71.043692165162781, -32.693412036025435 ], [ -71.043445081747251, -32.693695620175319 ], [ -71.043160105596399, -32.69395736278414 ], [ -71.042839281275832, -32.694183560947536 ], [ -71.04253027519114, -32.694418505334049 ], [ -71.042242323820076, -32.694680294962488 ], [ -71.04202504560736, -32.694972404857808 ], [ -71.041881777794273, -32.695299360785548 ], [ -71.041765646289292, -32.695643975940328 ], [ -71.041642583383577, -32.695979691171075 ], [ -71.041514015601791, -32.696315421014617 ], [ -71.04138535978511, -32.696651152619239 ], [ -71.041255918840889, -32.696986970653349 ], [ -71.04112535590086, -32.69732731338437 ], [ -71.040996697389232, -32.697663044962738 ], [ -71.040862259117077, -32.697994437585734 ], [ -71.040715400737795, -32.698321451235984 ], [ -71.040560260789903, -32.698653180837425 ], [ -71.040393892799287, -32.698971498641413 ], [ -71.040205064231642, -32.699285749065588 ], [ -71.040024281873968, -32.699604300468415 ], [ -71.039928226817253, -32.69994858755399 ], [ -71.040003484078511, -32.700299099985024 ], [ -71.040151247061274, -32.700625826250381 ], [ -71.040502011331952, -32.700823063523359 ], [ -71.040881344723616, -32.700970187256452 ], [ -71.041285839926374, -32.70106732847389 ], [ -71.04164687822896, -32.701228267967096 ], [ -71.041961522140369, -32.701462141556647 ], [ -71.04228219374734, -32.7016959162627 ], [ -71.042607187149144, -32.701916026243232 ], [ -71.042909377715773, -32.702159187577351 ], [ -71.043194844346758, -32.702416066713901 ], [ -71.043469598567981, -32.702682132554393 ], [ -71.043724660819862, -32.702962038441264 ], [ -71.043954354648108, -32.703255952057233 ], [ -71.044160685092479, -32.703563691089158 ], [ -71.044332735825577, -32.703885508623536 ], [ -71.044457566615776, -32.704217183527454 ], [ -71.044540429014219, -32.704563062135371 ], [ -71.044597889751358, -32.704913861070054 ], [ -71.044645231865132, -32.70526925826119 ], [ -71.044696929011437, -32.705620151174038 ], [ -71.044747927268432, -32.705971056313018 ], [ -71.044774291923702, -32.706322288883484 ], [ -71.044757682972417, -32.706674296365691 ], [ -71.044715392085465, -32.707026721973953 ], [ -71.044659281516189, -32.707374793080085 ], [ -71.04459864613284, -32.707727518272065 ], [ -71.044542625395096, -32.708075661475753 ], [ -71.044497872225946, -32.708423621156122 ], [ -71.044450251634416, -32.708776134338052 ], [ -71.044400372678282, -32.709133117066479 ], [ -71.044358079994694, -32.709485543544432 ], [ -71.044333781464573, -32.709837676112869 ], [ -71.044337421438101, -32.710184845854592 ], [ -71.044383337925524, -32.710531253101607 ], [ -71.044479119894376, -32.710872414161258 ], [ -71.04460406477061, -32.711208592884368 ], [ -71.044737584964551, -32.711549064291368 ], [ -71.0448580041284, -32.711889821618612 ], [ -71.044967662373452, -32.712226175641376 ], [ -71.045077514654594, -32.712567106491839 ], [ -71.045185618814187, -32.712908065516729 ], [ -71.04528944429812, -32.713249095042251 ], [ -71.045378697311477, -32.713594794273881 ], [ -71.045455459250832, -32.713940771064756 ], [ -71.045559374566253, -32.71428179815377 ], [ -71.045699249442521, -32.714613150978153 ], [ -71.045861998120856, -32.714939697853097 ], [ -71.046055029905745, -32.715256662850692 ], [ -71.046272217388619, -32.71555978708296 ], [ -71.046427966394262, -32.715881940762706 ], [ -71.046546388603218, -32.716222656596557 ], [ -71.046649611317577, -32.716563693856166 ], [ -71.046748991937449, -32.71690471998641 ], [ -71.046857560526064, -32.717250176043869 ], [ -71.046970484147167, -32.717591054437015 ], [ -71.047068208273672, -32.717932180182231 ], [ -71.047130374386285, -32.718273813267444 ], [ -71.047160790443471, -32.718629559314358 ], [ -71.047160018790635, -32.718985814094452 ], [ -71.047121752356176, -32.719338174438263 ], [ -71.04699254766885, -32.719669339940069 ], [ -71.046827423844903, -32.719996732151259 ], [ -71.046706361487324, -32.720332418489463 ], [ -71.046613764944482, -32.720613486541851 ], [ -71.046521586118217, -32.720813429104261 ], [ -71.045573131366524, -32.722082483621342 ], [ -71.044486772642287, -32.723096682788963 ], [ -71.043917969285843, -32.723624586644995 ], [ -71.043835097904264, -32.724374401816029 ], [ -71.043689805288523, -32.725418384556924 ], [ -71.043484644450686, -32.725899575560447 ], [ -71.043189708678284, -32.726456921462955 ], [ -71.042913167707951, -32.726851434765912 ], [ -71.042824317139832, -32.727902770235154 ], [ -71.04307829512517, -32.729139345347484 ], [ -71.043445257817041, -32.730374151630507 ], [ -71.044152985632167, -32.731698848607124 ], [ -71.044683860320674, -32.732692348030248 ], [ -71.044825645913548, -32.732975944105988 ], [ -71.044930730835489, -32.733612021551473 ], [ -71.045106115216612, -32.734673672742737 ], [ -71.045458776729163, -32.735287904527652 ], [ -71.046206219062995, -32.735895688756116 ], [ -71.047116295989142, -32.736214753981471 ], [ -71.04808182142618, -32.736485106964516 ], [ -71.049100349261622, -32.73661148343956 ], [ -71.049946528123286, -32.736597717339507 ], [ -71.050849063692596, -32.736582874461774 ], [ -71.052144189990543, -32.736466294728153 ], [ -71.052989183974361, -32.736404801296025 ], [ -71.053722465266048, -32.736392785211478 ], [ -71.05392562016587, -32.73635901745115 ], [ -71.05467807240403, -32.736234017385009 ], [ -71.055237809064323, -32.736034085224048 ], [ -71.056083890009617, -32.736020204933659 ], [ -71.05704286133836, -32.736004391721998 ], [ -71.058618840519969, -32.735835482538 ], [ -71.059239308683345, -32.735825287465282 ], [ -71.059862058567546, -32.735910428225949 ], [ -71.060490210021541, -32.736233956178587 ], [ -71.061061918529603, -32.736558407850566 ], [ -71.061922279094659, -32.73716423843085 ], [ -71.063065896435106, -32.737813049946212 ], [ -71.063864338822555, -32.73818148118437 ], [ -71.064603126786935, -32.73840771456485 ], [ -71.065284459404083, -32.738587313093277 ], [ -71.065967906655388, -32.738862175175946 ], [ -71.06676315373538, -32.739087538631672 ], [ -71.067336004002172, -32.739459593784034 ], [ -71.068361282676975, -32.739871903711354 ], [ -71.069052551559466, -32.740480474235831 ], [ -71.069398697591268, -32.740808611357529 ], [ -71.069747051682029, -32.741232087235218 ], [ -71.070318910208755, -32.741556420216838 ], [ -71.070940430299331, -32.741593873284558 ], [ -71.071561021531878, -32.741583614645471 ], [ -71.072127285351016, -32.741669701191178 ], [ -71.07309284761898, -32.741939857040336 ], [ -71.074002140315883, -32.742210936905543 ], [ -71.07496762622705, -32.742481079779978 ], [ -71.075823798846244, -32.742896128298973 ], [ -71.076566992148784, -32.743313115956553 ], [ -71.077083631234999, -32.743685982327968 ], [ -71.077718536223287, -32.74429543574977 ], [ -71.078127822141468, -32.744908629564968 ], [ -71.078482878562582, -32.745618170654062 ], [ -71.078840153822426, -32.746422975524943 ], [ -71.079892160970203, -32.747979329207126 ], [ -71.080368929230829, -32.749068273367683 ], [ -71.080663218216216, -32.749587990702139 ], [ -71.081130113093565, -32.750247940235127 ], [ -71.081708642509582, -32.750858383061455 ], [ -71.082001747515434, -32.751330390279698 ], [ -71.082637850856315, -32.751987447687746 ], [ -71.083725349542647, -32.752637068436599 ], [ -71.084637940853256, -32.753051113943066 ], [ -71.085549603305864, -32.753417515632314 ], [ -71.086628153873633, -32.75368568292388 ], [ -71.087530840359932, -32.753670569406417 ], [ -71.087584680886494, -32.753666198913635 ], [ -71.088263134403135, -32.753610712146092 ], [ -71.089103795812335, -32.75335821953081 ], [ -71.089654555607964, -32.752776779904785 ], [ -71.090151164958272, -32.752291543258487 ], [ -71.091042692572103, -32.751799786245066 ], [ -71.091769394602679, -32.751501527541819 ], [ -71.092725165234057, -32.751342464790369 ], [ -71.094499379242677, -32.75119357542723 ], [ -71.095232850078901, -32.751181310508301 ], [ -71.095969496459659, -32.751312087367261 ], [ -71.096820168694364, -32.751488602353426 ], [ -71.097902166996192, -32.751899714295639 ], [ -71.098812658944013, -32.752218314244288 ], [ -71.099886752969653, -32.75229568943562 ], [ -71.100844667879628, -32.752231977449604 ], [ -71.101855673222886, -32.752024194509964 ], [ -71.102752730865603, -32.751770664624225 ], [ -71.103653150004121, -32.751660246254822 ], [ -71.106347559562238, -32.751042571144538 ], [ -71.107352924383818, -32.750596512014738 ], [ -71.108187791659432, -32.750105515515273 ], [ -71.108629044126985, -32.749668937259706 ], [ -71.109231798411273, -32.749289553088751 ], [ -71.109996442584475, -32.750218165340776 ], [ -71.110514295294635, -32.750638667371469 ], [ -71.111140471353323, -32.750866590931679 ], [ -71.112219142295345, -32.751134533962514 ], [ -71.11301000829171, -32.751168920928755 ], [ -71.113692648855888, -32.75139587910607 ], [ -71.114662932669006, -32.751856378685396 ], [ -71.115238307201736, -32.752323540136373 ], [ -71.115590301266025, -32.752889919689316 ], [ -71.116116175033355, -32.753644037452204 ], [ -71.117092139792319, -32.754342969243829 ], [ -71.117837952582235, -32.754854961268563 ], [ -71.118580386808361, -32.755223906016717 ], [ -71.11910508288436, -32.755930379333698 ], [ -71.119346550032716, -32.756593991948606 ], [ -71.12025096847087, -32.757842494889744 ], [ -71.121456144662801, -32.7586804621195 ], [ -71.122261787945561, -32.75933458481331 ], [ -71.12313068789571, -32.760273606423951 ], [ -71.124221961302865, -32.761065825708137 ], [ -71.12485390724062, -32.761532054253038 ], [ -71.125424953690327, -32.761808488578154 ], [ -71.12610875038628, -32.762083081096982 ], [ -71.12640334479886, -32.762602603130091 ], [ -71.126407793256163, -32.762793351075224 ], [ -71.126475590907276, -32.763269072822055 ], [ -71.126559174652883, -32.764412222341676 ], [ -71.126856138821182, -32.765027224307808 ], [ -71.127160869823456, -32.765975868376628 ], [ -71.127804209992277, -32.766918685196387 ], [ -71.128383246058107, -32.767528816598194 ], [ -71.128903556558882, -32.768044643331962 ], [ -71.129650687177303, -32.768604187345254 ], [ -71.130617830480176, -32.76892158467254 ], [ -71.132434744109219, -32.769367533128282 ], [ -71.133513696223929, -32.7696352799965 ], [ -71.134304726611987, -32.769669524610727 ], [ -71.134932320212172, -32.76994502422825 ], [ -71.135838559535429, -32.770072595782494 ], [ -71.13685764342803, -32.770198235732018 ], [ -71.137756962130325, -32.770039863530414 ], [ -71.138314329933195, -32.76974422580394 ], [ -71.139037577043169, -32.769302654248534 ], [ -71.139591599519918, -32.768863969747514 ], [ -71.140257316722469, -32.768375723777538 ], [ -71.141625346695605, -32.767756156841934 ], [ -71.14442599461249, -32.766849866760694 ], [ -71.145544070154457, -32.766401423516214 ], [ -71.146155649488108, -32.766009448906814 ], [ -71.146707240225382, -32.76547540178008 ], [ -71.147312994882711, -32.764845049563625 ], [ -71.147750593003707, -32.764265301487924 ], [ -71.148417372913229, -32.763824572220287 ], [ -71.149145105311419, -32.763573688867943 ], [ -71.15010308310346, -32.763509597428474 ], [ -71.151232644504617, -32.763537850273828 ], [ -71.15253149791269, -32.763563184987923 ], [ -71.153488324962851, -32.763451437375913 ], [ -71.154334696962295, -32.763436807463727 ], [ -71.155180986316722, -32.763422321831392 ], [ -71.156535058266982, -32.763398940553323 ], [ -71.156929928021484, -32.763392141156856 ], [ -71.157025510564353, -32.762675155067065 ], [ -71.159113104554791, -32.762639184669723 ], [ -71.1590705163255, -32.760875393607172 ], [ -71.165740593548335, -32.762453247616996 ], [ -71.165758121476173, -32.765505119451717 ], [ -71.165928483376547, -32.765549822467783 ], [ -71.168863589328524, -32.765546752577904 ], [ -71.179364772829004, -32.765650578099397 ], [ -71.185516984765286, -32.765638741964324 ], [ -71.186871064800386, -32.765615105192637 ], [ -71.188676474603895, -32.765583567077442 ], [ -71.193418208474924, -32.765595984867012 ], [ -71.193801569013999, -32.764446644217017 ], [ -71.193870190420242, -32.764467382846625 ], [ -71.196149312415784, -32.765333516587461 ], [ -71.198085116276047, -32.7660148876598 ], [ -71.198831556988353, -32.766526444705384 ], [ -71.199299305265214, -32.767185839664997 ], [ -71.199893972915305, -32.768415312307077 ], [ -71.20031466564096, -32.769457093882863 ], [ -71.200900149813904, -32.770305232057957 ], [ -71.202227184270726, -32.771474095016423 ], [ -71.202970082027562, -32.77184259247943 ], [ -71.203598969201749, -32.772165368294885 ], [ -71.20445824280533, -32.772674830220431 ], [ -71.205094196127575, -32.773283589780661 ], [ -71.20595702077145, -32.773936073400932 ], [ -71.207501708038464, -32.774767277186683 ], [ -71.208818293291912, -32.775507111952308 ], [ -71.209451938842193, -32.776020517038255 ], [ -71.210086857305228, -32.776581472400878 ], [ -71.210601691676004, -32.776858575252028 ], [ -71.211282386489287, -32.776989577238794 ], [ -71.211619831439251, -32.776935967550628 ], [ -71.21268600142578, -32.776678665673522 ], [ -71.213306690574726, -32.776667695814169 ], [ -71.213763973478521, -32.776898079192399 ], [ -71.214223708783052, -32.777223789845195 ], [ -71.214683359645946, -32.777549499305763 ], [ -71.214974969855163, -32.777925829559152 ], [ -71.215835542422624, -32.77848283565433 ], [ -71.215892011419712, -32.77848191044059 ], [ -71.216681938676587, -32.778467928005064 ], [ -71.217283826984925, -32.77856579367846 ], [ -71.217475412482202, -32.778596900462937 ], [ -71.218214965811214, -32.778822340867343 ], [ -71.218733471596579, -32.779242290902999 ], [ -71.219594080096641, -32.779799269875504 ], [ -71.220448778580462, -32.780118028289891 ], [ -71.221248284573235, -32.780485334413093 ], [ -71.221822010697409, -32.78085664263407 ], [ -71.222173599621527, -32.781374984902122 ], [ -71.222357234130214, -32.781944029947439 ], [ -71.222374931839624, -32.782659041446443 ], [ -71.222677264340064, -32.783464371748984 ], [ -71.22354268421681, -32.784212052766584 ], [ -71.224578629487283, -32.785004346732912 ], [ -71.225050894493393, -32.785446686975462 ], [ -71.225033565991566, -32.785754173966545 ], [ -71.225429861372419, -32.786043776468404 ], [ -71.225969191004381, -32.78661040821514 ], [ -71.226313906918264, -32.786973547502932 ], [ -71.226694961481996, -32.787476538672621 ], [ -71.227121742090333, -32.788116710493604 ], [ -71.227533280084927, -32.78829961545037 ], [ -71.228158208383661, -32.788284374140204 ], [ -71.228920315714518, -32.788223405097447 ], [ -71.229347097221165, -32.788284374140204 ], [ -71.229667182228255, -32.788543489651367 ], [ -71.229911057759921, -32.789015997883247 ], [ -71.230251378217091, -32.789698242623039 ], [ -71.230542683897426, -32.790309983446356 ], [ -71.230950510053262, -32.791009116704949 ], [ -71.231183554597536, -32.791242159651475 ], [ -71.231940948468079, -32.791562595065741 ], [ -71.232207389679672, -32.79163742287129 ], [ -71.232913762835338, -32.79183579765818 ], [ -71.233462480760338, -32.791957735280327 ], [ -71.233980715254489, -32.792171125716749 ], [ -71.234666612211569, -32.792293062123974 ], [ -71.23545920476991, -32.792597905808776 ], [ -71.235870742764504, -32.792704601078093 ], [ -71.236480429347836, -32.792719842385971 ], [ -71.236509841986859, -32.792726379013075 ], [ -71.236547935944813, -32.792922115883684 ], [ -71.23678321280255, -32.793299396785862 ], [ -71.23787705089984, -32.794138261836537 ], [ -71.238567470874401, -32.794650495414707 ], [ -71.238922799485024, -32.795311812957387 ], [ -71.238821796507736, -32.795790475782347 ], [ -71.238436366250255, -32.796178927180868 ], [ -71.238160128012169, -32.796422331231916 ], [ -71.238003922662358, -32.796949628374648 ], [ -71.238062907840543, -32.797153352649303 ], [ -71.238077168595694, -32.797722295243886 ], [ -71.238553213712507, -32.79843250201921 ], [ -71.238959714853323, -32.798978177009239 ], [ -71.239698925025877, -32.799739002956954 ], [ -71.240706939877555, -32.800771520577406 ], [ -71.242249358898476, -32.802236740257293 ], [ -71.242673948515844, -32.803500869243017 ], [ -71.242820108904141, -32.804106378748486 ], [ -71.243040006604218, -32.805042480803237 ], [ -71.242805997269343, -32.806152415450768 ], [ -71.242623676995905, -32.806708627918063 ], [ -71.242378467466068, -32.807376554407043 ], [ -71.242328336981643, -32.807985654085847 ], [ -71.242282370188548, -32.808760526337558 ], [ -71.242293388923827, -32.809202610245158 ], [ -71.242307275081473, -32.809755305658676 ], [ -71.242385265017816, -32.810251520883249 ], [ -71.242387756046099, -32.810274081992013 ], [ -71.242365440996124, -32.810987510492616 ], [ -71.242413245742284, -32.8117829384584 ], [ -71.243377904305078, -32.810826272440821 ], [ -71.243983237652557, -32.810195472184716 ], [ -71.24481801240168, -32.809703573802487 ], [ -71.245564966052001, -32.809094087248312 ], [ -71.246176272297788, -32.808701708040708 ], [ -71.247122702246841, -32.808160067939902 ], [ -71.24795606574267, -32.807620525784237 ], [ -71.248393267706604, -32.807040373877555 ], [ -71.248886862310826, -32.806459281180693 ], [ -71.249721489736231, -32.805967427808675 ], [ -71.250721859924838, -32.805329421615625 ], [ -71.251501186163054, -32.80488627269542 ], [ -71.252501533893792, -32.804248327452378 ], [ -71.25316444116612, -32.803664098093556 ], [ -71.253996697937509, -32.803076888418175 ], [ -71.254833582829221, -32.802680258024616 ], [ -71.255392019627294, -32.802431733587724 ], [ -71.256110084356393, -32.801798845612602 ], [ -71.256375358656427, -32.801126469784663 ], [ -71.256529046028504, -32.800503678636275 ], [ -71.256680325017285, -32.799785635411126 ], [ -71.256771509408509, -32.798925655838943 ], [ -71.256977969210268, -32.798158893811781 ], [ -71.257356180606124, -32.797484405582267 ], [ -71.257988874840507, -32.796829186695582 ], [ -71.258537621511607, -32.796199341262351 ], [ -71.258972289328142, -32.79552383006714 ], [ -71.259523346466139, -32.794989309141421 ], [ -71.260130874397831, -32.794453839566181 ], [ -71.260788834647911, -32.793678919630729 ], [ -71.261001284415954, -32.79315050736723 ], [ -71.261034740372097, -32.792243771353981 ], [ -71.261017932893125, -32.791576407041276 ], [ -71.260818435034835, -32.790387839804268 ], [ -71.260800336676795, -32.789672850403043 ], [ -71.260899920315921, -32.789146402741352 ], [ -71.261161592371678, -32.788330989190506 ], [ -71.261934684301821, -32.787649428745937 ], [ -71.26276060974709, -32.786823742757633 ], [ -71.263808690358758, -32.785851015107177 ], [ -71.264692175355833, -32.785072071920105 ], [ -71.26573779548194, -32.784004003099746 ], [ -71.26701876612762, -32.783313146537914 ], [ -71.268076264676722, -32.782721770992602 ], [ -71.269364461370557, -32.782316872778395 ], [ -71.270426951857701, -32.781916127337361 ], [ -71.271258805285512, -32.781328743832816 ], [ -71.272317550696229, -32.780784958957 ], [ -71.273155051832248, -32.780393002377679 ], [ -71.273668017707266, -32.780248205263874 ], [ -71.274285031848365, -32.780006735738191 ], [ -71.274786101334044, -32.779800170151809 ], [ -71.275131410135998, -32.779596506577199 ], [ -71.275670535850395, -32.779356446125583 ], [ -71.275836733161114, -32.779275858119995 ], [ -71.276093717807711, -32.779151290630686 ], [ -71.276364579628805, -32.779080619153945 ], [ -71.276791949531969, -32.779039901705509 ], [ -71.277182936767801, -32.779098612739141 ], [ -71.277537457792988, -32.77925668030737 ], [ -71.277970610151655, -32.779446263437855 ], [ -71.278249853254323, -32.779704318620382 ], [ -71.278568083240359, -32.779961737877514 ], [ -71.279314353272767, -32.78021136510894 ], [ -71.279908266338026, -32.780305747111363 ], [ -71.280097163177643, -32.780357416770556 ], [ -71.281571525832661, -32.780616668660826 ], [ -71.282872932252758, -32.780736039438324 ], [ -71.283661713259335, -32.780674007105652 ], [ -71.284842963721971, -32.780509363746908 ], [ -71.285299302496398, -32.780691775301761 ], [ -71.285705276326127, -32.781113566886766 ], [ -71.28617616870649, -32.781867929702287 ], [ -71.286218839580798, -32.782158210982104 ], [ -71.28642182739398, -32.782483460562808 ], [ -71.286817044796479, -32.782706577817358 ], [ -71.287327361539695, -32.782861845345366 ], [ -71.287719124021649, -32.782953307804739 ], [ -71.288071236663555, -32.783012693704549 ], [ -71.288771075473861, -32.782966954964742 ], [ -71.289431259952565, -32.782889063412192 ], [ -71.289858640635515, -32.782848374895273 ], [ -71.29063720420406, -32.782834206601763 ], [ -71.291457192683609, -32.782917895416169 ], [ -71.291967603749953, -32.78307306741543 ], [ -71.292360216038134, -32.783197447401953 ], [ -71.292673348084918, -32.78325753475302 ], [ -71.292911969370479, -32.783450478458882 ], [ -71.292955174742389, -32.783614202542928 ], [ -71.293036771414577, -32.784002756215543 ], [ -71.293705692907736, -32.783720054421785 ], [ -71.294003692833584, -32.783619890202196 ], [ -71.294235771688918, -32.783435239338793 ], [ -71.294427445221089, -32.783206341066553 ], [ -71.294594145588363, -32.782982333128935 ], [ -71.294746862779917, -32.782745061852566 ], [ -71.294885945342088, -32.782494521089468 ], [ -71.295010749182836, -32.782253254779221 ], [ -71.295132437666169, -32.782003106869823 ], [ -71.295266446543621, -32.781752585164206 ], [ -71.295338254274171, -32.781494338801949 ], [ -71.295352780032317, -32.781218970854702 ], [ -71.295352564436655, -32.780948452306738 ], [ -71.295343257890309, -32.780678100603495 ], [ -71.295332377495583, -32.78040777828916 ], [ -71.295320825161042, -32.780141899873058 ], [ -71.295308199339715, -32.77987168242192 ], [ -71.295297929799389, -32.77960127457812 ], [ -71.295308029558129, -32.779330641597511 ], [ -71.2952789690587, -32.779060578023774 ], [ -71.295223571751748, -32.778786565058269 ], [ -71.295161267298596, -32.778526196824245 ], [ -71.295098760724485, -32.778261326369197 ], [ -71.295043245738242, -32.777996328238522 ], [ -71.294990471511937, -32.777722192660924 ], [ -71.294936387541938, -32.777448155936398 ], [ -71.294873765085157, -32.777192373668115 ], [ -71.294733131132475, -32.77702807205506 ], [ -71.294698014191397, -32.776767279488936 ], [ -71.294673182062013, -32.776488125731781 ], [ -71.29462367321176, -32.776218511239946 ], [ -71.294550535974594, -32.775958340932604 ], [ -71.294468017630891, -32.775693836707489 ], [ -71.294387975044131, -32.775433793267595 ], [ -71.294316470045828, -32.775169013307753 ], [ -71.294250795113726, -32.774899767940916 ], [ -71.294195286415686, -32.774634768863088 ], [ -71.294143070941487, -32.774365203138444 ], [ -71.294092892846336, -32.774100032523236 ], [ -71.29404781808033, -32.773825903069984 ], [ -71.294009382762582, -32.773565097342832 ], [ -71.293988106165088, -32.773294890887584 ], [ -71.293964909867825, -32.773024793133722 ], [ -71.293917706094589, -32.772759641184344 ], [ -71.293850225548752, -32.772494860821411 ], [ -71.293781697567297, -32.772230100064611 ], [ -71.293723367260966, -32.771960645643354 ], [ -71.293671504824658, -32.771691072574171 ], [ -71.293598109770997, -32.771430833135945 ], [ -71.293440751882684, -32.771203822540976 ], [ -71.293259620080377, -32.770977173174984 ], [ -71.293065174347248, -32.770759779949408 ], [ -71.292864405372811, -32.770551514523582 ], [ -71.292664484408007, -32.770338801135424 ], [ -71.292437407372191, -32.770144535087773 ], [ -71.292253162009075, -32.769922447599534 ], [ -71.292114722640662, -32.769672557346226 ], [ -71.292054385497977, -32.769416658310092 ], [ -71.29208177153771, -32.769141127598317 ], [ -71.292124242986034, -32.768874259991129 ], [ -71.292185768599836, -32.768607116632708 ], [ -71.292268501640891, -32.768348671983269 ], [ -71.292384003426861, -32.768089480283045 ], [ -71.29259498983933, -32.767891773919821 ], [ -71.292869887790971, -32.76769740433361 ], [ -71.293178085391929, -32.767475240490228 ], [ -71.293516098077134, -32.767338368106337 ], [ -71.294180606147322, -32.76708271163286 ], [ -71.294482541592416, -32.766991487421741 ], [ -71.294780863115108, -32.766895822268403 ], [ -71.295076682829745, -32.766791263973985 ], [ -71.295369298253775, -32.766677676539409 ], [ -71.295657542475624, -32.766564169029891 ], [ -71.295930642898412, -32.766419395492925 ], [ -71.296197451520939, -32.766274735782901 ], [ -71.296483801195848, -32.76615224854411 ], [ -71.296772772154753, -32.766029712792296 ], [ -71.297042052042656, -32.765889512988153 ], [ -71.297312177245217, -32.76574479047553 ], [ -71.297613288935196, -32.765649068083889 ], [ -71.29792010582554, -32.765571264860249 ], [ -71.2982062183452, -32.765453358076421 ], [ -71.298469467842594, -32.765299746955208 ], [ -71.298733910302673, -32.765141607007536 ], [ -71.2990288721262, -32.765041486838783 ], [ -71.299330240734335, -32.764945755381667 ], [ -71.29972084618619, -32.764767198802929 ], [ -71.30008268039613, -32.764530661547077 ], [ -71.300294418698471, -32.764387004200181 ], [ -71.300305813827848, -32.76411627283003 ], [ -71.300224531566002, -32.763937367859107 ], [ -71.300040095760068, -32.763575528274366 ], [ -71.299931531663034, -32.763325024189051 ], [ -71.299807413236849, -32.763074879728187 ], [ -71.299674554202966, -32.762824748161847 ], [ -71.299539104427808, -32.762579244299111 ], [ -71.29938536136018, -32.762343161276974 ], [ -71.299207468882784, -32.762116460644158 ], [ -71.299010085658665, -32.761903637205009 ], [ -71.298797120257632, -32.76170018422966 ], [ -71.298577890005802, -32.761501279177132 ], [ -71.298361633177564, -32.761302319289861 ], [ -71.298146046492533, -32.761098840766898 ], [ -71.297929443812919, -32.760899959300041 ], [ -71.297714500321618, -32.760700973895425 ], [ -71.297499296318904, -32.760502066610734 ], [ -71.297283131118817, -32.760303102224427 ], [ -71.297062596513186, -32.760104218224782 ], [ -71.296838539613333, -32.759914485110023 ], [ -71.296622990657539, -32.759715582867294 ], [ -71.296413238530278, -32.759507486505797 ], [ -71.296200313553442, -32.759308535005871 ], [ -71.29596189618546, -32.759128001464696 ], [ -71.295738424987164, -32.758933675446357 ], [ -71.295573600302191, -32.75869771722715 ], [ -71.295479243061394, -32.758438010165818 ], [ -71.295487218304487, -32.758149242492287 ], [ -71.295652790387763, -32.757961377218699 ], [ -71.295987486492947, -32.757901166269292 ], [ -71.296209215857886, -32.757707691235332 ], [ -71.296469009536366, -32.757549641299974 ], [ -71.296743509534394, -32.75740934730841 ], [ -71.296969458286213, -32.75722029969468 ], [ -71.297175893833469, -32.757013584524039 ], [ -71.297377349120751, -32.756807034319372 ], [ -71.297574638021786, -32.756591473237407 ], [ -71.297770179699569, -32.756376018909563 ], [ -71.297964408040386, -32.756160513444222 ], [ -71.298158026425156, -32.755945094336191 ], [ -71.29835321416671, -32.755729570452232 ], [ -71.298550762680847, -32.755514077776539 ], [ -71.298759665001867, -32.755311820469835 ], [ -71.298965480711558, -32.75510511446771 ], [ -71.299129879595071, -32.754872130237636 ], [ -71.299228962872576, -32.754730543937825 ], [ -71.299312399294507, -32.754616282338688 ], [ -71.299319741225304, -32.754602628564882 ], [ -71.299655913262512, -32.754294389512566 ], [ -71.300287441483675, -32.753913060026228 ], [ -71.301421732514825, -32.753450389228348 ], [ -71.303287872923107, -32.753010230466799 ], [ -71.303538601702058, -32.752928940174229 ], [ -71.30367518425281, -32.752858834140618 ], [ -71.304396422729809, -32.752462314524202 ], [ -71.305236175043916, -32.752014042086522 ], [ -71.306164842604858, -32.751546101597555 ], [ -71.307241517490326, -32.751061835875539 ], [ -71.30843961316117, -32.750449149054802 ], [ -71.310290279190383, -32.749684501746643 ], [ -71.31226257171916, -32.748800494870835 ], [ -71.312420080524461, -32.748684857400555 ], [ -71.312922052817029, -32.748459216006516 ], [ -71.313584377981044, -32.748059153746418 ], [ -71.314186559140182, -32.7476828770466 ], [ -71.314558469752654, -32.747197975310947 ], [ -71.314759911565218, -32.746581109426927 ], [ -71.31490248857385, -32.745969763870704 ], [ -71.314613909280411, -32.745140999142237 ], [ -71.313890166300396, -32.744202961907973 ], [ -71.313271430088889, -32.74354258905052 ], [ -71.312993300897148, -32.743191509869497 ], [ -71.312953928636546, -32.743061556001734 ], [ -71.312936306385623, -32.742944571442358 ], [ -71.312887583561263, -32.742895901625445 ], [ -71.312707107529093, -32.742295028104621 ], [ -71.312597258841208, -32.741399796134729 ], [ -71.312683406378639, -32.740735418995314 ], [ -71.312876607046789, -32.740317056171527 ], [ -71.313039223672803, -32.739926221806122 ], [ -71.313079587673428, -32.739654954400471 ], [ -71.312947491309245, -32.739305758746887 ], [ -71.312875065537767, -32.738928349440705 ], [ -71.312903110042626, -32.738670828155861 ], [ -71.312816852012418, -32.738207982229824 ], [ -71.312836367013645, -32.737738750403928 ], [ -71.312996943565622, -32.737397596160307 ], [ -71.313100120465904, -32.737030463628756 ], [ -71.313125252632588, -32.736673785254474 ], [ -71.313089697313657, -32.736458067396022 ], [ -71.313203969306002, -32.735928431291867 ], [ -71.313375170232845, -32.735339089500009 ], [ -71.313333148840499, -32.734217145222686 ], [ -71.312969817138992, -32.733791032020633 ], [ -71.31265866947065, -32.733605222148036 ], [ -71.312318871832971, -32.733447052371389 ], [ -71.311942986175382, -32.733282456182025 ], [ -71.31169080661725, -32.733210428912422 ], [ -71.311674353972805, -32.733206226683862 ], [ -71.311409887258222, -32.733166042910696 ], [ -71.310826205105727, -32.733131746476325 ], [ -71.310211247208315, -32.733111469060326 ], [ -71.309715099592054, -32.733048441586774 ], [ -71.309042839060979, -32.73300232428204 ], [ -71.308721642837881, -32.732972046398409 ], [ -71.308398527813338, -32.732982579578675 ], [ -71.308104558628202, -32.733001513456315 ], [ -71.307928645139356, -32.732995741707171 ], [ -71.307799488062756, -32.732705065870647 ], [ -71.307739044020536, -32.732570917877503 ], [ -71.307624957979471, -32.732027466175502 ], [ -71.307240505088998, -32.730573632498157 ], [ -71.306708794068967, -32.729713197943227 ], [ -71.306563212195712, -32.729571677456498 ], [ -71.306083660954314, -32.728777872229614 ], [ -71.305606279144357, -32.727925518481186 ], [ -71.30542641216995, -32.727311026630737 ], [ -71.305766498166847, -32.726511224306194 ], [ -71.305902963038292, -32.726319376179063 ], [ -71.305794075547766, -32.725847927199567 ], [ -71.305264958862253, -32.725429345615218 ], [ -71.304325232141863, -32.724995707165576 ], [ -71.303612097367036, -32.724887075416532 ], [ -71.302466725616839, -32.724479808714548 ], [ -71.300957936825213, -32.723768049756558 ], [ -71.299957596281018, -32.723164251773056 ], [ -71.299255677870818, -32.722766766420548 ], [ -71.298110321392002, -32.722354877675997 ], [ -71.296467676436492, -32.721586936024941 ], [ -71.295056436599864, -32.720995059055767 ], [ -71.294025503928694, -32.720784040396218 ], [ -71.293640090739174, -32.720534088612006 ], [ -71.292637284319525, -32.719984276262558 ], [ -71.291156732272199, -32.719420734094307 ], [ -71.290164913146796, -32.718609187905741 ], [ -71.289605837646576, -32.718073846872237 ], [ -71.288497312992718, -32.717611698919356 ], [ -71.287687573392219, -32.717351377050875 ], [ -71.286813996812725, -32.716979556126844 ], [ -71.286601683588572, -32.716902243233797 ], [ -71.286482887680478, -32.71683230914347 ], [ -71.286092059446418, -32.716604963640904 ], [ -71.285710000566212, -32.716368445130193 ], [ -71.285336359798507, -32.716122758073155 ], [ -71.284970298116846, -32.715858906772027 ], [ -71.284599025308253, -32.715599656816579 ], [ -71.284256205737933, -32.715321859989949 ], [ -71.283982256407214, -32.715006684237814 ], [ -71.283769960251064, -32.714645320862239 ], [ -71.28357397390721, -32.714279228362301 ], [ -71.283561757717663, -32.713824018871485 ], [ -71.283446299949134, -32.713298589784188 ], [ -71.283154713994435, -32.712911632290925 ], [ -71.282931400001331, -32.712532443111712 ], [ -71.282671355692884, -32.712203490659931 ], [ -71.282444200503633, -32.711910064557266 ], [ -71.282150883495362, -32.711581717508906 ], [ -71.281953601780856, -32.711373438437235 ], [ -71.281356290388885, -32.710955917394877 ], [ -71.281091557772996, -32.710744360248164 ], [ -71.280763459793548, -32.710412135914495 ], [ -71.280540075731849, -32.710032942913422 ], [ -71.280453143965175, -32.709655773250077 ], [ -71.280396893258711, -32.709368245834199 ], [ -71.280214093284911, -32.708839457884039 ], [ -71.280099128691489, -32.708318595892457 ], [ -71.280145301198758, -32.708168973265444 ], [ -71.280140334413574, -32.708142026396146 ], [ -71.280155790826342, -32.707767426276639 ], [ -71.280234494923349, -32.70750898729478 ], [ -71.280207866163366, -32.707338158615521 ], [ -71.27987473222845, -32.707123260963648 ], [ -71.279270203771489, -32.706877320922054 ], [ -71.278635855738656, -32.706510027942308 ], [ -71.278336819156991, -32.706299087640637 ], [ -71.278083187921368, -32.705825732290279 ], [ -71.278030272659549, -32.705452449043008 ], [ -71.278155446606192, -32.704904614896208 ], [ -71.278315577593787, -32.704360578076667 ], [ -71.278334691946398, -32.703895785206925 ], [ -71.2783902752046, -32.703380834323013 ], [ -71.278275415714063, -32.702859893598905 ], [ -71.277984596920604, -32.702445797102804 ], [ -71.277637070178216, -32.701766782182325 ], [ -71.277385081062931, -32.701243825793853 ], [ -71.277513044278521, -32.700637285494018 ], [ -71.277668480670442, -32.700183608990891 ], [ -71.27784023046793, -32.699350883037447 ], [ -71.277996946959135, -32.698053910371144 ], [ -71.278251138743514, -32.697684132514404 ], [ -71.279091717507697, -32.697186309237409 ], [ -71.28059425043169, -32.696392543855673 ], [ -71.282188852587481, -32.695835993616221 ], [ -71.283704924021123, -32.695537860632257 ], [ -71.284911808808701, -32.695281321545778 ], [ -71.285502021713313, -32.695067705734921 ], [ -71.285524485883613, -32.695085321667037 ], [ -71.28560659549386, -32.695016230029054 ], [ -71.286448513646121, -32.694491371330088 ], [ -71.287059522549555, -32.693754268766554 ], [ -71.28728512185674, -32.69243357295899 ], [ -71.287298747502959, -32.692419731242602 ], [ -71.287299111320664, -32.692379241809554 ], [ -71.287596307254319, -32.692067169324545 ], [ -71.287916138936495, -32.691772708554389 ], [ -71.288229862973054, -32.691464912990121 ], [ -71.288591713352659, -32.691201301760792 ], [ -71.288965169965721, -32.690950996438104 ], [ -71.289338916734621, -32.690705265095076 ], [ -71.2897259558748, -32.690477240639908 ], [ -71.290140633481286, -32.690284760846772 ], [ -71.290554528655193, -32.690078849081445 ], [ -71.290968013299008, -32.689877450326826 ], [ -71.291378464332098, -32.689680463305535 ], [ -71.291781180870601, -32.689461233413056 ], [ -71.29216087718163, -32.689219817187997 ], [ -71.292516303708624, -32.688951806007161 ], [ -71.292885813124343, -32.688701635000825 ], [ -71.293286190449848, -32.688486875434698 ], [ -71.293697301744672, -32.688285437555102 ], [ -71.294095902202557, -32.688066274549257 ], [ -71.294490485394462, -32.687833592921329 ], [ -71.294902782465485, -32.687641141451032 ], [ -71.29506200256138, -32.687588657432414 ], [ -71.29566569738175, -32.687266524080712 ], [ -71.297570480618646, -32.686654461084252 ], [ -71.299090135431953, -32.686265881983068 ], [ -71.30042285712284, -32.686245944723325 ], [ -71.302158038434072, -32.686444142208288 ], [ -71.303594520930176, -32.686399661107693 ], [ -71.304581570899757, -32.686318435580475 ], [ -71.304842918663681, -32.686205407126863 ], [ -71.305306133143304, -32.686115705239388 ], [ -71.305780493918988, -32.686048400790447 ], [ -71.306245947000292, -32.685967667139238 ], [ -71.306714687017234, -32.685895882914807 ], [ -71.307183805224909, -32.685828669783668 ], [ -71.307651497806205, -32.685756976174993 ], [ -71.308114358349627, -32.685667270056747 ], [ -71.308571747254618, -32.685555131422689 ], [ -71.309024217883461, -32.685438575714393 ], [ -71.309468510249957, -32.685299638020503 ], [ -71.309901832390167, -32.685124849642904 ], [ -71.310244576502001, -32.684974187095904 ], [ -71.310801415197162, -32.684806207253949 ], [ -71.312395252886631, -32.684276332458182 ], [ -71.313503113685499, -32.683935729782 ], [ -71.314584574794807, -32.683388243681875 ], [ -71.315424807707601, -32.682890264320534 ], [ -71.315986426338384, -32.682532762286485 ], [ -71.317195036789641, -32.682221884792483 ], [ -71.317645963214488, -32.682060191231031 ], [ -71.318114286413135, -32.681469929444852 ], [ -71.318390138375634, -32.680581083117957 ], [ -71.31867264775272, -32.679520801623632 ], [ -71.318697517611355, -32.678911626091526 ], [ -71.31848718337578, -32.678212167215861 ], [ -71.318347129734775, -32.677457184579495 ], [ -71.318429833131404, -32.677176119715881 ], [ -71.318585198556434, -32.67665473041879 ], [ -71.318661791612499, -32.676495520531851 ], [ -71.318779475406302, -32.676398639154861 ], [ -71.318868578401009, -32.676267196653491 ], [ -71.318514313395681, -32.676112184945055 ], [ -71.318455939071882, -32.675675121148068 ], [ -71.318167339117181, -32.675441549760805 ], [ -71.317551401157786, -32.675293588485964 ], [ -71.317033604143191, -32.675303156066541 ], [ -71.316750235078388, -32.675268573488658 ], [ -71.316368469048953, -32.675076536534107 ], [ -71.316209828366397, -32.674402416757118 ], [ -71.316196466824877, -32.673884885094523 ], [ -71.315950910545325, -32.673491167482837 ], [ -71.315476070967591, -32.673340664522634 ], [ -71.31509234661084, -32.673068950360808 ], [ -71.314758848858247, -32.672915760012678 ], [ -71.31424106352172, -32.672925315749147 ], [ -71.313626176591214, -32.67281720663766 ], [ -71.313341700801985, -32.672742744822123 ], [ -71.312824007093639, -32.672752367120303 ], [ -71.312119026326656, -32.672805183499584 ], [ -71.311460072539887, -32.672817255788829 ], [ -71.310894294709328, -32.672787937477224 ], [ -71.310376595611089, -32.672797401730541 ], [ -71.310093151087798, -32.672762878676458 ], [ -71.309664439999935, -32.672571612170408 ], [ -71.309374933645088, -32.672298142852405 ], [ -71.309083293791474, -32.671945078787083 ], [ -71.30869652234928, -32.67155394633393 ], [ -71.308313849919713, -32.671322008873709 ], [ -71.307836983742718, -32.671091802479104 ], [ -71.307408286129572, -32.67090060120875 ], [ -71.307116745090639, -32.670547529352163 ], [ -71.306778065855468, -32.670195323455275 ], [ -71.30625219657972, -32.669886376696255 ], [ -71.305871583088773, -32.669734030101836 ], [ -71.305349810130735, -32.66958434960722 ], [ -71.304776807150333, -32.669276263562274 ], [ -71.304391087635338, -32.66892491548429 ], [ -71.303411451461798, -32.668365438415954 ], [ -71.302839484238945, -32.668097141570421 ], [ -71.30236486564678, -32.667946582638663 ], [ -71.301883011125, -32.667517281541691 ], [ -71.301587334242498, -32.667004999764963 ], [ -71.30129574020296, -32.666651840673772 ], [ -71.300860952910497, -32.666221744610823 ], [ -71.300429229771467, -32.66591104553892 ], [ -71.300001592170361, -32.665759616282138 ], [ -71.299436790808528, -32.665769971364746 ], [ -71.298874115758949, -32.665859920554347 ], [ -71.29835534676721, -32.665829610053081 ], [ -71.297691431585122, -32.665642682338003 ], [ -71.29693027107858, -32.665338005424616 ], [ -71.296167077684544, -32.664953723553232 ], [ -71.295641271290876, -32.664644656578943 ], [ -71.294972192592539, -32.664258645219761 ], [ -71.294392222278802, -32.663671909419094 ], [ -71.294185699594976, -32.662958739803301 ], [ -71.294229469108885, -32.661725941676984 ], [ -71.294038816062866, -32.659938574532688 ], [ -71.29389900047542, -32.659009062364348 ], [ -71.293708829824723, -32.658374711366463 ], [ -71.293624558867918, -32.657345930313326 ], [ -71.293608270615195, -32.65670839858079 ], [ -71.293591982362443, -32.656070868352124 ], [ -71.293449759290041, -32.655043220228016 ], [ -71.293378021628087, -32.654504806948609 ], [ -71.292833778211516, -32.653631663119782 ], [ -71.291940471035105, -32.6527158424825 ], [ -71.291058442207074, -32.652241280331886 ], [ -71.290065513662299, -32.651965019895577 ], [ -71.289192252391459, -32.651833725246263 ], [ -71.288146291803855, -32.651754701037554 ], [ -71.286346821661027, -32.65168940150398 ], [ -71.285360153475438, -32.651658325307992 ], [ -71.284543608238366, -32.651476913534403 ], [ -71.28383932276742, -32.651146293750564 ], [ -71.283101614577987, -32.650644593405104 ], [ -71.282102408606008, -32.650123120399982 ], [ -71.281457341875196, -32.649840462878345 ], [ -71.280399039333929, -32.649270923089631 ], [ -71.279103781881943, -32.648509467915304 ], [ -71.278277412668942, -32.647935770133969 ], [ -71.278036801615031, -32.647596622625301 ], [ -71.27808604815722, -32.647252359888185 ], [ -71.278596515817441, -32.646801542909898 ], [ -71.279044046610494, -32.646155582332838 ], [ -71.279313983166858, -32.645365688573499 ], [ -71.279354597797507, -32.644678064392906 ], [ -71.279217451104756, -32.643846439668728 ], [ -71.279144570785746, -32.643259130413853 ], [ -71.27919132090976, -32.642816659378163 ], [ -71.279468714381281, -32.642321020475187 ], [ -71.280022160139637, -32.641280636259431 ], [ -71.280120717902719, -32.640591960228718 ], [ -71.280337575703868, -32.639999314031812 ], [ -71.280493990361151, -32.639309512364278 ], [ -71.280476647486267, -32.638622942276143 ], [ -71.280401188104094, -32.637937500863053 ], [ -71.280235781310822, -32.637130915550834 ], [ -71.280049497670362, -32.636643698787772 ], [ -71.279690448237815, -32.636208673608529 ], [ -71.278928356178326, -32.635879072344991 ], [ -71.277707505283018, -32.635754079057101 ], [ -71.277005768332529, -32.635521475289096 ], [ -71.276889709591089, -32.635427396920768 ], [ -71.276354698160688, -32.634993558815474 ], [ -71.275819356150265, -32.63446368746564 ], [ -71.275170697954962, -32.634033825391725 ], [ -71.274296389248491, -32.633853462691704 ], [ -71.273250640663306, -32.633774229687539 ], [ -71.271393586714112, -32.633709821803386 ], [ -71.270354124539296, -32.63387579008208 ], [ -71.269664805899296, -32.634133522233583 ], [ -71.268684433107225, -32.634347534901124 ], [ -71.267587100563503, -32.634514526292733 ], [ -71.266376169763859, -32.634781665119661 ], [ -71.265273706941542, -32.63475251740423 ], [ -71.264281042501437, -32.63447603954139 ], [ -71.2631107586718, -32.634055672359523 ], [ -71.262290708208496, -32.63372701257552 ], [ -71.261872660123018, -32.633243869978273 ], [ -71.261394291962887, -32.632663707478692 ], [ -71.261030410492424, -32.632032499775541 ], [ -71.260548266713116, -32.631305241741238 ], [ -71.259956410789869, -32.630825223386573 ], [ -71.259306531784091, -32.63034631909737 ], [ -71.258484153785901, -32.629919643438598 ], [ -71.257956333369364, -32.629683800898988 ], [ -71.257284362994113, -32.629475075874645 ], [ -71.256590197044844, -32.629536611961626 ], [ -71.255729501408169, -32.62989552963797 ], [ -71.254634476636397, -32.63016047090921 ], [ -71.253535757992182, -32.630278384063288 ], [ -71.252491376642865, -32.630248005515966 ], [ -71.251673856733703, -32.630017483033839 ], [ -71.250970995092473, -32.629735698566954 ], [ -71.250556710948075, -32.629399680700729 ], [ -71.250199229974001, -32.629013517937729 ], [ -71.249665385455188, -32.628532481839329 ], [ -71.248958861382533, -32.628103590674939 ], [ -71.248187128603419, -32.627381470260865 ], [ -71.247716150883107, -32.62709551263719 ], [ -71.247184694984583, -32.626712528841111 ], [ -71.246594164974695, -32.626281546885899 ], [ -71.246119521229701, -32.625848488341958 ], [ -71.245469838056664, -32.625369505973289 ], [ -71.245048155387579, -32.624739135043747 ], [ -71.244920115815191, -32.624250818071125 ], [ -71.244843719490163, -32.623516310714663 ], [ -71.244820449531034, -32.622584492931189 ], [ -71.24469600052484, -32.622243271559441 ], [ -71.244454365391505, -32.621855091835123 ], [ -71.244042590241676, -32.621617112575898 ], [ -71.243458228962851, -32.621431345376372 ], [ -71.242756681556884, -32.621198541707813 ], [ -71.242399269753093, -32.620812426030376 ], [ -71.242273523579627, -32.620422171515095 ], [ -71.242253953781159, -32.619637519415491 ], [ -71.242295988648266, -32.618998927464872 ], [ -71.242518036016818, -32.618602459915941 ], [ -71.242854729076882, -32.618154890560334 ], [ -71.243017613400809, -32.617710425723843 ], [ -71.243063225359364, -32.617218928829445 ], [ -71.243049768596421, -32.616679508529195 ], [ -71.243158296760839, -32.616383174831988 ], [ -71.243380334247931, -32.615986706292709 ], [ -71.243578907739803, -32.615811396478868 ], [ -71.243863684464642, -32.615610093679472 ], [ -71.244035439652009, -32.615458533845988 ], [ -71.243222879341573, -32.615437965629432 ], [ -71.242504118418125, -32.615311033985591 ], [ -71.241841577658406, -32.61522971056278 ], [ -71.241064374139214, -32.61496411598322 ], [ -71.240061242529421, -32.614469544057258 ], [ -71.239555579059356, -32.614059322151689 ], [ -71.23904661607726, -32.613509382455327 ], [ -71.238979966473082, -32.613044638299215 ], [ -71.238917958463944, -32.612766271290937 ], [ -71.238688648216311, -32.612397731805196 ], [ -71.238563559609645, -32.611794256065544 ], [ -71.238447660768315, -32.611563465860911 ], [ -71.238274565294532, -32.611240464512171 ], [ -71.238209083500209, -32.610822386925598 ], [ -71.238196333711386, -32.610310064897192 ], [ -71.238185994102466, -32.60989107794876 ], [ -71.238058509688912, -32.609194559955405 ], [ -71.237714563631243, -32.608641672491117 ], [ -71.237429057474387, -32.608227442036203 ], [ -71.237145871665902, -32.607906400670501 ], [ -71.236690678243448, -32.60730887734227 ], [ -71.236404112074553, -32.606848120757789 ], [ -71.23623094832881, -32.606525190940182 ], [ -71.236111588278703, -32.606154613610286 ], [ -71.235778083339582, -32.606020853634561 ], [ -71.235500695257926, -32.605932561301444 ], [ -71.235168261110644, -32.605845322261274 ], [ -71.234834757968159, -32.605711486149708 ], [ -71.23439000027436, -32.605533086878076 ], [ -71.233834164997361, -32.605310046992322 ], [ -71.233425652528638, -32.60497778019726 ], [ -71.233048801182122, -32.60471838173499 ], [ -71.232543400918431, -32.604308123486071 ], [ -71.23220635212553, -32.60403456951969 ], [ -71.23181896623565, -32.603948298790257 ], [ -71.231212632164969, -32.603912532294657 ], [ -71.230664808063665, -32.604015424403705 ], [ -71.229735455986486, -32.604264788102618 ], [ -71.229189936962214, -32.604460864559222 ], [ -71.228371652586759, -32.604754862278632 ], [ -71.227327576664635, -32.604820003096698 ], [ -71.226608919945761, -32.604692976944101 ], [ -71.22599681958927, -32.604424355896072 ], [ -71.225442162901913, -32.604247873183944 ], [ -71.224889723256695, -32.604164505563297 ], [ -71.224064517361967, -32.604179051105447 ], [ -71.223015839370674, -32.604057848776478 ], [ -71.222184885156423, -32.60383970066836 ], [ -71.221081165591016, -32.603719455933891 ], [ -71.220142506967491, -32.603596355792092 ], [ -71.218211291701707, -32.603397483488358 ], [ -71.217495038874517, -32.603363518617094 ], [ -71.216504869055981, -32.603381075434633 ], [ -71.215568422982997, -32.603350986679736 ], [ -71.214571460104281, -32.603089100571182 ], [ -71.213905498559953, -32.60286783829185 ], [ -71.213021815933502, -32.602743716104165 ], [ -71.212031647911573, -32.602761164069101 ], [ -71.211428844219952, -32.602864939887048 ], [ -71.210225430522627, -32.603165603099249 ], [ -71.209239744195671, -32.603369339610616 ], [ -71.208579596547878, -32.603380952839643 ], [ -71.20798021184423, -32.603624426949786 ], [ -71.207327972065883, -32.60396191204611 ], [ -71.206403115158381, -32.604397489736179 ], [ -71.205745155806625, -32.604502208082295 ], [ -71.204866114775228, -32.604564190412546 ], [ -71.203932024983246, -32.604627204905206 ], [ -71.202944112631002, -32.60473777415725 ], [ -71.202338914929157, -32.60474839057207 ], [ -71.201508080190848, -32.604529955067321 ], [ -71.201121856720974, -32.604272617456758 ], [ -71.200377094959933, -32.604629049101952 ], [ -71.199453572050629, -32.604792465820523 ], [ -71.198584551726256, -32.604807685522537 ], [ -71.197540369802923, -32.604776837472301 ], [ -71.197134782248767, -32.604784008411414 ], [ -71.196384013453439, -32.604895251731058 ], [ -71.195512423049024, -32.604812387193071 ], [ -71.195044116020057, -32.604624284611624 ], [ -71.194629042256494, -32.60423903356363 ], [ -71.194213884949619, -32.603853781615484 ], [ -71.193335215820781, -32.603476552677925 ], [ -71.192572413193886, -32.60309744159899 ], [ -71.192042610195514, -32.602763238360659 ], [ -71.191277426134818, -32.602285904082855 ], [ -71.19033727810455, -32.601762637964768 ], [ -71.189808683340232, -32.601477458210169 ], [ -71.189102646154481, -32.601048280780667 ], [ -71.188400277688331, -32.600766050956288 ], [ -71.187641094373717, -32.600534007858521 ], [ -71.186943504944907, -32.600448050093632 ], [ -71.185775179442572, -32.600075811448654 ], [ -71.185136711735851, -32.60003786915636 ], [ -71.184492201960524, -32.599754682593598 ], [ -71.183962359436279, -32.599420444181057 ], [ -71.183547357537947, -32.599035226756612 ], [ -71.183132268503044, -32.598649861613623 ], [ -71.18260133632235, -32.598266583588014 ], [ -71.182192203117779, -32.598126530363523 ], [ -71.1817250594071, -32.597987410060504 ], [ -71.180795792669869, -32.597905443515344 ], [ -71.179978725511617, -32.597674357938168 ], [ -71.178672181626425, -32.597574323065814 ], [ -71.176821791380007, -32.597753650139403 ], [ -71.175023302197431, -32.59768670449504 ], [ -71.174032473913783, -32.59745851617668 ], [ -71.173385647383341, -32.597077203037884 ], [ -71.173027439672225, -32.596641837234316 ], [ -71.172957672913995, -32.596152425546315 ], [ -71.172886719481284, -32.59561383271577 ], [ -71.172871326848878, -32.594976315955378 ], [ -71.172624151805195, -32.594342736259478 ], [ -71.172151209469362, -32.59395840748153 ], [ -71.171802401729394, -32.593915385721097 ], [ -71.171278641697924, -32.593826332942392 ], [ -71.170349250094873, -32.593744289934101 ], [ -71.169470859443749, -32.593366882954534 ], [ -71.168826533823051, -32.593083683632813 ], [ -71.16847182145672, -32.592795407988795 ], [ -71.167648921537307, -32.592318993917601 ], [ -71.166943055929778, -32.591889610651279 ], [ -71.166240824905884, -32.591607323217126 ], [ -71.164496839206549, -32.591391971667562 ], [ -71.162988347757263, -32.59131992608102 ], [ -71.161712633154295, -32.591292835744817 ], [ -71.161069432224352, -32.591058558072611 ], [ -71.160967611780151, -32.590921272788655 ], [ -71.16000362066562, -32.591665106336684 ], [ -71.159356458165249, -32.591953128285631 ], [ -71.158822755580232, -32.592423669617844 ], [ -71.157864114831526, -32.593362948879886 ], [ -71.157332608627371, -32.593925793773963 ], [ -71.156805429607928, -32.594673107277224 ], [ -71.156398338273988, -32.595879796488752 ], [ -71.156418147024326, -32.596710061921023 ], [ -71.155888821031368, -32.597365061527597 ], [ -71.155246021648352, -32.597837536083794 ] ] ] } },
{ "type": "Feature", "properties": { "capa": "colegios", "popup": "<strong>ESCUELA BASICA LA PENA</strong><br><br><strong>Dirección:</strong> CAMINO PRINCIPAL LA PENA 0", "etiqueta": "" }, "geometry": { "type": "Point", "coordinates": [ -71.167381, -32.746361 ] } },
{ "type": "Feature", "properties": { "capa": "colegios", "popup": "<strong>ESC.ESPEC.DE LENGUAJE NOGALES</strong><br><br><strong>Dirección:</strong> PEDRO FELIX VICUÑA 669", "etiqueta": "" }, "geometry": { "type": "Point", "coordinates": [ -71.19869, -32.74309 ] } },
{ "type": "Feature", "properties": { "capa": "colegios", "popup": "<strong>LICEO MUNICIPAL JUAN RUSQUE PORTAL</strong><br><br><strong>Dirección:</strong> LIBERTAD 185", "etiqueta": "" }, "geometry": { "type": "Point", "coordinates": [ -71.200844, -32.74144 ] } },
{ "type": "Feature", "properties": { "capa": "colegios", "popup": "<strong>ESCUELA BASICA ULDA ARACENA GONZALEZ</strong><br><br><strong>Dirección:</strong> LAUTARO 90", "etiqueta": "" }, "geometry": { "type": "Point", "coordinates": [ -71.204613, -32.731709 ] } },
{ "type": "Feature", "properties": { "capa": "colegios", "popup": "<strong>COLEGIO JUAN PABLO II</strong><br><br><strong>Dirección:</strong> PRINCIPAL 2 180", "etiqueta": "" }, "geometry": { "type": "Point", "coordinates": [ -71.207268, -32.726151 ] } },
{ "type": "Feature", "properties": { "capa": "colegios", "popup": "<strong>COLEGIO SANTA ISABEL</strong><br><br><strong>Dirección:</strong> PANAMERICANA NORTE 115", "etiqueta": "" }, "geometry": { "type": "Point", "coordinates": [ -71.204277, -32.718491 ] } },
{ "type": "Feature", "properties": { "capa": "colegios", "popup": "<strong>COLEGIO EL MELÓN</strong><br><br><strong>Dirección:</strong> RAMON FREIRE 1", "etiqueta": "" }, "geometry": { "type": "Point", "coordinates": [ -71.212486, -32.691189 ] } },
{ "type": "Feature", "properties": { "capa": "colegios", "popup": "<strong>COLEGIO CARMELITA FELIPE CORTÉS</strong><br><br><strong>Dirección:</strong> JOSE REGIS 1", "etiqueta": "" }, "geometry": { "type": "Point", "coordinates": [ -71.210419, -32.689419 ] } },
{ "type": "Feature", "properties": { "capa": "colegios", "popup": "<strong>ESCUELA ESPECIAL DE LENGUAJE SOL Y LUNA</strong><br><br><strong>Dirección:</strong> GUSTAVO FILLIPHI 611", "etiqueta": "" }, "geometry": { "type": "Point", "coordinates": [ -71.2108, -32.68841 ] } },
{ "type": "Feature", "properties": { "capa": "colegios", "popup": "<strong>ESC.ESTIMUL.LENG. PEQUENAS VOCES</strong><br><br><strong>Dirección:</strong> CALLE LAS DALIAS 1706", "etiqueta": "" }, "geometry": { "type": "Point", "coordinates": [ -71.21036, -32.68646 ] } },
{ "type": "Feature", "properties": { "capa": "colegios", "popup": "<strong>ESCUELA DE PARVULOS CLARITO DE SOL</strong><br><br><strong>Dirección:</strong> RAMON FREIRE 80", "etiqueta": "" }, "geometry": { "type": "Point", "coordinates": [ -71.21565, -32.68533 ] } },
{ "type": "Feature", "properties": { "capa": "jardines", "popup": "<strong>LOS NOGALITOS</strong><br><br><strong>Dirección:</strong> CALLE PEDRO ELEUTERIO GODOY N 286,PO. M.RODRIGUEZ ", "etiqueta": "" }, "geometry": { "type": "MultiPoint", "coordinates": [ [ -71.205068, -32.730174 ] ] } },
{ "type": "Feature", "properties": { "capa": "jardines", "popup": "<strong>LA PEÑA</strong><br><br><strong>Dirección:</strong> CALLE LA ESCUELA S/N LA PEÑA ", "etiqueta": "" }, "geometry": { "type": "MultiPoint", "coordinates": [ [ -71.166719, -32.745939 ] ] } },
{ "type": "Feature", "properties": { "capa": "jardines", "popup": "<strong>MELONCITO</strong><br><br><strong>Dirección:</strong> PJE 10, VILLA JUANITA FERNANDEZ, EL MELON ", "etiqueta": "" }, "geometry": { "type": "MultiPoint", "coordinates": [ [ -71.224028, -32.677459 ] ] } },
{ "type": "Feature", "properties": { "capa": "jardines", "popup": "<strong>SANTA MARIA DE LA ESPERANZA</strong><br><br><strong>Dirección:</strong> CALLE LAS ROMAZAS N160,NOGALES ", "etiqueta": "" }, "geometry": { "type": "MultiPoint", "coordinates": [ [ -71.207401, -32.733038 ] ] } },
{ "type": "Feature", "properties": { "capa": "jardines", "popup": "<strong>RINCÓN DEL JUEGO</strong><br><br><strong>Dirección:</strong> CALLE LAS CODORNICES N 130,POBLACION EL POLIGONO ", "etiqueta": "" }, "geometry": { "type": "MultiPoint", "coordinates": [ [ -71.215077, -32.737756 ] ] } },
{ "type": "Feature", "properties": { "capa": "jardines", "popup": "<strong>TREN DEL APRENDIZAJE</strong><br><br><strong>Dirección:</strong> CALLE JUAN PABLO SEGUNDO ", "etiqueta": "" }, "geometry": { "type": "MultiPoint", "coordinates": [ [ -71.189409, -32.69884 ] ] } },
{ "type": "Feature", "properties": { "capa": "jardines", "popup": "<strong>NA</strong><br><br><strong>Dirección:</strong> NA ", "etiqueta": "" }, "geometry": { "type": "MultiPoint", "coordinates": [ [ -71.213476000512756, -32.689768000316761 ] ] } },
{ "type": "Feature", "properties": { "capa": "jardines", "popup": "<strong>NA</strong><br><br><strong>Dirección:</strong> NA ", "etiqueta": "" }, "geometry": { "type": "MultiPoint", "coordinates": [ [ -71.168503999583777, -32.742632999657062 ] ] } },
{ "type": "Feature", "properties": { "capa": "bomberos", "popup": "<strong>Cuerpo de Bomberos</strong><br><br><strong>Dirección:</strong> Simón Bolívar 14", "etiqueta": "" }, "geometry": { "type": "Point", "coordinates": [ -71.200124371728691, -32.736486334602468 ] } },
{ "type": "Feature", "properties": { "capa": "comisarias", "popup": "<strong>RETEN EL MELON</strong><br><br><strong>Dirección:</strong> BERNARDO O'HIGGINS 24", "etiqueta": "" }, "geometry": { "type": "Point", "coordinates": [ -71.213284595999937, -32.690728571999941 ] } },
{ "type": "Feature", "properties": { "capa": "comisarias", "popup": "<strong>TCIA. NOGALES</strong><br><br><strong>Dirección:</strong> PEDRO FELIX VICUNA 611", "etiqueta": "" }, "geometry": { "type": "Point", "coordinates": [ -71.199727, -32.739228 ] } },
{ "type": "Feature", "properties": { "capa": "salud", "popup": "<strong>Centro Comunitario de Salud Familiar El Polígono</strong><br><br><strong>Tipo de atención:</strong> Centro Comunitario de Salud Familiar (CECOSF)<br><strong>Dirección:</strong>  NA", "etiqueta": "" }, "geometry": { "type": "Point", "coordinates": [ -71.21474, -32.73765 ] } },
{ "type": "Feature", "properties": { "capa": "salud", "popup": "<strong>SUR NOGALES</strong><br><br><strong>Tipo de atención:</strong> Servicio de Urgencia Rural (SUR)<br><strong>Dirección:</strong>  NA", "etiqueta": "" }, "geometry": { "type": "Point", "coordinates": [ -71.204376, -32.735431 ] } },
{ "type": "Feature", "properties": { "capa": "salud", "popup": "<strong>Centro de Salud Familiar Nogales</strong><br><br><strong>Tipo de atención:</strong> Centro de Salud Familiar (CESFAM)<br><strong>Dirección:</strong>  NA", "etiqueta": "" }, "geometry": { "type": "Point", "coordinates": [ -71.20428, -32.73541 ] } },
{ "type": "Feature", "properties": { "capa": "salud", "popup": "<strong>Centro Comunitario de Salud Familiar Ex Asentamiento El Melón</strong><br><br><strong>Tipo de atención:</strong> Centro Comunitario de Salud Familiar (CECOSF)<br><strong>Dirección:</strong>  NA", "etiqueta": "" }, "geometry": { "type": "Point", "coordinates": [ -71.19842, -32.69424 ] } },
{ "type": "Feature", "properties": { "capa": "salud", "popup": "<strong>Centro de Salud Familiar EU Rosa Sanchez G. El Melón</strong><br><br><strong>Tipo de atención:</strong> Centro de Salud Familiar (CESFAM)<br><strong>Dirección:</strong>  601", "etiqueta": "" }, "geometry": { "type": "Point", "coordinates": [ -71.2228, -32.67774 ] } }
]
}
