{
"type": "FeatureCollection",
"name": "5701",
"crs": { "type": "name", "properties": { "name": "urn:ogc:def:crs:OGC:1.3:CRS84" } },
"features": [
{ "type": "Feature", "properties": { "capa": "comuna", "popup": "", "etiqueta": "" }, "geometry": { "type": "Polygon", "coordinates": [ [ [ -70.798265498140594, -32.66461743037479 ], [ -70.797138341529418, -32.664681236720327 ], [ -70.796066640615692, -32.664696583117831 ], [ -70.795391629443202, -32.664801702050866 ], [ -70.794718612530644, -32.665002247596497 ], [ -70.794163092562314, -32.665439678198439 ], [ -70.793162089061454, -32.666169921805221 ], [ -70.792544515269924, -32.666321933417827 ], [ -70.791531018000072, -32.666431794246044 ], [ -70.790739445927912, -32.666347711684388 ], [ -70.789549192549472, -32.666078322079343 ], [ -70.788928670487209, -32.666087171472839 ], [ -70.786732136903922, -32.666285524855411 ], [ -70.785319095945169, -32.666162454049335 ], [ -70.784299986899725, -32.665986035602756 ], [ -70.782999777035599, -32.665861408060785 ], [ -70.781757873223285, -32.665831322916915 ], [ -70.78057521959218, -32.665943571767464 ], [ -70.779340792457987, -32.666295113818776 ], [ -70.778218408595919, -32.666597401579793 ], [ -70.777158866379551, -32.667232817960958 ], [ -70.776657855284341, -32.66757401670489 ], [ -70.7761070370982, -32.668249949219444 ], [ -70.775892628104515, -32.668825732324791 ], [ -70.775623776713019, -32.669497670195568 ], [ -70.775639824217251, -32.6703087623657 ], [ -70.775944555219525, -32.671449871315637 ], [ -70.776070605023548, -32.672116292037636 ], [ -70.77616007183596, -32.673785392120593 ], [ -70.776125378899692, -32.674883650761203 ], [ -70.775744621678314, -32.675604902195836 ], [ -70.775307530207144, -32.676326949318153 ], [ -70.775267160816583, -32.677138912560409 ], [ -70.774884588998333, -32.67776472900114 ], [ -70.774386254882685, -32.678248995105079 ], [ -70.773777908585728, -32.678878077015625 ], [ -70.773005564952243, -32.679771907954944 ], [ -70.772406624914638, -32.680878065353902 ], [ -70.771697740069442, -32.682128959458204 ], [ -70.771257671581438, -32.682707848343824 ], [ -70.770600384169484, -32.683719364180838 ], [ -70.769767397966092, -32.684399326142618 ], [ -70.769264295592905, -32.684645068792037 ], [ -70.768593802047988, -32.684988628773375 ], [ -70.767929030771455, -32.685618404155328 ], [ -70.767606471804058, -32.68643426886203 ], [ -70.767283054047269, -32.687202416324183 ], [ -70.766674598155873, -32.687831466166621 ], [ -70.766291835894776, -32.688457260606519 ], [ -70.765693696256108, -32.689611105142077 ], [ -70.76514736156156, -32.690525572398592 ], [ -70.764537928303142, -32.691106822326965 ], [ -70.764207900742477, -32.691541101052955 ], [ -70.764189210394676, -32.691532645040027 ], [ -70.760620333128273, -32.689921075383999 ], [ -70.760384121124318, -32.689776328537185 ], [ -70.76033477217419, -32.689746063195884 ], [ -70.759636067936086, -32.689319066159541 ], [ -70.759168403202537, -32.688888825198383 ], [ -70.758703684044804, -32.688604091721885 ], [ -70.758298257289098, -32.688415609610878 ], [ -70.757667089292383, -32.688424456791729 ], [ -70.756982249652367, -32.688628219931537 ], [ -70.75595982133197, -32.689176425402572 ], [ -70.754994768408764, -32.689723893403489 ], [ -70.7533421683233, -32.690329436578153 ], [ -70.75174770810132, -32.690982688733612 ], [ -70.750209751910717, -32.691586590381924 ], [ -70.748841103896666, -32.692042487133357 ], [ -70.747360413508801, -32.692645629388444 ], [ -70.746278683803212, -32.693097499565333 ], [ -70.745110071738324, -32.693278971998616 ], [ -70.744905183090012, -32.693310711851659 ], [ -70.744576474256178, -32.693431949005081 ], [ -70.744221304647354, -32.693562935325453 ], [ -70.743199771048978, -32.694159642136874 ], [ -70.741945739980324, -32.694613870891338 ], [ -70.740803654267467, -32.694920982015944 ], [ -70.737771313770793, -32.695507492162918 ], [ -70.737956617349283, -32.695988497535637 ], [ -70.738336535544207, -32.696840067144691 ], [ -70.738632507972426, -32.697561950135196 ], [ -70.7389773235993, -32.698513231073889 ], [ -70.739329743465035, -32.699311021917126 ], [ -70.739775467746085, -32.70003540523232 ], [ -70.74018040941155, -32.700990280729975 ], [ -70.740412466707312, -32.701785229823663 ], [ -70.740798992011136, -32.70277648786066 ], [ -70.741137381988764, -32.70358348010226 ], [ -70.741608660644701, -32.704465318488019 ], [ -70.741938327980932, -32.705290457400174 ], [ -70.742333611858768, -32.706060673998515 ], [ -70.742637599055968, -32.706759900352907 ], [ -70.742988604075123, -32.707580305903939 ], [ -70.743284305212157, -32.708302253192642 ], [ -70.743546815396058, -32.709096772820175 ], [ -70.743844096669662, -32.709796087248016 ], [ -70.744076301289141, -32.710591100748999 ], [ -70.745622893882881, -32.714265325789277 ], [ -70.74428541381593, -32.714554283302682 ], [ -70.743655859193453, -32.714660125066693 ], [ -70.743023555726211, -32.714620302529624 ], [ -70.742389367593503, -32.714483492539777 ], [ -70.742062484136355, -32.714338641921714 ], [ -70.741752353360923, -32.714201241958939 ], [ -70.741231001712734, -32.713965701156589 ], [ -70.74053658782843, -32.713684093656966 ], [ -70.73990043957177, -32.713450362453067 ], [ -70.739377302072825, -32.713117828480513 ], [ -70.738849459198377, -32.71254264916228 ], [ -70.738379969088186, -32.712015347869531 ], [ -70.738078838533582, -32.711291468450838 ], [ -70.737836994991127, -32.710663777427406 ], [ -70.737481294477959, -32.710086278435284 ], [ -70.737184969011807, -32.709605040654885 ], [ -70.735666402058314, -32.708267046951036 ], [ -70.734792246065425, -32.707599558109024 ], [ -70.733977557646071, -32.707028399277142 ], [ -70.73350991447208, -32.706598062260994 ], [ -70.732810804195481, -32.706073838589269 ], [ -70.732398781110632, -32.705545570822892 ], [ -70.732100622182998, -32.704967260880011 ], [ -70.731856965840279, -32.704242570636069 ], [ -70.731556853076881, -32.703567201543514 ], [ -70.731388843864252, -32.703351857891469 ], [ -70.731144850653308, -32.70303900284388 ], [ -70.730386598891641, -32.702418497001609 ], [ -70.729457103982341, -32.701848816857947 ], [ -70.729420185020786, -32.701837504419601 ], [ -70.728706362136464, -32.701616532487122 ], [ -70.727784368159774, -32.701435072469039 ], [ -70.725542359161864, -32.701271851192473 ], [ -70.724507536785481, -32.701189003359652 ], [ -70.723589287885204, -32.701201628177863 ], [ -70.722615505134073, -32.701312019856815 ], [ -70.72175838030067, -32.701518034974676 ], [ -70.720502266937217, -32.701874997606836 ], [ -70.719966586261918, -32.70194721724684 ], [ -70.719700662479951, -32.701983004264846 ], [ -70.719212893450347, -32.701965458483279 ], [ -70.718902551570821, -32.701954345624053 ], [ -70.71872407518849, -32.701947851468319 ], [ -70.717856702374348, -32.701620016560611 ], [ -70.717391111850787, -32.701286673490692 ], [ -70.716406256465461, -32.700814736898657 ], [ -70.715483277935206, -32.700584729742438 ], [ -70.714733504473202, -32.700400816873469 ], [ -70.713581036930591, -32.700173860382428 ], [ -70.712657230153653, -32.69989522858549 ], [ -70.711901070568302, -32.699371737358582 ], [ -70.71142940294186, -32.698722891809375 ], [ -70.711011895642201, -32.697903445780263 ], [ -70.710715752534071, -32.697422137001972 ], [ -70.710247430233736, -32.696943103359501 ], [ -70.709134708650865, -32.696281784736506 ], [ -70.708804350510192, -32.69652596913145 ], [ -70.707493714798844, -32.697029170262098 ], [ -70.705090727702029, -32.697450206690554 ], [ -70.703943940206955, -32.697514336571125 ], [ -70.702681351786921, -32.697531486347224 ], [ -70.701475323093803, -32.697499239987721 ], [ -70.699637038544154, -32.697427158113598 ], [ -70.698200513827231, -32.697349534962022 ], [ -70.696820328749979, -32.697330611657996 ], [ -70.696744460634349, -32.697329495098245 ], [ -70.694859416977536, -32.697182613320408 ], [ -70.692988518193189, -32.696923797449458 ], [ -70.69088169306913, -32.696803418527594 ], [ -70.689901184631452, -32.696654310307387 ], [ -70.688615286726431, -32.696004154552647 ], [ -70.687532283209777, -32.695134846140412 ], [ -70.686797840396409, -32.69443675944909 ], [ -70.686420989049893, -32.694284009449703 ], [ -70.685899390365023, -32.694286515557863 ], [ -70.685229851729247, -32.694521012128284 ], [ -70.683480826481173, -32.694945774541033 ], [ -70.681849289194162, -32.695215698507404 ], [ -70.680456524109673, -32.695153317832087 ], [ -70.678393687688455, -32.694896779908419 ], [ -70.677562844865321, -32.69463274790013 ], [ -70.676216780497498, -32.693609112336681 ], [ -70.675239247280061, -32.692900610369172 ], [ -70.67420306575265, -32.692386832870888 ], [ -70.672905177135206, -32.691763787616175 ], [ -70.671648671207976, -32.691194335824349 ], [ -70.670554237527654, -32.690600103307659 ], [ -70.66886618632779, -32.689422972931375 ], [ -70.668085712940965, -32.688964405338922 ], [ -70.666618454163228, -32.688672705970284 ], [ -70.666301345274661, -32.688595719351056 ], [ -70.665774881314206, -32.688602786043376 ], [ -70.665350353680608, -32.688608350486689 ], [ -70.664831225362747, -32.688615242533146 ], [ -70.664170763304625, -32.68862408062175 ], [ -70.663681088948309, -32.688928188209083 ], [ -70.663621056334492, -32.688965484957549 ], [ -70.663552710711045, -32.68905860050284 ], [ -70.663244317277375, -32.689545753886605 ], [ -70.662874495247962, -32.690141150895919 ], [ -70.662501683625266, -32.690575516725623 ], [ -70.662065362010296, -32.691010722646276 ], [ -70.661566697314612, -32.691500394245381 ], [ -70.661068935425774, -32.692043765545201 ], [ -70.660697011338584, -32.692531754658567 ], [ -70.660577042230699, -32.69290912522068 ], [ -70.660521572160235, -32.693339282548109 ], [ -70.66065744324527, -32.693820546814415 ], [ -70.661047178229595, -32.694298522952373 ], [ -70.661501417641219, -32.694829209923924 ], [ -70.661638293941053, -32.695364174862483 ], [ -70.661647243856237, -32.695847120088906 ], [ -70.661470724902912, -32.69660102194262 ], [ -70.661355725275186, -32.697246679136157 ], [ -70.661364674292031, -32.697729624004779 ], [ -70.661691005285306, -32.698208363894423 ], [ -70.662015262068564, -32.698579773951906 ], [ -70.662290030662859, -32.699703401824841 ], [ -70.662366391055258, -32.700400237824503 ], [ -70.662440850612541, -32.700989668423738 ], [ -70.662390362598615, -32.701688186146427 ], [ -70.662405289005378, -32.702493043682132 ], [ -70.662478755924255, -32.703028847108413 ], [ -70.662741513144866, -32.703508499683082 ], [ -70.662938938589804, -32.703881589234854 ], [ -70.663464550947381, -32.704840816119393 ], [ -70.663737366604224, -32.7058571101445 ], [ -70.663881336001523, -32.706767683697677 ], [ -70.66396170288013, -32.707679101343246 ], [ -70.663978642411422, -32.708591433350676 ], [ -70.66404360318289, -32.709807240702901 ], [ -70.664005545157565, -32.710040336706321 ], [ -70.664014513039049, -32.710523279610257 ], [ -70.664150434429729, -32.71100461220945 ], [ -70.664413312024578, -32.711484184116856 ], [ -70.664679181907644, -32.71212478666201 ], [ -70.664817104744813, -32.712713445956886 ], [ -70.664889512549962, -32.713195545999731 ], [ -70.664769622493822, -32.713572844304373 ], [ -70.664459164731639, -32.713952673778657 ], [ -70.663831354637452, -32.714336787893949 ], [ -70.663267060823728, -32.71471998203716 ], [ -70.662956594976706, -32.715099881452268 ], [ -70.662838598569195, -32.715584508118717 ], [ -70.662688224183896, -32.715986887587938 ], [ -70.662661492117664, -32.715996994232633 ], [ -70.663241836130567, -32.716708494756993 ], [ -70.663544606110563, -32.717038808414223 ], [ -70.663801799166293, -32.717578599723907 ], [ -70.664264321044811, -32.718533411424673 ], [ -70.664573911034452, -32.71923963224895 ], [ -70.664940125429695, -32.720321103104347 ], [ -70.665098332225952, -32.720862206206199 ], [ -70.665806541538089, -32.72173018248931 ], [ -70.666411181386138, -32.722348840724109 ], [ -70.666820499643663, -32.723095548413781 ], [ -70.666977255660754, -32.723553029957039 ], [ -70.667039932914761, -32.724262527200814 ], [ -70.667054706607914, -32.725056226775727 ], [ -70.66731116663837, -32.725554125802667 ], [ -70.66771264080684, -32.725883040349615 ], [ -70.66801381627721, -32.726129799335233 ], [ -70.668266395585647, -32.726418948901525 ], [ -70.668374569813835, -32.726918892837475 ], [ -70.668731435441913, -32.72749901624114 ], [ -70.668797246019622, -32.728375598839683 ], [ -70.669005733318983, -32.728957770526364 ], [ -70.66940973983823, -32.729411955130864 ], [ -70.669860704890638, -32.729740277342451 ], [ -70.670457636295268, -32.729941195436304 ], [ -70.671004414757547, -32.730101035456585 ], [ -70.671303273472802, -32.730222433456717 ], [ -70.671856987827411, -32.730758250935352 ], [ -70.67216053125685, -32.731130275115326 ], [ -70.672467193636976, -32.731669237540572 ], [ -70.672823328036429, -32.732207687386136 ], [ -70.673080537261825, -32.732747455636336 ], [ -70.673591233094101, -32.733618020713536 ], [ -70.67404379535111, -32.734029796216319 ], [ -70.674295548209471, -32.734277123571587 ], [ -70.67455129677424, -32.734733345502775 ], [ -70.674756019234223, -32.735106683026494 ], [ -70.674771447799216, -32.735926746975807 ], [ -70.674800145379294, -32.735895332095097 ], [ -70.674821190211446, -32.73588478036811 ], [ -70.674893362658011, -32.736663153522713 ], [ -70.67500121169607, -32.737236388694889 ], [ -70.675223929207831, -32.737459128955514 ], [ -70.675569966543492, -32.737782847747773 ], [ -70.675671674698265, -32.738027745193897 ], [ -70.67577645778627, -32.738436848865746 ], [ -70.675976804552505, -32.738762513589322 ], [ -70.676319007878533, -32.738881102515307 ], [ -70.676660442246657, -32.738958620767228 ], [ -70.67714748543753, -32.73903418947485 ], [ -70.677392500931262, -32.739154002883375 ], [ -70.677639914028504, -32.739397021897744 ], [ -70.67788732622742, -32.739639968466783 ], [ -70.678137817851137, -32.740047043500404 ], [ -70.678632564095551, -32.740533007236039 ], [ -70.678979306608696, -32.740897711966461 ], [ -70.679130394256319, -32.741183025085739 ], [ -70.679626690992919, -32.741750976068417 ], [ -70.679829371582272, -32.742199768613929 ], [ -70.680175530190482, -32.742523470940583 ], [ -70.680569256389617, -32.742805528352491 ], [ -70.681110401516761, -32.743167619310611 ], [ -70.681309151078437, -32.743411283972769 ], [ -70.681509617320614, -32.743736938072125 ], [ -70.681615888917037, -32.744228027851811 ], [ -70.681625913217303, -32.744761487642464 ], [ -70.681733046298078, -32.745293718723723 ], [ -70.68313672142169, -32.747614428313035 ], [ -70.682938564748127, -32.748704745197536 ], [ -70.682019229784672, -32.756638844487561 ], [ -70.681853282205594, -32.759913343649067 ], [ -70.681591394554175, -32.765080126570204 ], [ -70.681378803750619, -32.766498236620414 ], [ -70.681449703284414, -32.767687636668718 ], [ -70.681714958719837, -32.768874353655541 ], [ -70.682697237736932, -32.772021638671816 ], [ -70.684035663729887, -32.775909026760374 ], [ -70.68371520322701, -32.775945327903244 ], [ -70.683125880552851, -32.776120079533634 ], [ -70.682439237994075, -32.776379698758504 ], [ -70.681900793202672, -32.776637250746539 ], [ -70.681363916869728, -32.776978268292922 ], [ -70.68102455491497, -32.777316633477099 ], [ -70.680635702076231, -32.777655660513588 ], [ -70.680182740068958, -32.777790075203413 ], [ -70.679313346045404, -32.777731841400453 ], [ -70.679106588901305, -32.777759586713373 ], [ -70.678666060475862, -32.777974141111287 ], [ -70.678276501561314, -32.778271500723989 ], [ -70.677836750178599, -32.778527713418768 ], [ -70.677299845997908, -32.778868713901581 ], [ -70.676860091021922, -32.779124923366133 ], [ -70.67622124422617, -32.779300454232647 ], [ -70.675776878197823, -32.779306401225142 ], [ -70.675333205668892, -32.779354007361626 ], [ -70.674843344463, -32.779569208200023 ], [ -70.674205269320055, -32.779786316318571 ], [ -70.673763937800743, -32.779959120132567 ], [ -70.673323386019106, -32.780173656387248 ], [ -70.672734015734235, -32.780348508471228 ], [ -70.672241712907407, -32.780438499247062 ], [ -70.67164912845044, -32.780446409839158 ], [ -70.671156823826976, -32.780536395984427 ], [ -70.670618321543387, -32.780793974459137 ], [ -70.669933247443097, -32.781136847594198 ], [ -70.669100823585069, -32.78152349903673 ], [ -70.667234353495061, -32.782090821171501 ], [ -70.666545368130031, -32.782225152881495 ], [ -70.66590492053642, -32.782317162792111 ], [ -70.665560813680315, -32.782405155468886 ], [ -70.665023839431015, -32.782746179608282 ], [ -70.664387270762816, -32.783046707355034 ], [ -70.66365585617028, -32.783557141653269 ], [ -70.66326777228943, -32.783937776986626 ], [ -70.66254013870595, -32.784656804603351 ], [ -70.661613488761134, -32.785294979528565 ], [ -70.660880490438743, -32.785722003320828 ], [ -70.660243885837914, -32.786022511196855 ], [ -70.659509324446944, -32.78636605746329 ], [ -70.658871935616872, -32.786624823615249 ], [ -70.65877806436464, -32.786633307614842 ], [ -70.658369918408553, -32.786670114147014 ], [ -70.658329487932562, -32.786673753489559 ], [ -70.657938271626335, -32.7868875832947 ], [ -70.657700569317313, -32.787035765754467 ], [ -70.65759646266072, -32.787100758579754 ], [ -70.65725843111089, -32.787522458607327 ], [ -70.657016206682727, -32.787775984854996 ], [ -70.656726120016231, -32.788113633830186 ], [ -70.656284712140149, -32.788286378423251 ], [ -70.655692070191009, -32.788294215818922 ], [ -70.655001384315142, -32.788345090906759 ], [ -70.65456083163518, -32.788559563137582 ], [ -70.654023686705997, -32.788900396032005 ], [ -70.65358381315238, -32.789156600017279 ], [ -70.653143252387594, -32.78937106802573 ], [ -70.652652509934398, -32.789544524579391 ], [ -70.652207998378998, -32.789550316829832 ], [ -70.651911629793716, -32.789554226409912 ], [ -70.651566026344355, -32.789558785446758 ], [ -70.651122969161392, -32.789648043441645 ], [ -70.650781132348015, -32.789861201538272 ], [ -70.650490244384272, -32.79015710093104 ], [ -70.65027449420586, -32.790514665390049 ], [ -70.650033783438943, -32.790851648479759 ], [ -70.649698783703201, -32.79144019398472 ], [ -70.649461919522352, -32.791985775955887 ], [ -70.649275147198367, -32.792572441921571 ], [ -70.648938595173789, -32.793077516610808 ], [ -70.648502623003495, -32.793542228764814 ], [ -70.647820444173348, -32.794051998719752 ], [ -70.647187580157379, -32.794561041573175 ], [ -70.646601817506678, -32.794944302246563 ], [ -70.645626298312095, -32.79562467560207 ], [ -70.644744129346918, -32.796011822864251 ], [ -70.644059604117245, -32.796396294545282 ], [ -70.643523140111043, -32.796778894128728 ], [ -70.642793028973969, -32.797372681688728 ], [ -70.642405649372321, -32.797794989959193 ], [ -70.642018859963798, -32.798259034862248 ], [ -70.641388320787797, -32.798893181120349 ], [ -70.640753087016108, -32.799277062690855 ], [ -70.640063836648054, -32.799411254425145 ], [ -70.639520531970945, -32.799418370476211 ], [ -70.63912538463704, -32.799423544412804 ], [ -70.638332882808541, -32.799308756496131 ], [ -70.637984003203343, -32.799146415953629 ], [ -70.637686158686066, -32.79906689546857 ], [ -70.63734034143765, -32.799071418527959 ], [ -70.636947576435858, -32.7992017157638 ], [ -70.636511423704178, -32.799666389871319 ], [ -70.636173334662161, -32.800088109601013 ], [ -70.635686317522442, -32.800470028819234 ], [ -70.635144444759902, -32.80056052326956 ], [ -70.634503826486409, -32.800652377541816 ], [ -70.634297037901263, -32.800655076982387 ], [ -70.634394664111383, -32.800694722882824 ], [ -70.637588389643781, -32.805387481810726 ], [ -70.637764118977969, -32.805562189946087 ], [ -70.637772661956348, -32.80560731227348 ], [ -70.638374278973458, -32.806168799096255 ], [ -70.638733384999881, -32.806400604063398 ], [ -70.638866624919444, -32.806433658929826 ], [ -70.639448063080351, -32.806456929989359 ], [ -70.639794584607927, -32.806641610067459 ], [ -70.640337909946282, -32.807533224746884 ], [ -70.640545556422524, -32.807877908790779 ], [ -70.640630056449723, -32.808243638544056 ], [ -70.640715558098478, -32.808416294199851 ], [ -70.64114737915385, -32.808762028826166 ], [ -70.641158934183366, -32.808760835140482 ], [ -70.641163282029339, -32.808773300510083 ], [ -70.641445140127814, -32.808973054988108 ], [ -70.641763565048279, -32.809370367770896 ], [ -70.642125322901407, -32.80994960676248 ], [ -70.642309308651363, -32.809877815163027 ], [ -70.642435629746615, -32.810076606788044 ], [ -70.643018106359989, -32.810511458000946 ], [ -70.643521988470852, -32.811229798125915 ], [ -70.643880725289677, -32.811577443270643 ], [ -70.644232971780553, -32.81177208315782 ], [ -70.645089998697586, -32.81208687501212 ], [ -70.645799554584329, -32.812356388325647 ], [ -70.646021341441468, -32.812474346952541 ], [ -70.646430633647824, -32.812806098569737 ], [ -70.646752968036395, -32.812958124493029 ], [ -70.646815347049738, -32.81299106820294 ], [ -70.647125708692187, -32.81328119353293 ], [ -70.64720630553947, -32.813319956514327 ], [ -70.647762086019227, -32.813429600025579 ], [ -70.648545515761668, -32.812984179733462 ], [ -70.648851189096646, -32.813010815548431 ], [ -70.648953097575742, -32.813187896706019 ], [ -70.649198297224117, -32.813070722698455 ], [ -70.649601382970204, -32.813359322708131 ], [ -70.649836776608936, -32.81358401514391 ], [ -70.649881798374352, -32.813610179672658 ], [ -70.650461871096027, -32.813947277559862 ], [ -70.651318562941455, -32.814430856073649 ], [ -70.651967956856979, -32.814790010265661 ], [ -70.653041298094422, -32.815405407618151 ], [ -70.653524323121019, -32.815601323309799 ], [ -70.65432260111676, -32.815759305614762 ], [ -70.654743132145668, -32.815807533953304 ], [ -70.654899514463608, -32.816086703964039 ], [ -70.654907445689247, -32.816086102263192 ], [ -70.654908593736167, -32.816101100241156 ], [ -70.655382375098483, -32.816947357763837 ], [ -70.655891700101648, -32.81786421547578 ], [ -70.655986410380365, -32.81803510097776 ], [ -70.656319088869438, -32.819022577441551 ], [ -70.659146375427753, -32.818649253613714 ], [ -70.659071361609961, -32.822638737144864 ], [ -70.658847683799152, -32.825339360710153 ], [ -70.658829541423671, -32.825559037642719 ], [ -70.659203483126987, -32.82544739131248 ], [ -70.662156622758332, -32.824792528031246 ], [ -70.671782714221408, -32.822242690027039 ], [ -70.679401831897522, -32.820273120661675 ], [ -70.681724410793251, -32.819708419394793 ], [ -70.684334735345857, -32.818934479827185 ], [ -70.686979342304639, -32.818282523360217 ], [ -70.688737573487742, -32.817849053972985 ], [ -70.691364557297277, -32.817009357999211 ], [ -70.694100548971591, -32.816134736591096 ], [ -70.694778501228313, -32.816002468822958 ], [ -70.695264508661637, -32.815995887099866 ], [ -70.695896246190244, -32.81598725491034 ], [ -70.697202030999037, -32.815641290196744 ], [ -70.69802657303876, -32.815548023026423 ], [ -70.698635248119089, -32.815601309720485 ], [ -70.699222948435846, -32.815839585754894 ], [ -70.699959770886394, -32.816240004679756 ], [ -70.700254450638937, -32.816400245427992 ], [ -70.700793698524208, -32.816639172353739 ], [ -70.701282749449717, -32.816796695312966 ], [ -70.701671488202393, -32.816791410654851 ], [ -70.702155148337894, -32.816661670689591 ], [ -70.702781323498272, -32.816365894236384 ], [ -70.703700783327548, -32.816148059312056 ], [ -70.704283102735744, -32.816099126783413 ], [ -70.70491483936604, -32.816090523292317 ], [ -70.705352906407597, -32.816125634831884 ], [ -70.70579036349308, -32.816119673692491 ], [ -70.706324043620228, -32.816071320200493 ], [ -70.706661876642372, -32.815943624366021 ], [ -70.707143868606394, -32.815731802419478 ], [ -70.707824236432913, -32.815722520938493 ], [ -70.708358001001699, -32.815674231401957 ], [ -70.708941097452623, -32.815666198620022 ], [ -70.709281194229291, -32.815661554856376 ], [ -70.709717862593948, -32.815614584958894 ], [ -70.710105807235919, -32.815568205416533 ], [ -70.710496897778029, -32.815686025396843 ], [ -70.71069449659781, -32.815847493952873 ], [ -70.711090309583355, -32.816211500561472 ], [ -70.711388853888238, -32.81657683590597 ], [ -70.711682764682905, -32.81669590701415 ], [ -70.712120923352614, -32.81673099340113 ], [ -70.712508084663668, -32.816643611474184 ], [ -70.712602206545881, -32.816478155188918 ], [ -70.71259748050916, -32.816231892678573 ], [ -70.71249399908001, -32.815904970488305 ], [ -70.712344245430572, -32.815701845594269 ], [ -70.712339522088811, -32.815455656428533 ], [ -70.712188980616872, -32.815211388720613 ], [ -70.712187493006766, -32.815129324784884 ], [ -70.712036167305556, -32.814844136183424 ], [ -70.711789233908689, -32.814642265133436 ], [ -70.711637208419901, -32.814315932767386 ], [ -70.711680247603468, -32.814028085554497 ], [ -70.712064246844719, -32.813776505746958 ], [ -70.712447548094971, -32.81348400309443 ], [ -70.713020478311833, -32.812942577866252 ], [ -70.713116784896812, -32.812900254969612 ], [ -70.713403596305781, -32.812650001499968 ], [ -70.713789249345467, -32.812480552952564 ], [ -70.714371535515994, -32.812431500626062 ], [ -70.714806521336129, -32.812302452659814 ], [ -70.715285318890992, -32.811926475486665 ], [ -70.715427188027178, -32.811719356638193 ], [ -70.715618301908947, -32.81155249444145 ], [ -70.715858924640941, -32.811426106562408 ], [ -70.716245356519977, -32.811297646034426 ], [ -70.716386346205496, -32.81104945901658 ], [ -70.716383276662185, -32.810885258451883 ], [ -70.716136346858562, -32.810683543753811 ], [ -70.715842360605407, -32.8105644094735 ], [ -70.715597884100845, -32.810485602111775 ], [ -70.715256144305499, -32.81040820125525 ], [ -70.714960672238888, -32.810207075134983 ], [ -70.714810133461896, -32.809962810364311 ], [ -70.714708316610952, -32.809717952238472 ], [ -70.71455541616308, -32.809350703423021 ], [ -70.714499690971053, -32.808982049512423 ], [ -70.71449417531521, -32.808694866049997 ], [ -70.714487870040244, -32.808366540478929 ], [ -70.714477624754437, -32.807833094157168 ], [ -70.714583747230506, -32.807031262126465 ], [ -70.714628437517575, -32.806825401084673 ], [ -70.714963069842398, -32.806533558107631 ], [ -70.71525143264185, -32.806365364854706 ], [ -70.715637758519676, -32.806236980821303 ], [ -70.716219213748573, -32.806146926298382 ], [ -70.716604044829765, -32.805936401570527 ], [ -70.716745024633838, -32.805688214681915 ], [ -70.716691749147586, -32.805442692418318 ], [ -70.71654437064376, -32.80536262789002 ], [ -70.716005942022008, -32.805164835978118 ], [ -70.715614892802435, -32.805047032250521 ], [ -70.715272384947525, -32.804928560900862 ], [ -70.714880547905437, -32.804769760494843 ], [ -70.714587372830991, -32.804691691723185 ], [ -70.714051402898193, -32.804616947388439 ], [ -70.713124214862532, -32.804424464127969 ], [ -70.712733171931148, -32.804306650358519 ], [ -70.712630491799217, -32.804020721799823 ], [ -70.712675183882922, -32.803814862846281 ], [ -70.712765268736248, -32.803444212990783 ], [ -70.712902408242471, -32.802990834066563 ], [ -70.712896024814057, -32.802662656561331 ], [ -70.712696266444325, -32.802378056929776 ], [ -70.712450154107628, -32.80221725403905 ], [ -70.712153054293708, -32.801933984938096 ], [ -70.711907032686838, -32.801773179733971 ], [ -70.711711121801486, -32.801693700107407 ], [ -70.711266747688285, -32.801330431400757 ], [ -70.710811407840453, -32.800677686587385 ], [ -70.710742056103882, -32.80057830032969 ], [ -70.710347889730258, -32.800296352701885 ], [ -70.710100214324967, -32.800053408536677 ], [ -70.709851844521964, -32.799769541301018 ], [ -70.709797719229456, -32.799482946499339 ], [ -70.709694179409794, -32.799155947593995 ], [ -70.709687197703417, -32.798786698664742 ], [ -70.709967693057621, -32.798208275691685 ], [ -70.710111038125831, -32.798083228035772 ], [ -70.710349362967321, -32.797833644162452 ], [ -70.710638407588092, -32.797706531499905 ], [ -70.711027147239093, -32.797701219277656 ], [ -70.711413441675873, -32.797572849160254 ], [ -70.711651674889239, -32.79732333861083 ], [ -70.711644597063099, -32.796954017130432 ], [ -70.711591255101553, -32.796708491887543 ], [ -70.711292690135394, -32.796343081665718 ], [ -70.711046600256566, -32.796182349413101 ], [ -70.710802079734549, -32.796103605568049 ], [ -70.710654808130244, -32.796023459381324 ], [ -70.710506752296681, -32.795902391956346 ], [ -70.71050194990319, -32.795656203825381 ], [ -70.710498807596323, -32.795492077522667 ], [ -70.71054428840084, -32.795327285644362 ], [ -70.71073546516466, -32.795160430432091 ], [ -70.711023104820313, -32.794951325018168 ], [ -70.711307507846016, -32.794577946891131 ], [ -70.711595843696003, -32.794409909986946 ], [ -70.712124671123988, -32.794115346245647 ], [ -70.712510161568602, -32.793945904652318 ], [ -70.712894950428975, -32.793735392564116 ], [ -70.713125212890802, -32.793075564541276 ], [ -70.712875191984295, -32.792709566982388 ], [ -70.712578300579537, -32.792426368025772 ], [ -70.712184162951999, -32.792144351503858 ], [ -70.71198425725855, -32.791859825436347 ], [ -70.711782079725765, -32.791452091632429 ], [ -70.711630099152728, -32.791125830445111 ], [ -70.711622149960789, -32.790715515116652 ], [ -70.711712232119169, -32.790344939031527 ], [ -70.711701224163676, -32.78977042206818 ], [ -70.711743554576486, -32.789441504772881 ], [ -70.711883038685599, -32.789111184635495 ], [ -70.712024094846456, -32.788863002130952 ], [ -70.712066250986126, -32.788534086011104 ], [ -70.711962895321108, -32.788207160121416 ], [ -70.712006709750767, -32.787960307260228 ], [ -70.712099230835136, -32.787712713619761 ], [ -70.712288030656723, -32.787422797856856 ], [ -70.712429783011927, -32.787215685353402 ], [ -70.712910034040902, -32.78692178275444 ], [ -70.714299372950904, -32.788421448417921 ], [ -70.715092439819713, -32.789231509896787 ], [ -70.715570837624256, -32.790107349073907 ], [ -70.716019901841548, -32.790716941637797 ], [ -70.716316098848608, -32.790959136507773 ], [ -70.716759651003287, -32.791281393651524 ], [ -70.717305885086517, -32.791889575831163 ], [ -70.717603665823432, -32.79221383002217 ], [ -70.71804880889448, -32.79261822027653 ], [ -70.718639645229885, -32.793020460281454 ], [ -70.71942489495909, -32.793420176267034 ], [ -70.719818266323685, -32.793661027163864 ], [ -70.725017648712836, -32.798679035097329 ], [ -70.726762685441045, -32.799701610592997 ], [ -70.728083891628316, -32.800175887617904 ], [ -70.730620693566479, -32.800674430647554 ], [ -70.733011019807677, -32.801133945118515 ], [ -70.733694367346004, -32.801288651919613 ], [ -70.734569657012742, -32.801317532325022 ], [ -70.735300042135975, -32.801389568689558 ], [ -70.735834497509202, -32.801382086581455 ], [ -70.736513861917558, -32.801331659164937 ], [ -70.737093749586293, -32.801159372575185 ], [ -70.737915708969567, -32.800942791573299 ], [ -70.738495505908446, -32.800770572942866 ], [ -70.739366883412146, -32.800594300662368 ], [ -70.739901334293791, -32.800586874363894 ], [ -70.74048512154917, -32.800619765272728 ], [ -70.74131266665691, -32.800690341862534 ], [ -70.742094789350588, -32.800925713795671 ], [ -70.742832469692232, -32.801367019672192 ], [ -70.743177310471921, -32.801608470474534 ], [ -70.743622612544797, -32.802012689641082 ], [ -70.744118063068385, -32.802498365750026 ], [ -70.744663747382674, -32.803065350983069 ], [ -70.745315429307226, -32.804082354279601 ], [ -70.745613352876248, -32.804406610066174 ], [ -70.746250610552281, -32.804684979293086 ], [ -70.746934806100228, -32.804880606027524 ], [ -70.747374522448666, -32.804997706267798 ], [ -70.748253952450554, -32.805231605775894 ], [ -70.748938960973831, -32.805468289283269 ], [ -70.749430526283817, -32.805748751190279 ], [ -70.749825640380067, -32.806071638801868 ], [ -70.750076565890055, -32.806478549772933 ], [ -70.75047418538766, -32.806924415676178 ], [ -70.751016719310243, -32.807327320320844 ], [ -70.751509018543814, -32.807648843146019 ], [ -70.752098580169829, -32.807968927238356 ], [ -70.752541089380486, -32.808164801943491 ], [ -70.752541605013448, -32.808164351948896 ], [ -70.753303253305191, -32.807499453765793 ], [ -70.753778747754751, -32.806965121869418 ], [ -70.754460182779823, -32.806310650126605 ], [ -70.755140453588282, -32.805597528384268 ], [ -70.755818320505043, -32.804767183497866 ], [ -70.756502027369493, -32.804229848167246 ], [ -70.757395122543485, -32.803748305666829 ], [ -70.758357561369223, -32.803265709505879 ], [ -70.759905852677164, -32.802569698940758 ], [ -70.760250576675858, -32.802447600693988 ], [ -70.761143631425682, -32.80196595868491 ], [ -70.761967236522565, -32.801485361363973 ], [ -70.762731682168095, -32.800481099190627 ], [ -70.762345717413012, -32.800609548168786 ], [ -70.761931382064631, -32.799668202858378 ], [ -70.761711588569128, -32.799085036031194 ], [ -70.761281344955364, -32.798387503663129 ], [ -70.760708765081475, -32.797516056985053 ], [ -70.760344421876965, -32.796641753444341 ], [ -70.760179066287662, -32.795295568520984 ], [ -70.760300523005654, -32.794414359279394 ], [ -70.760288970671112, -32.793828187248103 ], [ -70.759851834284177, -32.792778915927599 ], [ -70.759417019143953, -32.791846935558908 ], [ -70.759194954707397, -32.791146468461456 ], [ -70.759176399106892, -32.790208637998688 ], [ -70.759509620178392, -32.789500443048851 ], [ -70.760261380713786, -32.78890354290067 ], [ -70.760669617399714, -32.788487309456208 ], [ -70.761072076121721, -32.78777813641301 ], [ -70.760981937369479, -32.786723987578654 ], [ -70.760867974397584, -32.786227249830191 ], [ -70.760699260007442, -32.784705194819992 ], [ -70.760791825109266, -32.782358553173296 ], [ -70.760983843594516, -32.781535012833118 ], [ -70.761459161075962, -32.781000656313346 ], [ -70.762214306463363, -32.780579538639095 ], [ -70.762764816527351, -32.780337286051967 ], [ -70.763930536915353, -32.779617358743323 ], [ -70.764335245018827, -32.779025323448145 ], [ -70.764661353229911, -32.777965311122514 ], [ -70.765309990763967, -32.775669565887668 ], [ -70.765571376257142, -32.774845040649389 ], [ -70.765350469748981, -32.774203156956816 ], [ -70.764855535756681, -32.77374104931382 ], [ -70.764152527690044, -32.773281943936944 ], [ -70.763100120791975, -32.772710427208516 ], [ -70.762186650929038, -32.772136946727692 ], [ -70.76141878180394, -32.77191324326791 ], [ -70.760507638577565, -32.771456970036766 ], [ -70.759591890587032, -32.770766249454006 ], [ -70.759297008713574, -32.769890960863478 ], [ -70.75879875903955, -32.769253032735641 ], [ -70.758303800792731, -32.768790897124447 ], [ -70.757665581919341, -32.768096264968833 ], [ -70.756396082759807, -32.767058651480028 ], [ -70.755613308787545, -32.766072866256799 ], [ -70.7550490598896, -32.765611762610675 ], [ -70.754345014268807, -32.765093951721816 ], [ -70.753580673726177, -32.765046063750304 ], [ -70.753166755196077, -32.76516903671579 ], [ -70.752198944444942, -32.765358495002893 ], [ -70.75136986770967, -32.76554600474546 ], [ -70.750754591808644, -32.76602369088512 ], [ -70.749857324858453, -32.766270734534253 ], [ -70.749370543077347, -32.766218870872365 ], [ -70.748812143110229, -32.766050824967209 ], [ -70.74803977252725, -32.765592520667205 ], [ -70.747272078573644, -32.765368651948094 ], [ -70.746229113867528, -32.765265942562266 ], [ -70.744973510747144, -32.764931681683201 ], [ -70.744271724389307, -32.764530959928067 ], [ -70.743498249776849, -32.764014125527247 ], [ -70.742724867690868, -32.763497137800698 ], [ -70.742089090438441, -32.762919715915395 ], [ -70.741596623219891, -32.762574803990276 ], [ -70.741104156899667, -32.762229816698337 ], [ -70.74060713342601, -32.761650384732469 ], [ -70.740246566738946, -32.76095180113154 ], [ -70.73967672582836, -32.760197532973855 ], [ -70.73938891549281, -32.759673852584811 ], [ -70.738326742110957, -32.758574506423372 ], [ -70.737626262801854, -32.758232463478699 ], [ -70.73673215971813, -32.75807751559573 ], [ -70.736672330123568, -32.758067179532581 ], [ -70.736709466477407, -32.757786227320267 ], [ -70.736815148779016, -32.75754006516253 ], [ -70.737181934502772, -32.757069177201991 ], [ -70.737500274083288, -32.756650980226482 ], [ -70.737714427955424, -32.756471871389508 ], [ -70.737919950814344, -32.756357161012296 ], [ -70.738117890993934, -32.756267825050486 ], [ -70.738504382161778, -32.756093389514334 ], [ -70.738548710427779, -32.756050456342017 ], [ -70.73868208958622, -32.756013729312215 ], [ -70.738950507091431, -32.755894503667015 ], [ -70.739511988279986, -32.755645100600773 ], [ -70.739967318246357, -32.755442846613548 ], [ -70.740302872242651, -32.755280945788044 ], [ -70.740533285621453, -32.75518891094837 ], [ -70.740835562426341, -32.755041154429016 ], [ -70.740844969584003, -32.755034550817953 ], [ -70.740897897422229, -32.755004787344902 ], [ -70.740993877918754, -32.754948790709399 ], [ -70.741214063978049, -32.754820330195265 ], [ -70.741469512505503, -32.754668574316305 ], [ -70.74161247848464, -32.754576822903999 ], [ -70.741707528326558, -32.754515823211683 ], [ -70.741714447150869, -32.754509226361009 ], [ -70.741726563627424, -32.754503607100936 ], [ -70.741884752457395, -32.754370301044361 ], [ -70.742026271250609, -32.754251042979739 ], [ -70.742527136818737, -32.753808460043437 ], [ -70.742798836768003, -32.753526901337239 ], [ -70.743058389697978, -32.753238447132787 ], [ -70.743358944432487, -32.752886519967646 ], [ -70.743830848315852, -32.752333994723884 ], [ -70.744175396244771, -32.751930604504082 ], [ -70.744448437378736, -32.751610540114036 ], [ -70.744524951383084, -32.751560361754898 ], [ -70.744563724467355, -32.751521278718961 ], [ -70.744552156861459, -32.751488956685513 ], [ -70.744630710939788, -32.751396873352427 ], [ -70.74487036618622, -32.751115147610335 ], [ -70.745095562149857, -32.750848903665421 ], [ -70.745403680699042, -32.750485006516072 ], [ -70.745403826226124, -32.750484723953818 ], [ -70.745436140423536, -32.750446670212064 ], [ -70.745868124073979, -32.749937957485301 ], [ -70.746185410828957, -32.749569942798082 ], [ -70.746748736258795, -32.748917173307703 ], [ -70.747304912895601, -32.748350267575525 ], [ -70.747836808070261, -32.747883441143621 ], [ -70.748172574068946, -32.747616913278932 ], [ -70.74852574851954, -32.747360146201771 ], [ -70.748980159509387, -32.747050596151176 ], [ -70.749671885634356, -32.746610675494885 ], [ -70.750492636783591, -32.745972581325475 ], [ -70.751625139269024, -32.744223801209031 ], [ -70.752564835446705, -32.743463698886742 ], [ -70.752469350820206, -32.743472063842042 ], [ -70.752875047968814, -32.743264401006428 ], [ -70.75397869477068, -32.742755932118982 ], [ -70.754765247955362, -32.742296669232054 ], [ -70.755603000619644, -32.7417471369249 ], [ -70.756705821869787, -32.741193882956111 ], [ -70.757492260968419, -32.740734679266076 ], [ -70.758223968411741, -32.740186616793366 ], [ -70.759059830122354, -32.73954739383128 ], [ -70.759738467793639, -32.738999995039293 ], [ -70.760365016653168, -32.73849817088221 ], [ -70.760886344945149, -32.738042743488592 ], [ -70.761692599082323, -32.737246990888806 ], [ -70.762214000137845, -32.736791483805021 ], [ -70.762579779748506, -32.73651740421618 ], [ -70.763420077339987, -32.736102252689832 ], [ -70.763888327775106, -32.735647486327458 ], [ -70.764430934461231, -32.734863037972026 ], [ -70.764764875083259, -32.734380236696872 ], [ -70.765548473708961, -32.733786554760776 ], [ -70.766440009407631, -32.733281041586537 ], [ -70.767443728515602, -32.733087575043335 ], [ -70.768502259228981, -32.732983022396894 ], [ -70.768979319442082, -32.732976289443769 ], [ -70.76988136632788, -32.733008327263413 ], [ -70.770464518474355, -32.733000090544138 ], [ -70.770991078554545, -32.7328134100092 ], [ -70.771517636838112, -32.732626652761063 ], [ -70.772204126683306, -32.732482479975438 ], [ -70.772683046409043, -32.732565401515579 ], [ -70.773003717117689, -32.732695332906793 ], [ -70.773378409812594, -32.732869272448241 ], [ -70.773749462533971, -32.732863947287676 ], [ -70.774223945480514, -32.732722837594956 ], [ -70.774587808086338, -32.732359130140651 ], [ -70.774843175765412, -32.731862491040069 ], [ -70.77531134445384, -32.731407684153183 ], [ -70.775791212800513, -32.731278608578364 ], [ -70.775838860341494, -32.731265743177374 ], [ -70.776421999911562, -32.731257552393402 ], [ -70.776956539726427, -32.731474063451202 ], [ -70.777385077439448, -32.73169199993896 ], [ -70.777864798462417, -32.731819664074877 ], [ -70.778234959156705, -32.731769638550496 ], [ -70.77892329773475, -32.731715023038831 ], [ -70.77945784743109, -32.731931596461891 ], [ -70.77983513176558, -32.732239946137334 ], [ -70.78042887864251, -32.732769308695232 ], [ -70.781183552414376, -32.733386001183653 ], [ -70.782202400050053, -32.733954233088767 ], [ -70.783835804934554, -32.734760109783274 ], [ -70.784750376132038, -32.735419350790274 ], [ -70.785984856266836, -32.736163719883457 ], [ -70.787325362758011, -32.736906489893236 ], [ -70.788820557344437, -32.73742295040033 ], [ -70.790099993667639, -32.737763234070414 ], [ -70.79111446201631, -32.738107293025287 ], [ -70.792240329545038, -32.738718683461961 ], [ -70.793530656144426, -32.73959656946667 ], [ -70.794227038237509, -32.739945154208698 ], [ -70.794918932347443, -32.740069712331319 ], [ -70.795609030725117, -32.74010459924358 ], [ -70.796249676846386, -32.740319503560926 ], [ -70.796683702367503, -32.740806301500079 ], [ -70.79733434044968, -32.74151407770956 ], [ -70.798521359893073, -32.742527932649814 ], [ -70.799490968173089, -32.743275891039644 ], [ -70.800775118854887, -32.743840081808465 ], [ -70.802213752816087, -32.744177877067955 ], [ -70.803833969533898, -32.744311415981535 ], [ -70.80436503825851, -32.744348690333176 ], [ -70.805212428947485, -32.744291638272053 ], [ -70.80648396458777, -32.744228465325151 ], [ -70.807386128254549, -32.744260303407998 ], [ -70.808239852066279, -32.744516844438735 ], [ -70.809418962741915, -32.74512730764912 ], [ -70.81182466544584, -32.746078506680796 ], [ -70.813168337600047, -32.746955486053885 ], [ -70.814406838594053, -32.747878745486297 ], [ -70.815160960800341, -32.748450459398683 ], [ -70.816302489557742, -32.749823275713013 ], [ -70.816897563246343, -32.750397283732312 ], [ -70.81787113669003, -32.751324348490648 ], [ -70.819266004730594, -32.752110822482528 ], [ -70.820658335030501, -32.752762851604388 ], [ -70.821409712883579, -32.753200100681504 ], [ -70.821734172686106, -32.753509086921667 ], [ -70.822333870901801, -32.754307159420044 ], [ -70.822826639954272, -32.755061864274857 ], [ -70.823609643895253, -32.755745182985621 ], [ -70.823700291992253, -32.755778366220284 ], [ -70.824785348159324, -32.756176232422717 ], [ -70.825961889653243, -32.756652031073806 ], [ -70.826714328416699, -32.757134077084473 ], [ -70.827633100136453, -32.757972242109517 ], [ -70.828442192949936, -32.758632688547756 ], [ -70.829148931719942, -32.759473861974136 ], [ -70.829739572222607, -32.75982386016787 ], [ -70.83064372475944, -32.759945042413982 ], [ -70.831491238517614, -32.759887880983428 ], [ -70.832074457139427, -32.759879352884965 ], [ -70.832714496897879, -32.760049302043171 ], [ -70.833250253929975, -32.760310319609971 ], [ -70.833893884254621, -32.760659448040244 ], [ -70.834857633722336, -32.761093502940419 ], [ -70.835764564748359, -32.761349145641049 ], [ -70.836723640281676, -32.761559170063194 ], [ -70.837524546747943, -32.76181635474574 ], [ -70.838221351049214, -32.76216460627721 ], [ -70.839078927735201, -32.76260026059964 ], [ -70.840042632287179, -32.763034201036689 ], [ -70.84106125534403, -32.763557167446322 ], [ -70.842080721918961, -32.764124737069245 ], [ -70.843371980969607, -32.765002149109399 ], [ -70.84523334683216, -32.766520864727966 ], [ -70.845935594924043, -32.767137995119661 ], [ -70.846855659319502, -32.768020763971428 ], [ -70.847772040622317, -32.768724418728716 ], [ -70.848739556726017, -32.769337544818534 ], [ -70.850242025869633, -32.770166916780603 ], [ -70.851637549680362, -32.770953006816491 ], [ -70.852764456559882, -32.771486168306403 ], [ -70.853806143861675, -32.769140604892094 ], [ -70.854392754521996, -32.767943758221008 ], [ -70.85474135295452, -32.767060292906592 ], [ -70.855031971423657, -32.766332836582208 ], [ -70.855318295945736, -32.765398723176759 ], [ -70.855524220351569, -32.763535852231897 ], [ -70.855632496089413, -32.76286273920357 ], [ -70.855735500513134, -32.761931413891865 ], [ -70.855780613906703, -32.761155801232775 ], [ -70.856070046599669, -32.760376643382408 ], [ -70.856422891368553, -32.759699830518933 ], [ -70.857133843237222, -32.758604490048846 ], [ -70.857417891428383, -32.757567044695747 ], [ -70.857706401551553, -32.756736253689887 ], [ -70.857873606772017, -32.755958829494659 ], [ -70.857852156799666, -32.754926061448863 ], [ -70.85789403266493, -32.753995491712885 ], [ -70.85806445115918, -32.75337309814401 ], [ -70.858297123800938, -32.7528014233813 ], [ -70.858649925450663, -32.752124605828847 ], [ -70.858879283308994, -32.751397901596569 ], [ -70.859171966106658, -32.750773618473517 ], [ -70.859339237802459, -32.749996266134957 ], [ -70.859509640127015, -32.749373869552443 ], [ -70.859511685590917, -32.749325003789444 ], [ -70.859561041727588, -32.749087480350191 ], [ -70.859656670982829, -32.748220168614672 ], [ -70.859620856949078, -32.747540176231524 ], [ -70.85958223657839, -32.747377175329483 ], [ -70.859435585709946, -32.746639204943001 ], [ -70.858923400470914, -32.745315530928238 ], [ -70.858779714941221, -32.744576702521073 ], [ -70.85876818865782, -32.744021800847911 ], [ -70.859153630593397, -32.743609068113024 ], [ -70.859586014892471, -32.743343622288357 ], [ -70.860449235693395, -32.742738720013243 ], [ -70.861134144503666, -32.741988476755168 ], [ -70.861988876225155, -32.740976602890925 ], [ -70.863873240755609, -32.738950309792251 ], [ -70.864511999516495, -32.738089764928361 ], [ -70.865324416994824, -32.737152527722046 ], [ -70.865963147009595, -32.73629190126929 ], [ -70.866562801207849, -32.735653942514595 ], [ -70.867255495716691, -32.735273550332813 ], [ -70.868336631635856, -32.73462833384125 ], [ -70.868983038653056, -32.734137652104287 ], [ -70.869325558186048, -32.733762544553748 ], [ -70.869582662308559, -32.733190189297368 ], [ -70.869823434160907, -32.73301208895019 ], [ -70.870924411169753, -32.73275798053082 ], [ -70.870993558988744, -32.731867339431467 ], [ -70.87075195529647, -32.731185472101465 ], [ -70.870020608077581, -32.730064520656597 ], [ -70.869477043787356, -32.729454904919237 ], [ -70.868649694512371, -32.728569802592993 ], [ -70.867884156515444, -32.727931941976621 ], [ -70.866847565356267, -32.726991356703031 ], [ -70.865948729049293, -32.726305820090829 ], [ -70.865177387935631, -32.725676967382348 ], [ -70.864352368890493, -32.724900036204417 ], [ -70.863524644119707, -32.72399244397679 ], [ -70.862951232405862, -32.72316669358748 ], [ -70.862660447748397, -32.722553288961322 ], [ -70.862290724533651, -32.721787677507578 ], [ -70.861922707219634, -32.721112175209043 ], [ -70.861685149539383, -32.720624241110571 ], [ -70.861496446735856, -32.720081426253117 ], [ -70.861314683417888, -32.719502379183986 ], [ -70.861091869786407, -32.71886978574225 ], [ -70.860821314290817, -32.718332690580603 ], [ -70.860563944266971, -32.717786459958511 ], [ -70.86022231137116, -32.717151122140486 ], [ -70.859909784788854, -32.716709364683304 ], [ -70.859521037951339, -32.716241621998329 ], [ -70.859082097747333, -32.715801737463799 ], [ -70.858530887895725, -32.715232744397426 ], [ -70.857859126827947, -32.714092727817544 ], [ -70.8574234753562, -32.713034986355744 ], [ -70.85695801059677, -32.712018246516692 ], [ -70.856657325606577, -32.711454546685061 ], [ -70.856218825577045, -32.710401348368528 ], [ -70.855930548117527, -32.709634508632554 ], [ -70.855651387659819, -32.708822391914666 ], [ -70.855283841063013, -32.708025175908695 ], [ -70.854597030519287, -32.707056768297242 ], [ -70.854022043160427, -32.706411414889217 ], [ -70.85295137530926, -32.705561417404702 ], [ -70.851950882051469, -32.70471488065759 ], [ -70.851021644958621, -32.703898905599225 ], [ -70.850143969366499, -32.702946882305994 ], [ -70.849223630086541, -32.701814989147977 ], [ -70.848500435078861, -32.700788566421792 ], [ -70.84799369902035, -32.700024925611991 ], [ -70.847489685755463, -32.699409967874118 ], [ -70.84698140908624, -32.698587756070097 ], [ -70.846616487366688, -32.697907723756408 ], [ -70.846179615084452, -32.697174594034209 ], [ -70.845744180106664, -32.696468481266194 ], [ -70.84583356696902, -32.695696054554993 ], [ -70.845731554285351, -32.694768632005882 ], [ -70.845476790274148, -32.693712686013662 ], [ -70.845085803038316, -32.69290225920976 ], [ -70.844639184035245, -32.692241375594456 ], [ -70.844127917772752, -32.691270394839385 ], [ -70.843766109613981, -32.690739106087932 ], [ -70.843312613109092, -32.690078390929663 ], [ -70.842756406827888, -32.689419110366003 ], [ -70.842318930877767, -32.688627384509211 ], [ -70.841743681210858, -32.687950424483688 ], [ -70.841101657073949, -32.687454790119411 ], [ -70.840282586672615, -32.686876046169431 ], [ -70.839781109351762, -32.686378415898595 ], [ -70.839385529928208, -32.685910704742028 ], [ -70.839174839959782, -32.685273453166005 ], [ -70.838941907704935, -32.684429064800632 ], [ -70.838876926272221, -32.683343277165889 ], [ -70.838512747459404, -32.682433135287468 ], [ -70.838091539999084, -32.681830588653227 ], [ -70.837631790321524, -32.681043602812544 ], [ -70.836994398796506, -32.680169081283104 ], [ -70.836468089346269, -32.679432788234116 ], [ -70.835758968244136, -32.678753177105278 ], [ -70.835081192955542, -32.678379791227812 ], [ -70.834341273113893, -32.677872030628166 ], [ -70.833942916997771, -32.677521592711173 ], [ -70.833348441587148, -32.676867479892323 ], [ -70.832927487451741, -32.676282863934127 ], [ -70.832719719702951, -32.675699639242481 ], [ -70.832608554983153, -32.674794868329421 ], [ -70.832579162107081, -32.67424967256143 ], [ -70.83255098914313, -32.67386677952296 ], [ -70.832501253019117, -32.673326313970364 ], [ -70.832395836618829, -32.672732652183392 ], [ -70.832329312778796, -32.672003069420782 ], [ -70.832232844497057, -32.671278505550994 ], [ -70.832279327821425, -32.670551779147523 ], [ -70.832368235881731, -32.669892109425213 ], [ -70.83255988695602, -32.669280514174325 ], [ -70.832690501100032, -32.66867431708171 ], [ -70.832760076517076, -32.668069085340747 ], [ -70.832867576110502, -32.667323440225154 ], [ -70.832888092733285, -32.666322025677523 ], [ -70.832918023700245, -32.665803004319777 ], [ -70.832926837969794, -32.665216613671099 ], [ -70.832956945904854, -32.664783293655127 ], [ -70.83293015904141, -32.664386859591154 ], [ -70.833042814066246, -32.663898176729582 ], [ -70.833029097690172, -32.663226484886053 ], [ -70.832770557161496, -32.662571890790076 ], [ -70.832619906095104, -32.662213319764142 ], [ -70.832401452886003, -32.661729474195482 ], [ -70.831981856104989, -32.660941949778191 ], [ -70.831576278432308, -32.660023445874522 ], [ -70.831211612732616, -32.659230536031004 ], [ -70.830877275953526, -32.65837416002789 ], [ -70.830727333657876, -32.657951076608079 ], [ -70.829982297910703, -32.656689751793529 ], [ -70.82974404403609, -32.65607282871764 ], [ -70.829506851970166, -32.655503545691289 ], [ -70.829267633304951, -32.654838907775343 ], [ -70.829085791833549, -32.654221161898278 ], [ -70.828621942245022, -32.653607451336555 ], [ -70.828271962203587, -32.65303988235987 ], [ -70.827919955562876, -32.652376809915488 ], [ -70.827742013678147, -32.651949918638209 ], [ -70.827390987997717, -32.651334633640879 ], [ -70.82715382557619, -32.650765344647553 ], [ -70.826974919799156, -32.650290737351838 ], [ -70.826962302062682, -32.64967044966496 ], [ -70.826721178070741, -32.648910302638654 ], [ -70.826314741608641, -32.648343474596203 ], [ -70.825451396840208, -32.647497069373294 ], [ -70.824193279335361, -32.64665624815666 ], [ -70.823223866888071, -32.64614539441115 ], [ -70.822653203120666, -32.645819583019858 ], [ -70.821858891186892, -32.645592547585522 ], [ -70.821278612751001, -32.645438204279095 ], [ -70.821178255662417, -32.645411510784896 ], [ -70.820670681475747, -32.64541887589062 ], [ -70.820277921863863, -32.645519957121159 ], [ -70.819775267750003, -32.645765890665132 ], [ -70.818938002870908, -32.646207586931233 ], [ -70.817812069765139, -32.646319357420616 ], [ -70.816856290150611, -32.64647638440875 ], [ -70.816239772777863, -32.646676222993996 ], [ -70.815455984607624, -32.646973862518536 ], [ -70.814785076939387, -32.647269939110643 ], [ -70.81394882356328, -32.647759243857372 ], [ -70.81333517900282, -32.648102212743979 ], [ -70.812891690628518, -32.648490450305594 ], [ -70.81216821534646, -32.648978187974912 ], [ -70.811499204021771, -32.649369602271648 ], [ -70.810830101967213, -32.649761089735456 ], [ -70.810275805504304, -32.650246375152285 ], [ -70.809666936387899, -32.65082782817796 ], [ -70.809565669305911, -32.651401959704181 ], [ -70.809520805643984, -32.651975352373171 ], [ -70.80936698172799, -32.652741230619071 ], [ -70.809152993145844, -32.65331698732907 ], [ -70.808940838923533, -32.653988174288749 ], [ -70.808895969871713, -32.65456156625504 ], [ -70.808746419241515, -32.656277154232924 ], [ -70.80871264168853, -32.656664125784644 ], [ -70.808676785433946, -32.657585378571625 ], [ -70.80867545772395, -32.657619163289425 ], [ -70.808246404377968, -32.658723033405153 ], [ -70.807805724137239, -32.659254326552109 ], [ -70.807086849127757, -32.659980613166262 ], [ -70.806364123040652, -32.660516035669673 ], [ -70.805187424341568, -32.660914727739971 ], [ -70.803901168008721, -32.661482108323952 ], [ -70.803006397476722, -32.661876725111981 ], [ -70.80228171396061, -32.662316622810238 ], [ -70.80161447770692, -32.662803493253058 ], [ -70.800559069537485, -32.6636299594904 ], [ -70.799723454863567, -32.664166965641556 ], [ -70.798265498140594, -32.66461743037479 ] ] ] } },
{ "type": "Feature", "properties": { "capa": "ds19", "popup": "<strong>EL REAL</strong><br><br><strong>Programa:</strong> DS19<br><strong>Comuna:</strong> San Felipe<br><strong>Región:</strong> Vaparaíso<br><strong>Año de inicio:</strong> 2021", "etiqueta": "EL REAL" }, "geometry": { "type": "Polygon", "coordinates": [ [ [ -70.708463639285839, -32.738591896653652 ], [ -70.707064334466082, -32.742425351059033 ], [ -70.706855765420059, -32.743776963698089 ], [ -70.706865383681802, -32.743886282662331 ], [ -70.708883416628225, -32.738700560817051 ], [ -70.708463639285839, -32.738591896653652 ] ] ] } },
{ "type": "Feature", "properties": { "capa": "ds19", "popup": "<strong>EL PORVENIR 3</strong><br><br><strong>Programa:</strong> DS19<br><strong>Comuna:</strong> San Felipe<br><strong>Región:</strong> Vaparaíso<br><strong>Año de inicio:</strong> 2020", "etiqueta": "EL PORVENIR 3" }, "geometry": { "type": "Polygon", "coordinates": [ [ [ -70.711585355865068, -32.762093266366243 ], [ -70.711015889551945, -32.762350593789996 ], [ -70.711453228958149, -32.763520892222274 ], [ -70.711983886254345, -32.763344524971146 ], [ -70.711585355865068, -32.762093266366243 ] ] ] } },
{ "type": "Feature", "properties": { "capa": "ds19", "popup": "<strong>EL PORVENIR 4</strong><br><br><strong>Programa:</strong> DS19<br><strong>Comuna:</strong> San Felipe<br><strong>Región:</strong> Vaparaíso<br><strong>Año de inicio:</strong> 2021", "etiqueta": "EL PORVENIR 4" }, "geometry": { "type": "Polygon", "coordinates": [ [ [ -70.712360853483545, -32.761802554013926 ], [ -70.711962141634572, -32.761982355421665 ], [ -70.71228625648402, -32.763013197680507 ], [ -70.711591060167123, -32.763249799400555 ], [ -70.712068792320068, -32.764665774403461 ], [ -70.713143045347508, -32.764290203152548 ], [ -70.712360853483545, -32.761802554013926 ] ] ] } },
{ "type": "Feature", "properties": { "capa": "ds19", "popup": "<strong>CONDOMINIO NUEVA CARRERA I</strong><br><br><strong>Programa:</strong> DS19<br><strong>Comuna:</strong> San Felipe<br><strong>Región:</strong> Vaparaíso<br><strong>Año de inicio:</strong> 2021", "etiqueta": "CONDOMINIO NUEVA CARRERA I" }, "geometry": { "type": "Polygon", "coordinates": [ [ [ -70.721241368413644, -32.742247436151196 ], [ -70.720142675820554, -32.742552299396515 ], [ -70.720177628369939, -32.742606581856244 ], [ -70.720207253011395, -32.742668350573602 ], [ -70.720299951063879, -32.742904532597628 ], [ -70.720987336529376, -32.742709847793925 ], [ -70.720963816838619, -32.74263797774838 ], [ -70.721366388748351, -32.742536550812787 ], [ -70.721241368413644, -32.742247436151196 ] ] ] } },
{ "type": "Feature", "properties": { "capa": "ds19", "popup": "<strong>CONDOMINIO NUEVA CARRERA II</strong><br><br><strong>Programa:</strong> DS19<br><strong>Comuna:</strong> San Felipe<br><strong>Región:</strong> Vaparaíso<br><strong>Año de inicio:</strong> 2021", "etiqueta": "CONDOMINIO NUEVA CARRERA II" }, "geometry": { "type": "Polygon", "coordinates": [ [ [ -70.720147936354863, -32.742544331790711 ], [ -70.719852085199193, -32.742631459353994 ], [ -70.719811821809827, -32.742576663114235 ], [ -70.718951032748393, -32.74281167045573 ], [ -70.719111808726382, -32.74322644618308 ], [ -70.720304648354485, -32.742904711669702 ], [ -70.720147936354863, -32.742544331790711 ] ] ] } },
{ "type": "Feature", "properties": { "capa": "ds19", "popup": "<strong>EL ALMENDRAL II</strong><br><br><strong>Programa:</strong> DS19<br><strong>Comuna:</strong> San Felipe<br><strong>Región:</strong> Vaparaíso<br><strong>Año de inicio:</strong> 2017", "etiqueta": "EL ALMENDRAL II" }, "geometry": { "type": "Polygon", "coordinates": [ [ [ -70.69778093411422, -32.745751124876534 ], [ -70.698529712242902, -32.7453603944357 ], [ -70.69803463182518, -32.744824007405747 ], [ -70.697780802960196, -32.744969430324062 ], [ -70.697560392322075, -32.744721036321259 ], [ -70.697805793193069, -32.744569666707029 ], [ -70.697367979476425, -32.744076586376508 ], [ -70.696702275748592, -32.744527263675373 ], [ -70.69778093411422, -32.745751124876534 ] ] ] } },
{ "type": "Feature", "properties": { "capa": "ds19", "popup": "<strong>CARLOS PEZOA VELIZ</strong><br><br><strong>Programa:</strong> DS19<br><strong>Comuna:</strong> San Felipe<br><strong>Región:</strong> Vaparaíso<br><strong>Año de inicio:</strong> 2017", "etiqueta": "CARLOS PEZOA VELIZ" }, "geometry": { "type": "Polygon", "coordinates": [ [ [ -70.737695912779103, -32.736549657629418 ], [ -70.737516404232508, -32.736457316296757 ], [ -70.737221824192972, -32.736426480418217 ], [ -70.736998379045829, -32.736466354423143 ], [ -70.736828206689978, -32.736361356137991 ], [ -70.736573651087923, -32.736270845512962 ], [ -70.736364518798197, -32.736322221851921 ], [ -70.736132916948279, -32.736560670968935 ], [ -70.735909538276474, -32.736927615772878 ], [ -70.735566843571988, -32.737261167949221 ], [ -70.735256197163579, -32.737467808814273 ], [ -70.73508196891423, -32.737816261337692 ], [ -70.734869964710555, -32.738507061456588 ], [ -70.735035682320913, -32.738538636362726 ], [ -70.735348481092728, -32.738475930085762 ], [ -70.737018820210125, -32.738603405424158 ], [ -70.737169056254857, -32.737633127206337 ], [ -70.73754615284146, -32.737681298164318 ], [ -70.737695912779103, -32.736549657629418 ] ] ] } },
{ "type": "Feature", "properties": { "capa": "ds19", "popup": "<strong>EL PORVENIR</strong><br><br><strong>Programa:</strong> DS19<br><strong>Comuna:</strong> San Felipe<br><strong>Región:</strong> Vaparaíso<br><strong>Año de inicio:</strong> 2019", "etiqueta": "EL PORVENIR" }, "geometry": { "type": "Polygon", "coordinates": [ [ [ -70.712382002520286, -32.764576775374067 ], [ -70.711866299478601, -32.763152904201434 ], [ -70.711587147105732, -32.763255155982918 ], [ -70.711228849563099, -32.762283747230626 ], [ -70.710355830837372, -32.762669131422136 ], [ -70.711150439215203, -32.764980841039488 ], [ -70.712382002520286, -32.764576775374067 ] ] ] } },
{ "type": "Feature", "properties": { "capa": "ds19", "popup": "<strong>EL PORVENIR 2</strong><br><br><strong>Programa:</strong> DS19<br><strong>Comuna:</strong> San Felipe<br><strong>Región:</strong> Vaparaíso<br><strong>Año de inicio:</strong> 2019", "etiqueta": "EL PORVENIR 2" }, "geometry": { "type": "Polygon", "coordinates": [ [ [ -70.711014993931627, -32.762350074820972 ], [ -70.710447625184685, -32.762587133816339 ], [ -70.710848791231001, -32.763711058051349 ], [ -70.711442924383505, -32.763511377159297 ], [ -70.711014993931627, -32.762350074820972 ] ] ] } },
{ "type": "Feature", "properties": { "capa": "ds19", "popup": "<strong>SANTA ADRIANA DE SAN FELIPE</strong><br><br><strong>Programa:</strong> DS19<br><strong>Comuna:</strong> San Felipe<br><strong>Región:</strong> Vaparaíso<br><strong>Año de inicio:</strong> 2022", "etiqueta": "SANTA ADRIANA DE SAN FELIPE" }, "geometry": { "type": "Polygon", "coordinates": [ [ [ -70.716250776056071, -32.756023094838461 ], [ -70.71555701434869, -32.75620765903944 ], [ -70.715875591982723, -32.75716021440558 ], [ -70.716576441397706, -32.756981604440291 ], [ -70.716250776056071, -32.756023094838461 ] ] ] } },
{ "type": "Feature", "properties": { "capa": "ds19", "popup": "<strong>CONDOMINIO EL PORVENIR 5</strong><br><br><strong>Programa:</strong> DS19<br><strong>Comuna:</strong> San Felipe<br><strong>Región:</strong> Vaparaíso<br><strong>Año de inicio:</strong> 2022", "etiqueta": "CONDOMINIO EL PORVENIR 5" }, "geometry": { "type": "Polygon", "coordinates": [ [ [ -70.71219998677573, -32.761876767010413 ], [ -70.713033822785391, -32.764333748755682 ], [ -70.713716649300835, -32.764086979228843 ], [ -70.712850279904842, -32.761603215579164 ], [ -70.71219998677573, -32.761876767010413 ] ] ] } },
{ "type": "Feature", "properties": { "capa": "ds19", "popup": "<strong>VIVA SAN FELIPE</strong><br><br><strong>Programa:</strong> DS19<br><strong>Comuna:</strong> San Felipe<br><strong>Región:</strong> Valparaíso<br><strong>Año de inicio:</strong> 2023", "etiqueta": "VIVA SAN FELIPE" }, "geometry": { "type": "Polygon", "coordinates": [ [ [ -70.715866048281143, -32.75290403533225 ], [ -70.714947215475931, -32.75311652671062 ], [ -70.715208575816263, -32.753805357262785 ], [ -70.716130841982491, -32.75357274586549 ], [ -70.715866048281143, -32.75290403533225 ] ] ] } },
{ "type": "Feature", "properties": { "capa": "ds19", "popup": "<strong>CONDOMINIO NUEVA TOCORNAL</strong><br><br><strong>Programa:</strong> DS19<br><strong>Comuna:</strong> San Felipe<br><strong>Región:</strong> Valparaíso<br><strong>Año de inicio:</strong> 2023", "etiqueta": "CONDOMINIO NUEVA TOCORNAL" }, "geometry": { "type": "Polygon", "coordinates": [ [ [ -70.700474640291475, -32.755313332927045 ], [ -70.700639987795952, -32.757185390777465 ], [ -70.70082488803088, -32.757351254283982 ], [ -70.700941552236827, -32.75737475802304 ], [ -70.701377420202576, -32.757146919108713 ], [ -70.701186761766664, -32.755229359027105 ], [ -70.700474640291475, -32.755313332927045 ] ] ] } },
{ "type": "Feature", "properties": { "capa": "colegios", "popup": "<strong>ESCUELA JUAN GOMEZ MILLAS</strong><br><br><strong>Dirección:</strong> LOS VILLARES 6071", "etiqueta": "" }, "geometry": { "type": "Point", "coordinates": [ -70.659142, -32.825039 ] } },
{ "type": "Feature", "properties": { "capa": "colegios", "popup": "<strong>ESCUELA SAN RAFAEL</strong><br><br><strong>Dirección:</strong> CALLEJON LO VIDELA 0", "etiqueta": "" }, "geometry": { "type": "Point", "coordinates": [ -70.650047, -32.80864 ] } },
{ "type": "Feature", "properties": { "capa": "colegios", "popup": "<strong>ESCUELA BUCALEMITO</strong><br><br><strong>Dirección:</strong> CALLE REAL 0", "etiqueta": "" }, "geometry": { "type": "Point", "coordinates": [ -70.685112, -32.808392 ] } },
{ "type": "Feature", "properties": { "capa": "colegios", "popup": "<strong>ESCUELA CARMELA CARVAJAL DE PRAT</strong><br><br><strong>Dirección:</strong> CALLE 4 52", "etiqueta": "" }, "geometry": { "type": "Point", "coordinates": [ -70.678123, -32.78899 ] } },
{ "type": "Feature", "properties": { "capa": "colegios", "popup": "<strong>ESCUELA MATEO COKLJAT K</strong><br><br><strong>Dirección:</strong> CAMINO PUBLICO 0", "etiqueta": "" }, "geometry": { "type": "Point", "coordinates": [ -70.714073, -32.7868 ] } },
{ "type": "Feature", "properties": { "capa": "colegios", "popup": "<strong>COLEGIO ASSUNTA PALLOTA</strong><br><br><strong>Dirección:</strong> SAN FRANCISCO 201", "etiqueta": "" }, "geometry": { "type": "Point", "coordinates": [ -70.688248, -32.786732 ] } },
{ "type": "Feature", "properties": { "capa": "colegios", "popup": "<strong>COLEGIO CURIMON</strong><br><br><strong>Dirección:</strong> RUTA 60 0", "etiqueta": "" }, "geometry": { "type": "Point", "coordinates": [ -70.71178, -32.774201 ] } },
{ "type": "Feature", "properties": { "capa": "colegios", "popup": "<strong>ESC. ESP. DE LENG. CUMBRES DE ACONCAGUA</strong><br><br><strong>Dirección:</strong> PEDRO OLMOS 487", "etiqueta": "" }, "geometry": { "type": "Point", "coordinates": [ -70.700005, -32.76948 ] } },
{ "type": "Feature", "properties": { "capa": "colegios", "popup": "<strong>ESCUELA REPUBLICA ARGENTINA</strong><br><br><strong>Dirección:</strong> TOCORNAL 0", "etiqueta": "" }, "geometry": { "type": "Point", "coordinates": [ -70.68251038, -32.76432419 ] } },
{ "type": "Feature", "properties": { "capa": "colegios", "popup": "<strong>ESCUELA ESP.DE LENGUAJE CAICURA EPU</strong><br><br><strong>Dirección:</strong> TOROMAZOTE 257", "etiqueta": "" }, "geometry": { "type": "Point", "coordinates": [ -70.70091, -32.760452 ] } },
{ "type": "Feature", "properties": { "capa": "colegios", "popup": "<strong>ESCUELA ESPECIAL DE LENGUAJE RAIMAU</strong><br><br><strong>Dirección:</strong> AVENIDA MICHIMALONGO 1780", "etiqueta": "" }, "geometry": { "type": "Point", "coordinates": [ -70.71803, -32.75884 ] } },
{ "type": "Feature", "properties": { "capa": "colegios", "popup": "<strong>ESCUELA MANUEL RODRIGUEZ ERDOIZA</strong><br><br><strong>Dirección:</strong> DARDIGNAC 77", "etiqueta": "" }, "geometry": { "type": "Point", "coordinates": [ -70.727112, -32.757771 ] } },
{ "type": "Feature", "properties": { "capa": "colegios", "popup": "<strong>COLEGIO SAN PABLO</strong><br><br><strong>Dirección:</strong> BUIN 835", "etiqueta": "" }, "geometry": { "type": "Point", "coordinates": [ -70.727493, -32.75716 ] } },
{ "type": "Feature", "properties": { "capa": "colegios", "popup": "<strong>ESC. DE LENGUAJE ARINGA POKI</strong><br><br><strong>Dirección:</strong> ELENA ARAGON BRADY 1591", "etiqueta": "" }, "geometry": { "type": "Point", "coordinates": [ -70.7122, -32.75666 ] } },
{ "type": "Feature", "properties": { "capa": "colegios", "popup": "<strong>ESCUELA BUEN PASTOR</strong><br><br><strong>Dirección:</strong> AVENIDA YUNGAY 398", "etiqueta": "" }, "geometry": { "type": "Point", "coordinates": [ -70.72126, -32.755322 ] } },
{ "type": "Feature", "properties": { "capa": "colegios", "popup": "<strong>ESCUELA PEDRO NOLASCO MOLINA</strong><br><br><strong>Dirección:</strong> MOLINA 10", "etiqueta": "" }, "geometry": { "type": "Point", "coordinates": [ -70.727325, -32.755318 ] } },
{ "type": "Feature", "properties": { "capa": "colegios", "popup": "<strong>ESCUELA AGRICOLA DE SAN FELIPE</strong><br><br><strong>Dirección:</strong> TOCORNAL 2450", "etiqueta": "" }, "geometry": { "type": "Point", "coordinates": [ -70.707458, -32.75518 ] } },
{ "type": "Feature", "properties": { "capa": "colegios", "popup": "<strong>COLEGIO PIRAMIDE</strong><br><br><strong>Dirección:</strong> TOCORNAL 2447", "etiqueta": "" }, "geometry": { "type": "Point", "coordinates": [ -70.707153, -32.754978 ] } },
{ "type": "Feature", "properties": { "capa": "colegios", "popup": "<strong>COLEGIO PORTALIANO</strong><br><br><strong>Dirección:</strong> AVENIDA LIBERTADOR BERNARDO O'HIGGINS 169", "etiqueta": "" }, "geometry": { "type": "Point", "coordinates": [ -70.72647025, -32.754505650000013 ] } },
{ "type": "Feature", "properties": { "capa": "colegios", "popup": "<strong>ESCUELA ESPECIAL SAGRADO CORAZON</strong><br><br><strong>Dirección:</strong> JOAQUIN OLIVA 161", "etiqueta": "" }, "geometry": { "type": "Point", "coordinates": [ -70.71833038, -32.75352097 ] } },
{ "type": "Feature", "properties": { "capa": "colegios", "popup": "<strong>INSTITUTO ABDON CIFUENTES</strong><br><br><strong>Dirección:</strong> PORTUS 324", "etiqueta": "" }, "geometry": { "type": "Point", "coordinates": [ -70.72382, -32.753392 ] } },
{ "type": "Feature", "properties": { "capa": "colegios", "popup": "<strong>COLEGIO PARTICULAR PUMANQUE</strong><br><br><strong>Dirección:</strong> COMBATE DE LAS COIMAS 1472", "etiqueta": "" }, "geometry": { "type": "Point", "coordinates": [ -70.725082, -32.753109 ] } },
{ "type": "Feature", "properties": { "capa": "colegios", "popup": "<strong>ESCUELA BASICA JOSE DE SAN MARTIN</strong><br><br><strong>Dirección:</strong> FREIRE 1081", "etiqueta": "" }, "geometry": { "type": "Point", "coordinates": [ -70.722992, -32.75293 ] } },
{ "type": "Feature", "properties": { "capa": "colegios", "popup": "<strong>ESCUELA ESPECIAL DE LENGUAJE MAGRACE</strong><br><br><strong>Dirección:</strong> CALLE JOAQUIN OLIVA 20", "etiqueta": "" }, "geometry": { "type": "Point", "coordinates": [ -70.72011, -32.75293 ] } },
{ "type": "Feature", "properties": { "capa": "colegios", "popup": "<strong>ESCUELA DE LENGUAJE CAICURA</strong><br><br><strong>Dirección:</strong> FREIRE 139", "etiqueta": "" }, "geometry": { "type": "Point", "coordinates": [ -70.72448, -32.75275 ] } },
{ "type": "Feature", "properties": { "capa": "colegios", "popup": "<strong>COLEGIO SANTA JUANA DE ARCO</strong><br><br><strong>Dirección:</strong> FREIRE 272", "etiqueta": "" }, "geometry": { "type": "Point", "coordinates": [ -70.728691, -32.751789 ] } },
{ "type": "Feature", "properties": { "capa": "colegios", "popup": "<strong>ESCUELA ALMENDRAL</strong><br><br><strong>Dirección:</strong> BELISARIO MONTENEGRO 0", "etiqueta": "" }, "geometry": { "type": "Point", "coordinates": [ -70.691109, -32.751671 ] } },
{ "type": "Feature", "properties": { "capa": "colegios", "popup": "<strong>LICEO PART, MIXTO SAN FELIPE</strong><br><br><strong>Dirección:</strong> EL ALMENDRAL 2801", "etiqueta": "" }, "geometry": { "type": "Point", "coordinates": [ -70.700447, -32.751572 ] } },
{ "type": "Feature", "properties": { "capa": "colegios", "popup": "<strong>COLEGIO VEDRUNA</strong><br><br><strong>Dirección:</strong> ARTURO PRAT 961", "etiqueta": "" }, "geometry": { "type": "Point", "coordinates": [ -70.723328, -32.750481 ] } },
{ "type": "Feature", "properties": { "capa": "colegios", "popup": "<strong>LICEO DE NINAS CORINA URBINA</strong><br><br><strong>Dirección:</strong> BERNARDO CRUZ 1213", "etiqueta": "" }, "geometry": { "type": "Point", "coordinates": [ -70.718483, -32.750271 ] } },
{ "type": "Feature", "properties": { "capa": "colegios", "popup": "<strong>ESC.DE TRAST.DE LA COMUNIC.YAMANKI</strong><br><br><strong>Dirección:</strong> MIRAFLORES 2052", "etiqueta": "" }, "geometry": { "type": "Point", "coordinates": [ -70.71026, -32.750107 ] } },
{ "type": "Feature", "properties": { "capa": "colegios", "popup": "<strong>ESCUELA ESPECIAL DE LENGUAJE CURIMON</strong><br><br><strong>Dirección:</strong> PASAJE CUATRO 235", "etiqueta": "" }, "geometry": { "type": "Point", "coordinates": [ -70.72081, -32.75 ] } },
{ "type": "Feature", "properties": { "capa": "colegios", "popup": "<strong>ESCUELA JOHN F KENNEDY</strong><br><br><strong>Dirección:</strong> ALEJANDRINA CARVAJAL 1675", "etiqueta": "" }, "geometry": { "type": "Point", "coordinates": [ -70.714104, -32.749981 ] } },
{ "type": "Feature", "properties": { "capa": "colegios", "popup": "<strong>LICEO DOCTOR ROBERTO HUMERES O.</strong><br><br><strong>Dirección:</strong> SANTO DOMINGO 207", "etiqueta": "" }, "geometry": { "type": "Point", "coordinates": [ -70.725761, -32.748631 ] } },
{ "type": "Feature", "properties": { "capa": "colegios", "popup": "<strong>LIC.EDUC.DE ADULTOS JUAN F.GONZALEZ R.</strong><br><br><strong>Dirección:</strong> TRASLAVIÑA 0", "etiqueta": "" }, "geometry": { "type": "Point", "coordinates": [ -70.72624, -32.748604 ] } },
{ "type": "Feature", "properties": { "capa": "colegios", "popup": "<strong>ESCUELA INDUSTRIAL GUILLERMO RICHARDS CUEVAS</strong><br><br><strong>Dirección:</strong> CALLE BENIGNO CALDERA 341", "etiqueta": "" }, "geometry": { "type": "Point", "coordinates": [ -70.733253, -32.747879 ] } },
{ "type": "Feature", "properties": { "capa": "colegios", "popup": "<strong>COLEGIO ALONSO DE ERCILLA</strong><br><br><strong>Dirección:</strong> CARLOS CONDELL 761", "etiqueta": "" }, "geometry": { "type": "Point", "coordinates": [ -70.725273, -32.747589 ] } },
{ "type": "Feature", "properties": { "capa": "colegios", "popup": "<strong>ESCUELA DE PARVULOS LOS ALMENDROS</strong><br><br><strong>Dirección:</strong> CARLOS CONDELL 324", "etiqueta": "" }, "geometry": { "type": "Point", "coordinates": [ -70.728, -32.747112 ] } },
{ "type": "Feature", "properties": { "capa": "colegios", "popup": "<strong>COLEGIO JOSE AGUSTIN GOMEZ</strong><br><br><strong>Dirección:</strong> AVENIDA CHACABUCO 642", "etiqueta": "" }, "geometry": { "type": "Point", "coordinates": [ -70.726463, -32.746391 ] } },
{ "type": "Feature", "properties": { "capa": "colegios", "popup": "<strong>ESCUELA JOSÉ ANTONIO MANSO DE VELASCO</strong><br><br><strong>Dirección:</strong> ENCON 0", "etiqueta": "" }, "geometry": { "type": "Point", "coordinates": [ -70.728897, -32.74511 ] } },
{ "type": "Feature", "properties": { "capa": "colegios", "popup": "<strong>ESCUELA DE LENGUAJE OTE MOANA</strong><br><br><strong>Dirección:</strong> ABRAHAM AHUMADA 191", "etiqueta": "" }, "geometry": { "type": "Point", "coordinates": [ -70.72216, -32.744503 ] } },
{ "type": "Feature", "properties": { "capa": "colegios", "popup": "<strong>LICEO SAN FELIPE</strong><br><br><strong>Dirección:</strong> JOSE DE ROJAS 0", "etiqueta": "" }, "geometry": { "type": "Point", "coordinates": [ -70.737984, -32.744122 ] } },
{ "type": "Feature", "properties": { "capa": "colegios", "popup": "<strong>ESC.DE LENG. SEMBRANDO PALABRAS</strong><br><br><strong>Dirección:</strong> PORTUS 563", "etiqueta": "" }, "geometry": { "type": "Point", "coordinates": [ -70.72023, -32.743214 ] } },
{ "type": "Feature", "properties": { "capa": "colegios", "popup": "<strong>ESC.ESPEC.LENG. MIS NUEVAS PALABRAS</strong><br><br><strong>Dirección:</strong> CALLE ABRAHAM AHUMADA 173", "etiqueta": "" }, "geometry": { "type": "Point", "coordinates": [ -70.72055, -32.742928 ] } },
{ "type": "Feature", "properties": { "capa": "colegios", "popup": "<strong>ESCUELA BASICA BERNARDO O HIGGINS R.</strong><br><br><strong>Dirección:</strong> HERMANOS CARRERA 0", "etiqueta": "" }, "geometry": { "type": "Point", "coordinates": [ -70.724167, -32.74218 ] } },
{ "type": "Feature", "properties": { "capa": "colegios", "popup": "<strong>LICEO BICENTENARIO CORDILLERA DE SAN FELIPE</strong><br><br><strong>Dirección:</strong> VOLCAN LLAIMA 176", "etiqueta": "" }, "geometry": { "type": "Point", "coordinates": [ -70.708473, -32.742149 ] } },
{ "type": "Feature", "properties": { "capa": "colegios", "popup": "<strong>ESCUELA DE LENGUAJE TRIGAL</strong><br><br><strong>Dirección:</strong> GARCIA HURTADO DE MENDOZA CALLE 1 380", "etiqueta": "" }, "geometry": { "type": "Point", "coordinates": [ -70.73318, -32.74032 ] } },
{ "type": "Feature", "properties": { "capa": "colegios", "popup": "<strong>COLEGIO GREENLAND SAN FELIPE</strong><br><br><strong>Dirección:</strong> LA TROYA 1.4", "etiqueta": "" }, "geometry": { "type": "Point", "coordinates": [ -70.697906, -32.737831 ] } },
{ "type": "Feature", "properties": { "capa": "colegios", "popup": "<strong>SUNNYLAND SCHOOL</strong><br><br><strong>Dirección:</strong> CALLEJON LOS NARANJOS 0", "etiqueta": "" }, "geometry": { "type": "Point", "coordinates": [ -70.737991, -32.72802 ] } },
{ "type": "Feature", "properties": { "capa": "colegios", "popup": "<strong>ESCUELA BASICA CAROLINA OCAMPO GARCIA</strong><br><br><strong>Dirección:</strong> BLAS CANAS 1", "etiqueta": "" }, "geometry": { "type": "Point", "coordinates": [ -70.774178, -32.722 ] } },
{ "type": "Feature", "properties": { "capa": "colegios", "popup": "<strong>ESCUELA HERIBERTO BERMUDEZ CRUZ</strong><br><br><strong>Dirección:</strong> ALGARROBA 0", "etiqueta": "" }, "geometry": { "type": "Point", "coordinates": [ -70.726089, -32.715519 ] } },
{ "type": "Feature", "properties": { "capa": "colegios", "popup": "<strong>ESCUELA JOSE BERNARDO SUAREZ</strong><br><br><strong>Dirección:</strong> CALLE LA CANCHA 0", "etiqueta": "" }, "geometry": { "type": "Point", "coordinates": [ -70.746193, -32.711349 ] } },
{ "type": "Feature", "properties": { "capa": "colegios", "popup": "<strong>ESCUELA 21 DE MAYO</strong><br><br><strong>Dirección:</strong> 21 DE MAYO 0", "etiqueta": "" }, "geometry": { "type": "Point", "coordinates": [ -70.765213, -32.694328 ] } },
{ "type": "Feature", "properties": { "capa": "jardines", "popup": "<strong>EL PENECA</strong><br><br><strong>Dirección:</strong> CALLE CAÑADA DE SAN RAFAEL N 970,VILLA EL DESCANSO ", "etiqueta": "" }, "geometry": { "type": "MultiPoint", "coordinates": [ [ -70.703251, -32.752402 ] ] } },
{ "type": "Feature", "properties": { "capa": "jardines", "popup": "<strong>LAS CUNCUNITAS</strong><br><br><strong>Dirección:</strong> COSTANERA PONIENTE S/N, VILLA DEPARTAMENTAL ", "etiqueta": "" }, "geometry": { "type": "MultiPoint", "coordinates": [ [ -70.73467, -32.75117 ] ] } },
{ "type": "Feature", "properties": { "capa": "jardines", "popup": "<strong>SOL NACIENTE</strong><br><br><strong>Dirección:</strong> PJE.2 CALLE 4 ESQUINAS, SECTOR BUERAS VILLA 250 ", "etiqueta": "" }, "geometry": { "type": "MultiPoint", "coordinates": [ [ -70.727515, -32.76168 ] ] } },
{ "type": "Feature", "properties": { "capa": "jardines", "popup": "<strong>LOS PINGUINITOS</strong><br><br><strong>Dirección:</strong> JOSE DE LA CRUZ CENTENO 981,PEDRO AGUIRRE CERDA ", "etiqueta": "" }, "geometry": { "type": "MultiPoint", "coordinates": [ [ -70.718356, -32.749156 ] ] } },
{ "type": "Feature", "properties": { "capa": "jardines", "popup": "<strong>EL RINCON DE LOS ANGELITOS</strong><br><br><strong>Dirección:</strong> PEDRO DE VALDIVIA #0120 JUAN PABLO II ", "etiqueta": "" }, "geometry": { "type": "MultiPoint", "coordinates": [ [ -70.744444, -32.737972 ] ] } },
{ "type": "Feature", "properties": { "capa": "jardines", "popup": "<strong>ALMENDRITAS</strong><br><br><strong>Dirección:</strong> BELISARIO MENTENEGRO S/N, EL ALMENDRAL ", "etiqueta": "" }, "geometry": { "type": "MultiPoint", "coordinates": [ [ -70.691399, -32.751436 ] ] } },
{ "type": "Feature", "properties": { "capa": "jardines", "popup": "<strong>BURBUJITAS DE COLORES</strong><br><br><strong>Dirección:</strong> EJERCITO LIBERTADOR 1975, ", "etiqueta": "" }, "geometry": { "type": "MultiPoint", "coordinates": [ [ -70.714323, -32.760027 ] ] } },
{ "type": "Feature", "properties": { "capa": "jardines", "popup": "<strong>EL CASTILLO DE COLORES</strong><br><br><strong>Dirección:</strong> AV. UNO 25 VILLA JUAN MARTINEZ DE ROSAS ", "etiqueta": "" }, "geometry": { "type": "MultiPoint", "coordinates": [ [ -70.710702, -32.740095 ] ] } },
{ "type": "Feature", "properties": { "capa": "jardines", "popup": "<strong>CONEJITOS SALTARINES</strong><br><br><strong>Dirección:</strong> CALLE DOS 380, SECTOR CURIMON ", "etiqueta": "" }, "geometry": { "type": "MultiPoint", "coordinates": [ [ -70.678492, -32.787386 ] ] } },
{ "type": "Feature", "properties": { "capa": "jardines", "popup": "<strong>CRECIENDO EN LAS ACACIAS</strong><br><br><strong>Dirección:</strong> AVENIDA CIRCUNVALACION,SANTA TERESA NUMERO 75 ", "etiqueta": "" }, "geometry": { "type": "MultiPoint", "coordinates": [ [ -70.732969, -32.738122 ] ] } },
{ "type": "Feature", "properties": { "capa": "jardines", "popup": "<strong>TUTUMPI</strong><br><br><strong>Dirección:</strong> SALINAS N 203, SECTOR TIERRAS BLANCAS ", "etiqueta": "" }, "geometry": { "type": "MultiPoint", "coordinates": [ [ -70.71461, -32.78643 ] ] } },
{ "type": "Feature", "properties": { "capa": "jardines", "popup": "<strong>PEPELIN</strong><br><br><strong>Dirección:</strong> PASAJE UNO NRO 90 HACIENDA QUILPUE ", "etiqueta": "" }, "geometry": { "type": "MultiPoint", "coordinates": [ [ -70.719289, -32.737735 ] ] } },
{ "type": "Feature", "properties": { "capa": "jardines", "popup": "<strong>PMI-NUESTRO SUEÑO</strong><br><br><strong>Dirección:</strong> UNIDAD VECINAL 28, SECTOR LA TROYA ", "etiqueta": "" }, "geometry": { "type": "MultiPoint", "coordinates": [ [ -70.69294, -32.738362 ] ] } },
{ "type": "Feature", "properties": { "capa": "jardines", "popup": "<strong>NA</strong><br><br><strong>Dirección:</strong> NA ", "etiqueta": "" }, "geometry": { "type": "MultiPoint", "coordinates": [ [ -70.727008999533808, -32.741523999920098 ] ] } },
{ "type": "Feature", "properties": { "capa": "jardines", "popup": "<strong>NA</strong><br><br><strong>Dirección:</strong> NA ", "etiqueta": "" }, "geometry": { "type": "MultiPoint", "coordinates": [ [ -70.725795502098435, -32.716214880582505 ] ] } },
{ "type": "Feature", "properties": { "capa": "jardines", "popup": "<strong>NA</strong><br><br><strong>Dirección:</strong> NA ", "etiqueta": "" }, "geometry": { "type": "MultiPoint", "coordinates": [ [ -70.685824999887004, -32.808256999788171 ] ] } },
{ "type": "Feature", "properties": { "capa": "bomberos", "popup": "<strong>Cuerpo de Bomberos</strong><br><br><strong>Dirección:</strong> Merced 832", "etiqueta": "" }, "geometry": { "type": "Point", "coordinates": [ -70.725942238793891, -32.751819317498075 ] } },
{ "type": "Feature", "properties": { "capa": "comisarias", "popup": "<strong>2DA. COM. SAN FELIPE</strong><br><br><strong>Dirección:</strong> BERNARDO O'HIGGINS 200", "etiqueta": "" }, "geometry": { "type": "Point", "coordinates": [ -70.726789, -32.75518 ] } },
{ "type": "Feature", "properties": { "capa": "comisarias", "popup": "<strong>RETEN CURIMON</strong><br><br><strong>Dirección:</strong> SANTIAGO BUERAS S/N", "etiqueta": "" }, "geometry": { "type": "Point", "coordinates": [ -70.688029, -32.784124999999896 ] } },
{ "type": "Feature", "properties": { "capa": "salud", "popup": "<strong>Centro de Salud Familiar Curimón</strong><br><br><strong>Tipo de atención:</strong> Centro de Salud Familiar (CESFAM)<br><strong>Dirección:</strong>  45", "etiqueta": "" }, "geometry": { "type": "Point", "coordinates": [ -70.68865, -32.78363 ] } },
{ "type": "Feature", "properties": { "capa": "salud", "popup": "<strong>Centro de Salud Familiar San Felipe El Real</strong><br><br><strong>Tipo de atención:</strong> Centro de Salud Familiar (CESFAM)<br><strong>Dirección:</strong>  1900", "etiqueta": "" }, "geometry": { "type": "Point", "coordinates": [ -70.72563, -32.75884 ] } },
{ "type": "Feature", "properties": { "capa": "salud", "popup": "<strong>Centro Médico y Dental Zona V de Valparaíso</strong><br><br><strong>Tipo de atención:</strong> Centro de Salud Privado<br><strong>Dirección:</strong>  200", "etiqueta": "" }, "geometry": { "type": "Point", "coordinates": [ -70.726929, -32.755124 ] } },
{ "type": "Feature", "properties": { "capa": "salud", "popup": "<strong>Policlínico de la Asociación Chilena de Seguridad AChS Agencia San Felipe</strong><br><br><strong>Tipo de atención:</strong> Centro de Salud Privado<br><strong>Dirección:</strong>  120", "etiqueta": "" }, "geometry": { "type": "Point", "coordinates": [ -70.724696, -32.754063 ] } },
{ "type": "Feature", "properties": { "capa": "salud", "popup": "<strong>Policlínico Instituto de Seguridad del Trabajo de San Felipe</strong><br><br><strong>Tipo de atención:</strong> Centro de Salud Privado<br><strong>Dirección:</strong>  565", "etiqueta": "" }, "geometry": { "type": "Point", "coordinates": [ -70.728958, -32.750123 ] } },
{ "type": "Feature", "properties": { "capa": "salud", "popup": "<strong>Hospital San Camilo de San Felipe</strong><br><br><strong>Tipo de atención:</strong> Hospital<br><strong>Dirección:</strong>  2085", "etiqueta": "" }, "geometry": { "type": "Point", "coordinates": [ -70.708992, -32.74977 ] } },
{ "type": "Feature", "properties": { "capa": "salud", "popup": "<strong>SAPU San Felipe</strong><br><br><strong>Tipo de atención:</strong> Servicio de Atención Primaria de Urgencia (SAPU)<br><strong>Dirección:</strong>  370", "etiqueta": "" }, "geometry": { "type": "Point", "coordinates": [ -70.726956, -32.738892 ] } },
{ "type": "Feature", "properties": { "capa": "salud", "popup": "<strong>Centro de Salud Familiar Dr. Segismundo Iturra Taito</strong><br><br><strong>Tipo de atención:</strong> Centro de Salud Familiar (CESFAM)<br><strong>Dirección:</strong>  370", "etiqueta": "" }, "geometry": { "type": "Point", "coordinates": [ -70.72659, -32.73886 ] } },
{ "type": "Feature", "properties": { "capa": "salud", "popup": "<strong>Centro Comunitario de Salud Familiar Quebrada Herrera</strong><br><br><strong>Tipo de atención:</strong> Centro Comunitario de Salud Familiar (CECOSF)<br><strong>Dirección:</strong>  NA", "etiqueta": "" }, "geometry": { "type": "Point", "coordinates": [ -70.75137, -32.699298 ] } },
{ "type": "Feature", "properties": { "capa": "salud", "popup": "<strong>Centro de Salud Mutual CChC San Felipe</strong><br><br><strong>Tipo de atención:</strong> Centro de Salud Privado<br><strong>Dirección:</strong>  111", "etiqueta": "" }, "geometry": { "type": "Point", "coordinates": [ -70.722435, -32.748915 ] } },
{ "type": "Feature", "properties": { "capa": "salud", "popup": "<strong>Hospital de Día del Adulto</strong><br><br><strong>Tipo de atención:</strong> Hospital de Día<br><strong>Dirección:</strong>  1100", "etiqueta": "" }, "geometry": { "type": "Point", "coordinates": [ -70.725477, -32.759264 ] } },
{ "type": "Feature", "properties": { "capa": "municipios", "popup": "<strong>Municipalidad de San Felipe</strong><br><br><strong>Dirección:</strong> Salinas Nº 1211<br><strong>Región:</strong> Valparaíso", "etiqueta": "" }, "geometry": { "type": "Point", "coordinates": [ -70.725825199999974, -32.750169300999964 ] } }
]
}
