{
"type": "FeatureCollection",
"name": "5702",
"crs": { "type": "name", "properties": { "name": "urn:ogc:def:crs:OGC:1.3:CRS84" } },
"features": [
{ "type": "Feature", "properties": { "capa": "comuna", "popup": "", "etiqueta": "" }, "geometry": { "type": "Polygon", "coordinates": [ [ [ -70.891711292097, -32.607444243435054 ], [ -70.891384819169915, -32.607485215542745 ], [ -70.891046248630914, -32.607440664882553 ], [ -70.890730291382553, -32.607508593033657 ], [ -70.890529098403306, -32.607741618451996 ], [ -70.890257379589428, -32.607912535408005 ], [ -70.889969486608877, -32.608065742527856 ], [ -70.889780150493053, -32.608294082413593 ], [ -70.88964236419983, -32.608562132643605 ], [ -70.889512946611788, -32.608825625143943 ], [ -70.889396976803567, -32.609093421041557 ], [ -70.889296893701129, -32.609365485489299 ], [ -70.889217850939275, -32.609641813151256 ], [ -70.889137670011962, -32.609918083964494 ], [ -70.889032879737442, -32.610194651309293 ], [ -70.888909664118131, -32.610462630018063 ], [ -70.88880075866129, -32.610730319623322 ], [ -70.888720323510739, -32.611011174919575 ], [ -70.888636648136966, -32.611287424861196 ], [ -70.888550081984619, -32.611467522792715 ], [ -70.887623626974232, -32.612552603519049 ], [ -70.887556561450054, -32.612647147078178 ], [ -70.887197317083107, -32.613153397025847 ], [ -70.886332130768352, -32.613760783921705 ], [ -70.885202259448391, -32.614297739181495 ], [ -70.884153772798228, -32.614536455215827 ], [ -70.882842073481612, -32.614779036405082 ], [ -70.880643553723246, -32.614589081254458 ], [ -70.879494835748616, -32.61423479959285 ], [ -70.878518695818173, -32.613729347994429 ], [ -70.877542478632606, -32.613223814848546 ], [ -70.876746417678973, -32.612938559595975 ], [ -70.875956645830627, -32.612950362267235 ], [ -70.875434717464032, -32.613180988482078 ], [ -70.874919069219601, -32.613708824780971 ], [ -70.874138574273189, -32.614166211432199 ], [ -70.873177845839763, -32.614403453074836 ], [ -70.87221393198034, -32.614492156249618 ], [ -70.871251735699715, -32.614655078273543 ], [ -70.87073596528441, -32.615182899073076 ], [ -70.870224911024337, -32.615933478779539 ], [ -70.869270412407388, -32.616467680428435 ], [ -70.868482063490461, -32.616553815008245 ], [ -70.867607541883274, -32.616715331971278 ], [ -70.86672985191808, -32.616728458276143 ], [ -70.866110920772158, -32.616514753803379 ], [ -70.865575165536697, -32.616076906070042 ], [ -70.865298002033896, -32.615412309642295 ], [ -70.86459129200999, -32.615199975364987 ], [ -70.863715238775228, -32.615287308198418 ], [ -70.862582041892097, -32.61567560795649 ], [ -70.861108587433847, -32.616589003673241 ], [ -70.860508021445582, -32.617266545835001 ], [ -70.859733477837949, -32.61802106225182 ], [ -70.85834775374866, -32.618933128101027 ], [ -70.85721448500027, -32.619321381782456 ], [ -70.856079672946251, -32.619635320672089 ], [ -70.854775469172367, -32.620248984373632 ], [ -70.853910075346789, -32.620856155923953 ], [ -70.852867535543794, -32.621391609892797 ], [ -70.851477099790841, -32.622080840002695 ], [ -70.849824762013441, -32.622848091705258 ], [ -70.848608184403929, -32.623460475174205 ], [ -70.847655000022243, -32.624068898273386 ], [ -70.846004204652189, -32.624910404653406 ], [ -70.845143190113617, -32.625740358615538 ], [ -70.844454723974806, -32.626419119188611 ], [ -70.8435907216396, -32.627100527865991 ], [ -70.842275667115388, -32.627194159541204 ], [ -70.841394902216976, -32.627058429138479 ], [ -70.840597385992567, -32.626698640628902 ], [ -70.839978356031963, -32.62648488354381 ], [ -70.839088483114878, -32.625903458390994 ], [ -70.838113856845695, -32.625471993629311 ], [ -70.837231598048959, -32.62526200362494 ], [ -70.834075614334921, -32.625493894134372 ], [ -70.832675789390606, -32.625737243058744 ], [ -70.831277468226091, -32.626054807617109 ], [ -70.829976017788539, -32.626816832975983 ], [ -70.828851669310964, -32.627650442330477 ], [ -70.827642425547424, -32.628633932431661 ], [ -70.825902029515973, -32.629402231751634 ], [ -70.824328092204993, -32.629722349477973 ], [ -70.822404579094439, -32.63012170161123 ], [ -70.819398996715151, -32.629969951490601 ], [ -70.819410761950422, -32.630167271384011 ], [ -70.81942323595645, -32.630455680942809 ], [ -70.819435356026275, -32.630739586716949 ], [ -70.819450189008251, -32.631028036040114 ], [ -70.819456377502249, -32.63111808373047 ], [ -70.819646888614429, -32.631566307720334 ], [ -70.820148635429845, -32.632456422998224 ], [ -70.820628539709148, -32.633802270958988 ], [ -70.820460340053671, -32.635085408259954 ], [ -70.820296505312129, -32.636273835418663 ], [ -70.821084581141221, -32.637998519002331 ], [ -70.821621064910374, -32.63930297885674 ], [ -70.821784225017112, -32.64045503907861 ], [ -70.821861503487739, -32.642293762510036 ], [ -70.821680556738372, -32.643852226260634 ], [ -70.821531713082322, -32.644720225932879 ], [ -70.821258175179992, -32.645179613649887 ], [ -70.821278612751001, -32.645438204279095 ], [ -70.821858891186892, -32.645592547585522 ], [ -70.822653203120666, -32.645819583019858 ], [ -70.823223866888071, -32.64614539441115 ], [ -70.824193279335361, -32.64665624815666 ], [ -70.825451396840208, -32.647497069373294 ], [ -70.826314741608641, -32.648343474596203 ], [ -70.826721178070741, -32.648910302638654 ], [ -70.826962302062682, -32.64967044966496 ], [ -70.826974919799156, -32.650290737351838 ], [ -70.82715382557619, -32.650765344647553 ], [ -70.827390987997717, -32.651334633640879 ], [ -70.827742013678147, -32.651949918638209 ], [ -70.827919955562876, -32.652376809915488 ], [ -70.828271962203587, -32.65303988235987 ], [ -70.828621942245022, -32.653607451336555 ], [ -70.829085791833549, -32.654221161898278 ], [ -70.829267633304951, -32.654838907775343 ], [ -70.829506851970166, -32.655503545691289 ], [ -70.82974404403609, -32.65607282871764 ], [ -70.829982297910703, -32.656689751793529 ], [ -70.830727333657876, -32.657951076608079 ], [ -70.830877275953526, -32.65837416002789 ], [ -70.831211612732616, -32.659230536031004 ], [ -70.831576278432308, -32.660023445874522 ], [ -70.831981856104989, -32.660941949778191 ], [ -70.832401452886003, -32.661729474195482 ], [ -70.832619906095104, -32.662213319764142 ], [ -70.832770557161496, -32.662571890790076 ], [ -70.833029097690172, -32.663226484886053 ], [ -70.833042814066246, -32.663898176729582 ], [ -70.83293015904141, -32.664386859591154 ], [ -70.832956945904854, -32.664783293655127 ], [ -70.832926837969794, -32.665216613671099 ], [ -70.832918023700245, -32.665803004319777 ], [ -70.832888092733285, -32.666322025677523 ], [ -70.832867576110502, -32.667323440225154 ], [ -70.832760076517076, -32.668069085340747 ], [ -70.832690501100032, -32.66867431708171 ], [ -70.83255988695602, -32.669280514174325 ], [ -70.832368235881731, -32.669892109425213 ], [ -70.832279327821425, -32.670551779147523 ], [ -70.832232844497057, -32.671278505550994 ], [ -70.832329312778796, -32.672003069420782 ], [ -70.832395836618829, -32.672732652183392 ], [ -70.832501253019117, -32.673326313970364 ], [ -70.83255098914313, -32.67386677952296 ], [ -70.832579162107081, -32.67424967256143 ], [ -70.832608554983153, -32.674794868329421 ], [ -70.832719719702951, -32.675699639242481 ], [ -70.832927487451741, -32.676282863934127 ], [ -70.833348441587148, -32.676867479892323 ], [ -70.833942916997771, -32.677521592711173 ], [ -70.834341273113893, -32.677872030628166 ], [ -70.835081192955542, -32.678379791227812 ], [ -70.835758968244136, -32.678753177105278 ], [ -70.836468089346269, -32.679432788234116 ], [ -70.836994398796506, -32.680169081283104 ], [ -70.837631790321524, -32.681043602812544 ], [ -70.838091539999084, -32.681830588653227 ], [ -70.838512747459404, -32.682433135287468 ], [ -70.838876926272221, -32.683343277165889 ], [ -70.838941907704935, -32.684429064800632 ], [ -70.839174839959782, -32.685273453166005 ], [ -70.839385529928208, -32.685910704742028 ], [ -70.839781109351762, -32.686378415898595 ], [ -70.840282586672615, -32.686876046169431 ], [ -70.841101657073949, -32.687454790119411 ], [ -70.841743681210858, -32.687950424483688 ], [ -70.842318930877767, -32.688627384509211 ], [ -70.842756406827888, -32.689419110366003 ], [ -70.843312613109092, -32.690078390929663 ], [ -70.843766109613981, -32.690739106087932 ], [ -70.844127917772752, -32.691270394839385 ], [ -70.844639184035245, -32.692241375594456 ], [ -70.845085803038316, -32.69290225920976 ], [ -70.845476790274148, -32.693712686013662 ], [ -70.845731554285351, -32.694768632005882 ], [ -70.84583356696902, -32.695696054554993 ], [ -70.845744180106664, -32.696468481266194 ], [ -70.846179615084452, -32.697174594034209 ], [ -70.846616487366688, -32.697907723756408 ], [ -70.84698140908624, -32.698587756070097 ], [ -70.847489685755463, -32.699409967874118 ], [ -70.84799369902035, -32.700024925611991 ], [ -70.848500435078861, -32.700788566421792 ], [ -70.849223630086541, -32.701814989147977 ], [ -70.850143969366499, -32.702946882305994 ], [ -70.851021644958621, -32.703898905599225 ], [ -70.851950882051469, -32.70471488065759 ], [ -70.85295137530926, -32.705561417404702 ], [ -70.854022043160427, -32.706411414889217 ], [ -70.854597030519287, -32.707056768297242 ], [ -70.855283841063013, -32.708025175908695 ], [ -70.855651387659819, -32.708822391914666 ], [ -70.855930548117527, -32.709634508632554 ], [ -70.856218825577045, -32.710401348368528 ], [ -70.856657325606577, -32.711454546685061 ], [ -70.85695801059677, -32.712018246516692 ], [ -70.8574234753562, -32.713034986355744 ], [ -70.857859126827947, -32.714092727817544 ], [ -70.858530887895725, -32.715232744397426 ], [ -70.859082097747333, -32.715801737463799 ], [ -70.859521037951339, -32.716241621998329 ], [ -70.859909784788854, -32.716709364683304 ], [ -70.86022231137116, -32.717151122140486 ], [ -70.860563944266971, -32.717786459958511 ], [ -70.860821314290817, -32.718332690580603 ], [ -70.861091869786407, -32.71886978574225 ], [ -70.861314683417888, -32.719502379183986 ], [ -70.861496446735856, -32.720081426253117 ], [ -70.861685149539383, -32.720624241110571 ], [ -70.861922707219634, -32.721112175209043 ], [ -70.862290724533651, -32.721787677507578 ], [ -70.862660447748397, -32.722553288961322 ], [ -70.862951232405862, -32.72316669358748 ], [ -70.863524644119707, -32.72399244397679 ], [ -70.864352368890493, -32.724900036204417 ], [ -70.865177387935631, -32.725676967382348 ], [ -70.865948729049293, -32.726305820090829 ], [ -70.866847565356267, -32.726991356703031 ], [ -70.867884156515444, -32.727931941976621 ], [ -70.868649694512371, -32.728569802592993 ], [ -70.869477043787356, -32.729454904919237 ], [ -70.870020608077581, -32.730064520656597 ], [ -70.87075195529647, -32.731185472101465 ], [ -70.870993558988744, -32.731867339431467 ], [ -70.870924411169753, -32.73275798053082 ], [ -70.869823434160907, -32.73301208895019 ], [ -70.869582662308559, -32.733190189297368 ], [ -70.869325558186048, -32.733762544553748 ], [ -70.868983038653056, -32.734137652104287 ], [ -70.868336631635856, -32.73462833384125 ], [ -70.867255495716691, -32.735273550332813 ], [ -70.866562801207849, -32.735653942514595 ], [ -70.865963147009595, -32.73629190126929 ], [ -70.865324416994824, -32.737152527722046 ], [ -70.864511999516495, -32.738089764928361 ], [ -70.863873240755609, -32.738950309792251 ], [ -70.861988876225155, -32.740976602890925 ], [ -70.861134144503666, -32.741988476755168 ], [ -70.860449235693395, -32.742738720013243 ], [ -70.859586014892471, -32.743343622288357 ], [ -70.859153630593397, -32.743609068113024 ], [ -70.85876818865782, -32.744021800847911 ], [ -70.858779714941221, -32.744576702521073 ], [ -70.858923400470914, -32.745315530928238 ], [ -70.859435585709946, -32.746639204943001 ], [ -70.85958223657839, -32.747377175329483 ], [ -70.859620856949078, -32.747540176231524 ], [ -70.859656670982829, -32.748220168614672 ], [ -70.859561041727588, -32.749087480350191 ], [ -70.859511685590917, -32.749325003789444 ], [ -70.859509640127015, -32.749373869552443 ], [ -70.859339237802459, -32.749996266134957 ], [ -70.859171966106658, -32.750773618473517 ], [ -70.858879283308994, -32.751397901596569 ], [ -70.858649925450663, -32.752124605828847 ], [ -70.858297123800938, -32.7528014233813 ], [ -70.85806445115918, -32.75337309814401 ], [ -70.85789403266493, -32.753995491712885 ], [ -70.857852156799666, -32.754926061448863 ], [ -70.857873606772017, -32.755958829494659 ], [ -70.857706401551553, -32.756736253689887 ], [ -70.857417891428383, -32.757567044695747 ], [ -70.857133843237222, -32.758604490048846 ], [ -70.856422891368553, -32.759699830518933 ], [ -70.856070046599669, -32.760376643382408 ], [ -70.855780613906703, -32.761155801232775 ], [ -70.855735500513134, -32.761931413891865 ], [ -70.855632496089413, -32.76286273920357 ], [ -70.855524220351569, -32.763535852231897 ], [ -70.855318295945736, -32.765398723176759 ], [ -70.855031971423657, -32.766332836582208 ], [ -70.85474135295452, -32.767060292906592 ], [ -70.854392754521996, -32.767943758221008 ], [ -70.853806143861675, -32.769140604892094 ], [ -70.852764456559882, -32.771486168306403 ], [ -70.852923252650982, -32.771561469221822 ], [ -70.85405003376637, -32.772172194968448 ], [ -70.855176743914839, -32.772782986769485 ], [ -70.856414166930492, -32.773616208204444 ], [ -70.857648731506941, -32.774314921284159 ], [ -70.858990471384985, -32.775056951707342 ], [ -70.859639053223489, -32.77562987710855 ], [ -70.860450318163302, -32.776379765979733 ], [ -70.861857314358531, -32.777703422366287 ], [ -70.862770174265421, -32.77840812215868 ], [ -70.863032836264608, -32.778610934236895 ], [ -70.863879316061883, -32.779264378018375 ], [ -70.86474371724907, -32.780013298978524 ], [ -70.865493750324177, -32.780360674209547 ], [ -70.866197268633897, -32.781022511128945 ], [ -70.867009660959411, -32.781817109819315 ], [ -70.868082656345464, -32.782383659733533 ], [ -70.869151829399996, -32.782771096493867 ], [ -70.869903779479927, -32.783208106809298 ], [ -70.870824157387418, -32.784090684541155 ], [ -70.871109048198306, -32.785027525222603 ], [ -70.871874166682005, -32.786091724886795 ], [ -70.872788961560005, -32.786705516734635 ], [ -70.873917771071291, -32.787405718237785 ], [ -70.87536410718775, -32.788056306977182 ], [ -70.876970371272563, -32.788749326568961 ], [ -70.878789815455761, -32.789483898498368 ], [ -70.880442603289126, -32.789862477792326 ], [ -70.881779097904214, -32.790335404936314 ], [ -70.883626435675296, -32.791136716963472 ], [ -70.884806656668616, -32.791746425563638 ], [ -70.885667657732469, -32.792316010656279 ], [ -70.887588576508477, -32.792824916191769 ], [ -70.889397761032811, -32.793066552549277 ], [ -70.890683164864427, -32.793629770841541 ], [ -70.891858631074939, -32.794015329658151 ], [ -70.892984915421977, -32.794580927428186 ], [ -70.894057186765934, -32.795102559892904 ], [ -70.895869281831779, -32.795478446631861 ], [ -70.896983236801532, -32.795461573200647 ], [ -70.897808706800959, -32.795415816698004 ], [ -70.898096238658781, -32.795399858475974 ], [ -70.89910412235642, -32.795384573829736 ], [ -70.899844883021174, -32.795283791453777 ], [ -70.900796736997904, -32.795134881948414 ], [ -70.901851969995874, -32.794849931244919 ], [ -70.902751778279978, -32.794746568710082 ], [ -70.903600505662098, -32.794733740417314 ], [ -70.905583454006788, -32.794412264517511 ], [ -70.906275897885678, -32.794536111377141 ], [ -70.907660791033322, -32.794783942014043 ], [ -70.908515259548423, -32.795039843608819 ], [ -70.909425596087686, -32.795429275428162 ], [ -70.91065528371044, -32.795858673018579 ], [ -70.911989048345376, -32.796196850856433 ], [ -70.913589960267728, -32.796620548096044 ], [ -70.914552455687314, -32.796964447598214 ], [ -70.915516962434836, -32.797397775704773 ], [ -70.916425430478284, -32.797697642305636 ], [ -70.917549982873467, -32.798173424381993 ], [ -70.918512505242489, -32.798517144203558 ], [ -70.919103650598373, -32.798866622625653 ], [ -70.91990896150449, -32.799302505025501 ], [ -70.921295974676227, -32.799639765914172 ], [ -70.922409965578595, -32.799622664478257 ], [ -70.923417795377318, -32.799607183477541 ], [ -70.924162413407899, -32.799685357142316 ], [ -70.926695165740767, -32.800251405125181 ], [ -70.927657831840264, -32.80059512370913 ], [ -70.929045682241821, -32.800977056606129 ], [ -70.931295976401586, -32.801973205159833 ], [ -70.932893278893118, -32.802217399768509 ], [ -70.934813674849636, -32.802680732964326 ], [ -70.935829389161597, -32.803023567031794 ], [ -70.937378412596502, -32.803492602045885 ], [ -70.938014963298414, -32.803482748458023 ], [ -70.938703709711575, -32.803427239137569 ], [ -70.940132074132464, -32.803225876740484 ], [ -70.941084989019544, -32.803121413993843 ], [ -70.942089036910915, -32.802926608678234 ], [ -70.942831747818161, -32.802915158056564 ], [ -70.943574365300606, -32.802903556419594 ], [ -70.944266918773948, -32.8030272630903 ], [ -70.944909317508362, -32.803286131776069 ], [ -70.945387769211834, -32.80332354150903 ], [ -70.945969369069502, -32.803224885338231 ], [ -70.946655000125247, -32.80303491948068 ], [ -70.947175784936491, -32.802578666930472 ], [ -70.947825716044548, -32.801963556029449 ], [ -70.947848141587301, -32.801916884698549 ], [ -70.948130254807339, -32.801331357887022 ], [ -70.948233302350204, -32.80123112591162 ], [ -70.948438032895041, -32.805658048343417 ], [ -70.948440853605035, -32.805787293963938 ], [ -70.948190457202728, -32.806006696838693 ], [ -70.947886253511541, -32.80609757525459 ], [ -70.947276908288032, -32.806236419070949 ], [ -70.946670377486299, -32.806504430989115 ], [ -70.94586544836416, -32.807034029326388 ], [ -70.945012252761813, -32.807693735640498 ], [ -70.944568134668501, -32.808390153057623 ], [ -70.944435823606938, -32.80934037860051 ], [ -70.944748953857086, -32.81200751257154 ], [ -70.945037866425523, -32.813554416964436 ], [ -70.945402201545193, -32.816220751793139 ], [ -70.945486154498369, -32.817727842636302 ], [ -70.945750416397075, -32.820481798863874 ], [ -70.946027083131554, -32.821468810283477 ], [ -70.94645878920258, -32.8225394781117 ], [ -70.946935861093777, -32.823350860799934 ], [ -70.947306051432463, -32.823875184714119 ], [ -70.947540628502608, -32.82420746445743 ], [ -70.947625690875171, -32.824220029569986 ], [ -70.949359332474017, -32.824476731146504 ], [ -70.951609141543543, -32.824657169823539 ], [ -70.953805899705628, -32.824752178760768 ], [ -70.954626414597925, -32.824629581061316 ], [ -70.954772584867698, -32.824607719601403 ], [ -70.955312132790283, -32.824273409198021 ], [ -70.955628606569917, -32.824077264271558 ], [ -70.956231533330737, -32.823636829830527 ], [ -70.956528228902783, -32.823201327965549 ], [ -70.956869382996544, -32.822463260874429 ], [ -70.957207614870683, -32.821596097319194 ], [ -70.958000306243704, -32.820506243919318 ], [ -70.958766110141951, -32.819352236103441 ], [ -70.959916824173135, -32.818299912612162 ], [ -70.961266916586666, -32.817029023672106 ], [ -70.962732212545518, -32.816359536006871 ], [ -70.964305246151341, -32.815947065466268 ], [ -70.965371036150515, -32.815671682654688 ], [ -70.966033302924046, -32.815618208772499 ], [ -70.966901598308013, -32.815647637908235 ], [ -70.968023983068392, -32.815630066946497 ], [ -70.968889426301303, -32.815530238390821 ], [ -70.969649864562385, -32.815302841311237 ], [ -70.970457654818674, -32.81490218789795 ], [ -70.971060358797317, -32.814461761570946 ], [ -70.971665911333702, -32.814150575578992 ], [ -70.972259081492211, -32.813279284185953 ], [ -70.971586370006861, -32.812858946752094 ], [ -70.962878285797245, -32.809074092896999 ], [ -70.962874495805053, -32.808901718630807 ], [ -70.966093320266495, -32.798879803710562 ], [ -70.967684066853082, -32.798896773901454 ], [ -70.972281830428471, -32.799250186413666 ], [ -70.972870382348106, -32.799464988751666 ], [ -70.97393819086173, -32.799761845364429 ], [ -70.975274201284876, -32.800188995264769 ], [ -70.97660823900766, -32.800526473276705 ], [ -70.977514935573396, -32.800736229301386 ], [ -70.978681982773082, -32.800717787795641 ], [ -70.97953271249996, -32.80079395346241 ], [ -70.980388413503633, -32.801094108377548 ], [ -70.981459244848182, -32.801525312701905 ], [ -70.982431064780414, -32.802271765151453 ], [ -70.983131527919838, -32.802753663737782 ], [ -70.983832086280685, -32.803235556691561 ], [ -70.984476585276212, -32.803583948906265 ], [ -70.985118184510029, -32.803797775804583 ], [ -70.985863783500889, -32.803920408289862 ], [ -70.986451310442803, -32.804090315622965 ], [ -70.987097907004525, -32.804528275995722 ], [ -70.98769333283272, -32.805056585909789 ], [ -70.988236858495384, -32.805630561652997 ], [ -70.988676221805903, -32.806295878518441 ], [ -70.989222578958334, -32.807004188864475 ], [ -70.989983277730801, -32.807798778915135 ], [ -70.990687994393113, -32.808459794801209 ], [ -70.991388639890516, -32.808941715711704 ], [ -70.99209120059615, -32.809513068366329 ], [ -70.993079103066918, -32.809788645426522 ], [ -70.994042102441384, -32.810131840153169 ], [ -70.994791767207218, -32.810433582268701 ], [ -70.995223191207259, -32.810740393957289 ], [ -70.995712712849993, -32.811270425337462 ], [ -70.996263168116741, -32.812158014780145 ], [ -70.996594534167158, -32.812735260559812 ], [ -70.997140169972425, -32.813398849695176 ], [ -70.997896891903153, -32.814014147966162 ], [ -70.998604729312746, -32.814809598668099 ], [ -70.998993134790439, -32.815565156881661 ], [ -70.999232409151219, -32.816771389347274 ], [ -70.999450799478254, -32.818224412704218 ], [ -70.999930389347199, -32.820681627426104 ], [ -71.000302996153991, -32.823095704264645 ], [ -71.001103126475883, -32.825637402110573 ], [ -71.001991363560833, -32.828558598911187 ], [ -71.002061284829281, -32.82865632943961 ], [ -71.003600554356822, -32.826436178115259 ], [ -71.003872282153864, -32.825954868422698 ], [ -71.004535800280607, -32.825324255589273 ], [ -71.005094151738689, -32.825029179821165 ], [ -71.005539316369322, -32.824735841569876 ], [ -71.00610186295981, -32.824631447135978 ], [ -71.006658956776519, -32.824288658681148 ], [ -71.007097852963085, -32.823709359921367 ], [ -71.007480239728395, -32.823130892299936 ], [ -71.008197082748694, -32.82235637636132 ], [ -71.008747715881881, -32.821727552781425 ], [ -71.009244073703925, -32.821194974797223 ], [ -71.009566799757948, -32.820474356863969 ], [ -71.009620861270051, -32.8191142782564 ], [ -71.00949506479094, -32.818544038205367 ], [ -71.009362739356334, -32.817687697766303 ], [ -71.009340281474223, -32.816686491252391 ], [ -71.009604349336826, -32.81587151222169 ], [ -71.009982308306093, -32.815102427631906 ], [ -71.011348660226275, -32.813077416375648 ], [ -71.012067540625665, -32.812398150524878 ], [ -71.012791786662234, -32.811957273136088 ], [ -71.013514950228881, -32.811468757074579 ], [ -71.014073010632828, -32.811173573374624 ], [ -71.01479947640648, -32.810828026310119 ], [ -71.015072001009173, -32.810394406550252 ], [ -71.015115579181909, -32.809821370603345 ], [ -71.015099434659618, -32.809106267929977 ], [ -71.015044909616833, -32.80793876242894 ], [ -71.015132966074248, -32.806840400625639 ], [ -71.015228644736823, -32.806075845897212 ], [ -71.015552263716259, -32.805402924052459 ], [ -71.016106062512492, -32.80491712186285 ], [ -71.016595824005407, -32.80409841967176 ], [ -71.016691487396642, -32.803333790013795 ], [ -71.016608164162463, -32.802142885161487 ], [ -71.016476882570217, -32.801334260424177 ], [ -71.016459653781368, -32.80057137540895 ], [ -71.016501069709221, -32.79990307082906 ], [ -71.016886530509439, -32.799467628575563 ], [ -71.017047204977786, -32.799083531868796 ], [ -71.016977881089005, -32.798512314542776 ], [ -71.016682701873165, -32.797944809449547 ], [ -71.016212860521676, -32.797141636992698 ], [ -71.015919840855787, -32.796669396958976 ], [ -71.015680083201403, -32.796053270303673 ], [ -71.015495651887051, -32.79538860170922 ], [ -71.015513672989954, -32.794935215685413 ], [ -71.015604047100808, -32.79393219272395 ], [ -71.015917853782369, -32.792830267973379 ], [ -71.016061390191723, -32.791683359536911 ], [ -71.016794570872122, -32.789143803391106 ], [ -71.016999869152215, -32.78823437806313 ], [ -71.017153075925606, -32.787516546148055 ], [ -71.017594876365479, -32.787080194389752 ], [ -71.018261424509674, -32.786592492425186 ], [ -71.018645658211199, -32.786109340203353 ], [ -71.018735906557893, -32.785106389892199 ], [ -71.018778381599489, -32.784485717478709 ], [ -71.019892822557807, -32.78258391985095 ], [ -71.020839291134422, -32.781996387440209 ], [ -71.021512256842996, -32.781794771084662 ], [ -71.022409781609667, -32.781541798759626 ], [ -71.023695980450313, -32.780996408758263 ], [ -71.024691319175005, -32.780074201143172 ], [ -71.025413084963077, -32.779537918980743 ], [ -71.026306250205664, -32.779094162680565 ], [ -71.026693739401793, -32.778754036158766 ], [ -71.027299377278155, -32.778076594898479 ], [ -71.027911497397582, -32.777685175479064 ], [ -71.028639716682648, -32.777434901433551 ], [ -71.02947546520555, -32.776944475132886 ], [ -71.030087566460367, -32.776552972938291 ], [ -71.030925289480265, -32.776157882874671 ], [ -71.031810894501419, -32.775380428870875 ], [ -71.032355663432426, -32.774513124725026 ], [ -71.032789909040758, -32.773742988211936 ], [ -71.033556027349363, -32.772681331309514 ], [ -71.034156146874921, -32.771765469182021 ], [ -71.034709554904012, -32.771279595781344 ], [ -71.035320509010205, -32.770840435339295 ], [ -71.036131724542685, -32.770517255897182 ], [ -71.036680766759503, -32.769840617564057 ], [ -71.036894515491483, -32.769312532773313 ], [ -71.037331871067323, -32.768685359843801 ], [ -71.037942794630808, -32.7682461873572 ], [ -71.038606831085474, -32.767663120436886 ], [ -71.038986615431398, -32.766989300613815 ], [ -71.03925137230182, -32.766221902214681 ], [ -71.039614832462405, -32.76483291116454 ], [ -71.039933781100672, -32.763969252530487 ], [ -71.040761637025469, -32.763145028331657 ], [ -71.041484345146287, -32.76265629321594 ], [ -71.042160294159913, -32.762597622703311 ], [ -71.042891615327662, -32.762490246205537 ], [ -71.043334346422171, -32.762101591801319 ], [ -71.043552397186033, -32.761764179522693 ], [ -71.043653249246361, -32.761237851525557 ], [ -71.043751835755529, -32.760616257202059 ], [ -71.043903701344192, -32.75985076573199 ], [ -71.044173847208015, -32.759321748392594 ], [ -71.044608926452938, -32.758599285786609 ], [ -71.044794919039262, -32.758095429572229 ], [ -71.044834942578433, -32.757379414651503 ], [ -71.045042163253214, -32.756565292687952 ], [ -71.045757076692311, -32.755742880314671 ], [ -71.046079208061627, -32.755022183683252 ], [ -71.046401425669174, -32.754301631560537 ], [ -71.046724638610101, -32.753628639864388 ], [ -71.047334324295122, -32.753141794129135 ], [ -71.048157649117641, -32.752126769581366 ], [ -71.048642481554566, -32.751117350673802 ], [ -71.048890737271549, -32.749634767304542 ], [ -71.049042457333158, -32.748869198061442 ], [ -71.049478455554606, -32.748194429102661 ], [ -71.049738706475566, -32.747236330390507 ], [ -71.049890502893959, -32.74647075942385 ], [ -71.049926204638311, -32.745564059273647 ], [ -71.050231886956439, -32.744128332976992 ], [ -71.050492031876189, -32.743170160313149 ], [ -71.050988901737938, -32.74268514410155 ], [ -71.051769853926814, -32.742290850483094 ], [ -71.052716779745907, -32.741750731257838 ], [ -71.053156086462565, -32.741218924811875 ], [ -71.053368582044712, -32.740643108445795 ], [ -71.053414094290261, -32.74016547884105 ], [ -71.053407442265581, -32.739879383435948 ], [ -71.053279320946501, -32.739213846433856 ], [ -71.053146825730309, -32.738357552948962 ], [ -71.053190148781496, -32.737784509360097 ], [ -71.053462281718737, -32.737350890962425 ], [ -71.053732308106603, -32.736821783060066 ], [ -71.05392562016587, -32.73635901745115 ], [ -71.053722465266048, -32.736392785211478 ], [ -71.052989183974361, -32.736404801296025 ], [ -71.052144189990543, -32.736466294728153 ], [ -71.050849063692596, -32.736582874461774 ], [ -71.049946528123286, -32.736597717339507 ], [ -71.049100349261622, -32.73661148343956 ], [ -71.04808182142618, -32.736485106964516 ], [ -71.047116295989142, -32.736214753981471 ], [ -71.046206219062995, -32.735895688756116 ], [ -71.045458776729163, -32.735287904527652 ], [ -71.045106115216612, -32.734673672742737 ], [ -71.044930730835489, -32.733612021551473 ], [ -71.044825645913548, -32.732975944105988 ], [ -71.044683860320674, -32.732692348030248 ], [ -71.044152985632167, -32.731698848607124 ], [ -71.043445257817041, -32.730374151630507 ], [ -71.04307829512517, -32.729139345347484 ], [ -71.042824317139832, -32.727902770235154 ], [ -71.042913167707951, -32.726851434765912 ], [ -71.043189708678284, -32.726456921462955 ], [ -71.043484644450686, -32.725899575560447 ], [ -71.043689805288523, -32.725418384556924 ], [ -71.043835097904264, -32.724374401816029 ], [ -71.043917969285843, -32.723624586644995 ], [ -71.044486772642287, -32.723096682788963 ], [ -71.045573131366524, -32.722082483621342 ], [ -71.046521586118217, -32.720813429104261 ], [ -71.046613764944482, -32.720613486541851 ], [ -71.046706361487324, -32.720332418489463 ], [ -71.046827423844903, -32.719996732151259 ], [ -71.04699254766885, -32.719669339940069 ], [ -71.047121752356176, -32.719338174438263 ], [ -71.047160018790635, -32.718985814094452 ], [ -71.047160790443471, -32.718629559314358 ], [ -71.047130374386285, -32.718273813267444 ], [ -71.047068208273672, -32.717932180182231 ], [ -71.046970484147167, -32.717591054437015 ], [ -71.046857560526064, -32.717250176043869 ], [ -71.046748991937449, -32.71690471998641 ], [ -71.046649611317577, -32.716563693856166 ], [ -71.046546388603218, -32.716222656596557 ], [ -71.046427966394262, -32.715881940762706 ], [ -71.046272217388619, -32.71555978708296 ], [ -71.046055029905745, -32.715256662850692 ], [ -71.045861998120856, -32.714939697853097 ], [ -71.045699249442521, -32.714613150978153 ], [ -71.045559374566253, -32.71428179815377 ], [ -71.045455459250832, -32.713940771064756 ], [ -71.045378697311477, -32.713594794273881 ], [ -71.04528944429812, -32.713249095042251 ], [ -71.045185618814187, -32.712908065516729 ], [ -71.045077514654594, -32.712567106491839 ], [ -71.044967662373452, -32.712226175641376 ], [ -71.0448580041284, -32.711889821618612 ], [ -71.044737584964551, -32.711549064291368 ], [ -71.04460406477061, -32.711208592884368 ], [ -71.044479119894376, -32.710872414161258 ], [ -71.044383337925524, -32.710531253101607 ], [ -71.044337421438101, -32.710184845854592 ], [ -71.044333781464573, -32.709837676112869 ], [ -71.044358079994694, -32.709485543544432 ], [ -71.044400372678282, -32.709133117066479 ], [ -71.044450251634416, -32.708776134338052 ], [ -71.044497872225946, -32.708423621156122 ], [ -71.044542625395096, -32.708075661475753 ], [ -71.04459864613284, -32.707727518272065 ], [ -71.044659281516189, -32.707374793080085 ], [ -71.044715392085465, -32.707026721973953 ], [ -71.044757682972417, -32.706674296365691 ], [ -71.044774291923702, -32.706322288883484 ], [ -71.044747927268432, -32.705971056313018 ], [ -71.044696929011437, -32.705620151174038 ], [ -71.044645231865132, -32.70526925826119 ], [ -71.044597889751358, -32.704913861070054 ], [ -71.044540429014219, -32.704563062135371 ], [ -71.044457566615776, -32.704217183527454 ], [ -71.044332735825577, -32.703885508623536 ], [ -71.044160685092479, -32.703563691089158 ], [ -71.043954354648108, -32.703255952057233 ], [ -71.043724660819862, -32.702962038441264 ], [ -71.043469598567981, -32.702682132554393 ], [ -71.043194844346758, -32.702416066713901 ], [ -71.042909377715773, -32.702159187577351 ], [ -71.042607187149144, -32.701916026243232 ], [ -71.04228219374734, -32.7016959162627 ], [ -71.041961522140369, -32.701462141556647 ], [ -71.04164687822896, -32.701228267967096 ], [ -71.041285839926374, -32.70106732847389 ], [ -71.040881344723616, -32.700970187256452 ], [ -71.040502011331952, -32.700823063523359 ], [ -71.040151247061274, -32.700625826250381 ], [ -71.040003484078511, -32.700299099985024 ], [ -71.039928226817253, -32.69994858755399 ], [ -71.040024281873968, -32.699604300468415 ], [ -71.040205064231642, -32.699285749065588 ], [ -71.040393892799287, -32.698971498641413 ], [ -71.040560260789903, -32.698653180837425 ], [ -71.040715400737795, -32.698321451235984 ], [ -71.040862259117077, -32.697994437585734 ], [ -71.040996697389232, -32.697663044962738 ], [ -71.04112535590086, -32.69732731338437 ], [ -71.041255918840889, -32.696986970653349 ], [ -71.04138535978511, -32.696651152619239 ], [ -71.041514015601791, -32.696315421014617 ], [ -71.041642583383577, -32.695979691171075 ], [ -71.041765646289292, -32.695643975940328 ], [ -71.041881777794273, -32.695299360785548 ], [ -71.04202504560736, -32.694972404857808 ], [ -71.042242323820076, -32.694680294962488 ], [ -71.04253027519114, -32.694418505334049 ], [ -71.042839281275832, -32.694183560947536 ], [ -71.043160105596399, -32.69395736278414 ], [ -71.043445081747251, -32.693695620175319 ], [ -71.043692165162781, -32.693412036025435 ], [ -71.043934953732943, -32.693124088097463 ], [ -71.04413048373263, -32.69280972299147 ], [ -71.044251087949405, -32.692474046491299 ], [ -71.044332518433293, -32.692125488609818 ], [ -71.044420953081413, -32.691781396640152 ], [ -71.044498017753028, -32.691432983477192 ], [ -71.044457088712051, -32.691086346351639 ], [ -71.044346660610799, -32.69074549672839 ], [ -71.044197138726716, -32.690414297196256 ], [ -71.044002948115107, -32.69009727192158 ], [ -71.043751838450461, -32.689812793300284 ], [ -71.043424122255033, -32.689601669131378 ], [ -71.043081139191372, -32.689395299147378 ], [ -71.042780114637964, -32.689147685534351 ], [ -71.042447266367319, -32.688941148173178 ], [ -71.042074662255459, -32.688780398215741 ], [ -71.041700502261534, -32.688624178150683 ], [ -71.041336936099739, -32.688449685087868 ], [ -71.041021746910943, -32.688220397574561 ], [ -71.040759242116934, -32.68794511100598 ], [ -71.040532571119599, -32.687651215772263 ], [ -71.040332228844946, -32.687343297884091 ], [ -71.040169244807984, -32.687079911129537 ], [ -71.039952317836551, -32.685996679456828 ], [ -71.03997927448161, -32.685391985445627 ], [ -71.038682669556692, -32.684209137009901 ], [ -71.036933922786361, -32.683087699558669 ], [ -71.036801378162821, -32.682021191142361 ], [ -71.036489077955977, -32.680944082275069 ], [ -71.036080537639492, -32.680021759191895 ], [ -71.035475427972528, -32.67946788260253 ], [ -71.034960217207626, -32.67892170593425 ], [ -71.034617730912302, -32.678530458094571 ], [ -71.035180253248271, -32.678016293190119 ], [ -71.035306900431991, -32.677179994152866 ], [ -71.035267406000514, -32.676039793932162 ], [ -71.035138485180809, -32.67489653639192 ], [ -71.03463660900799, -32.674043468995315 ], [ -71.034028310321773, -32.673566248730531 ], [ -71.033902246144692, -32.673469146400734 ], [ -71.03376206673957, -32.673196293083073 ], [ -71.033599445621988, -32.672869798395581 ], [ -71.033438499862427, -32.672547782092387 ], [ -71.03327719028519, -32.672221191268946 ], [ -71.03335715921007, -32.671737463404554 ], [ -71.033343080812941, -32.67141299222763 ], [ -71.033573549887294, -32.671156736212502 ], [ -71.034335410181441, -32.670914397108412 ], [ -71.035179539087608, -32.670228846300553 ], [ -71.035714670892276, -32.669449085828631 ], [ -71.036315997753576, -32.668596067749277 ], [ -71.037038513634897, -32.667822272416153 ], [ -71.037015885971215, -32.666925376427791 ], [ -71.037031305553043, -32.66688899987259 ], [ -71.037258087043156, -32.666632797430573 ], [ -71.037527866394356, -32.666362376435387 ], [ -71.037808063507867, -32.666100798720436 ], [ -71.038095885521543, -32.665848110493485 ], [ -71.038392801180819, -32.66559978123675 ], [ -71.038700936798008, -32.665364787499172 ], [ -71.039005285117938, -32.665120842319524 ], [ -71.039094332417108, -32.66503827478158 ], [ -71.039873644282295, -32.66457915320057 ], [ -71.040972105110015, -32.66379020945805 ], [ -71.041571000231855, -32.66299143499505 ], [ -71.04221696258297, -32.662534469581395 ], [ -71.043044642437991, -32.662214320298631 ], [ -71.043318001575599, -32.661695816571402 ], [ -71.043446894547486, -32.660904614102172 ], [ -71.043328931377644, -32.660027225763976 ], [ -71.043048057832706, -32.659305862953772 ], [ -71.042263456687138, -32.6586467802897 ], [ -71.042223902068557, -32.658620310063334 ], [ -71.042079014593, -32.658374655400685 ], [ -71.041848141276773, -32.65808082774749 ], [ -71.041676791229591, -32.657754410183848 ], [ -71.041591928283026, -32.657417645211105 ], [ -71.041731185118365, -32.65708166779612 ], [ -71.041936024359345, -32.656776241693663 ], [ -71.042158772413828, -32.6564749561038 ], [ -71.042406100171107, -32.656186939009039 ], [ -71.04257851202695, -32.655872878777203 ], [ -71.042593722301348, -32.655516459075187 ], [ -71.042711569588533, -32.655176395673614 ], [ -71.042910099961261, -32.654866490161446 ], [ -71.043146577866537, -32.654574066820729 ], [ -71.043431380642531, -32.654321417100448 ], [ -71.043803334374132, -32.65415297195986 ], [ -71.044174635030529, -32.653998130635827 ], [ -71.044548101525052, -32.653838745752914 ], [ -71.044927461866152, -32.653692784002374 ], [ -71.045315000469628, -32.653564714633944 ], [ -71.045704548604377, -32.65343668516789 ], [ -71.046088560422035, -32.653299582496629 ], [ -71.046137632691071, -32.653276249487654 ], [ -71.04631971401264, -32.653241659897866 ], [ -71.048407703261802, -32.652725157593117 ], [ -71.049525807549855, -32.652201861825162 ], [ -71.050112797299221, -32.651664700591944 ], [ -71.050755121473458, -32.650571948801847 ], [ -71.051764826954496, -32.648963717029005 ], [ -71.052090469838248, -32.647966342360277 ], [ -71.052305661264555, -32.647340612980898 ], [ -71.052527099575357, -32.646579434094434 ], [ -71.052561954208386, -32.645785181158601 ], [ -71.053011899672953, -32.644091380859358 ], [ -71.05358477509256, -32.643157631351855 ], [ -71.053941470939051, -32.642164324316184 ], [ -71.054138081612038, -32.641674095608472 ], [ -71.054244048679578, -32.641573140894977 ], [ -71.054516322652304, -32.641302644848416 ], [ -71.054752569690564, -32.641014712015583 ], [ -71.054928128344855, -32.64069615060383 ], [ -71.055056193968397, -32.640351329522865 ], [ -71.0551207882272, -32.640003039546983 ], [ -71.055111888617674, -32.639656026620116 ], [ -71.05506114817716, -32.639300611906876 ], [ -71.05501313232692, -32.638949733777196 ], [ -71.054798231954763, -32.63845272089187 ], [ -71.054613711707191, -32.638131042795706 ], [ -71.054371365108167, -32.637846437290968 ], [ -71.054162910148165, -32.637543251209124 ], [ -71.053970570066056, -32.637230713334901 ], [ -71.053687911568645, -32.636973806342283 ], [ -71.053402285935846, -32.636716947026514 ], [ -71.053192772760468, -32.636409195541603 ], [ -71.052963149000803, -32.636115440953944 ], [ -71.052693190884867, -32.635844729448728 ], [ -71.052392955950623, -32.635601627390606 ], [ -71.052061483898967, -32.635386147865063 ], [ -71.0517101024857, -32.635193453315409 ], [ -71.051347192992381, -32.635023478830597 ], [ -71.05096682024994, -32.634876395507519 ], [ -71.050569553790268, -32.634765640307528 ], [ -71.050158801821553, -32.634718196770343 ], [ -71.049740091677734, -32.634716096741684 ], [ -71.049324455568822, -32.634745416193205 ], [ -71.048908424201173, -32.634761223138661 ], [ -71.048491267244472, -32.634754511522807 ], [ -71.048074864872618, -32.634738774930149 ], [ -71.047428045528704, -32.634880094002298 ], [ -71.047055277025152, -32.634913214776489 ], [ -71.046685060635326, -32.634901225121212 ], [ -71.04605396001223, -32.634789761873691 ], [ -71.045830515763427, -32.634586025743893 ], [ -71.04579926337469, -32.634559420547127 ], [ -71.045434873457779, -32.634412060339749 ], [ -71.04508968772501, -32.634187698165135 ], [ -71.044670698205138, -32.633716599313338 ], [ -71.044118387018997, -32.633026622109 ], [ -71.043995657388251, -32.632636320233381 ], [ -71.043794493155119, -32.632332996209712 ], [ -71.043656528995456, -32.632006036801279 ], [ -71.043567991939369, -32.63166024489653 ], [ -71.043466977283984, -32.631314729299568 ], [ -71.043323589994955, -32.630983349571537 ], [ -71.043188147406312, -32.63065191490282 ], [ -71.043130372258815, -32.630368714694157 ], [ -71.043117941371918, -32.630305824230994 ], [ -71.043094920246133, -32.629949877599294 ], [ -71.043041649251464, -32.62960358524289 ], [ -71.042939239512435, -32.629258018581993 ], [ -71.042826041006862, -32.628921640320605 ], [ -71.042736639771476, -32.628575935604609 ], [ -71.042674712610747, -32.628225203039392 ], [ -71.04261411405831, -32.627879028840319 ], [ -71.042540930108743, -32.627528479656476 ], [ -71.042470468054475, -32.627182392036275 ], [ -71.042413867903363, -32.626831573057707 ], [ -71.042362242622318, -32.626480672508166 ], [ -71.042305485266027, -32.62613443633181 ], [ -71.042240610732833, -32.625788257828475 ], [ -71.042127668247105, -32.625447441331168 ], [ -71.04198480287927, -32.625111470916529 ], [ -71.0418375222918, -32.624784732524404 ], [ -71.041676889145947, -32.624458212348081 ], [ -71.041418185123916, -32.624164832377936 ], [ -71.041039112243695, -32.624049169574214 ], [ -71.040606058699737, -32.623997622690531 ], [ -71.040181782594402, -32.624013532916898 ], [ -71.039816497057174, -32.6241322099972 ], [ -71.039502129826857, -32.624367305288644 ], [ -71.039221524878187, -32.624651424061753 ], [ -71.038964975016214, -32.624926138435008 ], [ -71.038762969061622, -32.625184673365631 ], [ -71.037630759427003, -32.627481210072602 ], [ -71.036692266093468, -32.628685164191907 ], [ -71.036440824052178, -32.629209282978614 ], [ -71.03645588161298, -32.629877723066492 ], [ -71.036290464938233, -32.630326123488878 ], [ -71.035684625839281, -32.630707416867033 ], [ -71.035075242886506, -32.630940193533604 ], [ -71.034462494844689, -32.631024449351877 ], [ -71.033760439890585, -32.63103582674097 ], [ -71.033233895980047, -32.631044357323091 ], [ -71.031831199121797, -32.631141321146067 ], [ -71.031129139676096, -32.631152684146272 ], [ -71.0306886319119, -32.631085488849472 ], [ -71.030064222839385, -32.630649872274937 ], [ -71.02943134804363, -32.629842922432275 ], [ -71.028796893111291, -32.6289615979112 ], [ -71.028695683521477, -32.628368870889119 ], [ -71.028672217729635, -32.627329170252501 ], [ -71.028565983862435, -32.626513628434182 ], [ -71.028461428048203, -32.625772382719816 ], [ -71.028358638321833, -32.625105431172727 ], [ -71.028343643643097, -32.624436987216761 ], [ -71.028414593482552, -32.623692904501915 ], [ -71.02875059843312, -32.623018862555341 ], [ -71.028742130913244, -32.622647457670588 ], [ -71.028642694597821, -32.622129024142751 ], [ -71.02792889057811, -32.621620443151976 ], [ -71.027134090859121, -32.621410457730605 ], [ -71.026421887637241, -32.62097616504203 ], [ -71.02562709420647, -32.620766096395243 ], [ -71.02500110948894, -32.620256154073857 ], [ -71.024722773684672, -32.619591957143953 ], [ -71.024530471331815, -32.618852120455742 ], [ -71.024424376703493, -32.618036645160657 ], [ -71.024414431454971, -32.617591013756076 ], [ -71.023692245255376, -32.616711146958679 ], [ -71.023243543957463, -32.616272586664451 ], [ -71.022259780025209, -32.615471249470282 ], [ -71.021276206535788, -32.614669827167923 ], [ -71.020736317253409, -32.614084152244118 ], [ -71.020110408892663, -32.61357418245656 ], [ -71.019626064240924, -32.613245598038645 ], [ -71.019575535802815, -32.613211244943606 ], [ -71.019447739673879, -32.613191800631974 ], [ -71.019135124158367, -32.61314407855135 ], [ -71.018945942552804, -32.613147120392121 ], [ -71.018696377990452, -32.613151133049037 ], [ -71.017924999147553, -32.613980721603149 ], [ -71.017778627655161, -32.614125515538383 ], [ -71.017237889464838, -32.614660527011182 ], [ -71.016459909801213, -32.615192992911389 ], [ -71.01567833418153, -32.615577087583084 ], [ -71.01428600298334, -32.616119475303186 ], [ -71.012890240220756, -32.616513257152967 ], [ -71.011843871798021, -32.61682724977512 ], [ -71.010794174218844, -32.616992712901556 ], [ -71.009484423348098, -32.617310831322293 ], [ -71.008434715887446, -32.61747627539571 ], [ -71.007999262045047, -32.61763181400422 ], [ -71.007396606575441, -32.618161495222374 ], [ -71.006969436098274, -32.618688368479532 ], [ -71.00628229227955, -32.619368042810038 ], [ -71.005237519264782, -32.619756204567381 ], [ -71.004626466343908, -32.619914536437619 ], [ -71.004018809054799, -32.620221385259406 ], [ -71.002980547927507, -32.620906646117625 ], [ -71.002030150119865, -32.621590424079855 ], [ -71.001073125440342, -32.621977152275733 ], [ -70.999940506173928, -32.622366746310618 ], [ -70.999069431402475, -32.622677767677764 ], [ -70.998203391688207, -32.623211599966638 ], [ -70.997940735977224, -32.623598259874861 ], [ -70.997693385762076, -32.623962659373667 ], [ -70.997176171754077, -32.626311199720234 ], [ -70.997135089101178, -32.626497587766657 ], [ -70.996625057123893, -32.627248643810312 ], [ -70.99576390604139, -32.628005279168967 ], [ -70.994302315633107, -32.629402907341323 ], [ -70.993610052315589, -32.629859698609252 ], [ -70.992828421000354, -32.630243655455423 ], [ -70.992017384232611, -32.630404216428097 ], [ -70.991604649682074, -32.630485902817838 ], [ -70.991170748128468, -32.630715684208639 ], [ -70.990965409424206, -32.630866037272327 ], [ -70.990652244139739, -32.631095378902465 ], [ -70.990359705970846, -32.631215345544014 ], [ -70.989844017302204, -32.631426767293853 ], [ -70.989521105296902, -32.631559108665215 ], [ -70.988913315057147, -32.631865888819569 ], [ -70.987860105963534, -32.631882647217402 ], [ -70.986977487840676, -32.631673723817869 ], [ -70.985924276052131, -32.631690318086839 ], [ -70.984519937073529, -32.631712529512924 ], [ -70.982852271342423, -32.631738959287134 ], [ -70.980745842375413, -32.631772144015201 ], [ -70.97960318802896, -32.631715920991432 ], [ -70.978723772400087, -32.631655537070507 ], [ -70.977223539163219, -32.631307632354861 ], [ -70.976599371737507, -32.630871666589748 ], [ -70.97562090876373, -32.630292774057153 ], [ -70.974211600304955, -32.630092049282986 ], [ -70.972982969100997, -32.630111367365551 ], [ -70.972106828729665, -32.630199385444683 ], [ -70.971403036433799, -32.630136190736167 ], [ -70.970432752620681, -32.629928527428966 ], [ -70.968920287922913, -32.629023577685224 ], [ -70.968210087944129, -32.628663242527942 ], [ -70.967150310369135, -32.62838263174207 ], [ -70.965047102760735, -32.628564222752694 ], [ -70.963559946299469, -32.62881039431803 ], [ -70.962339257100908, -32.629200883103145 ], [ -70.960687902978734, -32.62996963601568 ], [ -70.958500070477299, -32.630301014958476 ], [ -70.954899884228297, -32.630282886941593 ], [ -70.952088054082736, -32.630177997507282 ], [ -70.950951872097903, -32.630418561766419 ], [ -70.949893819288278, -32.630212102001281 ], [ -70.949001543377818, -32.629557334298802 ], [ -70.948554735728536, -32.629192796434928 ], [ -70.947488568436953, -32.628614966580642 ], [ -70.946511914670168, -32.628110064476267 ], [ -70.945624592070175, -32.627678020996811 ], [ -70.942594707567508, -32.625607504005977 ], [ -70.941353107385765, -32.625032335336016 ], [ -70.940376523687561, -32.624527308612038 ], [ -70.939393456847966, -32.623725296283631 ], [ -70.938584312830528, -32.622846265285396 ], [ -70.93794917787352, -32.621890217888222 ], [ -70.937403365100153, -32.621007039289871 ], [ -70.936686861642997, -32.620349466050861 ], [ -70.935707158994163, -32.619695946499149 ], [ -70.935083265554596, -32.619259763009552 ], [ -70.933931192372384, -32.618757461630999 ], [ -70.932874817615726, -32.618625080144092 ], [ -70.931813749161677, -32.618270007881016 ], [ -70.931282376806507, -32.618055282603578 ], [ -70.930138394750074, -32.617924224948766 ], [ -70.928912910344536, -32.618091709289942 ], [ -70.927696972335497, -32.61870468974292 ], [ -70.926482697108071, -32.619392032334225 ], [ -70.924827919506342, -32.620011793024489 ], [ -70.922992849128789, -32.62041139277278 ], [ -70.921062115359987, -32.620440878069999 ], [ -70.920269918958709, -32.620341584382452 ], [ -70.919127417325839, -32.62028480260436 ], [ -70.918775453804273, -32.620315006728688 ], [ -70.91807579645365, -32.620375199311276 ], [ -70.917232290079966, -32.620981060312644 ], [ -70.917124724011202, -32.621058357886334 ], [ -70.915996458878979, -32.621669962190651 ], [ -70.915565466968587, -32.62204794448585 ], [ -70.914994478011067, -32.622218826569444 ], [ -70.914549451721001, -32.622081471008158 ], [ -70.914211318661529, -32.621785852780086 ], [ -70.913557922751423, -32.621674056178911 ], [ -70.913231369874296, -32.621602343641023 ], [ -70.912907759878038, -32.621517139247587 ], [ -70.912591881681422, -32.621413714923499 ], [ -70.912306386304337, -32.621269265682329 ], [ -70.912051360883382, -32.621083789812296 ], [ -70.911780372399818, -32.620902990172155 ], [ -70.911515757463206, -32.62072216595525 ], [ -70.911282438932787, -32.620522764976918 ], [ -70.911104647066708, -32.620286462620911 ], [ -70.91096974346722, -32.620022467401562 ], [ -70.910838845455586, -32.619753902926469 ], [ -70.910678311124414, -32.619503817409452 ], [ -70.910497372459901, -32.619263055842062 ], [ -70.910306495733394, -32.619027025573189 ], [ -70.910112388665112, -32.618790970469909 ], [ -70.909921766161801, -32.618550354528544 ], [ -70.909707876394364, -32.618328120341211 ], [ -70.909435459589503, -32.618169870408295 ], [ -70.909127671620325, -32.618043780232838 ], [ -70.908832681949022, -32.617899540438856 ], [ -70.90854405234991, -32.617750622877175 ], [ -70.908219617700212, -32.617683297969407 ], [ -70.907881807135936, -32.61764794403063 ], [ -70.907552592550616, -32.617589776650938 ], [ -70.907239954577236, -32.617481782979581 ], [ -70.906932965210345, -32.617360180987305 ], [ -70.90662320094755, -32.617247634323427 ], [ -70.90631604718898, -32.617130540849615 ], [ -70.906012448063976, -32.616999872269588 ], [ -70.905710934827084, -32.616864664383343 ], [ -70.905408820617239, -32.616733970445921 ], [ -70.905105057998867, -32.616607809393251 ], [ -70.904797401183728, -32.61649973281947 ], [ -70.904481842787348, -32.616414309437822 ], [ -70.904143672896964, -32.616419438762478 ], [ -70.903801052752655, -32.616424634671944 ], [ -70.903461255114976, -32.61639823896445 ], [ -70.903119781220951, -32.616362780100602 ], [ -70.902793446634419, -32.616300123437384 ], [ -70.902501731322332, -32.616173773367251 ], [ -70.902251078001854, -32.615974615736931 ], [ -70.902006710193433, -32.615775437233921 ], [ -70.901749619545654, -32.615585464524088 ], [ -70.901498809918323, -32.615395322676498 ], [ -70.901278498993207, -32.615177676608475 ], [ -70.901101871343727, -32.614936909460589 ], [ -70.900950866341091, -32.614677577676133 ], [ -70.900811567284933, -32.614422651206901 ], [ -70.90069004588824, -32.614153933733519 ], [ -70.90057350115822, -32.613885139786653 ], [ -70.900465594627988, -32.613616216398505 ], [ -70.9003450371236, -32.61334748364154 ], [ -70.900199362723853, -32.613088145740448 ], [ -70.900043399020859, -32.612833468990409 ], [ -70.899880287423159, -32.612583333118849 ], [ -70.899711341267675, -32.612337940198358 ], [ -70.899536546181366, -32.612092560982425 ], [ -70.899349115392283, -32.611856386957115 ], [ -70.89914415398043, -32.611624984750662 ], [ -70.898905918970442, -32.611430139980371 ], [ -70.898639961950806, -32.611249307981645 ], [ -70.898387952174261, -32.611059250756455 ], [ -70.89813716320819, -32.610869100810973 ], [ -70.897888985644627, -32.610674404222188 ], [ -70.897644475004071, -32.610479725370908 ], [ -70.897402489527778, -32.610280501350267 ], [ -70.897163112759074, -32.610076656459647 ], [ -70.896925308042128, -32.609872787647198 ], [ -70.896689688027934, -32.609668958476128 ], [ -70.896457209422309, -32.609465007767831 ], [ -70.896226983791394, -32.609252008617673 ], [ -70.895997119283237, -32.609043585551937 ], [ -70.895766991568692, -32.608835090870159 ], [ -70.895534857916118, -32.608626626728316 ], [ -70.89529880760891, -32.608422801531511 ], [ -70.895057530005062, -32.60822356158436 ], [ -70.894809976770659, -32.608028849406814 ], [ -70.894550049243193, -32.607843336270989 ], [ -70.894277225501511, -32.607667104716803 ], [ -70.893992215214695, -32.607509084147814 ], [ -70.893696177209435, -32.607382777671098 ], [ -70.893379606411742, -32.607292833233664 ], [ -70.893039115274647, -32.607248318043929 ], [ -70.892695727070773, -32.607244480683079 ], [ -70.892364448156926, -32.607281021492732 ], [ -70.892037427257534, -32.607358132631823 ], [ -70.891711292097, -32.607444243435054 ] ] ] } },
{ "type": "Feature", "properties": { "capa": "colegios", "popup": "<strong>ESCUELA SAN JOSE DE CATEMU</strong><br><br><strong>Dirección:</strong> CALLE PUBLICA SAN JOSE 0", "etiqueta": "" }, "geometry": { "type": "Point", "coordinates": [ -70.912292, -32.787628 ] } },
{ "type": "Feature", "properties": { "capa": "colegios", "popup": "<strong>COLEGIO PARTICULAR CALIFORNIA</strong><br><br><strong>Dirección:</strong> BALMACEDA 124", "etiqueta": "" }, "geometry": { "type": "Point", "coordinates": [ -70.962486, -32.779339 ] } },
{ "type": "Feature", "properties": { "capa": "colegios", "popup": "<strong>ESCUELA MARIA TERESA DEL CANTO</strong><br><br><strong>Dirección:</strong> B GARCIA HUIDOBRO 0", "etiqueta": "" }, "geometry": { "type": "Point", "coordinates": [ -70.963821, -32.7785 ] } },
{ "type": "Feature", "properties": { "capa": "colegios", "popup": "<strong>ESCUELA ESPECIAL DE LENGUAJE MONTSERRAT EDUCA</strong><br><br><strong>Dirección:</strong> PASAJE LOS ALERCES 165", "etiqueta": "" }, "geometry": { "type": "Point", "coordinates": [ -70.941734, -32.77521 ] } },
{ "type": "Feature", "properties": { "capa": "colegios", "popup": "<strong>LICEO BICENTENARIO POLIVALENTE FERNANDO SILVA CASTELLÓN</strong><br><br><strong>Dirección:</strong> PASAJE ANTONIO SPILLARE 16", "etiqueta": "" }, "geometry": { "type": "Point", "coordinates": [ -70.96447, -32.775108 ] } },
{ "type": "Feature", "properties": { "capa": "colegios", "popup": "<strong>ESCUELA BASICA SANTA MARGARITA</strong><br><br><strong>Dirección:</strong> CAMINO PRINCIPAL SANTA MARGARITA CATEMU 0", "etiqueta": "" }, "geometry": { "type": "Point", "coordinates": [ -70.933807, -32.77433 ] } },
{ "type": "Feature", "properties": { "capa": "colegios", "popup": "<strong>ESCUELA ESPECIAL DE LENGUAJE ARCO IRIS</strong><br><br><strong>Dirección:</strong> CALLE GUAYACAN 246", "etiqueta": "" }, "geometry": { "type": "Point", "coordinates": [ -70.94262, -32.76618 ] } },
{ "type": "Feature", "properties": { "capa": "colegios", "popup": "<strong>ESCUELA AGRICOLA SALESIANA F. HUIDOBRO</strong><br><br><strong>Dirección:</strong> AVENIDA SALESIANOS 0", "etiqueta": "" }, "geometry": { "type": "Point", "coordinates": [ -70.943428, -32.756271 ] } },
{ "type": "Feature", "properties": { "capa": "colegios", "popup": "<strong>ESCUELA EL COBRE</strong><br><br><strong>Dirección:</strong> TROPEZON 0", "etiqueta": "" }, "geometry": { "type": "Point", "coordinates": [ -70.96508, -32.7514 ] } },
{ "type": "Feature", "properties": { "capa": "colegios", "popup": "<strong>ESC REBECA JOHNSON GARCIA-HUIDOBRO</strong><br><br><strong>Dirección:</strong> CAMINO CERRILLOS 7", "etiqueta": "" }, "geometry": { "type": "Point", "coordinates": [ -70.932709, -32.73674 ] } },
{ "type": "Feature", "properties": { "capa": "colegios", "popup": "<strong>ESCUELA BASICA EL NILHUE</strong><br><br><strong>Dirección:</strong> DESVIO EL NILHUE 0", "etiqueta": "" }, "geometry": { "type": "Point", "coordinates": [ -70.922394, -32.720901 ] } },
{ "type": "Feature", "properties": { "capa": "colegios", "popup": "<strong>ESCUELA BASICA LOS CERRILLOS</strong><br><br><strong>Dirección:</strong> CALLE PRINCIPAL 0", "etiqueta": "" }, "geometry": { "type": "Point", "coordinates": [ -70.930923, -32.698608 ] } },
{ "type": "Feature", "properties": { "capa": "jardines", "popup": "<strong>VALLE HERMOSO</strong><br><br><strong>Dirección:</strong> CALLE JOSE MIGUEL CARRERA,N 31 ", "etiqueta": "" }, "geometry": { "type": "MultiPoint", "coordinates": [ [ -70.963541, -32.777491 ] ] } },
{ "type": "Feature", "properties": { "capa": "jardines", "popup": "<strong>LOS ENANITOS</strong><br><br><strong>Dirección:</strong> LA COLONIA S/N CATEMU ", "etiqueta": "" }, "geometry": { "type": "MultiPoint", "coordinates": [ [ -70.955776, -32.750821 ] ] } },
{ "type": "Feature", "properties": { "capa": "jardines", "popup": "<strong>TAÑI RUKA</strong><br><br><strong>Dirección:</strong> CAMINO PUBLICO S/N,CERRILLOS ", "etiqueta": "" }, "geometry": { "type": "MultiPoint", "coordinates": [ [ -70.929889, -32.695919 ] ] } },
{ "type": "Feature", "properties": { "capa": "jardines", "popup": "<strong>VILLA EL SOL</strong><br><br><strong>Dirección:</strong> EL SAUCE S/N, VILLA EL SOL ", "etiqueta": "" }, "geometry": { "type": "MultiPoint", "coordinates": [ [ -70.964577, -32.773619 ] ] } },
{ "type": "Feature", "properties": { "capa": "jardines", "popup": "<strong>LOS ANGELITOS DE SAN JOSE</strong><br><br><strong>Dirección:</strong> LAS GARZAS S/N CATEMU ", "etiqueta": "" }, "geometry": { "type": "MultiPoint", "coordinates": [ [ -70.913403, -32.787391 ] ] } },
{ "type": "Feature", "properties": { "capa": "jardines", "popup": "<strong>LA CASITA DEL SOL(COPIHUE)</strong><br><br><strong>Dirección:</strong> DIEGO PORTALES S/N, POB. HEROES DE LA CONCEPCION ", "etiqueta": "" }, "geometry": { "type": "MultiPoint", "coordinates": [ [ -70.969148, -32.776743 ] ] } },
{ "type": "Feature", "properties": { "capa": "jardines", "popup": "<strong>LOS ARRAYANES</strong><br><br><strong>Dirección:</strong> CALLE LOS ALERCES N 325,VILLA RAUL SILVA HENRIQUEZ ", "etiqueta": "" }, "geometry": { "type": "MultiPoint", "coordinates": [ [ -70.954008, -32.781804 ] ] } },
{ "type": "Feature", "properties": { "capa": "jardines", "popup": "<strong>NA</strong><br><br><strong>Dirección:</strong> NA ", "etiqueta": "" }, "geometry": { "type": "MultiPoint", "coordinates": [ [ -70.967995000190214, -32.780916999918304 ] ] } },
{ "type": "Feature", "properties": { "capa": "bomberos", "popup": "<strong>Cuerpo de Bomberos</strong><br><br><strong>Dirección:</strong> García Huidobro S/n", "etiqueta": "" }, "geometry": { "type": "Point", "coordinates": [ -70.962842290404424, -32.778494115153606 ] } },
{ "type": "Feature", "properties": { "capa": "comisarias", "popup": "<strong>TCIA. CATEMU</strong><br><br><strong>Dirección:</strong> ARTURO PRAT 91", "etiqueta": "" }, "geometry": { "type": "Point", "coordinates": [ -70.962051, -32.778900999999898 ] } },
{ "type": "Feature", "properties": { "capa": "salud", "popup": "<strong>Centro de Salud Familiar Dr. Eduardo Raggio Lanata</strong><br><br><strong>Tipo de atención:</strong> Centro de Salud Familiar (CESFAM)<br><strong>Dirección:</strong>  NA", "etiqueta": "" }, "geometry": { "type": "Point", "coordinates": [ -70.95961, -32.78241 ] } },
{ "type": "Feature", "properties": { "capa": "salud", "popup": "<strong>Centro Comunitario de Salud Familiar Los Cerrillos</strong><br><br><strong>Tipo de atención:</strong> Centro Comunitario de Salud Familiar (CECOSF)<br><strong>Dirección:</strong>  NA", "etiqueta": "" }, "geometry": { "type": "Point", "coordinates": [ -70.92896, -32.69382 ] } },
{ "type": "Feature", "properties": { "capa": "salud", "popup": "<strong>SUR Catemu</strong><br><br><strong>Tipo de atención:</strong> Servicio de Urgencia Rural (SUR)<br><strong>Dirección:</strong>  NA", "etiqueta": "" }, "geometry": { "type": "Point", "coordinates": [ -70.961801, -32.778537 ] } },
{ "type": "Feature", "properties": { "capa": "municipios", "popup": "<strong>Municipalidad de Catemu</strong><br><br><strong>Dirección:</strong> Borjas García-Huidobro Nº 025<br><strong>Región:</strong> Valparaíso", "etiqueta": "" }, "geometry": { "type": "Point", "coordinates": [ -70.968447459999936, -32.780151250999943 ] } }
]
}
