{
"type": "FeatureCollection",
"name": "5703",
"crs": { "type": "name", "properties": { "name": "urn:ogc:def:crs:OGC:1.3:CRS84" } },
"features": [
{ "type": "Feature", "properties": { "capa": "comuna", "popup": "", "etiqueta": "" }, "geometry": { "type": "Polygon", "coordinates": [ [ [ -70.966093320266495, -32.798879803710562 ], [ -70.962874495805053, -32.808901718630807 ], [ -70.962878285797245, -32.809074092896999 ], [ -70.971586370006861, -32.812858946752094 ], [ -70.972259081492211, -32.813279284185953 ], [ -70.971665911333702, -32.814150575578992 ], [ -70.971060358797317, -32.814461761570946 ], [ -70.970457654818674, -32.81490218789795 ], [ -70.969649864562385, -32.815302841311237 ], [ -70.968889426301303, -32.815530238390821 ], [ -70.968023983068392, -32.815630066946497 ], [ -70.966901598308013, -32.815647637908235 ], [ -70.966033302924046, -32.815618208772499 ], [ -70.965371036150515, -32.815671682654688 ], [ -70.964305246151341, -32.815947065466268 ], [ -70.962732212545518, -32.816359536006871 ], [ -70.961266916586666, -32.817029023672106 ], [ -70.959916824173135, -32.818299912612162 ], [ -70.958766110141951, -32.819352236103441 ], [ -70.958000306243704, -32.820506243919318 ], [ -70.957207614870683, -32.821596097319194 ], [ -70.956869382996544, -32.822463260874429 ], [ -70.956528228902783, -32.823201327965549 ], [ -70.956231533330737, -32.823636829830527 ], [ -70.955628606569917, -32.824077264271558 ], [ -70.955312132790283, -32.824273409198021 ], [ -70.954772584867698, -32.824607719601403 ], [ -70.954626414597925, -32.824629581061316 ], [ -70.953805899705628, -32.824752178760768 ], [ -70.951609141543543, -32.824657169823539 ], [ -70.949359332474017, -32.824476731146504 ], [ -70.947625690875171, -32.824220029569986 ], [ -70.946796266491887, -32.825141577782937 ], [ -70.945788895732292, -32.825760543438605 ], [ -70.944930831261104, -32.826204821721333 ], [ -70.943969827943192, -32.826607620827318 ], [ -70.943212890416802, -32.827007317878646 ], [ -70.94184465383114, -32.827459422357784 ], [ -70.940475294351373, -32.82786860563894 ], [ -70.939713643364684, -32.828052776224474 ], [ -70.938905759683593, -32.828453089524913 ], [ -70.938100506269649, -32.828982794821719 ], [ -70.937501280567801, -32.829595373405716 ], [ -70.936799027086025, -32.830166473226704 ], [ -70.936092176026605, -32.830522207053264 ], [ -70.935232146041585, -32.830880307361028 ], [ -70.935226051870686, -32.83088978426931 ], [ -70.93463288800038, -32.830565021255126 ], [ -70.934339918640148, -32.830258444091278 ], [ -70.933578871321345, -32.829769673885643 ], [ -70.93284413386057, -32.82946090568467 ], [ -70.932376135852039, -32.829274200230138 ], [ -70.931799537813887, -32.829224443091931 ], [ -70.931218943171032, -32.829264951867508 ], [ -70.930537760572562, -32.829271030635525 ], [ -70.927771408536572, -32.829466980665025 ], [ -70.926918904636992, -32.829498137578142 ], [ -70.926204038808621, -32.829504637532636 ], [ -70.925488724720935, -32.829506634092709 ], [ -70.924771097471364, -32.82957175513976 ], [ -70.924190401318882, -32.829607799619907 ], [ -70.923642845813859, -32.829679312592084 ], [ -70.922524943646749, -32.829556712635785 ], [ -70.921945587780655, -32.829565686960144 ], [ -70.921216170142998, -32.829887995870429 ], [ -70.919742321324335, -32.830844013548067 ], [ -70.918802076276037, -32.831300309680302 ], [ -70.917121917674265, -32.832309108004807 ], [ -70.915912327161038, -32.83270190981564 ], [ -70.914271417750683, -32.833597329887738 ], [ -70.913856919807245, -32.833725424546103 ], [ -70.913442430846914, -32.833858023702795 ], [ -70.912701095260388, -32.833688944703766 ], [ -70.912159773165143, -32.833616098950152 ], [ -70.911757083576077, -32.833486903622109 ], [ -70.91111794213289, -32.833320834101499 ], [ -70.910708638248408, -32.83333609863697 ], [ -70.910333546701537, -32.833355345549556 ], [ -70.909853665778442, -32.833425839529774 ], [ -70.908942259345693, -32.833250319658006 ], [ -70.908233980863301, -32.833112329478098 ], [ -70.9080679668089, -32.833083314481947 ], [ -70.907663999815526, -32.832922653204406 ], [ -70.906957796441432, -32.832725962777772 ], [ -70.906256062185889, -32.832443500460087 ], [ -70.905644173831789, -32.832425855074277 ], [ -70.905370823677345, -32.832443537446167 ], [ -70.904671141173907, -32.832850926212295 ], [ -70.904443466758408, -32.833007766754484 ], [ -70.903728371859643, -32.833365884966632 ], [ -70.903173781647624, -32.833577196127571 ], [ -70.901961882464136, -32.833996939624342 ], [ -70.900780894309563, -32.834253888444479 ], [ -70.900379660889598, -32.83437723067896 ], [ -70.89982883102536, -32.834502843937294 ], [ -70.899593811085794, -32.834438737940118 ], [ -70.899393910782237, -32.834347132200548 ], [ -70.899338950954828, -32.834244239045383 ], [ -70.899298274340467, -32.834199789449272 ], [ -70.899073669468294, -32.833905535716923 ], [ -70.898783686108047, -32.833549181404955 ], [ -70.898707896145851, -32.833487237247844 ], [ -70.89868562511333, -32.833460535110547 ], [ -70.897999364338531, -32.832835135487514 ], [ -70.896891405623307, -32.83176523412498 ], [ -70.896559328107173, -32.831580840261942 ], [ -70.896054746208705, -32.831448631724157 ], [ -70.895482014519544, -32.831313094953927 ], [ -70.894946272758816, -32.83112276719325 ], [ -70.894001145366914, -32.830947648113202 ], [ -70.893220627962648, -32.830896366398576 ], [ -70.891304442409876, -32.830370725229194 ], [ -70.890340958843481, -32.829853125280493 ], [ -70.88945624854432, -32.829104485980267 ], [ -70.889001558178421, -32.828628839295341 ], [ -70.888681739970977, -32.828187282310665 ], [ -70.888463578714337, -32.827748623295278 ], [ -70.888244252342773, -32.827341601384816 ], [ -70.888006277844227, -32.827024995290579 ], [ -70.887958205400111, -32.826899458263526 ], [ -70.88728142544484, -32.826070978430096 ], [ -70.887239548681237, -32.826035482061776 ], [ -70.887238031426733, -32.826034100644847 ], [ -70.887229399515164, -32.826039698025276 ], [ -70.88649982826557, -32.826678165456258 ], [ -70.885448989826017, -32.827187006365094 ], [ -70.884444525116336, -32.827381371255228 ], [ -70.882699954613756, -32.827721400844759 ], [ -70.881381013977645, -32.828099705577188 ], [ -70.880058110872781, -32.828298896512294 ], [ -70.878840455284958, -32.82845164775744 ], [ -70.875829867492897, -32.829169053265275 ], [ -70.874398938381873, -32.829280112931571 ], [ -70.873712933626962, -32.829469695836899 ], [ -70.872191870255278, -32.830343936103425 ], [ -70.871194856172565, -32.830896700788841 ], [ -70.870463158610704, -32.831445417672356 ], [ -70.869946588694802, -32.832125378003887 ], [ -70.869609631530025, -32.832511415197771 ], [ -70.86876334666718, -32.832658519209566 ], [ -70.867860290074972, -32.832627158095171 ], [ -70.867057635487157, -32.832325440783301 ], [ -70.866363148839326, -32.832111647056543 ], [ -70.865560590371217, -32.831809918180333 ], [ -70.864757950156431, -32.831508186014361 ], [ -70.863901453245433, -32.831162404030195 ], [ -70.863206809392409, -32.830948669399362 ], [ -70.862461026246905, -32.830825308815243 ], [ -70.86139877291501, -32.830796269672042 ], [ -70.860282485918773, -32.830723327191194 ], [ -70.85932447848235, -32.830603028654849 ], [ -70.858362743037475, -32.83030369201277 ], [ -70.857610437224693, -32.829866627105716 ], [ -70.856903780201392, -32.829070411446104 ], [ -70.856253029829787, -32.828407750833065 ], [ -70.855553852179526, -32.82796995872669 ], [ -70.855188435488259, -32.827587354517242 ], [ -70.855174033697622, -32.827572274688997 ], [ -70.854648049437529, -32.827804152146832 ], [ -70.853960989162132, -32.827948797085952 ], [ -70.8530067429718, -32.828007776258545 ], [ -70.852317816895564, -32.828062748619637 ], [ -70.851735930475343, -32.828160977897738 ], [ -70.850786327676701, -32.82844395279492 ], [ -70.849888889148289, -32.828681304414751 ], [ -70.848672090553237, -32.828878596356354 ], [ -70.847296072760599, -32.829078153154811 ], [ -70.846347283835584, -32.829405928150287 ], [ -70.845453529298169, -32.829822428944595 ], [ -70.844507592524224, -32.830284538793236 ], [ -70.843773037421442, -32.83069875511633 ], [ -70.843407059283123, -32.830973074587469 ], [ -70.842561660159134, -32.831164761361272 ], [ -70.841546952858607, -32.830865999529848 ], [ -70.840898987264367, -32.830337680022417 ], [ -70.840360928748524, -32.829987049678373 ], [ -70.839505369678676, -32.829685930288626 ], [ -70.838494293368512, -32.829566325557003 ], [ -70.837217891554374, -32.829450682838434 ], [ -70.835626835947309, -32.829518730452925 ], [ -70.834668868036744, -32.829398390278008 ], [ -70.833871036503695, -32.829320393718653 ], [ -70.83302010645248, -32.829243243272465 ], [ -70.832064903556372, -32.829257232065565 ], [ -70.831167402145908, -32.829494524898543 ], [ -70.830166448950663, -32.829867714830229 ], [ -70.82810691024487, -32.830390830277807 ], [ -70.827208462908416, -32.830583114627252 ], [ -70.826098613239495, -32.830823473064044 ], [ -70.82514338968214, -32.830837409524833 ], [ -70.82407838301387, -32.830673628987114 ], [ -70.823068227476881, -32.830598732140757 ], [ -70.822219121005716, -32.830611100092327 ], [ -70.821636265303283, -32.830664432098885 ], [ -70.82090150538464, -32.831078445110414 ], [ -70.820015836583082, -32.831898116248198 ], [ -70.819119183182252, -32.832180009656561 ], [ -70.818429281535614, -32.832190037444953 ], [ -70.817635000144548, -32.832291196141036 ], [ -70.816686231880809, -32.832618675465888 ], [ -70.8153128021345, -32.832952308335145 ], [ -70.813932986264845, -32.832972393174131 ], [ -70.812816686692187, -32.832898878821993 ], [ -70.811914452058474, -32.832912020892564 ], [ -70.810510308912612, -32.833044350286109 ], [ -70.809767381511378, -32.833055098068449 ], [ -70.808702371249879, -32.83289126048107 ], [ -70.808062839039536, -32.832766038956464 ], [ -70.807480776549525, -32.832864066780317 ], [ -70.807168771888414, -32.833182274148193 ], [ -70.806961069716621, -32.833409356746522 ], [ -70.806537407160633, -32.833460320744678 ], [ -70.806163131284038, -32.833331258791468 ], [ -70.805466867768573, -32.833027605511816 ], [ -70.80460875119509, -32.832591817575128 ], [ -70.80359133188071, -32.832158247427031 ], [ -70.802893274429636, -32.831764985787935 ], [ -70.802139401056664, -32.831237987294962 ], [ -70.801441357080293, -32.830844717806102 ], [ -70.800217165350446, -32.830683098369107 ], [ -70.799471452273551, -32.830559285270425 ], [ -70.79851621703807, -32.83057301872234 ], [ -70.797402666310205, -32.83063393909368 ], [ -70.796348531053525, -32.831007624689548 ], [ -70.794822128095802, -32.831656932677355 ], [ -70.793768869594828, -32.832075356766154 ], [ -70.79271199896813, -32.832314587237931 ], [ -70.79122596450263, -32.832335868609398 ], [ -70.79026899641697, -32.832259945100596 ], [ -70.788698494263642, -32.832035935460901 ], [ -70.787530910769732, -32.832052620036457 ], [ -70.786409250051463, -32.831710088936589 ], [ -70.785289393150293, -32.83145721410235 ], [ -70.78400762839388, -32.831072099256396 ], [ -70.782727666556255, -32.83077663724022 ], [ -70.781554810849954, -32.830524337196181 ], [ -70.780598674604263, -32.830493173094723 ], [ -70.778840171231607, -32.830159632888893 ], [ -70.777130409547993, -32.829601366099091 ], [ -70.775847811154989, -32.829171331390413 ], [ -70.774509536079009, -32.828607680076132 ], [ -70.773113723909077, -32.827820745424873 ], [ -70.772298941166596, -32.826891101149592 ], [ -70.771915035350133, -32.826269055197024 ], [ -70.771272925873262, -32.826009287977818 ], [ -70.77034120673531, -32.825865619706455 ], [ -70.769065714016207, -32.825794037989212 ], [ -70.76789828772749, -32.825810535018881 ], [ -70.767856820595654, -32.825811120801504 ], [ -70.766783871023662, -32.825826200173857 ], [ -70.76654249730008, -32.827039726464477 ], [ -70.766395700904567, -32.827669208417156 ], [ -70.766143674958343, -32.828345095037228 ], [ -70.765739517522121, -32.829381606319153 ], [ -70.765433577387498, -32.83001333090526 ], [ -70.765338898549814, -32.830597303995141 ], [ -70.765246080123063, -32.831270869123848 ], [ -70.764938270594357, -32.831813074097496 ], [ -70.764100647287449, -32.832407522045322 ], [ -70.762898623283874, -32.833365650975438 ], [ -70.762166297799638, -32.833913830276643 ], [ -70.761595760694703, -32.834594119668665 ], [ -70.761361377660648, -32.83616601574257 ], [ -70.761700115286303, -32.837192053765961 ], [ -70.76218942133336, -32.83776787338293 ], [ -70.762654259967022, -32.838455967726603 ], [ -70.763039044335827, -32.839122801904431 ], [ -70.763049674998882, -32.839660441709654 ], [ -70.762955860340512, -32.840289246243344 ], [ -70.762437515353582, -32.840924031459309 ], [ -70.762080175415022, -32.841646092567153 ], [ -70.761881192291398, -32.842321224480429 ], [ -70.761703366289325, -32.844071635784978 ], [ -70.761721074778521, -32.844967725328871 ], [ -70.761945747024342, -32.845592044026326 ], [ -70.762010372724205, -32.846173769786446 ], [ -70.762237794713087, -32.846932439956049 ], [ -70.762305880723417, -32.847693428835264 ], [ -70.762105115342266, -32.848278891598305 ], [ -70.761580430944377, -32.848599912254507 ], [ -70.760843551001642, -32.848924063663347 ], [ -70.760162345945304, -32.849381820743169 ], [ -70.759686809274925, -32.85084509843486 ], [ -70.759593933355987, -32.851518660870397 ], [ -70.759288678635926, -32.852195208871755 ], [ -70.759039189532075, -32.853005510834045 ], [ -70.75868177862661, -32.853727563451109 ], [ -70.758161560652326, -32.8542727388391 ], [ -70.757692599649829, -32.854727499616729 ], [ -70.757493556339057, -32.855402550880804 ], [ -70.757292743347179, -32.855988007301512 ], [ -70.756932571020542, -32.856575701813753 ], [ -70.756786552566055, -32.857250080997183 ], [ -70.75675471986564, -32.858326106627651 ], [ -70.756717502663406, -32.859133422517175 ], [ -70.755993672546836, -32.860129470508198 ], [ -70.755369013742651, -32.860765795005307 ], [ -70.754742489137627, -32.861312301217858 ], [ -70.754460684938067, -32.861831730913458 ], [ -70.754212890955145, -32.862731545200177 ], [ -70.754122612964039, -32.863539531028451 ], [ -70.75407831164749, -32.863988321838761 ], [ -70.754092428672166, -32.86470522509228 ], [ -70.754077077362282, -32.864730338569736 ], [ -70.753732290481523, -32.865292984839776 ], [ -70.753526051665318, -32.86560950575209 ], [ -70.753436647734986, -32.866462325884463 ], [ -70.753612784005995, -32.867311421796529 ], [ -70.753685232235355, -32.868296437505521 ], [ -70.753687878672181, -32.868430866008723 ], [ -70.753803257388952, -32.870244384426812 ], [ -70.753821698005112, -32.871185236770003 ], [ -70.753776597187951, -32.871589192092998 ], [ -70.753522599439691, -32.872175388198471 ], [ -70.752685412714015, -32.872814679625172 ], [ -70.752265136806656, -32.873044580620984 ], [ -70.751793404501498, -32.873364892991781 ], [ -70.751636749994049, -32.873501626258026 ], [ -70.751432247621324, -32.873907740115349 ], [ -70.751766719147668, -32.874709847222277 ], [ -70.752202960812582, -32.875286369459062 ], [ -70.752640970361966, -32.875952484737333 ], [ -70.753019684814404, -32.876305799615423 ], [ -70.753404662320989, -32.876972655637431 ], [ -70.753627602614927, -32.877507316930014 ], [ -70.753572216986086, -32.878740593563684 ], [ -70.753589867084784, -32.879636683720328 ], [ -70.753440259860753, -32.880131722295879 ], [ -70.752759754592006, -32.880634278802518 ], [ -70.752231326914313, -32.880776223616152 ], [ -70.751649848329222, -32.880918837360412 ], [ -70.750697572144304, -32.881111338128569 ], [ -70.749848039871679, -32.881123303732366 ], [ -70.748678819647324, -32.881094814412364 ], [ -70.747723017574913, -32.881108177929413 ], [ -70.746773455200469, -32.88143515044132 ], [ -70.745877726166057, -32.88180628498656 ], [ -70.745037756459638, -32.882310952599497 ], [ -70.743674760645334, -32.883226306877162 ], [ -70.742630205921188, -32.884137281586476 ], [ -70.741952148561566, -32.8847741383832 ], [ -70.74090852000046, -32.88572985969487 ], [ -70.740395810145316, -32.886678183283266 ], [ -70.738357382746983, -32.88973172243854 ], [ -70.737628739457108, -32.890503799269723 ], [ -70.737485152742082, -32.891312513362095 ], [ -70.7371764116604, -32.89454375602822 ], [ -70.736683815982801, -32.896522589131422 ], [ -70.73626510224571, -32.898209002229095 ], [ -70.735967392475715, -32.899288786238102 ], [ -70.735553067907119, -32.899832327622129 ], [ -70.735190837540145, -32.900330372155224 ], [ -70.734999402061533, -32.90140867991451 ], [ -70.734720016126687, -32.903429317345221 ], [ -70.734500849655262, -32.905807741210864 ], [ -70.734299697998523, -32.90639316644728 ], [ -70.734513116150453, -32.907801943162951 ], [ -70.734887342619714, -32.908235904542046 ], [ -70.735150043246463, -32.908798489573847 ], [ -70.735326101364052, -32.909220793468535 ], [ -70.735339997403187, -32.90992838955529 ], [ -70.735102057040606, -32.910639556933113 ], [ -70.73503473819153, -32.911489838942948 ], [ -70.734967330409262, -32.912340195741265 ], [ -70.734904241726852, -32.913402904390679 ], [ -70.734501266473544, -32.914257844464167 ], [ -70.734006200428894, -32.914689388167673 ], [ -70.732761619637031, -32.915414515127267 ], [ -70.732098666550613, -32.915848452764486 ], [ -70.731102887651431, -32.916428482358228 ], [ -70.730360245016172, -32.917075852135611 ], [ -70.729951790039635, -32.917647739284746 ], [ -70.729882955732663, -32.918427333815501 ], [ -70.729649170078289, -32.919350771122545 ], [ -70.729407117228348, -32.91984950066017 ], [ -70.729081167120768, -32.920349537206874 ], [ -70.728756501604039, -32.920920334691942 ], [ -70.728683613200204, -32.921487574609174 ], [ -70.728302562229729, -32.923474804349283 ], [ -70.728321827499315, -32.924465516792182 ], [ -70.728235061920969, -32.924571629048877 ], [ -70.728912581189718, -32.925246994394101 ], [ -70.729343403318524, -32.925773129631665 ], [ -70.729981925822443, -32.926163400929305 ], [ -70.730613547468408, -32.926198983147913 ], [ -70.730980609873271, -32.926149496036793 ], [ -70.731553724244762, -32.925875505644726 ], [ -70.731916466651441, -32.925604430973848 ], [ -70.732385255177405, -32.925376212125364 ], [ -70.732698814822271, -32.925283206594649 ], [ -70.733115914286785, -32.925100031145035 ], [ -70.734000841079904, -32.924644314883494 ], [ -70.734835808068496, -32.924322346555122 ], [ -70.735464043065832, -32.92418063514868 ], [ -70.735984493703768, -32.923907283363725 ], [ -70.736454993520354, -32.923767758011138 ], [ -70.736932335804454, -32.923982843386931 ], [ -70.737359731758758, -32.92433160838074 ], [ -70.738102592684655, -32.924676057422325 ], [ -70.738630843394219, -32.924801695843165 ], [ -70.739320210543255, -32.925102553373755 ], [ -70.739847597073521, -32.925183868632409 ], [ -70.74048008020381, -32.925263718739693 ], [ -70.741060018178189, -32.925344371060099 ], [ -70.741691633535936, -32.925379823915449 ], [ -70.742170043018575, -32.925639349121312 ], [ -70.742438866562281, -32.925945978106782 ], [ -70.742658708566822, -32.926430678914173 ], [ -70.742822525342035, -32.926738697823943 ], [ -70.743358534800706, -32.92726339006196 ], [ -70.743838608861594, -32.92761147105751 ], [ -70.744429005920821, -32.928223982913515 ], [ -70.744961639510663, -32.928571324979778 ], [ -70.745596763687914, -32.928784172122064 ], [ -70.746285311573388, -32.929040598220617 ], [ -70.74697482245287, -32.929341335778055 ], [ -70.747664248890715, -32.929642070805173 ], [ -70.748404574770873, -32.929853431520911 ], [ -70.749245641320243, -32.929841658735619 ], [ -70.749819504886673, -32.92961197827249 ], [ -70.750392576139035, -32.929337829708764 ], [ -70.751072404976384, -32.929150913790544 ], [ -70.751966013088406, -32.929138386916627 ], [ -70.752807071552951, -32.929126590662328 ], [ -70.753704178603016, -32.92929139124233 ], [ -70.75481682742236, -32.929719206294259 ], [ -70.755402059168702, -32.930065763621222 ], [ -70.755987293609991, -32.930412244946105 ], [ -70.756465679736465, -32.930671567648524 ], [ -70.756994778455635, -32.930841517299974 ], [ -70.757571343256132, -32.930744750623425 ], [ -70.758041754139498, -32.930605071685108 ], [ -70.758827638977621, -32.930460950053593 ], [ -70.759353231572248, -32.930453623592349 ], [ -70.759929790084541, -32.930356772045194 ], [ -70.760398438473331, -32.93012845160343 ], [ -70.760812864551539, -32.92981223581338 ], [ -70.761278957233344, -32.929450887932603 ], [ -70.76169856389582, -32.929400642615612 ], [ -70.761964034926891, -32.929529885948092 ], [ -70.762233026455561, -32.92983654216534 ], [ -70.762661427624678, -32.930229605643667 ], [ -70.762985697882669, -32.930668392630068 ], [ -70.763310765844651, -32.931151643300957 ], [ -70.763582403810148, -32.931591170640388 ], [ -70.763800615372446, -32.931987197721476 ], [ -70.76422991395853, -32.932424572103066 ], [ -70.764605870583026, -32.932818295109662 ], [ -70.765138519444221, -32.933165549018682 ], [ -70.765671259035258, -32.933512724660737 ], [ -70.76636351067468, -32.933946375259389 ], [ -70.767107351662531, -32.934334961610936 ], [ -70.767423389759273, -32.934485789343583 ], [ -70.767447228351955, -32.934499416226409 ], [ -70.76780870772734, -32.934692745986418 ], [ -70.76817526258408, -32.93487248393609 ], [ -70.768568686949294, -32.935011130770626 ], [ -70.768782163491721, -32.935057756982324 ], [ -70.769100168000605, -32.935179516698852 ], [ -70.770049650424994, -32.935400566660313 ], [ -70.771552912781004, -32.935528055100093 ], [ -70.772861872236021, -32.935419351870578 ], [ -70.773552800657015, -32.935310322804334 ], [ -70.773890601339815, -32.934935678179173 ], [ -70.774482380007967, -32.934512431654234 ], [ -70.775132692001719, -32.934304822421836 ], [ -70.776311639183959, -32.934030958317095 ], [ -70.777190629011358, -32.933815580707972 ], [ -70.778010212350722, -32.933420624140446 ], [ -70.778514412465185, -32.932912977072299 ], [ -70.778774252856067, -32.932422253654195 ], [ -70.778910981832198, -32.932289537245893 ], [ -70.779153238599719, -32.931988420662158 ], [ -70.77937639808259, -32.931683142628131 ], [ -70.779579667966772, -32.931369060870047 ], [ -70.779770409047671, -32.931046217516943 ], [ -70.779940118771151, -32.930710078781011 ], [ -70.780169577240798, -32.930404635736707 ], [ -70.780458003820655, -32.930139061703244 ], [ -70.780753264783172, -32.929882327391319 ], [ -70.781050885619976, -32.929621052554609 ], [ -70.781367694471214, -32.929373024606221 ], [ -70.78174235303014, -32.929205291893595 ], [ -70.78215657249585, -32.929131782673196 ], [ -70.782579115750991, -32.929067166771738 ], [ -70.783004118593368, -32.929015961399685 ], [ -70.783427887150552, -32.928951325809699 ], [ -70.783847884580169, -32.928882160910817 ], [ -70.784268139826281, -32.928804052034529 ], [ -70.784688848721615, -32.92875297619792 ], [ -70.785113190403962, -32.92876494139766 ], [ -70.785534252337186, -32.928849133561123 ], [ -70.785937294065803, -32.928965128472292 ], [ -70.78635021726258, -32.929058374427214 ], [ -70.786771877473782, -32.929119944948283 ], [ -70.787189524012319, -32.929199673880049 ], [ -70.78760402375238, -32.929288459714364 ], [ -70.788014152290302, -32.929386319765769 ], [ -70.788414495479827, -32.929520372079374 ], [ -70.788805833956928, -32.929672580284375 ], [ -70.789209142485205, -32.929784053948289 ], [ -70.789633602745155, -32.929832129066639 ], [ -70.790064865946761, -32.929843904869209 ], [ -70.790488656961827, -32.929810865060695 ], [ -70.790908297760268, -32.929737175385952 ], [ -70.791320469965484, -32.929627611522058 ], [ -70.791724398331297, -32.929509003389434 ], [ -70.792126296504577, -32.929367963804303 ], [ -70.792509346226538, -32.929204659292161 ], [ -70.792853833070026, -32.929005853326636 ], [ -70.793151232022936, -32.928735539983272 ], [ -70.793402724369869, -32.928447784264613 ], [ -70.793560729045183, -32.928111870904544 ], [ -70.793608796997717, -32.927745912866065 ], [ -70.793518499243689, -32.92739546254618 ], [ -70.793414449180943, -32.927040703162007 ], [ -70.793491606379035, -32.926692355261302 ], [ -70.793687277414207, -32.92636942094731 ], [ -70.793968283011495, -32.926090327267701 ], [ -70.794336948010837, -32.92592264337501 ], [ -70.794765783964536, -32.925875923373432 ], [ -70.795177246500657, -32.925784384944095 ], [ -70.795587570871291, -32.925697293656285 ], [ -70.79601369121788, -32.925650608974912 ], [ -70.796440887746201, -32.925639886741081 ], [ -70.796868100444186, -32.92564726412067 ], [ -70.797294456149388, -32.925677259224692 ], [ -70.797722292278181, -32.925698144949884 ], [ -70.798150834482783, -32.925723598548942 ], [ -70.798576732945506, -32.925730989493971 ], [ -70.7990010952891, -32.925679739211617 ], [ -70.799418511858903, -32.925597040018253 ], [ -70.799774014742709, -32.925411576746811 ], [ -70.800185721620579, -32.925310929936572 ], [ -70.800599448809507, -32.925214834328287 ], [ -70.801011249112165, -32.925123197945219 ], [ -70.801417596641045, -32.925004598100358 ], [ -70.801826236670507, -32.924904063931862 ], [ -70.802250774185595, -32.924861814045691 ], [ -70.802679433171178, -32.924824083052506 ], [ -70.803108010410085, -32.924795291094533 ], [ -70.803530243746451, -32.924820818848445 ], [ -70.803945693904112, -32.924904955196745 ], [ -70.80434481897808, -32.925043555823386 ], [ -70.804720851061077, -32.925213961163209 ], [ -70.805085605694003, -32.925407061633777 ], [ -70.80544423830824, -32.925604829853214 ], [ -70.805790360085538, -32.925816298991258 ], [ -70.806128694367615, -32.926032385252192 ], [ -70.806493455288731, -32.926225482428563 ], [ -70.806880422563665, -32.926373189532761 ], [ -70.807269936562435, -32.926525438591177 ], [ -70.807646943317508, -32.92669581996455 ], [ -70.808003225938975, -32.926898122206872 ], [ -70.808349186019512, -32.927114018076622 ], [ -70.808689717580791, -32.92732563365567 ], [ -70.80903244462462, -32.927546081940733 ], [ -70.809374902173857, -32.927757519294737 ], [ -70.809705212703832, -32.92799181305044 ], [ -70.810010833936531, -32.928235402286738 ], [ -70.810299052107226, -32.928506210274598 ], [ -70.81060030662934, -32.928758875481172 ], [ -70.810924319969189, -32.928997689808966 ], [ -70.811218054694038, -32.929259476186701 ], [ -70.811544340771533, -32.929489242012174 ], [ -70.811902657178805, -32.929691503183406 ], [ -70.812277594215473, -32.929870987399468 ], [ -70.812669130321936, -32.930009522943564 ], [ -70.813081382477179, -32.930102762519752 ], [ -70.81349932456142, -32.930191410976192 ], [ -70.813905459189584, -32.930298182888556 ], [ -70.814308376052381, -32.930423175455175 ], [ -70.814711642359839, -32.930548087168994 ], [ -70.815131127749765, -32.930600654100886 ], [ -70.815558301820175, -32.930635008559612 ], [ -70.815986330188451, -32.930646813660537 ], [ -70.816415600926746, -32.9306766268679 ], [ -70.816842554909925, -32.930665912783006 ], [ -70.817256299166857, -32.930583280830994 ], [ -70.817664223239063, -32.930464605367177 ], [ -70.818061791532671, -32.930327978871716 ], [ -70.818444981391821, -32.930173680236408 ], [ -70.818819646238964, -32.929996823528022 ], [ -70.819190892098121, -32.929815583526135 ], [ -70.819563277021061, -32.929638757769446 ], [ -70.819938032598017, -32.929466477479103 ], [ -70.820312081200854, -32.92928969928024 ], [ -70.820687888705024, -32.929121908351959 ], [ -70.821067809594865, -32.928953982140037 ], [ -70.821452556234433, -32.92879507191838 ], [ -70.82185002571336, -32.928658509196396 ], [ -70.822258391756691, -32.92855783818176 ], [ -70.822669991735026, -32.92845261364085 ], [ -70.823081868394482, -32.92836090219501 ], [ -70.823495935146582, -32.928269232878243 ], [ -70.823910875959484, -32.928177475248106 ], [ -70.824328463209184, -32.928103777426763 ], [ -70.824747184132789, -32.928025555516534 ], [ -70.825167673839204, -32.927965260010481 ], [ -70.825588678280269, -32.927895941277562 ], [ -70.826013752987862, -32.927862689619907 ], [ -70.826440489578744, -32.927829411559557 ], [ -70.826867597173845, -32.927814154241425 ], [ -70.827294525105884, -32.92779439022349 ], [ -70.827722404353807, -32.927765598478111 ], [ -70.828150732759369, -32.927745811829155 ], [ -70.828578447615598, -32.927726032715825 ], [ -70.829003322897208, -32.927751360566333 ], [ -70.829208462175487, -32.927775396796072 ], [ -70.82965466975017, -32.927768863327543 ], [ -70.831089274767336, -32.927892135056709 ], [ -70.832209766777396, -32.927893735810848 ], [ -70.833100136462832, -32.927925816486379 ], [ -70.834508154042524, -32.927643540525274 ], [ -70.836085463629118, -32.927155960004434 ], [ -70.83731716257978, -32.926732029310052 ], [ -70.83807779757187, -32.926121083782569 ], [ -70.838469744208439, -32.925664426478967 ], [ -70.838805033201723, -32.925492596897215 ], [ -70.839155432756371, -32.925289072177989 ], [ -70.839455586842263, -32.925036637597813 ], [ -70.83970444982036, -32.924739817687708 ], [ -70.83996636711619, -32.924447384512234 ], [ -70.840226803988429, -32.924163986756184 ], [ -70.840462965686726, -32.923867425570641 ], [ -70.840583015642963, -32.923513914308543 ], [ -70.840673644875352, -32.923165342897796 ], [ -70.840859927617515, -32.922833461740709 ], [ -70.841136943796613, -32.922576858547352 ], [ -70.841560768947659, -32.922484912533236 ], [ -70.841959659561383, -32.922479032436968 ], [ -70.842308728711103, -32.922681341304433 ], [ -70.842649157864429, -32.92290623647272 ], [ -70.842984355229561, -32.923144875070385 ], [ -70.84329870808682, -32.92338367363589 ], [ -70.84361465275876, -32.923631533634683 ], [ -70.8439303261395, -32.923870385177736 ], [ -70.844249764359574, -32.924109178769136 ], [ -70.844575161104942, -32.924347883493922 ], [ -70.844906321441172, -32.924572983293977 ], [ -70.845236356188352, -32.924807111301313 ], [ -70.845556321719513, -32.925041387987108 ], [ -70.84585740286677, -32.925298474905638 ], [ -70.846140462911109, -32.925569349189054 ], [ -70.84643061156136, -32.925835535634775 ], [ -70.846736942463139, -32.926083603661411 ], [ -70.84704888424217, -32.926336021682253 ], [ -70.847368426666833, -32.926574731709685 ], [ -70.84769461842123, -32.926804476609192 ], [ -70.848031929522207, -32.927033909504708 ], [ -70.848383050424047, -32.92724067698294 ], [ -70.848750169422786, -32.927424673641461 ], [ -70.849129874716965, -32.927590382201757 ], [ -70.849516400020789, -32.92774697450789 ], [ -70.849909037461813, -32.927889955980099 ], [ -70.85030551789562, -32.928023865792206 ], [ -70.850602535064525, -32.928101473190694 ], [ -70.850713785124242, -32.928130559642256 ], [ -70.851126250180215, -32.928232683352597 ], [ -70.851531728139904, -32.92834842949739 ], [ -70.851914934168732, -32.928505137331904 ], [ -70.852280756000212, -32.928693575430316 ], [ -70.852650251042874, -32.928877450689583 ], [ -70.853042973823833, -32.929011408016791 ], [ -70.853454219865966, -32.929113542020225 ], [ -70.85386258860423, -32.929224729870711 ], [ -70.854267286826243, -32.929340478487553 ], [ -70.854672680344308, -32.929451708276403 ], [ -70.85476722263806, -32.929481851381077 ], [ -70.855078612851514, -32.929571942091336 ], [ -70.85548680192673, -32.929678547365455 ], [ -70.855900399758269, -32.929767190969088 ], [ -70.856320718784758, -32.929842067397736 ], [ -70.856745089213192, -32.929871814525256 ], [ -70.857171381138002, -32.929897098784096 ], [ -70.857599404116385, -32.929908762233673 ], [ -70.858027689402817, -32.92992041964979 ], [ -70.858455617159763, -32.929927575753837 ], [ -70.858882939452215, -32.929939244477332 ], [ -70.859311124127316, -32.929941886452248 ], [ -70.859739921453468, -32.929944517871242 ], [ -70.860168909222452, -32.929956231831767 ], [ -70.860593792588901, -32.929976945391552 ], [ -70.861016999699046, -32.930047328632078 ], [ -70.861391277372263, -32.930077806304084 ], [ -70.861647802979761, -32.930137077210532 ], [ -70.8618048033386, -32.930116711276156 ], [ -70.861805153681559, -32.930116705998245 ], [ -70.861816189484827, -32.93011654162914 ], [ -70.862179618204365, -32.93026893202687 ], [ -70.862758273384529, -32.930675140015381 ], [ -70.863484902651535, -32.931336164886723 ], [ -70.864489990792009, -32.932011131014299 ], [ -70.865111234201478, -32.932249872475133 ], [ -70.865321032142816, -32.932273779307998 ], [ -70.865756005386544, -32.932298830658105 ], [ -70.866182989014135, -32.93231055335449 ], [ -70.86661089970309, -32.93229965399135 ], [ -70.867039045750673, -32.932270724228054 ], [ -70.867464444750098, -32.932223731626252 ], [ -70.867887472197168, -32.932172267207918 ], [ -70.868310121453504, -32.932102854509353 ], [ -70.868396366907305, -32.93208804503243 ], [ -70.869059474503956, -32.931884266317802 ], [ -70.869854546412469, -32.931507107754285 ], [ -70.870184917129549, -32.931245135763632 ], [ -70.870473110147444, -32.931060408151758 ], [ -70.870841304429561, -32.930847514461412 ], [ -70.871418325574226, -32.930870418879422 ], [ -70.872342820460659, -32.931131620660189 ], [ -70.873236022534201, -32.93163686523534 ], [ -70.874505315979519, -32.932618819450276 ], [ -70.875665338353656, -32.933395021210202 ], [ -70.876464390697208, -32.933775321750538 ], [ -70.876923781946985, -32.93419677287325 ], [ -70.877617933523211, -32.93468694888184 ], [ -70.878211599551761, -32.935210030299771 ], [ -70.879153943962905, -32.935525064217465 ], [ -70.879865980098145, -32.9359111571478 ], [ -70.880184705954207, -32.936064167099396 ], [ -70.880895625483546, -32.936206764946448 ], [ -70.881740507177938, -32.936473600186304 ], [ -70.882092419495521, -32.936617165421076 ], [ -70.88299806143911, -32.936865049413001 ], [ -70.883502014516878, -32.937150605687314 ], [ -70.88418582828082, -32.937460337883444 ], [ -70.884682411579988, -32.937930845631932 ], [ -70.885470745225561, -32.938541307761383 ], [ -70.885901808102844, -32.938710633130022 ], [ -70.886615515104495, -32.938780975495021 ], [ -70.887692159447269, -32.938787242772861 ], [ -70.888224980784997, -32.93846357834078 ], [ -70.888477539432159, -32.938247874524627 ], [ -70.88849888430164, -32.938233958715024 ], [ -70.888837155701665, -32.937998932135855 ], [ -70.88918220848376, -32.937786262474013 ], [ -70.889526901041421, -32.937569089117254 ], [ -70.889870803081635, -32.937351928043967 ], [ -70.890215686980468, -32.937143838439972 ], [ -70.89057231994488, -32.936944581373965 ], [ -70.890910420665008, -32.93671849223049 ], [ -70.891242213415183, -32.936492497504588 ], [ -70.891579443667794, -32.936270999419484 ], [ -70.891933696995039, -32.936067194906634 ], [ -70.892310437848792, -32.935899177081993 ], [ -70.892686124978709, -32.93573117326298 ], [ -70.893046065540005, -32.935527280049094 ], [ -70.893407955445468, -32.93533687590142 ], [ -70.89378459478958, -32.935164347351936 ], [ -70.894166853994136, -32.935000746684736 ], [ -70.894558271522982, -32.934864045015466 ], [ -70.894958190707698, -32.934731720553792 ], [ -70.895367427218517, -32.934617279552306 ], [ -70.895780838200494, -32.93453431955384 ], [ -70.896201335991719, -32.934446819191535 ], [ -70.896629468564569, -32.934368139964462 ], [ -70.896768078612908, -32.934344093462776 ], [ -70.89705594554232, -32.934294064293304 ], [ -70.897475860326935, -32.934269661152484 ], [ -70.897877610278186, -32.934317637327318 ], [ -70.898250544970082, -32.934501322964465 ], [ -70.898623780597589, -32.934703102966317 ], [ -70.899016775568086, -32.934841415314125 ], [ -70.899417103486243, -32.934966168491897 ], [ -70.899818578553024, -32.93509533659185 ], [ -70.900226226842435, -32.935201801761572 ], [ -70.900640849651708, -32.935290206862071 ], [ -70.901057224175787, -32.935378584732341 ], [ -70.901474018213122, -32.935457866967567 ], [ -70.901892391488687, -32.935537197383923 ], [ -70.902318101305212, -32.935562261380674 ], [ -70.902746245556131, -32.935578274318473 ], [ -70.903087228969994, -32.935586600079922 ], [ -70.903884301426672, -32.935569947802293 ], [ -70.904639216845354, -32.935626114074331 ], [ -70.905255945322196, -32.935648329662058 ], [ -70.906046680164522, -32.93578956581284 ], [ -70.906618765964993, -32.935911527331058 ], [ -70.907023922327824, -32.936207433686675 ], [ -70.907188599689064, -32.936516097094248 ], [ -70.907232348541726, -32.937309108857519 ], [ -70.90732437285773, -32.938281648512692 ], [ -70.907394762148456, -32.938524077787186 ], [ -70.907477993754469, -32.938878976580924 ], [ -70.907528734194983, -32.939234446167404 ], [ -70.907593899782327, -32.939404849050675 ], [ -70.907962499204643, -32.940914252667525 ], [ -70.908018162412915, -32.94187389891097 ], [ -70.908238832664139, -32.943124103109284 ], [ -70.908472555436447, -32.943574738813183 ], [ -70.908575265212775, -32.944024199201415 ], [ -70.909211167331037, -32.945049595756338 ], [ -70.91000972470286, -32.945481028480089 ], [ -70.910803428477195, -32.94569067175869 ], [ -70.911858584220042, -32.945822430263817 ], [ -70.912735198901842, -32.945809008666046 ], [ -70.91352094809433, -32.945649068053953 ], [ -70.914300409978154, -32.945193557921108 ], [ -70.914909287179412, -32.944962366633696 ], [ -70.915518076345791, -32.944731248620236 ], [ -70.915956462289259, -32.944724450290735 ], [ -70.916155656516992, -32.94583053418193 ], [ -70.916632254097721, -32.947597784978733 ], [ -70.917529724067165, -32.948545243132905 ], [ -70.918599294177042, -32.949342071420787 ], [ -70.920121511883877, -32.950797503700969 ], [ -70.922101495788127, -32.95313315078171 ], [ -70.922735931855854, -32.954084542392231 ], [ -70.924370112884716, -32.956647329304339 ], [ -70.924558311733392, -32.957235899023445 ], [ -70.924754529842588, -32.958194105570108 ], [ -70.925212133444944, -32.959074255766581 ], [ -70.925231374460026, -32.959961236563764 ], [ -70.925475719810549, -32.963136894128262 ], [ -70.925683104877052, -32.964612515266602 ], [ -70.926502779844569, -32.966004739633782 ], [ -70.92792977702959, -32.967091698857843 ], [ -70.928258569406736, -32.967323918299989 ], [ -70.928481340817399, -32.967613626117085 ], [ -70.929192194769712, -32.968197806567098 ], [ -70.930538511564123, -32.968844411560106 ], [ -70.931402228235072, -32.969142228229686 ], [ -70.932773539753953, -32.969675537046221 ], [ -70.933885937943316, -32.970199468053714 ], [ -70.934700199662942, -32.970619704005031 ], [ -70.93472325312807, -32.970623853554343 ], [ -70.936018353374877, -32.971072755862025 ], [ -70.93678106347528, -32.971399065227345 ], [ -70.937361942884081, -32.971786851644836 ], [ -70.938210217515305, -32.972418565092767 ], [ -70.939186181375959, -32.972876819773319 ], [ -70.939738166473632, -32.973012528924883 ], [ -70.940554407181821, -32.973035970301616 ], [ -70.941272689303219, -32.973024803148533 ], [ -70.941854068175317, -32.972961609756673 ], [ -70.943238776270022, -32.972768742759811 ], [ -70.944051469531161, -32.972706444489511 ], [ -70.944319399251157, -32.972666219822429 ], [ -70.944742911788509, -32.972614558134566 ], [ -70.945171058734374, -32.972594368535894 ], [ -70.945601669759085, -32.972578646419677 ], [ -70.946027886225423, -32.972558409334411 ], [ -70.946445121335543, -32.972484306880915 ], [ -70.946753143764994, -32.972358123511292 ], [ -70.9467540133342, -32.97235781452445 ], [ -70.946832513513598, -32.972320464031426 ], [ -70.947144547819121, -32.972085616255761 ], [ -70.947317442070286, -32.971916547747902 ], [ -70.947853336544597, -32.97166247072132 ], [ -70.948790286572461, -32.970390893665893 ], [ -70.949647632391418, -32.969490237066694 ], [ -70.95007305025544, -32.968892128556142 ], [ -70.951016529238814, -32.967916165629411 ], [ -70.952222906478241, -32.966936086664141 ], [ -70.952909669411284, -32.966259856430099 ], [ -70.953697228709075, -32.966173658169829 ], [ -70.954049557844968, -32.966242095992762 ], [ -70.954325673912166, -32.966829313773772 ], [ -70.954692747995139, -32.967562935212321 ], [ -70.956308452475255, -32.969238219577583 ], [ -70.957560537792986, -32.970327644880776 ], [ -70.958806038459699, -32.97112142801975 ], [ -70.960321201696587, -32.972206696447159 ], [ -70.961920836214617, -32.973142789196622 ], [ -70.9629845529021, -32.973643654075794 ], [ -70.964399009605742, -32.974138991389871 ], [ -70.965815206346107, -32.974708235912836 ], [ -70.967583706171226, -32.975345789220647 ], [ -70.96838108046181, -32.975702901947841 ], [ -70.969616989816231, -32.97605309070741 ], [ -70.971031605521702, -32.976548348944888 ], [ -70.972083818383652, -32.976531731512956 ], [ -70.973131183936346, -32.976293328180304 ], [ -70.974526075333117, -32.975901592358191 ], [ -70.975578279211916, -32.975885020020343 ], [ -70.977158359202818, -32.975933882446689 ], [ -70.978743388012631, -32.976204499872679 ], [ -70.97890024553935, -32.976222625306903 ], [ -70.978923018730114, -32.976225884599017 ], [ -70.979849788150844, -32.976193090463035 ], [ -70.980677597363268, -32.976148413642377 ], [ -70.981644589749166, -32.976178133131718 ], [ -70.982799384826677, -32.976457447763423 ], [ -70.983769669538106, -32.977041766407133 ], [ -70.98442605324486, -32.977640007371093 ], [ -70.984916177657126, -32.97813273222463 ], [ -70.985631576186478, -32.978680529198584 ], [ -70.985803105896721, -32.979290979663027 ], [ -70.985840470422644, -32.979718724570525 ], [ -70.98602684479296, -32.98001340894217 ], [ -70.98624802888051, -32.980167691422849 ], [ -70.986533297882161, -32.980154139400639 ], [ -70.986739705581613, -32.9799930529908 ], [ -70.98693683907409, -32.979660720490706 ], [ -70.987492325804752, -32.979052144448886 ], [ -70.987827003943622, -32.978889014605251 ], [ -70.988375501781391, -32.978672906057945 ], [ -70.989080179816114, -32.978557957517822 ], [ -70.98960145690414, -32.978500078522359 ], [ -70.990148731236474, -32.97822975750465 ], [ -70.990637011407472, -32.97806867738052 ], [ -70.991308513760444, -32.977850595461085 ], [ -70.992736960826335, -32.977421995983384 ], [ -70.993862591199829, -32.977115385755944 ], [ -70.994652880477787, -32.977008125542532 ], [ -70.995840401181098, -32.97694400658127 ], [ -70.997024572066721, -32.976731216602296 ], [ -70.998203453671962, -32.976283940672324 ], [ -70.998537672771732, -32.976039599094925 ], [ -70.999042722692451, -32.975842166748144 ], [ -70.999659676646431, -32.975593294818907 ], [ -71.000735252892312, -32.97557606227042 ], [ -71.001470876990268, -32.975564270704822 ], [ -71.002259772981205, -32.975691395259226 ], [ -71.002550377077313, -32.975736379025371 ], [ -71.003402633940183, -32.975866912603117 ], [ -71.003579920953086, -32.975931738465945 ], [ -71.00414513015005, -32.976143630579877 ], [ -71.005279944000719, -32.976265182232375 ], [ -71.007996581472241, -32.976221515263575 ], [ -71.009126441114091, -32.976108699972905 ], [ -71.010313932173005, -32.976044444711434 ], [ -71.010937729492824, -32.976079536613163 ], [ -71.011616752541357, -32.976068522824676 ], [ -71.012582051602948, -32.976197319631432 ], [ -71.013153561583351, -32.976427094597362 ], [ -71.01422594701333, -32.976755464839393 ], [ -71.013809523980228, -32.975593383743607 ], [ -71.013724870341107, -32.974354805821214 ], [ -71.013693483205074, -32.972972269730633 ], [ -71.013496722513452, -32.971783150560881 ], [ -71.013241294647258, -32.970499602126836 ], [ -71.012941267223823, -32.969741368299331 ], [ -71.012411707668889, -32.968843808634873 ], [ -71.011587470158048, -32.967426396942521 ], [ -71.011222227739935, -32.966287637017835 ], [ -71.011087430141657, -32.965336060992215 ], [ -71.011185401304871, -32.964666859502934 ], [ -71.01145530821681, -32.964090188905864 ], [ -71.011783701741976, -32.963607951093834 ], [ -71.011989356653231, -32.962698539596154 ], [ -71.01194728854847, -32.960839224811984 ], [ -71.012027956362672, -32.959407229524786 ], [ -71.012227115556101, -32.958211798280509 ], [ -71.012146835814121, -32.957163821119671 ], [ -71.012021773258567, -32.956641311279753 ], [ -71.011503197404608, -32.95622036813625 ], [ -71.010932275820736, -32.95599116321786 ], [ -71.009899292295742, -32.955340094540389 ], [ -71.008126999783485, -32.954510158584448 ], [ -71.0070428581014, -32.954098362238163 ], [ -71.006357797475829, -32.953823245589064 ], [ -71.005560733104005, -32.953597574235722 ], [ -71.005412349385381, -32.953572844755946 ], [ -71.005312038110873, -32.952600093378933 ], [ -71.005112131519127, -32.951267978170975 ], [ -71.005797741015314, -32.949063120334934 ], [ -71.006785275176824, -32.947711931770257 ], [ -71.008003414956605, -32.946547777747952 ], [ -71.00888752158788, -32.945627460323763 ], [ -71.00954986561652, -32.944901381582696 ], [ -71.010325275200117, -32.944173627817449 ], [ -71.011272392360354, -32.943538405188477 ], [ -71.012544745467537, -32.942277886942847 ], [ -71.013326502546889, -32.941836063598593 ], [ -71.01416050564319, -32.941202717199694 ], [ -71.015447931582528, -32.940609625898766 ], [ -71.016225328239514, -32.939977032157387 ], [ -71.016664690651695, -32.939397689943831 ], [ -71.01676160449783, -32.938680702004405 ], [ -71.016806185190418, -32.938155382374092 ], [ -71.01713779827756, -32.937816252708203 ], [ -71.017641212366158, -32.937569648528324 ], [ -71.018251098375472, -32.937035196002746 ], [ -71.018694766412835, -32.936646527273147 ], [ -71.01902103452403, -32.936068930467414 ], [ -71.019458105333939, -32.935394241088915 ], [ -71.019788613493276, -32.935007397988571 ], [ -71.020227925599812, -32.934427896555832 ], [ -71.020489927337266, -32.933517559792151 ], [ -71.02075083941827, -32.932559516278175 ], [ -71.020848802496644, -32.931890307138922 ], [ -71.021061897255095, -32.931314536317664 ], [ -71.021502272068616, -32.930782811597332 ], [ -71.022116516703676, -32.930439021184903 ], [ -71.022957947969076, -32.930139273573481 ], [ -71.024191843300613, -32.929690063061734 ], [ -71.025030000206797, -32.929247256203794 ], [ -71.025919194895835, -32.928565141425999 ], [ -71.026748722585381, -32.927741037456791 ], [ -71.0274607461442, -32.926727937267174 ], [ -71.028467383878549, -32.926234649048475 ], [ -71.029422890405229, -32.925980730988634 ], [ -71.030261073362539, -32.925537889730379 ], [ -71.030526216508534, -32.924770508317188 ], [ -71.030564263754087, -32.923959092661789 ], [ -71.030488091109575, -32.923101883870508 ], [ -71.030353265663521, -32.922150325538183 ], [ -71.030286321411921, -32.920458381113185 ], [ -71.030309038907134, -32.918979590274638 ], [ -71.030347087949309, -32.918168174305052 ], [ -71.030711021522052, -32.914299316634818 ], [ -71.030691507419135, -32.913441184734459 ], [ -71.030613172529726, -32.912488708061908 ], [ -71.030584951056753, -32.911249217938568 ], [ -71.030559821585001, -32.910152703246091 ], [ -71.03026466752199, -32.908369086905857 ], [ -71.029972267693651, -32.907944612956094 ], [ -71.029836390320398, -32.906945344887994 ], [ -71.029762422141587, -32.906183397604558 ], [ -71.029348396711967, -32.90537947041858 ], [ -71.028825619437427, -32.904767982287304 ], [ -71.028694110571422, -32.90395931788165 ], [ -71.028583276431661, -32.901576589757696 ], [ -71.028622343265056, -32.900812881143843 ], [ -71.029051655325858, -32.899804435645592 ], [ -71.029426493547831, -32.898892175363763 ], [ -71.031062426291527, -32.895026510003461 ], [ -71.031434050341417, -32.893971270079234 ], [ -71.031702457066842, -32.89334693137161 ], [ -71.032140324682402, -32.892719838820867 ], [ -71.032795568427062, -32.891707633706027 ], [ -71.033056334082673, -32.890749566811053 ], [ -71.033209453719493, -32.890031725321151 ], [ -71.034344876627912, -32.887771824146505 ], [ -71.034784877742268, -32.88723998872009 ], [ -71.03555741181863, -32.886416685116863 ], [ -71.036214665992887, -32.88549980602513 ], [ -71.036704642183139, -32.884681098495165 ], [ -71.036854538664713, -32.883820205963133 ], [ -71.037063067286567, -32.883053732573856 ], [ -71.037507399178907, -32.882712715510586 ], [ -71.038069170523315, -32.882560532175354 ], [ -71.038316325804047, -32.882246441330551 ], [ -71.038417307221778, -32.881720194524071 ], [ -71.038346576571257, -32.881101372448825 ], [ -71.03804559064541, -32.8802955526292 ], [ -71.037515273810683, -32.879350369284751 ], [ -71.037046871560293, -32.878642577188501 ], [ -71.03569624554747, -32.876423144416158 ], [ -71.035167067776527, -32.875525583033287 ], [ -71.034627008712562, -32.874151391391237 ], [ -71.034433528668345, -32.873105336033824 ], [ -71.034360744469083, -32.872391168526605 ], [ -71.034272030444882, -32.869745666013472 ], [ -71.034080746781541, -32.868795022976798 ], [ -71.033875312855841, -32.867224557452872 ], [ -71.033747099010284, -32.866558940231826 ], [ -71.033451652994827, -32.865991492601403 ], [ -71.033320179163098, -32.865182827389724 ], [ -71.033309296971737, -32.864706126772099 ], [ -71.03340485166683, -32.863941494460207 ], [ -71.033556846612896, -32.86317594405125 ], [ -71.034023964272436, -32.861356138105549 ], [ -71.034291090898577, -32.860684090846107 ], [ -71.034703836228914, -32.858960541733445 ], [ -71.034638010379851, -32.857316216257985 ], [ -71.034841064668342, -32.856311358239623 ], [ -71.034877990816412, -32.855452377109586 ], [ -71.035196172293411, -32.854541020865973 ], [ -71.035687091714735, -32.853769952165791 ], [ -71.037565993589936, -32.851927147656617 ], [ -71.038619456906773, -32.851051526844685 ], [ -71.03928307115325, -32.850420731529383 ], [ -71.03954912429262, -32.849700965069729 ], [ -71.039478424184836, -32.849082140646722 ], [ -71.039454423895378, -32.848033325543689 ], [ -71.039555372973751, -32.847507151142459 ], [ -71.039771534580566, -32.847074398720544 ], [ -71.039986514004468, -32.846593940505038 ], [ -71.040194946506574, -32.845827462289556 ], [ -71.040180761209939, -32.84520771576981 ], [ -71.040111237895147, -32.844636521001881 ], [ -71.039700622470363, -32.84397558713674 ], [ -71.039224771389627, -32.842934139726417 ], [ -71.038751202029729, -32.841988100793117 ], [ -71.03867833338883, -32.841273859341797 ], [ -71.038817259644134, -32.839936261116435 ], [ -71.039080020458002, -32.839073523520689 ], [ -71.039290625984805, -32.83840238604332 ], [ -71.039507772145157, -32.838017269620572 ], [ -71.039837941639618, -32.837630457059383 ], [ -71.039998572090525, -32.837246261135391 ], [ -71.040102780256746, -32.8368630583496 ], [ -71.039861643688397, -32.836199285970977 ], [ -71.039627054940155, -32.835821607498929 ], [ -71.039333778356095, -32.835349510357474 ], [ -71.039184134301109, -32.834622261622734 ], [ -71.039154246453307, -32.834658430859122 ], [ -71.03863292444953, -32.83507022426393 ], [ -71.038162474040277, -32.835391572722237 ], [ -71.037161475929295, -32.835721633317029 ], [ -71.035893952165083, -32.836011106242964 ], [ -71.034626596385834, -32.836300637853135 ], [ -71.033519376085763, -32.836632397103052 ], [ -71.031582564315741, -32.837828986568269 ], [ -71.030796710918693, -32.83828996108894 ], [ -71.029956812179194, -32.838706815708427 ], [ -71.028638335073737, -32.839086804308174 ], [ -71.027423921505758, -32.839375331869803 ], [ -71.026469739095802, -32.839435708813582 ], [ -71.025196016956144, -32.839456260890955 ], [ -71.023604039677622, -32.839482021550857 ], [ -71.022912130296334, -32.839403525141456 ], [ -71.022091159958165, -32.839484099400487 ], [ -71.021145094725114, -32.839902759824042 ], [ -71.0204051587138, -32.840049095326528 ], [ -71.019137597220336, -32.840338401682565 ], [ -71.016386256032774, -32.840741380460976 ], [ -71.015320776850686, -32.840579247695253 ], [ -71.01430646840214, -32.840326742287736 ], [ -71.013070653370832, -32.839674345083594 ], [ -71.012049283265824, -32.839108174627796 ], [ -71.011019753763094, -32.83818359679033 ], [ -71.010632062446049, -32.837472842735671 ], [ -71.010390544093696, -32.836177062042488 ], [ -71.009897850499712, -32.835512688249317 ], [ -71.009411224127149, -32.835117205008174 ], [ -71.008505033312943, -32.834952528117782 ], [ -71.007652864484953, -32.834831746202056 ], [ -71.006960080144594, -32.834708403844147 ], [ -71.006267211362569, -32.834585058295708 ], [ -71.005730442827499, -32.834324821760973 ], [ -71.005557214403055, -32.833700078114724 ], [ -71.005273766286493, -32.832897946626353 ], [ -71.004887240982683, -32.832231997141356 ], [ -71.0040150531986, -32.831215147694159 ], [ -71.003251005506741, -32.830286248497941 ], [ -71.002594084607452, -32.829400474402362 ], [ -71.002061284829281, -32.82865632943961 ], [ -71.001991363560833, -32.828558598911187 ], [ -71.001103126475883, -32.825637402110573 ], [ -71.000302996153991, -32.823095704264645 ], [ -70.999930389347199, -32.820681627426104 ], [ -70.999450799478254, -32.818224412704218 ], [ -70.999232409151219, -32.816771389347274 ], [ -70.998993134790439, -32.815565156881661 ], [ -70.998604729312746, -32.814809598668099 ], [ -70.997896891903153, -32.814014147966162 ], [ -70.997140169972425, -32.813398849695176 ], [ -70.996594534167158, -32.812735260559812 ], [ -70.996263168116741, -32.812158014780145 ], [ -70.995712712849993, -32.811270425337462 ], [ -70.995223191207259, -32.810740393957289 ], [ -70.994791767207218, -32.810433582268701 ], [ -70.994042102441384, -32.810131840153169 ], [ -70.993079103066918, -32.809788645426522 ], [ -70.99209120059615, -32.809513068366329 ], [ -70.991388639890516, -32.808941715711704 ], [ -70.990687994393113, -32.808459794801209 ], [ -70.989983277730801, -32.807798778915135 ], [ -70.989222578958334, -32.807004188864475 ], [ -70.988676221805903, -32.806295878518441 ], [ -70.988236858495384, -32.805630561652997 ], [ -70.98769333283272, -32.805056585909789 ], [ -70.987097907004525, -32.804528275995722 ], [ -70.986451310442803, -32.804090315622965 ], [ -70.985863783500889, -32.803920408289862 ], [ -70.985118184510029, -32.803797775804583 ], [ -70.984476585276212, -32.803583948906265 ], [ -70.983832086280685, -32.803235556691561 ], [ -70.983131527919838, -32.802753663737782 ], [ -70.982431064780414, -32.802271765151453 ], [ -70.981459244848182, -32.801525312701905 ], [ -70.980388413503633, -32.801094108377548 ], [ -70.97953271249996, -32.80079395346241 ], [ -70.978681982773082, -32.800717787795641 ], [ -70.977514935573396, -32.800736229301386 ], [ -70.97660823900766, -32.800526473276705 ], [ -70.975274201284876, -32.800188995264769 ], [ -70.97393819086173, -32.799761845364429 ], [ -70.972870382348106, -32.799464988751666 ], [ -70.972281830428471, -32.799250186413666 ], [ -70.967684066853082, -32.798896773901454 ], [ -70.966093320266495, -32.798879803710562 ] ] ] } },
{ "type": "Feature", "properties": { "capa": "ds19", "popup": "<strong>BARRIO NORTE ETAPA II</strong><br><br><strong>Programa:</strong> DS19<br><strong>Comuna:</strong> Llaillay<br><strong>Región:</strong> Vaparaíso<br><strong>Año de inicio:</strong> 2016", "etiqueta": "BARRIO NORTE ETAPA II" }, "geometry": { "type": "Polygon", "coordinates": [ [ [ -70.946283843199311, -32.839037918380761 ], [ -70.945083169363613, -32.838848306844767 ], [ -70.944707617879303, -32.840525049908486 ], [ -70.94594732531074, -32.840697250357159 ], [ -70.946283843199311, -32.839037918380761 ] ] ] } },
{ "type": "Feature", "properties": { "capa": "ds19", "popup": "<strong>BARRIO NORTE 3</strong><br><br><strong>Programa:</strong> DS19<br><strong>Comuna:</strong> Llaillay<br><strong>Región:</strong> Vaparaíso<br><strong>Año de inicio:</strong> 2018", "etiqueta": "BARRIO NORTE 3" }, "geometry": { "type": "Polygon", "coordinates": [ [ [ -70.947055580470021, -32.839171557966232 ], [ -70.946283387753468, -32.839047648018386 ], [ -70.945961806153107, -32.840697249602428 ], [ -70.946313986168661, -32.840752494873584 ], [ -70.946497687152686, -32.839846300377609 ], [ -70.947725005918045, -32.840035562595318 ], [ -70.947507473482105, -32.839896710464586 ], [ -70.947262986197742, -32.839636915182247 ], [ -70.947131148548351, -32.839439867533983 ], [ -70.947036868562634, -32.839274190302049 ], [ -70.947055580470021, -32.839171557966232 ] ] ] } },
{ "type": "Feature", "properties": { "capa": "ds19", "popup": "<strong>BARRIO NORTE 4</strong><br><br><strong>Programa:</strong> DS19<br><strong>Comuna:</strong> Llaillay<br><strong>Región:</strong> Vaparaíso<br><strong>Año de inicio:</strong> 2019", "etiqueta": "BARRIO NORTE 4" }, "geometry": { "type": "Polygon", "coordinates": [ [ [ -70.947118504760709, -32.836711311092742 ], [ -70.947079887983278, -32.836662444991127 ], [ -70.946453088493797, -32.837048144697071 ], [ -70.946111375647916, -32.836675409885586 ], [ -70.944897144437945, -32.837462650248078 ], [ -70.944726793317344, -32.83730123985368 ], [ -70.94427499642498, -32.837598037997971 ], [ -70.944100364832067, -32.838272224783267 ], [ -70.945131426860669, -32.838423829740123 ], [ -70.945227096540108, -32.837964345078205 ], [ -70.94532793512569, -32.837771655549837 ], [ -70.947118504760709, -32.836711311092742 ] ] ] } },
{ "type": "Feature", "properties": { "capa": "colegios", "popup": "<strong>ESCUELA LAS PENAS</strong><br><br><strong>Dirección:</strong> CALLE PRINCIPAL LAS PENAS 0", "etiqueta": "" }, "geometry": { "type": "Point", "coordinates": [ -70.924004, -32.871288 ] } },
{ "type": "Feature", "properties": { "capa": "colegios", "popup": "<strong>ESCUELA BASICA EL PORVENIR</strong><br><br><strong>Dirección:</strong> PRINCIPAL EL PORVENIR 0", "etiqueta": "" }, "geometry": { "type": "Point", "coordinates": [ -70.951187, -32.86417 ] } },
{ "type": "Feature", "properties": { "capa": "colegios", "popup": "<strong>ESCUELA JORGE PRIETO LETELIER</strong><br><br><strong>Dirección:</strong> EX-ASENTAMIENTO SANTA TERESA 0", "etiqueta": "" }, "geometry": { "type": "Point", "coordinates": [ -70.915558, -32.850899 ] } },
{ "type": "Feature", "properties": { "capa": "colegios", "popup": "<strong>ESCUELA LAS PALMAS</strong><br><br><strong>Dirección:</strong> LAS PALMAS 0", "etiqueta": "" }, "geometry": { "type": "Point", "coordinates": [ -70.981567, -32.850231 ] } },
{ "type": "Feature", "properties": { "capa": "colegios", "popup": "<strong>ESCUELA ESPECIAL DE LENGUAJE CUMBRES DE LLAY LLAY</strong><br><br><strong>Dirección:</strong> DOCTOR HERMOSILLA 85", "etiqueta": "" }, "geometry": { "type": "Point", "coordinates": [ -70.95267, -32.84272 ] } },
{ "type": "Feature", "properties": { "capa": "colegios", "popup": "<strong>LICEO BICENTENARIO LICEO POLITECNICO LLAY LLAY</strong><br><br><strong>Dirección:</strong> SAN FRANCISCO 29", "etiqueta": "" }, "geometry": { "type": "Point", "coordinates": [ -70.955391, -32.842529 ] } },
{ "type": "Feature", "properties": { "capa": "colegios", "popup": "<strong>COLEGIO LEONARDO DA VINCI</strong><br><br><strong>Dirección:</strong> MANUEL MONTT 20", "etiqueta": "" }, "geometry": { "type": "Point", "coordinates": [ -70.961983, -32.842468 ] } },
{ "type": "Feature", "properties": { "capa": "colegios", "popup": "<strong>ESCUELA NACIONES UNIDAS</strong><br><br><strong>Dirección:</strong> LETELIER VALDES 0", "etiqueta": "" }, "geometry": { "type": "Point", "coordinates": [ -70.943367, -32.8424 ] } },
{ "type": "Feature", "properties": { "capa": "colegios", "popup": "<strong>ESC.PARTICULAR MARIA LETELIER DE PRIETO</strong><br><br><strong>Dirección:</strong> ALCALDE JORGE PRIETO 98", "etiqueta": "" }, "geometry": { "type": "Point", "coordinates": [ -70.956673, -32.84219 ] } },
{ "type": "Feature", "properties": { "capa": "colegios", "popup": "<strong>ESCUELA DE LENGUAJE ALIWEN</strong><br><br><strong>Dirección:</strong> MANUEL MONTT 156", "etiqueta": "" }, "geometry": { "type": "Point", "coordinates": [ -70.96196, -32.841454 ] } },
{ "type": "Feature", "properties": { "capa": "colegios", "popup": "<strong>ESCUELA HEROES DE IQUIQUE</strong><br><br><strong>Dirección:</strong> PASAJE HUASCAR 151", "etiqueta": "" }, "geometry": { "type": "Point", "coordinates": [ -70.971649, -32.840912 ] } },
{ "type": "Feature", "properties": { "capa": "colegios", "popup": "<strong>ESCUELA LAS VEGAS</strong><br><br><strong>Dirección:</strong> CAMINO PRINCIPAL LAS VEGAS 0", "etiqueta": "" }, "geometry": { "type": "Point", "coordinates": [ -71.000076, -32.840858 ] } },
{ "type": "Feature", "properties": { "capa": "colegios", "popup": "<strong>ESC. ESP. DE LENGUAJE AMANECER DE COLORES</strong><br><br><strong>Dirección:</strong> PASAJE LUIS FERNANDEZ 1152", "etiqueta": "" }, "geometry": { "type": "Point", "coordinates": [ -70.96478, -32.8408 ] } },
{ "type": "Feature", "properties": { "capa": "colegios", "popup": "<strong>COLEGIO ESPECIAL BRILLO DE LUNA</strong><br><br><strong>Dirección:</strong> AVENIDA BALMACEDA 991", "etiqueta": "" }, "geometry": { "type": "Point", "coordinates": [ -70.9623, -32.83996 ] } },
{ "type": "Feature", "properties": { "capa": "colegios", "popup": "<strong>ESCUELA ELISA LATTAPIAT VARGAS</strong><br><br><strong>Dirección:</strong> BALMACEDA 1050", "etiqueta": "" }, "geometry": { "type": "Point", "coordinates": [ -70.963219, -32.839821 ] } },
{ "type": "Feature", "properties": { "capa": "colegios", "popup": "<strong>ESCUELA AGUSTIN EDWARDS</strong><br><br><strong>Dirección:</strong> CALLE EDWARDS 501", "etiqueta": "" }, "geometry": { "type": "Point", "coordinates": [ -70.949463, -32.83913 ] } },
{ "type": "Feature", "properties": { "capa": "colegios", "popup": "<strong>COLEGIO CUMBRES DE LLAY LLAY</strong><br><br><strong>Dirección:</strong> AGUSTIN EDWARDS 669", "etiqueta": "" }, "geometry": { "type": "Point", "coordinates": [ -70.948914, -32.838261 ] } },
{ "type": "Feature", "properties": { "capa": "colegios", "popup": "<strong>ESCUELA HERMINIA ORTEGA DE CROXATO</strong><br><br><strong>Dirección:</strong> CALLE EDWARDS 615", "etiqueta": "" }, "geometry": { "type": "Point", "coordinates": [ -70.948608, -32.837921 ] } },
{ "type": "Feature", "properties": { "capa": "colegios", "popup": "<strong>COLEGIO SALVADOR GONZALEZ</strong><br><br><strong>Dirección:</strong> CIRCUNVALACION SAN IGNACIO 2276", "etiqueta": "" }, "geometry": { "type": "Point", "coordinates": [ -70.956741, -32.837872 ] } },
{ "type": "Feature", "properties": { "capa": "colegios", "popup": "<strong>LICEO MENESIANO SAGRADO CORAZON</strong><br><br><strong>Dirección:</strong> EDWARDS 812", "etiqueta": "" }, "geometry": { "type": "Point", "coordinates": [ -70.948273, -32.837521 ] } },
{ "type": "Feature", "properties": { "capa": "colegios", "popup": "<strong>VERDOYHAM SCHOOL</strong><br><br><strong>Dirección:</strong> CIRCUNVALACION SAN IGNACIO 1100", "etiqueta": "" }, "geometry": { "type": "Point", "coordinates": [ -70.944458, -32.836609 ] } },
{ "type": "Feature", "properties": { "capa": "colegios", "popup": "<strong>ESC. ESPECIAL LENGUAJE MI PEQUEÑO MUNDO</strong><br><br><strong>Dirección:</strong> EDWARDS 468", "etiqueta": "" }, "geometry": { "type": "Point", "coordinates": [ -70.94717, -32.836597 ] } },
{ "type": "Feature", "properties": { "capa": "colegios", "popup": "<strong>ESC.TRAST. LENGUAJE RAYITO DE SOL</strong><br><br><strong>Dirección:</strong> CIRCUNVALACION UCUQUER 347", "etiqueta": "" }, "geometry": { "type": "Point", "coordinates": [ -70.951324, -32.835938 ] } },
{ "type": "Feature", "properties": { "capa": "jardines", "popup": "<strong>REMOLINO</strong><br><br><strong>Dirección:</strong> CALLE RIO CUARTO,N 525,POBLACION CORFO BIMA ", "etiqueta": "" }, "geometry": { "type": "MultiPoint", "coordinates": [ [ -70.953173, -32.838773 ] ] } },
{ "type": "Feature", "properties": { "capa": "jardines", "popup": "<strong>TRENCITO</strong><br><br><strong>Dirección:</strong> PASAJE 5 DE ABRIL N 1790,POB. JUAN CORTES ", "etiqueta": "" }, "geometry": { "type": "MultiPoint", "coordinates": [ [ -70.971711, -32.842142 ] ] } },
{ "type": "Feature", "properties": { "capa": "jardines", "popup": "<strong>LOS MENESITOS</strong><br><br><strong>Dirección:</strong> CALLE EDUARDS 812 LLAY-LLAY ", "etiqueta": "" }, "geometry": { "type": "MultiPoint", "coordinates": [ [ -70.948133, -32.83767 ] ] } },
{ "type": "Feature", "properties": { "capa": "jardines", "popup": "<strong>MAZORQUITA</strong><br><br><strong>Dirección:</strong> SANTA ROSA S/N, CAMINO EL ROBLE ", "etiqueta": "" }, "geometry": { "type": "MultiPoint", "coordinates": [ [ -70.954838, -32.876994 ] ] } },
{ "type": "Feature", "properties": { "capa": "jardines", "popup": "<strong>SEMILLITAS DE AMOR</strong><br><br><strong>Dirección:</strong> LAS PALMAS S/N ", "etiqueta": "" }, "geometry": { "type": "MultiPoint", "coordinates": [ [ -70.980802, -32.850532 ] ] } },
{ "type": "Feature", "properties": { "capa": "jardines", "popup": "<strong>LOS CAPULLITOS</strong><br><br><strong>Dirección:</strong> LETELIER VALDES S/N, POB. SANTA TERESA ", "etiqueta": "" }, "geometry": { "type": "MultiPoint", "coordinates": [ [ -70.943472, -32.842431 ] ] } },
{ "type": "Feature", "properties": { "capa": "jardines", "popup": "<strong>LAS LUCIERNAGAS</strong><br><br><strong>Dirección:</strong> LOS INSIGNIOS S/N, SANTA TERESA ", "etiqueta": "" }, "geometry": { "type": "MultiPoint", "coordinates": [ [ -70.915582, -32.852103 ] ] } },
{ "type": "Feature", "properties": { "capa": "jardines", "popup": "<strong>MIRASOL</strong><br><br><strong>Dirección:</strong> CALLE PRINCIPAL LAS PEÑAS S/N ", "etiqueta": "" }, "geometry": { "type": "MultiPoint", "coordinates": [ [ -70.949778, -32.862231 ] ] } },
{ "type": "Feature", "properties": { "capa": "jardines", "popup": "<strong>ESTACION DE LOS SUEÑOS</strong><br><br><strong>Dirección:</strong> LOTE 7,RECINTO ESTACION FERROVIARIA ", "etiqueta": "" }, "geometry": { "type": "MultiPoint", "coordinates": [ [ -70.999889, -32.840392 ] ] } },
{ "type": "Feature", "properties": { "capa": "bomberos", "popup": "<strong>Cuerpo de Bomberos</strong><br><br><strong>Dirección:</strong> Balmaceda 181", "etiqueta": "" }, "geometry": { "type": "Point", "coordinates": [ -70.95440422927679, -32.84222333282144 ] } },
{ "type": "Feature", "properties": { "capa": "comisarias", "popup": "<strong>TCIA. CARRET. SAN FELIPE</strong><br><br><strong>Dirección:</strong> RUTA 5 NORTE KM 84", "etiqueta": "" }, "geometry": { "type": "Point", "coordinates": [ -70.940773, -32.851729 ] } },
{ "type": "Feature", "properties": { "capa": "comisarias", "popup": "<strong>SCOM. LLAY LLAY</strong><br><br><strong>Dirección:</strong> SAN FRANCISCO 97", "etiqueta": "" }, "geometry": { "type": "Point", "coordinates": [ -70.955269, -32.842367 ] } },
{ "type": "Feature", "properties": { "capa": "salud", "popup": "<strong>Hospital San Francisco (Llaillay)</strong><br><br><strong>Tipo de atención:</strong> Hospital<br><strong>Dirección:</strong>  76", "etiqueta": "" }, "geometry": { "type": "Point", "coordinates": [ -70.95495, -32.84277 ] } },
{ "type": "Feature", "properties": { "capa": "salud", "popup": "<strong>Centro de Salud Familiar Llay Llay</strong><br><br><strong>Tipo de atención:</strong> Centro de Salud Familiar (CESFAM)<br><strong>Dirección:</strong>  76", "etiqueta": "" }, "geometry": { "type": "Point", "coordinates": [ -70.9527, -32.84259 ] } }
]
}
