{
"type": "FeatureCollection",
"name": "5704",
"crs": { "type": "name", "properties": { "name": "urn:ogc:def:crs:OGC:1.3:CRS84" } },
"features": [
{ "type": "Feature", "properties": { "capa": "comuna", "popup": "", "etiqueta": "" }, "geometry": { "type": "Polygon", "coordinates": [ [ [ -70.741714447150869, -32.754509226361009 ], [ -70.741707528326558, -32.754515823211683 ], [ -70.74161247848464, -32.754576822903999 ], [ -70.741469512505503, -32.754668574316305 ], [ -70.741214063978049, -32.754820330195265 ], [ -70.740993877918754, -32.754948790709399 ], [ -70.740897897422229, -32.755004787344902 ], [ -70.740844969584003, -32.755034550817953 ], [ -70.740835562426341, -32.755041154429016 ], [ -70.740817707511766, -32.755049882436339 ], [ -70.740533285621453, -32.75518891094837 ], [ -70.740302872242651, -32.755280945788044 ], [ -70.739967318246357, -32.755442846613548 ], [ -70.739511988279986, -32.755645100600773 ], [ -70.738950507091431, -32.755894503667015 ], [ -70.73868208958622, -32.756013729312215 ], [ -70.738548710427779, -32.756050456342017 ], [ -70.738504382161778, -32.756093389514334 ], [ -70.738117890993934, -32.756267825050486 ], [ -70.737919950814344, -32.756357161012296 ], [ -70.737714427955424, -32.756471871389508 ], [ -70.737500274083288, -32.756650980226482 ], [ -70.737181934502772, -32.757069177201991 ], [ -70.736815148779016, -32.75754006516253 ], [ -70.736709466477407, -32.757786227320267 ], [ -70.736672330123568, -32.758067179532581 ], [ -70.73673215971813, -32.75807751559573 ], [ -70.737626262801854, -32.758232463478699 ], [ -70.738326742110957, -32.758574506423372 ], [ -70.73938891549281, -32.759673852584811 ], [ -70.73967672582836, -32.760197532973855 ], [ -70.740246566738946, -32.76095180113154 ], [ -70.74060713342601, -32.761650384732469 ], [ -70.741104156899667, -32.762229816698337 ], [ -70.741596623219891, -32.762574803990276 ], [ -70.742089090438441, -32.762919715915395 ], [ -70.742724867690868, -32.763497137800698 ], [ -70.743498249776849, -32.764014125527247 ], [ -70.744271724389307, -32.764530959928067 ], [ -70.744973510747144, -32.764931681683201 ], [ -70.746229113867528, -32.765265942562266 ], [ -70.747272078573644, -32.765368651948094 ], [ -70.74803977252725, -32.765592520667205 ], [ -70.748812143110229, -32.766050824967209 ], [ -70.749370543077347, -32.766218870872365 ], [ -70.749857324858453, -32.766270734534253 ], [ -70.750754591808644, -32.76602369088512 ], [ -70.75136986770967, -32.76554600474546 ], [ -70.752198944444942, -32.765358495002893 ], [ -70.753166755196077, -32.76516903671579 ], [ -70.753580673726177, -32.765046063750304 ], [ -70.754345014268807, -32.765093951721816 ], [ -70.7550490598896, -32.765611762610675 ], [ -70.755613308787545, -32.766072866256799 ], [ -70.756396082759807, -32.767058651480028 ], [ -70.757665581919341, -32.768096264968833 ], [ -70.758303800792731, -32.768790897124447 ], [ -70.75879875903955, -32.769253032735641 ], [ -70.759297008713574, -32.769890960863478 ], [ -70.759591890587032, -32.770766249454006 ], [ -70.760507638577565, -32.771456970036766 ], [ -70.76141878180394, -32.77191324326791 ], [ -70.762186650929038, -32.772136946727692 ], [ -70.763100120791975, -32.772710427208516 ], [ -70.764152527690044, -32.773281943936944 ], [ -70.764855535756681, -32.77374104931382 ], [ -70.765350469748981, -32.774203156956816 ], [ -70.765571376257142, -32.774845040649389 ], [ -70.765309990763967, -32.775669565887668 ], [ -70.764661353229911, -32.777965311122514 ], [ -70.764335245018827, -32.779025323448145 ], [ -70.763930536915353, -32.779617358743323 ], [ -70.762764816527351, -32.780337286051967 ], [ -70.762214306463363, -32.780579538639095 ], [ -70.761459161075962, -32.781000656313346 ], [ -70.760983843594516, -32.781535012833118 ], [ -70.760791825109266, -32.782358553173296 ], [ -70.760699260007442, -32.784705194819992 ], [ -70.760867974397584, -32.786227249830191 ], [ -70.760981937369479, -32.786723987578654 ], [ -70.761072076121721, -32.78777813641301 ], [ -70.760669617399714, -32.788487309456208 ], [ -70.760261380713786, -32.78890354290067 ], [ -70.759509620178392, -32.789500443048851 ], [ -70.759176399106892, -32.790208637998688 ], [ -70.759194954707397, -32.791146468461456 ], [ -70.759417019143953, -32.791846935558908 ], [ -70.759851834284177, -32.792778915927599 ], [ -70.760288970671112, -32.793828187248103 ], [ -70.760300523005654, -32.794414359279394 ], [ -70.760179066287662, -32.795295568520984 ], [ -70.760344421876965, -32.796641753444341 ], [ -70.760708765081475, -32.797516056985053 ], [ -70.761281344955364, -32.798387503663129 ], [ -70.761711588569128, -32.799085036031194 ], [ -70.761931382064631, -32.799668202858378 ], [ -70.762345717413012, -32.800609548168786 ], [ -70.762731682168095, -32.800481099190627 ], [ -70.761967236522565, -32.801485361363973 ], [ -70.761143631425682, -32.80196595868491 ], [ -70.760250576675858, -32.802447600693988 ], [ -70.759905852677164, -32.802569698940758 ], [ -70.758357561369223, -32.803265709505879 ], [ -70.757395122543485, -32.803748305666829 ], [ -70.756502027369493, -32.804229848167246 ], [ -70.755818320505043, -32.804767183497866 ], [ -70.755140453588282, -32.805597528384268 ], [ -70.754460182779823, -32.806310650126605 ], [ -70.753778747754751, -32.806965121869418 ], [ -70.753303253305191, -32.807499453765793 ], [ -70.752541605013448, -32.808164351948896 ], [ -70.752541089380486, -32.808164801943491 ], [ -70.752543560645819, -32.808165876343338 ], [ -70.752636474293979, -32.808237275203162 ], [ -70.753025848155559, -32.8085384370996 ], [ -70.753074405689915, -32.80859642045148 ], [ -70.753611599128149, -32.809265218386514 ], [ -70.754058833477174, -32.810765200319032 ], [ -70.754280978762097, -32.811384328806398 ], [ -70.75439799959922, -32.812041057607118 ], [ -70.754891973292487, -32.812872924535775 ], [ -70.75519539185612, -32.813504430566582 ], [ -70.755461400978049, -32.814217731967105 ], [ -70.756007072715917, -32.814656550664097 ], [ -70.756625145970744, -32.814990619431022 ], [ -70.757121412164622, -32.815768214141734 ], [ -70.757222461854312, -32.816443264990177 ], [ -70.757440577296848, -32.816909135399328 ], [ -70.758027283178592, -32.817586378997383 ], [ -70.758171809531405, -32.817652025920701 ], [ -70.758356585798822, -32.817762175182715 ], [ -70.758532001620992, -32.817872381683742 ], [ -70.758780131573815, -32.818049242524204 ], [ -70.758858208646728, -32.818215046175453 ], [ -70.758946860687161, -32.818344572489728 ], [ -70.75899053497966, -32.818429589035233 ], [ -70.759118022088131, -32.818545123048807 ], [ -70.759220124603345, -32.818611289414442 ], [ -70.759477100266778, -32.818815139942842 ], [ -70.760093736217158, -32.81917625131193 ], [ -70.7604437468013, -32.819523010033649 ], [ -70.76081658178019, -32.820099517211936 ], [ -70.76128783977488, -32.820706110927354 ], [ -70.761579349372781, -32.821590446060092 ], [ -70.761653570876504, -32.821715591998661 ], [ -70.76185742197066, -32.822051030800246 ], [ -70.762280885100637, -32.822261470548156 ], [ -70.763226158019606, -32.822717161561641 ], [ -70.764039945428763, -32.823138497890021 ], [ -70.7645831998002, -32.82363597378184 ], [ -70.765030546438652, -32.824044515659317 ], [ -70.765509840761851, -32.824484225653116 ], [ -70.766022555108592, -32.824923389200222 ], [ -70.766504460834327, -32.825304396993907 ], [ -70.767856820595654, -32.825811120801504 ], [ -70.76789828772749, -32.825810535018881 ], [ -70.769065714016207, -32.825794037989212 ], [ -70.77034120673531, -32.825865619706455 ], [ -70.771272925873262, -32.826009287977818 ], [ -70.771915035350133, -32.826269055197024 ], [ -70.772298941166596, -32.826891101149592 ], [ -70.773113723909077, -32.827820745424873 ], [ -70.774509536079009, -32.828607680076132 ], [ -70.775847811154989, -32.829171331390413 ], [ -70.777130409547993, -32.829601366099091 ], [ -70.778840171231607, -32.830159632888893 ], [ -70.780598674604263, -32.830493173094723 ], [ -70.781554810849954, -32.830524337196181 ], [ -70.782727666556255, -32.83077663724022 ], [ -70.78400762839388, -32.831072099256396 ], [ -70.785289393150293, -32.83145721410235 ], [ -70.786409250051463, -32.831710088936589 ], [ -70.787530910769732, -32.832052620036457 ], [ -70.788698494263642, -32.832035935460901 ], [ -70.79026899641697, -32.832259945100596 ], [ -70.79122596450263, -32.832335868609398 ], [ -70.79271199896813, -32.832314587237931 ], [ -70.793768869594828, -32.832075356766154 ], [ -70.794822128095802, -32.831656932677355 ], [ -70.796348531053525, -32.831007624689548 ], [ -70.797402666310205, -32.83063393909368 ], [ -70.79851621703807, -32.83057301872234 ], [ -70.799471452273551, -32.830559285270425 ], [ -70.800217165350446, -32.830683098369107 ], [ -70.801441357080293, -32.830844717806102 ], [ -70.802139401056664, -32.831237987294962 ], [ -70.802893274429636, -32.831764985787935 ], [ -70.80359133188071, -32.832158247427031 ], [ -70.80460875119509, -32.832591817575128 ], [ -70.805466867768573, -32.833027605511816 ], [ -70.806163131284038, -32.833331258791468 ], [ -70.806537407160633, -32.833460320744678 ], [ -70.806961069716621, -32.833409356746522 ], [ -70.807168771888414, -32.833182274148193 ], [ -70.807480776549525, -32.832864066780317 ], [ -70.808062839039536, -32.832766038956464 ], [ -70.808702371249879, -32.83289126048107 ], [ -70.809767381511378, -32.833055098068449 ], [ -70.810510308912612, -32.833044350286109 ], [ -70.811914452058474, -32.832912020892564 ], [ -70.812816686692187, -32.832898878821993 ], [ -70.813932986264845, -32.832972393174131 ], [ -70.8153128021345, -32.832952308335145 ], [ -70.816686231880809, -32.832618675465888 ], [ -70.817635000144548, -32.832291196141036 ], [ -70.818429281535614, -32.832190037444953 ], [ -70.819119183182252, -32.832180009656561 ], [ -70.820015836583082, -32.831898116248198 ], [ -70.82090150538464, -32.831078445110414 ], [ -70.821636265303283, -32.830664432098885 ], [ -70.822219121005716, -32.830611100092327 ], [ -70.823068227476881, -32.830598732140757 ], [ -70.82407838301387, -32.830673628987114 ], [ -70.82514338968214, -32.830837409524833 ], [ -70.826098613239495, -32.830823473064044 ], [ -70.827208462908416, -32.830583114627252 ], [ -70.82810691024487, -32.830390830277807 ], [ -70.830166448950663, -32.829867714830229 ], [ -70.831167402145908, -32.829494524898543 ], [ -70.832064903556372, -32.829257232065565 ], [ -70.83302010645248, -32.829243243272465 ], [ -70.833871036503695, -32.829320393718653 ], [ -70.834668868036744, -32.829398390278008 ], [ -70.835626835947309, -32.829518730452925 ], [ -70.837217891554374, -32.829450682838434 ], [ -70.838494293368512, -32.829566325557003 ], [ -70.839505369678676, -32.829685930288626 ], [ -70.840360928748524, -32.829987049678373 ], [ -70.840898987264367, -32.830337680022417 ], [ -70.841546952858607, -32.830865999529848 ], [ -70.842561660159134, -32.831164761361272 ], [ -70.843407059283123, -32.830973074587469 ], [ -70.843773037421442, -32.83069875511633 ], [ -70.844507592524224, -32.830284538793236 ], [ -70.845453529298169, -32.829822428944595 ], [ -70.846347283835584, -32.829405928150287 ], [ -70.847296072760599, -32.829078153154811 ], [ -70.848672090553237, -32.828878596356354 ], [ -70.849888889148289, -32.828681304414751 ], [ -70.850786327676701, -32.82844395279492 ], [ -70.851735930475343, -32.828160977897738 ], [ -70.852317816895564, -32.828062748619637 ], [ -70.8530067429718, -32.828007776258545 ], [ -70.853960989162132, -32.827948797085952 ], [ -70.854648049437529, -32.827804152146832 ], [ -70.855174033697622, -32.827572274688997 ], [ -70.855188435488259, -32.827587354517242 ], [ -70.855553852179526, -32.82796995872669 ], [ -70.856253029829787, -32.828407750833065 ], [ -70.856903780201392, -32.829070411446104 ], [ -70.857610437224693, -32.829866627105716 ], [ -70.858362743037475, -32.83030369201277 ], [ -70.85932447848235, -32.830603028654849 ], [ -70.860282485918773, -32.830723327191194 ], [ -70.86139877291501, -32.830796269672042 ], [ -70.862461026246905, -32.830825308815243 ], [ -70.863206809392409, -32.830948669399362 ], [ -70.863901453245433, -32.831162404030195 ], [ -70.864757950156431, -32.831508186014361 ], [ -70.865560590371217, -32.831809918180333 ], [ -70.866363148839326, -32.832111647056543 ], [ -70.867057635487157, -32.832325440783301 ], [ -70.867860290074972, -32.832627158095171 ], [ -70.86876334666718, -32.832658519209566 ], [ -70.869609631530025, -32.832511415197771 ], [ -70.869946588694802, -32.832125378003887 ], [ -70.870463158610704, -32.831445417672356 ], [ -70.871194856172565, -32.830896700788841 ], [ -70.872191870255278, -32.830343936103425 ], [ -70.873712933626962, -32.829469695836899 ], [ -70.874398938381873, -32.829280112931571 ], [ -70.875829867492897, -32.829169053265275 ], [ -70.878840455284958, -32.82845164775744 ], [ -70.880058110872781, -32.828298896512294 ], [ -70.881381013977645, -32.828099705577188 ], [ -70.882699954613756, -32.827721400844759 ], [ -70.884444525116336, -32.827381371255228 ], [ -70.885448989826017, -32.827187006365094 ], [ -70.88649982826557, -32.826678165456258 ], [ -70.887229399515164, -32.826039698025276 ], [ -70.887238031426733, -32.826034100644847 ], [ -70.887239548681237, -32.826035482061776 ], [ -70.88728142544484, -32.826070978430096 ], [ -70.887958205400111, -32.826899458263526 ], [ -70.888006277844227, -32.827024995290579 ], [ -70.888244252342773, -32.827341601384816 ], [ -70.888463578714337, -32.827748623295278 ], [ -70.888681739970977, -32.828187282310665 ], [ -70.889001558178421, -32.828628839295341 ], [ -70.88945624854432, -32.829104485980267 ], [ -70.890340958843481, -32.829853125280493 ], [ -70.891304442409876, -32.830370725229194 ], [ -70.893220627962648, -32.830896366398576 ], [ -70.894001145366914, -32.830947648113202 ], [ -70.894946272758816, -32.83112276719325 ], [ -70.895482014519544, -32.831313094953927 ], [ -70.896054746208705, -32.831448631724157 ], [ -70.896559328107173, -32.831580840261942 ], [ -70.896891405623307, -32.83176523412498 ], [ -70.897999364338531, -32.832835135487514 ], [ -70.89868562511333, -32.833460535110547 ], [ -70.898707896145851, -32.833487237247844 ], [ -70.898783686108047, -32.833549181404955 ], [ -70.899073669468294, -32.833905535716923 ], [ -70.899298274340467, -32.834199789449272 ], [ -70.899338950954828, -32.834244239045383 ], [ -70.899393910782237, -32.834347132200548 ], [ -70.899593811085794, -32.834438737940118 ], [ -70.89982883102536, -32.834502843937294 ], [ -70.900379660889598, -32.83437723067896 ], [ -70.900780894309563, -32.834253888444479 ], [ -70.901961882464136, -32.833996939624342 ], [ -70.903173781647624, -32.833577196127571 ], [ -70.903728371859643, -32.833365884966632 ], [ -70.904443466758408, -32.833007766754484 ], [ -70.904671141173907, -32.832850926212295 ], [ -70.905370823677345, -32.832443537446167 ], [ -70.905644173831789, -32.832425855074277 ], [ -70.906256062185889, -32.832443500460087 ], [ -70.906957796441432, -32.832725962777772 ], [ -70.907663999815526, -32.832922653204406 ], [ -70.9080679668089, -32.833083314481947 ], [ -70.908233980863301, -32.833112329478098 ], [ -70.908942259345693, -32.833250319658006 ], [ -70.909853665778442, -32.833425839529774 ], [ -70.910333546701537, -32.833355345549556 ], [ -70.910708638248408, -32.83333609863697 ], [ -70.91111794213289, -32.833320834101499 ], [ -70.911757083576077, -32.833486903622109 ], [ -70.912159773165143, -32.833616098950152 ], [ -70.912701095260388, -32.833688944703766 ], [ -70.913442430846914, -32.833858023702795 ], [ -70.913856919807245, -32.833725424546103 ], [ -70.914271417750683, -32.833597329887738 ], [ -70.915912327161038, -32.83270190981564 ], [ -70.917121917674265, -32.832309108004807 ], [ -70.918802076276037, -32.831300309680302 ], [ -70.919742321324335, -32.830844013548067 ], [ -70.921216170142998, -32.829887995870429 ], [ -70.921945587780655, -32.829565686960144 ], [ -70.922524943646749, -32.829556712635785 ], [ -70.923642845813859, -32.829679312592084 ], [ -70.924190401318882, -32.829607799619907 ], [ -70.924771097471364, -32.82957175513976 ], [ -70.925488724720935, -32.829506634092709 ], [ -70.926204038808621, -32.829504637532636 ], [ -70.926918904636992, -32.829498137578142 ], [ -70.927771408536572, -32.829466980665025 ], [ -70.930537760572562, -32.829271030635525 ], [ -70.931218943171032, -32.829264951867508 ], [ -70.931799537813887, -32.829224443091931 ], [ -70.932376135852039, -32.829274200230138 ], [ -70.93284413386057, -32.82946090568467 ], [ -70.933578871321345, -32.829769673885643 ], [ -70.934339918640148, -32.830258444091278 ], [ -70.93463288800038, -32.830565021255126 ], [ -70.935226051870686, -32.83088978426931 ], [ -70.935232146041585, -32.830880307361028 ], [ -70.936092176026605, -32.830522207053264 ], [ -70.936799027086025, -32.830166473226704 ], [ -70.937501280567801, -32.829595373405716 ], [ -70.938100506269649, -32.828982794821719 ], [ -70.938905759683593, -32.828453089524913 ], [ -70.939713643364684, -32.828052776224474 ], [ -70.940475294351373, -32.82786860563894 ], [ -70.94184465383114, -32.827459422357784 ], [ -70.943212890416802, -32.827007317878646 ], [ -70.943969827943192, -32.826607620827318 ], [ -70.944930831261104, -32.826204821721333 ], [ -70.945788895732292, -32.825760543438605 ], [ -70.946796266491887, -32.825141577782937 ], [ -70.947625690875171, -32.824220029569986 ], [ -70.947540628502608, -32.82420746445743 ], [ -70.947306051432463, -32.823875184714119 ], [ -70.946935861093777, -32.823350860799934 ], [ -70.94645878920258, -32.8225394781117 ], [ -70.946027083131554, -32.821468810283477 ], [ -70.945750416397075, -32.820481798863874 ], [ -70.945486154498369, -32.817727842636302 ], [ -70.945402201545193, -32.816220751793139 ], [ -70.945037866425523, -32.813554416964436 ], [ -70.944748953857086, -32.81200751257154 ], [ -70.944435823606938, -32.80934037860051 ], [ -70.944568134668501, -32.808390153057623 ], [ -70.945012252761813, -32.807693735640498 ], [ -70.94586544836416, -32.807034029326388 ], [ -70.946670377486299, -32.806504430989115 ], [ -70.947276908288032, -32.806236419070949 ], [ -70.947886253511541, -32.80609757525459 ], [ -70.948190457202728, -32.806006696838693 ], [ -70.948440853605035, -32.805787293963938 ], [ -70.948438032895041, -32.805658048343417 ], [ -70.948233302350204, -32.80123112591162 ], [ -70.948130254807339, -32.801331357887022 ], [ -70.947848141587301, -32.801916884698549 ], [ -70.947825716044548, -32.801963556029449 ], [ -70.947175784936491, -32.802578666930472 ], [ -70.946655000125247, -32.80303491948068 ], [ -70.945969369069502, -32.803224885338231 ], [ -70.945387769211834, -32.80332354150903 ], [ -70.944909317508362, -32.803286131776069 ], [ -70.944266918773948, -32.8030272630903 ], [ -70.943574365300606, -32.802903556419594 ], [ -70.942831747818161, -32.802915158056564 ], [ -70.942089036910915, -32.802926608678234 ], [ -70.941084989019544, -32.803121413993843 ], [ -70.940132074132464, -32.803225876740484 ], [ -70.938703709711575, -32.803427239137569 ], [ -70.938014963298414, -32.803482748458023 ], [ -70.937378412596502, -32.803492602045885 ], [ -70.935829389161597, -32.803023567031794 ], [ -70.934813674849636, -32.802680732964326 ], [ -70.932893278893118, -32.802217399768509 ], [ -70.931295976401586, -32.801973205159833 ], [ -70.929045682241821, -32.800977056606129 ], [ -70.927657831840264, -32.80059512370913 ], [ -70.926695165740767, -32.800251405125181 ], [ -70.924162413407899, -32.799685357142316 ], [ -70.923417795377318, -32.799607183477541 ], [ -70.922409965578595, -32.799622664478257 ], [ -70.921295974676227, -32.799639765914172 ], [ -70.91990896150449, -32.799302505025501 ], [ -70.919103650598373, -32.798866622625653 ], [ -70.918512505242489, -32.798517144203558 ], [ -70.917549982873467, -32.798173424381993 ], [ -70.916425430478284, -32.797697642305636 ], [ -70.915516962434836, -32.797397775704773 ], [ -70.914552455687314, -32.796964447598214 ], [ -70.913589960267728, -32.796620548096044 ], [ -70.911989048345376, -32.796196850856433 ], [ -70.91065528371044, -32.795858673018579 ], [ -70.909425596087686, -32.795429275428162 ], [ -70.908515259548423, -32.795039843608819 ], [ -70.907660791033322, -32.794783942014043 ], [ -70.906275897885678, -32.794536111377141 ], [ -70.905583454006788, -32.794412264517511 ], [ -70.903600505662098, -32.794733740417314 ], [ -70.902751778279978, -32.794746568710082 ], [ -70.901851969995874, -32.794849931244919 ], [ -70.900796736997904, -32.795134881948414 ], [ -70.899844883021174, -32.795283791453777 ], [ -70.89910412235642, -32.795384573829736 ], [ -70.898096238658781, -32.795399858475974 ], [ -70.897808706800959, -32.795415816698004 ], [ -70.896983236801532, -32.795461573200647 ], [ -70.895869281831779, -32.795478446631861 ], [ -70.894057186765934, -32.795102559892904 ], [ -70.892984915421977, -32.794580927428186 ], [ -70.891858631074939, -32.794015329658151 ], [ -70.890683164864427, -32.793629770841541 ], [ -70.889397761032811, -32.793066552549277 ], [ -70.887588576508477, -32.792824916191769 ], [ -70.885667657732469, -32.792316010656279 ], [ -70.884806656668616, -32.791746425563638 ], [ -70.883626435675296, -32.791136716963472 ], [ -70.881779097904214, -32.790335404936314 ], [ -70.880442603289126, -32.789862477792326 ], [ -70.878789815455761, -32.789483898498368 ], [ -70.876970371272563, -32.788749326568961 ], [ -70.87536410718775, -32.788056306977182 ], [ -70.873917771071291, -32.787405718237785 ], [ -70.872788961560005, -32.786705516734635 ], [ -70.871874166682005, -32.786091724886795 ], [ -70.871109048198306, -32.785027525222603 ], [ -70.870824157387418, -32.784090684541155 ], [ -70.869903779479927, -32.783208106809298 ], [ -70.869151829399996, -32.782771096493867 ], [ -70.868082656345464, -32.782383659733533 ], [ -70.867009660959411, -32.781817109819315 ], [ -70.866197268633897, -32.781022511128945 ], [ -70.865493750324177, -32.780360674209547 ], [ -70.86474371724907, -32.780013298978524 ], [ -70.863879316061883, -32.779264378018375 ], [ -70.863032836264608, -32.778610934236895 ], [ -70.862770174265421, -32.77840812215868 ], [ -70.861857314358531, -32.777703422366287 ], [ -70.860450318163302, -32.776379765979733 ], [ -70.859639053223489, -32.77562987710855 ], [ -70.858990471384985, -32.775056951707342 ], [ -70.857648731506941, -32.774314921284159 ], [ -70.856414166930492, -32.773616208204444 ], [ -70.855176743914839, -32.772782986769485 ], [ -70.85405003376637, -32.772172194968448 ], [ -70.852923252650982, -32.771561469221822 ], [ -70.852764456559882, -32.771486168306403 ], [ -70.851637549680362, -32.770953006816491 ], [ -70.850242025869633, -32.770166916780603 ], [ -70.848739556726017, -32.769337544818534 ], [ -70.847772040622317, -32.768724418728716 ], [ -70.846855659319502, -32.768020763971428 ], [ -70.845935594924043, -32.767137995119661 ], [ -70.84523334683216, -32.766520864727966 ], [ -70.843371980969607, -32.765002149109399 ], [ -70.842080721918961, -32.764124737069245 ], [ -70.84106125534403, -32.763557167446322 ], [ -70.840042632287179, -32.763034201036689 ], [ -70.839078927735201, -32.76260026059964 ], [ -70.838221351049214, -32.76216460627721 ], [ -70.837524546747943, -32.76181635474574 ], [ -70.836723640281676, -32.761559170063194 ], [ -70.835764564748359, -32.761349145641049 ], [ -70.834857633722336, -32.761093502940419 ], [ -70.833893884254621, -32.760659448040244 ], [ -70.833250253929975, -32.760310319609971 ], [ -70.832714496897879, -32.760049302043171 ], [ -70.832074457139427, -32.759879352884965 ], [ -70.831491238517614, -32.759887880983428 ], [ -70.83064372475944, -32.759945042413982 ], [ -70.829739572222607, -32.75982386016787 ], [ -70.829148931719942, -32.759473861974136 ], [ -70.828442192949936, -32.758632688547756 ], [ -70.827633100136453, -32.757972242109517 ], [ -70.826714328416699, -32.757134077084473 ], [ -70.825961889653243, -32.756652031073806 ], [ -70.824785348159324, -32.756176232422717 ], [ -70.823700291992253, -32.755778366220284 ], [ -70.823609643895253, -32.755745182985621 ], [ -70.822826639954272, -32.755061864274857 ], [ -70.822333870901801, -32.754307159420044 ], [ -70.821734172686106, -32.753509086921667 ], [ -70.821409712883579, -32.753200100681504 ], [ -70.820658335030501, -32.752762851604388 ], [ -70.819266004730594, -32.752110822482528 ], [ -70.81787113669003, -32.751324348490648 ], [ -70.816897563246343, -32.750397283732312 ], [ -70.816302489557742, -32.749823275713013 ], [ -70.815160960800341, -32.748450459398683 ], [ -70.814406838594053, -32.747878745486297 ], [ -70.813168337600047, -32.746955486053885 ], [ -70.81182466544584, -32.746078506680796 ], [ -70.809418962741915, -32.74512730764912 ], [ -70.808239852066279, -32.744516844438735 ], [ -70.807386128254549, -32.744260303407998 ], [ -70.80648396458777, -32.744228465325151 ], [ -70.805212428947485, -32.744291638272053 ], [ -70.80436503825851, -32.744348690333176 ], [ -70.803833969533898, -32.744311415981535 ], [ -70.802213752816087, -32.744177877067955 ], [ -70.800775118854887, -32.743840081808465 ], [ -70.799490968173089, -32.743275891039644 ], [ -70.798521359893073, -32.742527932649814 ], [ -70.79733434044968, -32.74151407770956 ], [ -70.796683702367503, -32.740806301500079 ], [ -70.796249676846386, -32.740319503560926 ], [ -70.795609030725117, -32.74010459924358 ], [ -70.794918932347443, -32.740069712331319 ], [ -70.794227038237509, -32.739945154208698 ], [ -70.793530656144426, -32.73959656946667 ], [ -70.792240329545038, -32.738718683461961 ], [ -70.79111446201631, -32.738107293025287 ], [ -70.790099993667639, -32.737763234070414 ], [ -70.788820557344437, -32.73742295040033 ], [ -70.787325362758011, -32.736906489893236 ], [ -70.785984856266836, -32.736163719883457 ], [ -70.784750376132038, -32.735419350790274 ], [ -70.783835804934554, -32.734760109783274 ], [ -70.782202400050053, -32.733954233088767 ], [ -70.781183552414376, -32.733386001183653 ], [ -70.78042887864251, -32.732769308695232 ], [ -70.77983513176558, -32.732239946137334 ], [ -70.77945784743109, -32.731931596461891 ], [ -70.77892329773475, -32.731715023038831 ], [ -70.778234959156705, -32.731769638550496 ], [ -70.777864798462417, -32.731819664074877 ], [ -70.777385077439448, -32.73169199993896 ], [ -70.776956539726427, -32.731474063451202 ], [ -70.776421999911562, -32.731257552393402 ], [ -70.775838860341494, -32.731265743177374 ], [ -70.775791212800513, -32.731278608578364 ], [ -70.77531134445384, -32.731407684153183 ], [ -70.774843175765412, -32.731862491040069 ], [ -70.774587808086338, -32.732359130140651 ], [ -70.774223945480514, -32.732722837594956 ], [ -70.773749462533971, -32.732863947287676 ], [ -70.773378409812594, -32.732869272448241 ], [ -70.773003717117689, -32.732695332906793 ], [ -70.772683046409043, -32.732565401515579 ], [ -70.772204126683306, -32.732482479975438 ], [ -70.771517636838112, -32.732626652761063 ], [ -70.770991078554545, -32.7328134100092 ], [ -70.770464518474355, -32.733000090544138 ], [ -70.76988136632788, -32.733008327263413 ], [ -70.768979319442082, -32.732976289443769 ], [ -70.768502259228981, -32.732983022396894 ], [ -70.767443728515602, -32.733087575043335 ], [ -70.766440009407631, -32.733281041586537 ], [ -70.765548473708961, -32.733786554760776 ], [ -70.764764875083259, -32.734380236696872 ], [ -70.764430934461231, -32.734863037972026 ], [ -70.763888327775106, -32.735647486327458 ], [ -70.763420077339987, -32.736102252689832 ], [ -70.762579779748506, -32.73651740421618 ], [ -70.762214000137845, -32.736791483805021 ], [ -70.761692599082323, -32.737246990888806 ], [ -70.760886344945149, -32.738042743488592 ], [ -70.760365016653168, -32.73849817088221 ], [ -70.759738467793639, -32.738999995039293 ], [ -70.759059830122354, -32.73954739383128 ], [ -70.758223968411741, -32.740186616793366 ], [ -70.757492260968419, -32.740734679266076 ], [ -70.756705821869787, -32.741193882956111 ], [ -70.755603000619644, -32.7417471369249 ], [ -70.754765247955362, -32.742296669232054 ], [ -70.75397869477068, -32.742755932118982 ], [ -70.752875047968814, -32.743264401006428 ], [ -70.752469350820206, -32.743472063842042 ], [ -70.752564835446705, -32.743463698886742 ], [ -70.751625139269024, -32.744223801209031 ], [ -70.750492636783591, -32.745972581325475 ], [ -70.749671885634356, -32.746610675494885 ], [ -70.748980159509387, -32.747050596151176 ], [ -70.74852574851954, -32.747360146201771 ], [ -70.748172574068946, -32.747616913278932 ], [ -70.747836808070261, -32.747883441143621 ], [ -70.747304912895601, -32.748350267575525 ], [ -70.746748736258795, -32.748917173307703 ], [ -70.746185410828957, -32.749569942798082 ], [ -70.745868124073979, -32.749937957485301 ], [ -70.745403826226124, -32.750484723953818 ], [ -70.745403680699042, -32.750485006516072 ], [ -70.745095562149857, -32.750848903665421 ], [ -70.74487036618622, -32.751115147610335 ], [ -70.744630710939788, -32.751396873352427 ], [ -70.744552156861459, -32.751488956685513 ], [ -70.744563724467355, -32.751521278718961 ], [ -70.744524951383084, -32.751560361754898 ], [ -70.744448437378736, -32.751610540114036 ], [ -70.744175396244771, -32.751930604504082 ], [ -70.743830848315852, -32.752333994723884 ], [ -70.743358944432487, -32.752886519967646 ], [ -70.743058389697978, -32.753238447132787 ], [ -70.742798836768003, -32.753526901337239 ], [ -70.742527136818737, -32.753808460043437 ], [ -70.742026271250609, -32.754251042979739 ], [ -70.741726563627424, -32.754503607100936 ], [ -70.741714447150869, -32.754509226361009 ] ] ] } },
{ "type": "Feature", "properties": { "capa": "colegios", "popup": "<strong>ESCUELA BASICA FRAY CAMILO HENRIQUEZ</strong><br><br><strong>Dirección:</strong> TRONCAL LO CAMPO 0", "etiqueta": "" }, "geometry": { "type": "Point", "coordinates": [ -70.899757, -32.80357 ] } },
{ "type": "Feature", "properties": { "capa": "colegios", "popup": "<strong>ESCUELA BASICA VINA ERRAZURIZ</strong><br><br><strong>Dirección:</strong> CALLE ANTOFAGASTA 4", "etiqueta": "" }, "geometry": { "type": "Point", "coordinates": [ -70.826927, -32.797939 ] } },
{ "type": "Feature", "properties": { "capa": "colegios", "popup": "<strong>ESCUELA EMA LOBOS REYES</strong><br><br><strong>Dirección:</strong> TRONCAL SAN ROQUE 0", "etiqueta": "" }, "geometry": { "type": "Point", "coordinates": [ -70.871262, -32.79179 ] } },
{ "type": "Feature", "properties": { "capa": "colegios", "popup": "<strong>ESCUELA INDEPENDENCIA</strong><br><br><strong>Dirección:</strong> FRANCISCO BULNES 0", "etiqueta": "" }, "geometry": { "type": "Point", "coordinates": [ -70.852287, -32.78336 ] } },
{ "type": "Feature", "properties": { "capa": "colegios", "popup": "<strong>ESCUELA ESPECIAL DE LENGUAJE ANELEY</strong><br><br><strong>Dirección:</strong> CALLE LAS CHILCAS 5", "etiqueta": "" }, "geometry": { "type": "Point", "coordinates": [ -70.84867, -32.78086 ] } },
{ "type": "Feature", "properties": { "capa": "colegios", "popup": "<strong>ESCUELA ESPECIAL DE LENGUAJE GABRIELA MISTRAL</strong><br><br><strong>Dirección:</strong> LUIS CRUZ MARTINEZ 19", "etiqueta": "" }, "geometry": { "type": "Point", "coordinates": [ -70.83342, -32.779118 ] } },
{ "type": "Feature", "properties": { "capa": "colegios", "popup": "<strong>COLEGIO ALEMAN DE SAN FELIPE</strong><br><br><strong>Dirección:</strong> RUTA 60-CH EL ESCORIAL 501", "etiqueta": "" }, "geometry": { "type": "Point", "coordinates": [ -70.74023, -32.755807 ] } },
{ "type": "Feature", "properties": { "capa": "colegios", "popup": "<strong>ESCUELA JORGE BARROS BEAUCHEF</strong><br><br><strong>Dirección:</strong> TRONCAL 850", "etiqueta": "" }, "geometry": { "type": "Point", "coordinates": [ -70.808998, -32.75423 ] } },
{ "type": "Feature", "properties": { "capa": "colegios", "popup": "<strong>LICEO BICENTENARIO COLEGIO PANQUEHUE</strong><br><br><strong>Dirección:</strong> TRONCAL 0", "etiqueta": "" }, "geometry": { "type": "Point", "coordinates": [ -70.785248, -32.742771 ] } },
{ "type": "Feature", "properties": { "capa": "jardines", "popup": "<strong>TIPITIN</strong><br><br><strong>Dirección:</strong> FRANCISCO BULNES S/N, POB. BULNES ", "etiqueta": "" }, "geometry": { "type": "MultiPoint", "coordinates": [ [ -70.851595, -32.782875 ] ] } },
{ "type": "Feature", "properties": { "capa": "jardines", "popup": "<strong>ENANITOS DEL BOSQUE</strong><br><br><strong>Dirección:</strong> PJE. LOS AROMOS S/N, VILLA EL BOSQUE ", "etiqueta": "" }, "geometry": { "type": "MultiPoint", "coordinates": [ [ -70.83373, -32.768167 ] ] } },
{ "type": "Feature", "properties": { "capa": "jardines", "popup": "<strong>SUEÑO DORADO</strong><br><br><strong>Dirección:</strong> Calle Paula Jaraquemada S/N ", "etiqueta": "" }, "geometry": { "type": "MultiPoint", "coordinates": [ [ -70.90533, -32.8008 ] ] } },
{ "type": "Feature", "properties": { "capa": "jardines", "popup": "<strong>NA</strong><br><br><strong>Dirección:</strong> NA ", "etiqueta": "" }, "geometry": { "type": "MultiPoint", "coordinates": [ [ -70.8261360002803, -32.797856999819416 ] ] } },
{ "type": "Feature", "properties": { "capa": "jardines", "popup": "<strong>NA</strong><br><br><strong>Dirección:</strong> NA ", "etiqueta": "" }, "geometry": { "type": "MultiPoint", "coordinates": [ [ -70.872535785545722, -32.792400394065965 ] ] } },
{ "type": "Feature", "properties": { "capa": "jardines", "popup": "<strong>NA</strong><br><br><strong>Dirección:</strong> NA ", "etiqueta": "" }, "geometry": { "type": "MultiPoint", "coordinates": [ [ -70.85274400040278, -32.78387500026399 ] ] } },
{ "type": "Feature", "properties": { "capa": "comisarias", "popup": "<strong>RETEN PANQUEHUE</strong><br><br><strong>Dirección:</strong> TRONCAL 1158", "etiqueta": "" }, "geometry": { "type": "Point", "coordinates": [ -70.833897271999945, -32.769539028999922 ] } },
{ "type": "Feature", "properties": { "capa": "salud", "popup": "<strong>Centro de Salud Familiar María Elena Peñaloza Morales</strong><br><br><strong>Tipo de atención:</strong> Centro de Salud Familiar (CESFAM)<br><strong>Dirección:</strong>  NA", "etiqueta": "" }, "geometry": { "type": "Point", "coordinates": [ -70.83473, -32.76792 ] } }
]
}
