{
"type": "FeatureCollection",
"name": "5706",
"crs": { "type": "name", "properties": { "name": "urn:ogc:def:crs:OGC:1.3:CRS84" } },
"features": [
{ "type": "Feature", "properties": { "capa": "comuna", "popup": "", "etiqueta": "" }, "geometry": { "type": "Polygon", "coordinates": [ [ [ -70.55843856837518, -32.572268890491927 ], [ -70.557680241155055, -32.572242234985453 ], [ -70.557329479579309, -32.572057133013161 ], [ -70.556636768002477, -32.571772600619958 ], [ -70.55587040804707, -32.571457352396806 ], [ -70.555478126338912, -32.571272832475103 ], [ -70.554768591113429, -32.571029062288495 ], [ -70.553941795200672, -32.570710116363259 ], [ -70.553503645514098, -32.570643345078359 ], [ -70.553073409985174, -32.570423155662382 ], [ -70.552858239220114, -32.570317567780478 ], [ -70.552660423906346, -32.570256910807615 ], [ -70.552401111724862, -32.570232998213307 ], [ -70.552241518828097, -32.570207925828264 ], [ -70.552062460337481, -32.57018760158865 ], [ -70.551861186509868, -32.570194595120114 ], [ -70.551474845360673, -32.570298597907858 ], [ -70.551087118110999, -32.570438674174859 ], [ -70.550944470135462, -32.570485506771817 ], [ -70.550674954888976, -32.570664761617039 ], [ -70.550384296893952, -32.570857797907856 ], [ -70.550043830909715, -32.571249764997837 ], [ -70.549758531365356, -32.571749372024627 ], [ -70.549665035608911, -32.572426975476894 ], [ -70.549436846458747, -32.572980036433442 ], [ -70.549135755430015, -32.573394052082264 ], [ -70.548855291516844, -32.573789931666632 ], [ -70.548293696242254, -32.574604085293998 ], [ -70.547760880294419, -32.575016519644848 ], [ -70.547283130175174, -32.575459823120902 ], [ -70.546780397907895, -32.576115493534651 ], [ -70.546420403447669, -32.576805389208161 ], [ -70.545565392350127, -32.578001967360052 ], [ -70.544848683178799, -32.578588072715242 ], [ -70.542525209561049, -32.579486953379217 ], [ -70.541939400197975, -32.579615985631186 ], [ -70.541274195933454, -32.579899235075246 ], [ -70.54049183967777, -32.580364279104636 ], [ -70.539790164711036, -32.580643460599262 ], [ -70.539429070712899, -32.580629856668949 ], [ -70.538649284537271, -32.581031757623251 ], [ -70.537352016655689, -32.581660987405854 ], [ -70.536682213915228, -32.582034486396921 ], [ -70.53555766511333, -32.582819411143447 ], [ -70.534729813680102, -32.583465413248369 ], [ -70.534016002473848, -32.583992754762512 ], [ -70.533870567924296, -32.584738663750073 ], [ -70.534250974802731, -32.585085728332075 ], [ -70.534728082626529, -32.585688742893616 ], [ -70.53501921403371, -32.587105768532453 ], [ -70.534994450176271, -32.589067886870581 ], [ -70.53452254539458, -32.590548320196703 ], [ -70.534191096699146, -32.59139573250765 ], [ -70.532632125320802, -32.593638070305872 ], [ -70.531171832978089, -32.594625444201661 ], [ -70.529961424099639, -32.594951411694169 ], [ -70.528906307882664, -32.595067998330691 ], [ -70.527643780548075, -32.594993140291322 ], [ -70.525947334591905, -32.59490100676819 ], [ -70.52402229883694, -32.595046219801709 ], [ -70.523042710274126, -32.595103100077104 ], [ -70.521540330063729, -32.595477598073323 ], [ -70.518964434342706, -32.596334110685888 ], [ -70.518103247327602, -32.596917233155374 ], [ -70.51782291367013, -32.597457349176693 ], [ -70.51771816651474, -32.597643484727321 ], [ -70.517611289453825, -32.597703370149326 ], [ -70.517362156981136, -32.597873294409517 ], [ -70.517338855580974, -32.597873575941271 ], [ -70.516731239614373, -32.59817853865475 ], [ -70.51632772716853, -32.59841793336625 ], [ -70.516253108609448, -32.598454891746599 ], [ -70.515487750275611, -32.598915070929692 ], [ -70.514586349278474, -32.599196598225298 ], [ -70.514074588044281, -32.599825059489326 ], [ -70.513917008272074, -32.600124655996368 ], [ -70.513706450355997, -32.600528558261423 ], [ -70.513664560117661, -32.602215722096403 ], [ -70.513825436706952, -32.602511405692894 ], [ -70.513860049693164, -32.603007078152501 ], [ -70.513948349594031, -32.603393855584848 ], [ -70.514043192823394, -32.604195439337424 ], [ -70.514045797937726, -32.605304846654207 ], [ -70.514208689448196, -32.605704246421531 ], [ -70.514255150314696, -32.605829962738945 ], [ -70.514303153588529, -32.605933122800842 ], [ -70.514358502386443, -32.605995630830044 ], [ -70.514433411999676, -32.606053321429705 ], [ -70.514506012942618, -32.606093084908935 ], [ -70.514601762572127, -32.606123405817499 ], [ -70.515420196966232, -32.606100011316855 ], [ -70.515617053777589, -32.606183346866693 ], [ -70.51611403233548, -32.606447928494063 ], [ -70.516970577755529, -32.607100514833199 ], [ -70.517321496536439, -32.607493205041017 ], [ -70.517323579729563, -32.607497687120478 ], [ -70.517524240906155, -32.607702741827033 ], [ -70.517691464991245, -32.607876501859245 ], [ -70.518067045221642, -32.608250789821376 ], [ -70.518438604592831, -32.608629705801555 ], [ -70.518616348848212, -32.608821440519264 ], [ -70.518797836383385, -32.609017710556465 ], [ -70.518798794885782, -32.60901762504804 ], [ -70.518882699329936, -32.609111334660255 ], [ -70.519143432646217, -32.609414818345478 ], [ -70.519343641071913, -32.609664947933254 ], [ -70.519467376815783, -32.609816843712579 ], [ -70.519468064925277, -32.609821343079958 ], [ -70.519767788718141, -32.61024161447682 ], [ -70.520050486741425, -32.610666673041649 ], [ -70.52032888722438, -32.611100723655227 ], [ -70.520616291521463, -32.611530156353396 ], [ -70.520933943890753, -32.611941267602425 ], [ -70.521277291670444, -32.612338397235263 ], [ -70.521603601104147, -32.612744820923524 ], [ -70.521914782010128, -32.613165096004103 ], [ -70.522225188568342, -32.613580650498662 ], [ -70.522545210693366, -32.613991653966913 ], [ -70.522888588117468, -32.614384419891906 ], [ -70.52325784420826, -32.614758693518056 ], [ -70.523641247866465, -32.615132941366653 ], [ -70.524034361414593, -32.615497908767637 ], [ -70.524437714858607, -32.615853809967504 ], [ -70.524833040058965, -32.616209808117318 ], [ -70.525225293021037, -32.616574855116724 ], [ -70.525594384720137, -32.616953704096659 ], [ -70.52595098714184, -32.617337211627913 ], [ -70.526306075004001, -32.617734257554858 ], [ -70.526657773522558, -32.618126836819712 ], [ -70.527005384706584, -32.618515030440768 ], [ -70.527348250989277, -32.61891672970323 ], [ -70.527685020406139, -32.619313994099429 ], [ -70.528011385535379, -32.619720398987653 ], [ -70.528286111908841, -32.620150040787195 ], [ -70.528557676212486, -32.62058866153216 ], [ -70.528881418261093, -32.620999602566272 ], [ -70.529224488461367, -32.621396786598531 ], [ -70.529578494751902, -32.621784820772504 ], [ -70.529938101139905, -32.622168278857629 ], [ -70.53029646875116, -32.622560839435096 ], [ -70.530664722322086, -32.622944117152954 ], [ -70.531039110488109, -32.623318376937249 ], [ -70.531416472077709, -32.623692599597071 ], [ -70.531790332932673, -32.62407137154802 ], [ -70.532135369545088, -32.624459507615079 ], [ -70.532448569863831, -32.624875074752929 ], [ -70.532949619586617, -32.625256797636347 ], [ -70.533505711781771, -32.62580926626039 ], [ -70.534013099118866, -32.626362253504176 ], [ -70.535721521414402, -32.627207263125968 ], [ -70.538215189845886, -32.627938891019184 ], [ -70.538790807822068, -32.627864229920014 ], [ -70.539372404086464, -32.627848085846857 ], [ -70.539953775772034, -32.627854477202476 ], [ -70.540532892686258, -32.627892369882169 ], [ -70.541109759320705, -32.62796198551554 ], [ -70.541683289612138, -32.628040653983405 ], [ -70.54225293918158, -32.628137396365631 ], [ -70.542824618045245, -32.628225097879039 ], [ -70.543405378876429, -32.62827204478014 ], [ -70.543982114356822, -32.628323620977135 ], [ -70.544359193875422, -32.628539907345385 ], [ -70.544931708172314, -32.628767384001819 ], [ -70.545459451333727, -32.628909699037798 ], [ -70.546008737892308, -32.629223167018544 ], [ -70.546461125876121, -32.629537751308241 ], [ -70.546905040051868, -32.629857019716894 ], [ -70.54736576709648, -32.630153469196138 ], [ -70.547867906475673, -32.630395321893523 ], [ -70.548398950945781, -32.630591668708774 ], [ -70.548931728266055, -32.630797154703707 ], [ -70.549437540856459, -32.631038880834708 ], [ -70.54993231854192, -32.631298917962631 ], [ -70.55046345194522, -32.631499761829716 ], [ -70.551021347957487, -32.631637173293655 ], [ -70.551589942006459, -32.631751840546187 ], [ -70.552163891811148, -32.631812500531566 ], [ -70.552744946391442, -32.631814254899147 ], [ -70.553327105899527, -32.631789024986674 ], [ -70.553906091659698, -32.631736787319184 ], [ -70.55448249656007, -32.631707115856578 ], [ -70.555049543710126, -32.631812846260736 ], [ -70.555557308339644, -32.632050089554362 ], [ -70.556096788888553, -32.632232777635522 ], [ -70.556648721883974, -32.632388266394415 ], [ -70.557194957763826, -32.632557419017026 ], [ -70.557728306412642, -32.632753771679305 ], [ -70.558229863683522, -32.633000021744088 ], [ -70.558719254172217, -32.633264522614837 ], [ -70.559216534564058, -32.633515475976381 ], [ -70.559763312128041, -32.633680029198025 ], [ -70.560322709225133, -32.63382188781538 ], [ -70.560887932795168, -32.633932120684882 ], [ -70.561460980691308, -32.634015136807776 ], [ -70.562038781573648, -32.634080136811541 ], [ -70.562617752960776, -32.634127090475445 ], [ -70.563203413203524, -32.634146841917492 ], [ -70.56378073618211, -32.634189303455862 ], [ -70.564337905457307, -32.634313068864316 ], [ -70.565038447648476, -32.634471249405436 ], [ -70.565535768464485, -32.634487584433806 ], [ -70.566340428990344, -32.634707484808203 ], [ -70.566739762473489, -32.634878353311692 ], [ -70.567037488413149, -32.635271561675459 ], [ -70.567280461137955, -32.635854752116984 ], [ -70.567429184419737, -32.636511381579417 ], [ -70.567542136786955, -32.636974428165047 ], [ -70.567790835373344, -32.637444867618782 ], [ -70.567947278776714, -32.637947934814996 ], [ -70.568060151193848, -32.638411129796687 ], [ -70.568287919932445, -32.638917886861307 ], [ -70.568632008822249, -32.639319451434304 ], [ -70.569103197646655, -32.639593079142756 ], [ -70.569786439183773, -32.639692854512361 ], [ -70.570483000939902, -32.639765269670498 ], [ -70.570815434188901, -32.639919008528587 ], [ -70.570982373508031, -32.640701529676299 ], [ -70.571089814710973, -32.641277468293005 ], [ -70.571065213448591, -32.641778363392305 ], [ -70.571021282237936, -32.642297528776886 ], [ -70.570653237974454, -32.642874836837393 ], [ -70.571010993832999, -32.64331235453556 ], [ -70.571607344027598, -32.643670188220916 ], [ -70.571968447008899, -32.64404899436753 ], [ -70.57232480508884, -32.644445887752831 ], [ -70.572648327050203, -32.64484769754705 ], [ -70.572945267862323, -32.645272448821693 ], [ -70.573197910052826, -32.645715711006623 ], [ -70.573425652740283, -32.646168297377862 ], [ -70.573703384876666, -32.646597795560574 ], [ -70.57404962433327, -32.64699931733503 ], [ -70.574388015209223, -32.647396428325592 ], [ -70.574712684319209, -32.647802726103706 ], [ -70.574979845979655, -32.64824136712366 ], [ -70.575202095469152, -32.648698526622297 ], [ -70.575361979420052, -32.64917006317755 ], [ -70.575378631490466, -32.649661352826499 ], [ -70.575367065681192, -32.650162158615771 ], [ -70.575393934291341, -32.650653393650551 ], [ -70.575296049366401, -32.651132599176456 ], [ -70.575000565621693, -32.651564781256447 ], [ -70.574656951042343, -32.65195685359938 ], [ -70.574326337780136, -32.652353416914409 ], [ -70.574232960601293, -32.652846086791342 ], [ -70.574343678858369, -32.653322748349005 ], [ -70.574579562078938, -32.653779810773223 ], [ -70.574823244472796, -32.654223254662014 ], [ -70.575075651304701, -32.654671020265504 ], [ -70.575323189267749, -32.655109906675612 ], [ -70.575608292081057, -32.655539159217369 ], [ -70.57600011295348, -32.655917639788463 ], [ -70.57632588699127, -32.656314903275373 ], [ -70.576837674276618, -32.656655742856998 ], [ -70.577299932948776, -32.65724967632535 ], [ -70.577308660081769, -32.657786282913037 ], [ -70.577267000710464, -32.658273797438895 ], [ -70.576939702231641, -32.658859698942564 ], [ -70.576489720834473, -32.659438052659652 ], [ -70.575756861750946, -32.659695296709565 ], [ -70.575068097371485, -32.65971295818936 ], [ -70.574509061397109, -32.659846322555325 ], [ -70.573443102514688, -32.659976878651676 ], [ -70.573109712559926, -32.660062260446203 ], [ -70.572864133822506, -32.660308870944085 ], [ -70.572528582521159, -32.660709850912909 ], [ -70.572322499113497, -32.661176961951661 ], [ -70.57229732652263, -32.661659835683722 ], [ -70.572562783180658, -32.661999271679157 ], [ -70.572772878464349, -32.662289749827188 ], [ -70.572955576928521, -32.663135241363904 ], [ -70.573027344234887, -32.6635221756638 ], [ -70.573004401262523, -32.663982558801017 ], [ -70.572945687375551, -32.664470284554042 ], [ -70.573140286720616, -32.664927866991952 ], [ -70.573267949000595, -32.665408749710721 ], [ -70.57328826440073, -32.665900066582346 ], [ -70.573292487380883, -32.666405106263362 ], [ -70.573269806716596, -32.666865411782624 ], [ -70.573262255478326, -32.667361584641981 ], [ -70.573267752269544, -32.667979286592612 ], [ -70.572498451229905, -32.667970902457547 ], [ -70.571669696091504, -32.668233906961895 ], [ -70.571446466540024, -32.668845458710706 ], [ -70.571473321675427, -32.669291623538506 ], [ -70.571507388485955, -32.669850300800547 ], [ -70.571723065002516, -32.670483545709246 ], [ -70.57174958686295, -32.670780830719977 ], [ -70.571680397721465, -32.671354397019471 ], [ -70.571699256054231, -32.67192242591382 ], [ -70.571089047549705, -32.672335931255091 ], [ -70.570248095086384, -32.672418647822141 ], [ -70.56976002332452, -32.672713358430492 ], [ -70.569329529080818, -32.672948755542173 ], [ -70.568869697656538, -32.673639957475345 ], [ -70.568630143021423, -32.673909021061824 ], [ -70.568323397996295, -32.674282661549 ], [ -70.568018380431468, -32.674620221966819 ], [ -70.567622042829782, -32.674936313893475 ], [ -70.56736894878668, -32.675385977259623 ], [ -70.567095962449955, -32.67582229237378 ], [ -70.566761728977127, -32.676223315398694 ], [ -70.566439186179423, -32.6766286980383 ], [ -70.566125525923255, -32.67704756453103 ], [ -70.56584983116592, -32.677479404297564 ], [ -70.565663680476106, -32.67794625603684 ], [ -70.565128711266539, -32.678439922053833 ], [ -70.565038104492032, -32.678955233066304 ], [ -70.565047356241138, -32.679410558416357 ], [ -70.565547347748506, -32.680121394173618 ], [ -70.565470099820601, -32.680410887177658 ], [ -70.565509901475878, -32.680879425584848 ], [ -70.56550309583929, -32.681330517550563 ], [ -70.565580595295472, -32.681681252791641 ], [ -70.565666205640383, -32.682176262912748 ], [ -70.565736093671163, -32.682671468385486 ], [ -70.56586832478267, -32.683179416428551 ], [ -70.566345713779171, -32.683299729039845 ], [ -70.567484980578683, -32.683308033103621 ], [ -70.568062546102396, -32.683436102189901 ], [ -70.568599261636891, -32.683596302268668 ], [ -70.569093158973359, -32.68376597498029 ], [ -70.569575151835664, -32.68390432002667 ], [ -70.570082200507926, -32.684096360684279 ], [ -70.570570548950869, -32.684387864058358 ], [ -70.571166356563069, -32.684763728169607 ], [ -70.571652907477144, -32.68508687385296 ], [ -70.571742129049468, -32.685820783300507 ], [ -70.571771803996569, -32.686352545124329 ], [ -70.571791265098895, -32.686929580764115 ], [ -70.571744559890632, -32.687480327913214 ], [ -70.571743634625889, -32.68788620003123 ], [ -70.571896907874617, -32.688281200700075 ], [ -70.57212932090323, -32.688630063152893 ], [ -70.572312051706774, -32.689204977009233 ], [ -70.572365338871109, -32.689677776377032 ], [ -70.572455601590832, -32.690186242512972 ], [ -70.572428643149152, -32.690736816858056 ], [ -70.572327005062974, -32.691234093971111 ], [ -70.572169516918933, -32.691700595595513 ], [ -70.572109569645079, -32.69213883065018 ], [ -70.571814736280615, -32.692661138058988 ], [ -70.57150927943961, -32.693115898346555 ], [ -70.571296168511523, -32.693565067235603 ], [ -70.571209550256867, -32.693872782983625 ], [ -70.571098349604469, -32.694293632451092 ], [ -70.571088229184483, -32.694898005360436 ], [ -70.571182182183421, -32.695253111318408 ], [ -70.571498317298222, -32.695641489525727 ], [ -70.571880313296376, -32.695893680710732 ], [ -70.572378680649692, -32.696428654389251 ], [ -70.572381118677384, -32.696433131256775 ], [ -70.572275282763869, -32.697548376068859 ], [ -70.572227526526717, -32.698054065342603 ], [ -70.573135491513625, -32.698335787188491 ], [ -70.573866611458755, -32.698488943005557 ], [ -70.574613827417139, -32.698632952277983 ], [ -70.575200052700183, -32.698814960767066 ], [ -70.575526258827622, -32.698964178014428 ], [ -70.575968253303628, -32.699242793063426 ], [ -70.576231237797998, -32.699473930038316 ], [ -70.576706617263198, -32.699797193322702 ], [ -70.577081825591051, -32.699954804424358 ], [ -70.577617941050931, -32.70007433319747 ], [ -70.578316781832953, -32.700214347791807 ], [ -70.578330807229477, -32.700236705475824 ], [ -70.578333009000261, -32.700227737759235 ], [ -70.57911319672283, -32.700411794613167 ], [ -70.579844366973617, -32.700551392912566 ], [ -70.580444543093037, -32.700611436994222 ], [ -70.581079575642093, -32.700824426474192 ], [ -70.581421756510238, -32.700941950857512 ], [ -70.582119064766374, -32.70101428237475 ], [ -70.583077081185962, -32.701182549212604 ], [ -70.584021743250531, -32.701499857900757 ], [ -70.5849813622646, -32.70175830521616 ], [ -70.58548528300301, -32.701864686018133 ], [ -70.586298072383869, -32.702057372910971 ], [ -70.58691650676144, -32.702229830887681 ], [ -70.58729237445273, -32.702428039754217 ], [ -70.588129227005112, -32.70307584695049 ], [ -70.588785122028327, -32.703532063733405 ], [ -70.589830885884879, -32.7040780558455 ], [ -70.59004416569627, -32.704228665743045 ], [ -70.590708601901227, -32.705189776374041 ], [ -70.590863291793127, -32.705697408838482 ], [ -70.591096495339215, -32.706064252384834 ], [ -70.591085004988415, -32.706091441010663 ], [ -70.591097062176146, -32.706091287564931 ], [ -70.591167713774936, -32.706433150437022 ], [ -70.591355246073647, -32.706949379289846 ], [ -70.591407166002114, -32.707151685888789 ], [ -70.591381882020144, -32.707548851556162 ], [ -70.591292423292572, -32.707973873968669 ], [ -70.591157737983707, -32.708593421286714 ], [ -70.5910837868729, -32.708991203369656 ], [ -70.591079134498031, -32.709649664387761 ], [ -70.59116357972799, -32.709837964095023 ], [ -70.591362219695199, -32.71008355357236 ], [ -70.591908540915014, -32.710748540859846 ], [ -70.592236660454006, -32.711001425550954 ], [ -70.592596643236135, -32.71121777415793 ], [ -70.59324908064383, -32.711484637623677 ], [ -70.593885909823484, -32.711787678682349 ], [ -70.595030509920846, -32.712404480770246 ], [ -70.595916905459447, -32.713092164995587 ], [ -70.59592611139449, -32.713128178827809 ], [ -70.595949631085247, -32.713118865480467 ], [ -70.596574030276315, -32.713615927945241 ], [ -70.597346156517517, -32.714251046815086 ], [ -70.59783719451643, -32.714546836220791 ], [ -70.598770534215163, -32.715134819706719 ], [ -70.599098723822763, -32.715365075053143 ], [ -70.59954352014411, -32.71579688139645 ], [ -70.599840635229384, -32.716122253195167 ], [ -70.600006593588233, -32.71633669609438 ], [ -70.600325052644664, -32.716936873172251 ], [ -70.600692960364228, -32.717604096399398 ], [ -70.601007325797909, -32.717969809450359 ], [ -70.601437014252809, -32.718469480306403 ], [ -70.602051580484769, -32.719336514749436 ], [ -70.602581064581216, -32.720132445373515 ], [ -70.602994065931398, -32.720406750678769 ], [ -70.603940740222214, -32.720845642097892 ], [ -70.604412460849275, -32.72094784872634 ], [ -70.60472110760783, -32.721002489728214 ], [ -70.605096695923066, -32.721173603614453 ], [ -70.605572910821493, -32.721550752539237 ], [ -70.605752857745955, -32.721656765115213 ], [ -70.606637349754493, -32.72220910875312 ], [ -70.607437987624493, -32.722622728839234 ], [ -70.608367451092775, -32.722967085051593 ], [ -70.609425417664141, -32.72328266873707 ], [ -70.60997856338517, -32.723410849752199 ], [ -70.61088689398639, -32.723507423912395 ], [ -70.612495107415356, -32.723788939936114 ], [ -70.612674576436078, -32.723867757582752 ], [ -70.612922642608538, -32.724139643618322 ], [ -70.613494367286265, -32.725322809270992 ], [ -70.613706024740267, -32.725577207922825 ], [ -70.613523652364535, -32.725735381083204 ], [ -70.613469523478784, -32.725869958788969 ], [ -70.613358896849846, -32.725954356359502 ], [ -70.613095540452946, -32.72629954233205 ], [ -70.613057539919808, -32.726349313981729 ], [ -70.612911597822134, -32.726807437058156 ], [ -70.612765654826106, -32.727265560803417 ], [ -70.612634878985361, -32.728570885510919 ], [ -70.612664216165925, -32.730199914013959 ], [ -70.612681822247168, -32.731177492899867 ], [ -70.612691209641881, -32.7316987110746 ], [ -70.612701773829627, -32.732285228822946 ], [ -70.61240156764147, -32.732745336753048 ], [ -70.611557077612531, -32.732951773480046 ], [ -70.610631895514899, -32.732963666855539 ], [ -70.609864393800763, -32.733169029282713 ], [ -70.609098062591457, -32.73343961366816 ], [ -70.607345826764558, -32.734635331902211 ], [ -70.606738411122265, -32.735164607692084 ], [ -70.606283991149269, -32.735626678268815 ], [ -70.606292175699821, -32.736082818484022 ], [ -70.606537469671309, -32.736861830682976 ], [ -70.606857602289111, -32.737509473938168 ], [ -70.606949985032927, -32.738355612524664 ], [ -70.607041112830274, -32.739136673717859 ], [ -70.607146282193852, -32.740699636191913 ], [ -70.607232732463544, -32.741219866280332 ], [ -70.607472286200363, -32.741673112674739 ], [ -70.607870621655223, -32.742384990102764 ], [ -70.607959507257632, -32.743035597393018 ], [ -70.608210693279077, -32.744140512732265 ], [ -70.608081006196457, -32.745510911194621 ], [ -70.608098658990102, -32.746488415070885 ], [ -70.607811261879547, -32.747665261679856 ], [ -70.607450273882648, -32.749038700560078 ], [ -70.607319241123719, -32.749288563352017 ], [ -70.607179462367199, -32.750258776601839 ], [ -70.606826437036958, -32.754428021294935 ], [ -70.607327696965484, -32.75626149349781 ], [ -70.607580305020008, -32.757268342966647 ], [ -70.607955101919472, -32.759103581838502 ], [ -70.608388323448409, -32.760432838304602 ], [ -70.609205408572961, -32.761905967667097 ], [ -70.609740659853529, -32.763382787736745 ], [ -70.610803554582532, -32.765551778162866 ], [ -70.612026385364743, -32.767959639033734 ], [ -70.611003874399316, -32.768724800185154 ], [ -70.609165424559649, -32.770132085452815 ], [ -70.608495541869146, -32.770570185866006 ], [ -70.607993383625313, -32.77091066921983 ], [ -70.607600668030869, -32.771058826171426 ], [ -70.607094214941682, -32.771160711596849 ], [ -70.607090630663677, -32.771160831695717 ], [ -70.60793529676242, -32.773238808318531 ], [ -70.602113044114816, -32.775580667741174 ], [ -70.606871540549051, -32.782646329227788 ], [ -70.610551957132699, -32.787530380652726 ], [ -70.610338677321323, -32.788028745366994 ], [ -70.610245385482443, -32.788365826988233 ], [ -70.609954072615579, -32.788747422736556 ], [ -70.609663511638615, -32.789170974224731 ], [ -70.609421868420441, -32.789552003152522 ], [ -70.609083055336313, -32.790060181408919 ], [ -70.608943688008196, -32.79060776248344 ], [ -70.608900819504512, -32.790986236555945 ], [ -70.608959651969116, -32.791489303960248 ], [ -70.608819527361206, -32.791994928517489 ], [ -70.608678817950022, -32.792458519633115 ], [ -70.608586272611149, -32.79283763073154 ], [ -70.60844471788532, -32.793259265801481 ], [ -70.608054699931671, -32.793684090880717 ], [ -70.607810769602779, -32.793939172532241 ], [ -70.607513298784653, -32.793984958490199 ], [ -70.607216670586254, -32.794072773493284 ], [ -70.607023922669015, -32.794411129540158 ], [ -70.606883869926321, -32.794916751077473 ], [ -70.606844765363689, -32.795505010669423 ], [ -70.607105490595131, -32.798944494145367 ], [ -70.607325442194124, -32.800117184455253 ], [ -70.6073345097886, -32.800620965108436 ], [ -70.607292297055082, -32.801041322667309 ], [ -70.607148547744998, -32.801337083677588 ], [ -70.606906016991346, -32.80167600481893 ], [ -70.606712497421256, -32.80197240402304 ], [ -70.606619935912704, -32.802351514577595 ], [ -70.606477604144132, -32.802731189063344 ], [ -70.606434720369109, -32.803109588128756 ], [ -70.606591400029387, -32.803527393885567 ], [ -70.606796166506811, -32.803860721490118 ], [ -70.606903170230211, -32.804279163250236 ], [ -70.60690854485054, -32.804573009994662 ], [ -70.606866330320415, -32.80499336774249 ], [ -70.606775189048307, -32.805456393510987 ], [ -70.606682623946483, -32.805835429558755 ], [ -70.606638141170237, -32.806129915209148 ], [ -70.606397196841371, -32.806552897657312 ], [ -70.606202909211717, -32.806807264366604 ], [ -70.606058391842069, -32.807060993099391 ], [ -70.605988688864244, -32.807334819294255 ], [ -70.605893766583108, -32.80758798477919 ], [ -70.605799685125078, -32.807883033158269 ], [ -70.605705515632167, -32.808178155305356 ], [ -70.605759062409618, -32.808387450831823 ], [ -70.605963922311844, -32.808720630347771 ], [ -70.606066311389611, -32.808887258520798 ], [ -70.606070087907057, -32.809097190366415 ], [ -70.605974494584416, -32.809308325209663 ], [ -70.605878059540359, -32.809477502715893 ], [ -70.605732783094297, -32.809689274640398 ], [ -70.605639367287907, -32.810026354180891 ], [ -70.60559421167352, -32.810278807577923 ], [ -70.605601762013464, -32.810698600023912 ], [ -70.605755435012512, -32.810948577373601 ], [ -70.6059105291463, -32.811282469066192 ], [ -70.606113975100271, -32.811531733567428 ], [ -70.606415951867874, -32.811737839651137 ], [ -70.60682040754476, -32.8121104231831 ], [ -70.607173672725196, -32.812399876428572 ], [ -70.607333311436008, -32.81298558173787 ], [ -70.607291184042452, -32.813406012190228 ], [ -70.607209762541729, -32.813548990932475 ], [ -70.607061843252097, -32.81380860131484 ], [ -70.607063324574, -32.813827718073384 ], [ -70.607488701115543, -32.813719112392171 ], [ -70.608055268565238, -32.813531408231029 ], [ -70.608623912919867, -32.813463885914167 ], [ -70.60933388382827, -32.813334474791574 ], [ -70.61004285491174, -32.81314485669315 ], [ -70.610465831154841, -32.812898846168991 ], [ -70.61102904339694, -32.812530670539189 ], [ -70.611879324864518, -32.812279080452285 ], [ -70.612658398676132, -32.812028403192961 ], [ -70.613644556618624, -32.811414196487583 ], [ -70.614841045203434, -32.81061676899165 ], [ -70.615685855930906, -32.81006451306537 ], [ -70.616526213709534, -32.809271665460443 ], [ -70.617649266816485, -32.808354874621493 ], [ -70.618426195451192, -32.807983903935586 ], [ -70.619062636558652, -32.807735031913374 ], [ -70.620270028894353, -32.807538982604257 ], [ -70.621333836311706, -32.807284640639992 ], [ -70.622822732809681, -32.806904346843325 ], [ -70.623675113640076, -32.806773009886498 ], [ -70.624803506333066, -32.806515952877092 ], [ -70.625098417850964, -32.806428709647875 ], [ -70.625588551246395, -32.806213695358416 ], [ -70.626468541797024, -32.805701547274552 ], [ -70.627102364315419, -32.805234338299577 ], [ -70.627784748859739, -32.804724676250046 ], [ -70.628268108957926, -32.804134330271324 ], [ -70.628996852859132, -32.803457152531436 ], [ -70.629436110168442, -32.8031594437061 ], [ -70.629825944865772, -32.80286222920936 ], [ -70.630408787991769, -32.802312177486279 ], [ -70.63089355305506, -32.8018051459878 ], [ -70.631380686975774, -32.801423317074281 ], [ -70.631772032639404, -32.801209566013512 ], [ -70.632164900049133, -32.801079209803341 ], [ -70.6327773390705, -32.800799993403814 ], [ -70.633004287647225, -32.800700466081402 ], [ -70.633071460070923, -32.80067099650681 ], [ -70.633565358305717, -32.800664553339573 ], [ -70.634158089188062, -32.800656890704381 ], [ -70.634503826486409, -32.800652377541816 ], [ -70.635144444759902, -32.80056052326956 ], [ -70.635686317522442, -32.800470028819234 ], [ -70.636173334662161, -32.800088109601013 ], [ -70.636511423704178, -32.799666389871319 ], [ -70.636947576435858, -32.7992017157638 ], [ -70.63734034143765, -32.799071418527959 ], [ -70.637686158686066, -32.79906689546857 ], [ -70.637984003203343, -32.799146415953629 ], [ -70.638332882808541, -32.799308756496131 ], [ -70.63912538463704, -32.799423544412804 ], [ -70.639520531970945, -32.799418370476211 ], [ -70.640063836648054, -32.799411254425145 ], [ -70.640753087016108, -32.799277062690855 ], [ -70.641388320787797, -32.798893181120349 ], [ -70.642018859963798, -32.798259034862248 ], [ -70.642405649372321, -32.797794989959193 ], [ -70.642793028973969, -32.797372681688728 ], [ -70.643523140111043, -32.796778894128728 ], [ -70.644059604117245, -32.796396294545282 ], [ -70.644744129346918, -32.796011822864251 ], [ -70.645626298312095, -32.79562467560207 ], [ -70.646601817506678, -32.794944302246563 ], [ -70.647187580157379, -32.794561041573175 ], [ -70.647820444173348, -32.794051998719752 ], [ -70.648502623003495, -32.793542228764814 ], [ -70.648938595173789, -32.793077516610808 ], [ -70.649275147198367, -32.792572441921571 ], [ -70.649461919522352, -32.791985775955887 ], [ -70.649698783703201, -32.79144019398472 ], [ -70.650033783438943, -32.790851648479759 ], [ -70.65027449420586, -32.790514665390049 ], [ -70.650490244384272, -32.79015710093104 ], [ -70.650781132348015, -32.789861201538272 ], [ -70.651122969161392, -32.789648043441645 ], [ -70.651566026344355, -32.789558785446758 ], [ -70.651911629793716, -32.789554226409912 ], [ -70.652207998378998, -32.789550316829832 ], [ -70.652652509934398, -32.789544524579391 ], [ -70.653143252387594, -32.78937106802573 ], [ -70.65358381315238, -32.789156600017279 ], [ -70.654023686705997, -32.788900396032005 ], [ -70.65456083163518, -32.788559563137582 ], [ -70.655001384315142, -32.788345090906759 ], [ -70.655692070191009, -32.788294215818922 ], [ -70.656284712140149, -32.788286378423251 ], [ -70.656726120016231, -32.788113633830186 ], [ -70.657016206682727, -32.787775984854996 ], [ -70.65725843111089, -32.787522458607327 ], [ -70.65759646266072, -32.787100758579754 ], [ -70.657700569317313, -32.787035765754467 ], [ -70.657938271626335, -32.7868875832947 ], [ -70.658329487932562, -32.786673753489559 ], [ -70.658369918408553, -32.786670114147014 ], [ -70.65877806436464, -32.786633307614842 ], [ -70.658871935616872, -32.786624823615249 ], [ -70.659509324446944, -32.78636605746329 ], [ -70.660243885837914, -32.786022511196855 ], [ -70.660880490438743, -32.785722003320828 ], [ -70.661613488761134, -32.785294979528565 ], [ -70.66254013870595, -32.784656804603351 ], [ -70.66326777228943, -32.783937776986626 ], [ -70.66365585617028, -32.783557141653269 ], [ -70.664387270762816, -32.783046707355034 ], [ -70.665023839431015, -32.782746179608282 ], [ -70.665560813680315, -32.782405155468886 ], [ -70.66590492053642, -32.782317162792111 ], [ -70.666545368130031, -32.782225152881495 ], [ -70.667234353495061, -32.782090821171501 ], [ -70.669100823585069, -32.78152349903673 ], [ -70.669933247443097, -32.781136847594198 ], [ -70.670618321543387, -32.780793974459137 ], [ -70.671156823826976, -32.780536395984427 ], [ -70.67164912845044, -32.780446409839158 ], [ -70.672241712907407, -32.780438499247062 ], [ -70.672734015734235, -32.780348508471228 ], [ -70.673323386019106, -32.780173656387248 ], [ -70.673763937800743, -32.779959120132567 ], [ -70.674205269320055, -32.779786316318571 ], [ -70.674843344463, -32.779569208200023 ], [ -70.675333205668892, -32.779354007361626 ], [ -70.675776878197823, -32.779306401225142 ], [ -70.67622124422617, -32.779300454232647 ], [ -70.676860091021922, -32.779124923366133 ], [ -70.677299845997908, -32.778868713901581 ], [ -70.677836750178599, -32.778527713418768 ], [ -70.678276501561314, -32.778271500723989 ], [ -70.678666060475862, -32.777974141111287 ], [ -70.679106588901305, -32.777759586713373 ], [ -70.679313346045404, -32.777731841400453 ], [ -70.680182740068958, -32.777790075203413 ], [ -70.680635702076231, -32.777655660513588 ], [ -70.68102455491497, -32.777316633477099 ], [ -70.681363916869728, -32.776978268292922 ], [ -70.681900793202672, -32.776637250746539 ], [ -70.682439237994075, -32.776379698758504 ], [ -70.683125880552851, -32.776120079533634 ], [ -70.68371520322701, -32.775945327903244 ], [ -70.684035663729887, -32.775909026760374 ], [ -70.682697237736932, -32.772021638671816 ], [ -70.681714958719837, -32.768874353655541 ], [ -70.681449703284414, -32.767687636668718 ], [ -70.681378803750619, -32.766498236620414 ], [ -70.681591394554175, -32.765080126570204 ], [ -70.681853282205594, -32.759913343649067 ], [ -70.682019229784672, -32.756638844487561 ], [ -70.682938564748127, -32.748704745197536 ], [ -70.68313672142169, -32.747614428313035 ], [ -70.681733046298078, -32.745293718723723 ], [ -70.681625913217303, -32.744761487642464 ], [ -70.681615888917037, -32.744228027851811 ], [ -70.681509617320614, -32.743736938072125 ], [ -70.681309151078437, -32.743411283972769 ], [ -70.681110401516761, -32.743167619310611 ], [ -70.680569256389617, -32.742805528352491 ], [ -70.680175530190482, -32.742523470940583 ], [ -70.679829371582272, -32.742199768613929 ], [ -70.679626690992919, -32.741750976068417 ], [ -70.679130394256319, -32.741183025085739 ], [ -70.678979306608696, -32.740897711966461 ], [ -70.678632564095551, -32.740533007236039 ], [ -70.678137817851137, -32.740047043500404 ], [ -70.67788732622742, -32.739639968466783 ], [ -70.677639914028504, -32.739397021897744 ], [ -70.677392500931262, -32.739154002883375 ], [ -70.67714748543753, -32.73903418947485 ], [ -70.676660442246657, -32.738958620767228 ], [ -70.676319007878533, -32.738881102515307 ], [ -70.675976804552505, -32.738762513589322 ], [ -70.67577645778627, -32.738436848865746 ], [ -70.675671674698265, -32.738027745193897 ], [ -70.675569966543492, -32.737782847747773 ], [ -70.675223929207831, -32.737459128955514 ], [ -70.67500121169607, -32.737236388694889 ], [ -70.674893362658011, -32.736663153522713 ], [ -70.674821190211446, -32.73588478036811 ], [ -70.674800145379294, -32.735895332095097 ], [ -70.674771447799216, -32.735926746975807 ], [ -70.674756019234223, -32.735106683026494 ], [ -70.67455129677424, -32.734733345502775 ], [ -70.674295548209471, -32.734277123571587 ], [ -70.67404379535111, -32.734029796216319 ], [ -70.673591233094101, -32.733618020713536 ], [ -70.673080537261825, -32.732747455636336 ], [ -70.672823328036429, -32.732207687386136 ], [ -70.672467193636976, -32.731669237540572 ], [ -70.67216053125685, -32.731130275115326 ], [ -70.671856987827411, -32.730758250935352 ], [ -70.671303273472802, -32.730222433456717 ], [ -70.671004414757547, -32.730101035456585 ], [ -70.670457636295268, -32.729941195436304 ], [ -70.669860704890638, -32.729740277342451 ], [ -70.66940973983823, -32.729411955130864 ], [ -70.669005733318983, -32.728957770526364 ], [ -70.668797246019622, -32.728375598839683 ], [ -70.668731435441913, -32.72749901624114 ], [ -70.668374569813835, -32.726918892837475 ], [ -70.668266395585647, -32.726418948901525 ], [ -70.66801381627721, -32.726129799335233 ], [ -70.66771264080684, -32.725883040349615 ], [ -70.66731116663837, -32.725554125802667 ], [ -70.667054706607914, -32.725056226775727 ], [ -70.667039932914761, -32.724262527200814 ], [ -70.666977255660754, -32.723553029957039 ], [ -70.666820499643663, -32.723095548413781 ], [ -70.666411181386138, -32.722348840724109 ], [ -70.665806541538089, -32.72173018248931 ], [ -70.665098332225952, -32.720862206206199 ], [ -70.664940125429695, -32.720321103104347 ], [ -70.664573911034452, -32.71923963224895 ], [ -70.664264321044811, -32.718533411424673 ], [ -70.663801799166293, -32.717578599723907 ], [ -70.663544606110563, -32.717038808414223 ], [ -70.663241836130567, -32.716708494756993 ], [ -70.662661492117664, -32.715996994232633 ], [ -70.662688224183896, -32.715986887587938 ], [ -70.662838598569195, -32.715584508118717 ], [ -70.662956594976706, -32.715099881452268 ], [ -70.663267060823728, -32.71471998203716 ], [ -70.663831356434059, -32.714336861964362 ], [ -70.664459164731639, -32.713952673778657 ], [ -70.664769622493822, -32.713572844304373 ], [ -70.664889512549962, -32.713195545999731 ], [ -70.664817104744813, -32.712713445956886 ], [ -70.664679181907644, -32.71212478666201 ], [ -70.664413312024578, -32.711484184116856 ], [ -70.664150434429729, -32.71100461220945 ], [ -70.664014513039049, -32.710523279610257 ], [ -70.664005545157565, -32.710040336706321 ], [ -70.66404360318289, -32.709807240702901 ], [ -70.663978642411422, -32.708591433350676 ], [ -70.66396170288013, -32.707679101343246 ], [ -70.663881336001523, -32.706767683697677 ], [ -70.663737366604224, -32.7058571101445 ], [ -70.663464550947381, -32.704840816119393 ], [ -70.662938938589804, -32.703881589234854 ], [ -70.662741513144866, -32.703508499683082 ], [ -70.662478755924255, -32.703028847108413 ], [ -70.662405289005378, -32.702493043682132 ], [ -70.662390362598615, -32.701688186146427 ], [ -70.662440850612541, -32.700989668423738 ], [ -70.662366391055258, -32.700400237824503 ], [ -70.662290030662859, -32.699703401824841 ], [ -70.662015262068564, -32.698579773951906 ], [ -70.661691005285306, -32.698208363894423 ], [ -70.661364674292031, -32.697729624004779 ], [ -70.661355725275186, -32.697246679136157 ], [ -70.661470724902912, -32.69660102194262 ], [ -70.661647243856237, -32.695847120088906 ], [ -70.661638293941053, -32.695364174862483 ], [ -70.661501417641219, -32.694829209923924 ], [ -70.661047178229595, -32.694298522952373 ], [ -70.66065744324527, -32.693820546814415 ], [ -70.660521572160235, -32.693339282548109 ], [ -70.660577042230699, -32.69290912522068 ], [ -70.660697011338584, -32.692531754658567 ], [ -70.661068935425774, -32.692043765545201 ], [ -70.661566697314612, -32.691500394245381 ], [ -70.662065362010296, -32.691010722646276 ], [ -70.662501683625266, -32.690575516725623 ], [ -70.662874495247962, -32.690141150895919 ], [ -70.663244317277375, -32.689545753886605 ], [ -70.663552710711045, -32.68905860050284 ], [ -70.663621056334492, -32.688965484957549 ], [ -70.663681088948309, -32.688928188209083 ], [ -70.662779638543824, -32.687244543441224 ], [ -70.662509628325623, -32.686738460269119 ], [ -70.662384247766468, -32.686573288712701 ], [ -70.662096747349693, -32.686202794187551 ], [ -70.661998820203934, -32.686113951937216 ], [ -70.66182884727408, -32.685899719170479 ], [ -70.661193747351348, -32.684970080883758 ], [ -70.660473894974857, -32.683586202539331 ], [ -70.660352284644929, -32.68240172651582 ], [ -70.66010557582689, -32.680849255521515 ], [ -70.659534184424118, -32.679346075278957 ], [ -70.659112149615439, -32.678454241539612 ], [ -70.65794537191033, -32.676688283354352 ], [ -70.657334532788497, -32.676001976850344 ], [ -70.656847147339519, -32.674984726654223 ], [ -70.656401750943559, -32.674575741026423 ], [ -70.655986203767853, -32.674288047674771 ], [ -70.654874531417221, -32.674343280587266 ], [ -70.654682683611895, -32.674404477289649 ], [ -70.654328808475398, -32.674391115964056 ], [ -70.65394576055003, -32.674378138765192 ], [ -70.653629311923197, -32.674314631221442 ], [ -70.653566638262475, -32.674279400988105 ], [ -70.653456268551707, -32.67425381329366 ], [ -70.652926672165862, -32.673963106354087 ], [ -70.651591652584457, -32.673146444143697 ], [ -70.651155284257101, -32.672917674638434 ], [ -70.650356499611505, -32.672576414632843 ], [ -70.649628270444964, -32.672428171852431 ], [ -70.649136120331718, -32.672357948835625 ], [ -70.648781124097766, -32.672425786875003 ], [ -70.648139597627491, -32.672474780226359 ], [ -70.647752996865179, -32.672529436542533 ], [ -70.647348805292992, -32.672620452694638 ], [ -70.646938895045693, -32.672837813082701 ], [ -70.646405505972709, -32.672953057399141 ], [ -70.645386828118617, -32.672862613251723 ], [ -70.645029113582581, -32.67276814919942 ], [ -70.644549201218453, -32.672688807001045 ], [ -70.643618817875321, -32.672439369297742 ], [ -70.64327588421898, -32.672326605333183 ], [ -70.642891068409156, -32.672097204588312 ], [ -70.642618369533281, -32.671888796326407 ], [ -70.642341948038904, -32.671567686175223 ], [ -70.642101160016864, -32.67108836182927 ], [ -70.641895775498526, -32.670658077655666 ], [ -70.641791284363009, -32.670289645038679 ], [ -70.64176569675044, -32.669965325136495 ], [ -70.642023807884385, -32.668789448044151 ], [ -70.64219008694181, -32.667569629136501 ], [ -70.64202883126346, -32.666475934401987 ], [ -70.642019461835048, -32.666417391916966 ], [ -70.642026633085962, -32.666408284682952 ], [ -70.6420279572027, -32.666394745204542 ], [ -70.641947706206778, -32.665904231144687 ], [ -70.641793580456863, -32.665328976729086 ], [ -70.641625613465024, -32.665038067572361 ], [ -70.641400334856385, -32.664851644882141 ], [ -70.641021499131412, -32.664617578598154 ], [ -70.640446624061966, -32.664138112607596 ], [ -70.639752278449635, -32.66343004914166 ], [ -70.639507591739289, -32.663113098241325 ], [ -70.639433002824603, -32.663046466164424 ], [ -70.639332131001353, -32.66297559749497 ], [ -70.639230275522863, -32.662927350653455 ], [ -70.638799493818254, -32.662693956180398 ], [ -70.638291983411975, -32.662434445930572 ], [ -70.637814445295149, -32.662084474576261 ], [ -70.63753945212207, -32.661858130072595 ], [ -70.637400574375761, -32.661499155361142 ], [ -70.63734082922285, -32.661125553682361 ], [ -70.637348255595313, -32.660967635818793 ], [ -70.63705126447752, -32.660123740702723 ], [ -70.636621047813236, -32.659335665930641 ], [ -70.636382337594469, -32.658851720079888 ], [ -70.636309293782091, -32.658735415407477 ], [ -70.636244505487156, -32.658655059418621 ], [ -70.636147411978001, -32.658570617108062 ], [ -70.635936949283348, -32.658433568443989 ], [ -70.635307952514665, -32.657995346497934 ], [ -70.634433151531411, -32.65725805314684 ], [ -70.634113658514096, -32.656874458808254 ], [ -70.633924096022838, -32.656493605204801 ], [ -70.63361087773778, -32.655974568368698 ], [ -70.633371598885446, -32.655549215982063 ], [ -70.632978442218189, -32.655071854595434 ], [ -70.632410201207136, -32.654461409644739 ], [ -70.632344438240125, -32.654399166140543 ], [ -70.630559374379487, -32.65196454037055 ], [ -70.62901069140608, -32.650230440848716 ], [ -70.628584958233361, -32.649514390387154 ], [ -70.628436469411852, -32.648713614057613 ], [ -70.628138500927051, -32.647914702604758 ], [ -70.627913755019364, -32.647146463928422 ], [ -70.627762404165381, -32.646408897306614 ], [ -70.627215161274066, -32.645347149855731 ], [ -70.626862742306628, -32.644891774989659 ], [ -70.62629231479616, -32.644299356975111 ], [ -70.626241294081282, -32.644254873046364 ], [ -70.626153607729762, -32.644071144481401 ], [ -70.624891365161119, -32.642319754967488 ], [ -70.624361203734949, -32.641668213564763 ], [ -70.623573924711522, -32.64014960989045 ], [ -70.623067189551335, -32.639024219206107 ], [ -70.622873688845857, -32.638381763889278 ], [ -70.622691387437058, -32.637522748584971 ], [ -70.622611598175197, -32.636851854862591 ], [ -70.622562806180554, -32.636311412862995 ], [ -70.622400748306646, -32.635799403129639 ], [ -70.621769672836407, -32.634923577214373 ], [ -70.621479846681339, -32.634719920821176 ], [ -70.621264739696684, -32.634524313083226 ], [ -70.620897219151018, -32.634384684220556 ], [ -70.620574697912858, -32.634086725168508 ], [ -70.620362908406534, -32.633827900493344 ], [ -70.620153740184193, -32.633501360355453 ], [ -70.619946620120729, -32.633147825321025 ], [ -70.619862357248749, -32.632576141948498 ], [ -70.619846993362444, -32.632445560975604 ], [ -70.619894439680806, -32.631696327125461 ], [ -70.619890142140491, -32.631516024017969 ], [ -70.619862899831176, -32.631259323790516 ], [ -70.619677602540904, -32.630716060203206 ], [ -70.619324121764805, -32.630084750246802 ], [ -70.61932305097298, -32.629841158947599 ], [ -70.619347012634876, -32.629615421274373 ], [ -70.61948548973254, -32.628946214361996 ], [ -70.619905119751238, -32.628223728524681 ], [ -70.620036211798947, -32.627978506330741 ], [ -70.620110094637809, -32.627824237794577 ], [ -70.620161294117423, -32.627593566836651 ], [ -70.620195378894252, -32.627236843780594 ], [ -70.620367064013053, -32.626468051504993 ], [ -70.621215390746556, -32.624801959813652 ], [ -70.621853094885282, -32.624036161613361 ], [ -70.622437831659894, -32.622982367510616 ], [ -70.622746738929919, -32.622121509582485 ], [ -70.622843479401183, -32.621502416449204 ], [ -70.6226098877829, -32.620517862871701 ], [ -70.622579459149293, -32.620423459274363 ], [ -70.622482520150342, -32.620199282960748 ], [ -70.622480169259248, -32.620194806813323 ], [ -70.622368735044873, -32.61990757099732 ], [ -70.622273810068805, -32.619282013838635 ], [ -70.622287326120571, -32.616778919018643 ], [ -70.622317237324594, -32.615610601395616 ], [ -70.622217263816609, -32.614317540399753 ], [ -70.622173556286469, -32.612983189242492 ], [ -70.621798119786504, -32.611774961270541 ], [ -70.621450066631368, -32.611179640759524 ], [ -70.621434860848552, -32.611130258933734 ], [ -70.621351176491629, -32.610923939312748 ], [ -70.6213274654597, -32.610901634951212 ], [ -70.621323370040329, -32.61089718103986 ], [ -70.621093379768027, -32.610715284805174 ], [ -70.620682502933477, -32.610571779310249 ], [ -70.619893901589961, -32.610167079363855 ], [ -70.619137085336135, -32.609689775460652 ], [ -70.618414414046242, -32.609076740101834 ], [ -70.617897312327671, -32.608821768932863 ], [ -70.6173814682505, -32.608544318044807 ], [ -70.616945641607259, -32.608342528987173 ], [ -70.616562815565786, -32.608185127092327 ], [ -70.615960307419883, -32.60797639204511 ], [ -70.614331371653947, -32.607095401622786 ], [ -70.613286723504984, -32.606233927061815 ], [ -70.613186767065002, -32.606194647199132 ], [ -70.611795531811453, -32.605008370128083 ], [ -70.610739656518064, -32.603799821161907 ], [ -70.610521781823991, -32.60359513968281 ], [ -70.610147639796367, -32.603189566693771 ], [ -70.608892260356484, -32.60231272698347 ], [ -70.608333222585486, -32.602017761663504 ], [ -70.607758081614733, -32.601695882995813 ], [ -70.60771484390348, -32.601664887059854 ], [ -70.607648337131423, -32.601611578383938 ], [ -70.607612624607313, -32.601566965017199 ], [ -70.607479726047544, -32.60138372547565 ], [ -70.607194400452045, -32.60106722295729 ], [ -70.607043193328479, -32.60087527790499 ], [ -70.606770286043485, -32.600716365216925 ], [ -70.606516645824698, -32.600570800387267 ], [ -70.606224400506576, -32.600389597585838 ], [ -70.605852140449471, -32.600204984339641 ], [ -70.605538200817236, -32.600060188331852 ], [ -70.604946504794086, -32.599851261046091 ], [ -70.604534281384943, -32.599667154497162 ], [ -70.604098653269389, -32.599550951483856 ], [ -70.603759871626266, -32.599505699872083 ], [ -70.603720627824771, -32.599488099157881 ], [ -70.603601018941319, -32.599467089847451 ], [ -70.603255313982331, -32.599327201210151 ], [ -70.6029561201955, -32.599245384222407 ], [ -70.602194210494005, -32.599074746635729 ], [ -70.601520750712012, -32.598984105171283 ], [ -70.600388865369197, -32.598741403249619 ], [ -70.600385201141165, -32.598741524337356 ], [ -70.599390624187819, -32.59858728110337 ], [ -70.598769508339132, -32.598563564508176 ], [ -70.598310834843261, -32.598515316981725 ], [ -70.598032004067264, -32.59847379284745 ], [ -70.597734912338183, -32.598391937240287 ], [ -70.597500199622431, -32.598264067976459 ], [ -70.597109863665182, -32.598048108060468 ], [ -70.596795138007082, -32.597916822086177 ], [ -70.596481308867624, -32.59777200118976 ], [ -70.596089733235289, -32.59756950068288 ], [ -70.595761703527813, -32.597303018969193 ], [ -70.595548779449288, -32.597143466493264 ], [ -70.595453020836629, -32.597054466872287 ], [ -70.595356906491119, -32.596969977014446 ], [ -70.595280142755144, -32.596898764623802 ], [ -70.595182502171966, -32.59684141172233 ], [ -70.594984679671668, -32.596785257579199 ], [ -70.594786139417465, -32.596742706401479 ], [ -70.594151094291988, -32.596601959064643 ], [ -70.593678692741946, -32.596418579195586 ], [ -70.593366503027895, -32.596237598826377 ], [ -70.593154573384368, -32.596059853502048 ], [ -70.592980173556796, -32.595931284633586 ], [ -70.592786600087805, -32.595789510526451 ], [ -70.5925466888215, -32.595648250078895 ], [ -70.592064322260015, -32.595374699942646 ], [ -70.591849318581609, -32.595264746544792 ], [ -70.591458572094254, -32.595048699175756 ], [ -70.59130351119812, -32.594942418276787 ], [ -70.591108143793491, -32.594832141181421 ], [ -70.590736742525806, -32.594633875323794 ], [ -70.590384519391108, -32.594448961107126 ], [ -70.590031305414655, -32.594282013801156 ], [ -70.589383162852315, -32.594006118592702 ], [ -70.588812159521751, -32.593783402696239 ], [ -70.588414104341268, -32.59371624973852 ], [ -70.588034391860575, -32.593689426534738 ], [ -70.58788294398849, -32.593668878294736 ], [ -70.587602759451372, -32.593663332161213 ], [ -70.587071868593199, -32.593611447641784 ], [ -70.586670572291141, -32.593553417532952 ], [ -70.586334054402585, -32.593426886274891 ], [ -70.585931039623389, -32.593251541385129 ], [ -70.585804827224294, -32.593172006036724 ], [ -70.585739402922158, -32.593109657836607 ], [ -70.585471218080599, -32.592828944706007 ], [ -70.585337340357171, -32.592641260478082 ], [ -70.585130406244957, -32.59236420601836 ], [ -70.58497095168876, -32.591933309256675 ], [ -70.584933143395077, -32.591848150806804 ], [ -70.584646937450614, -32.59109854845434 ], [ -70.584268851818877, -32.589953327876515 ], [ -70.583984547607884, -32.588378520007822 ], [ -70.58381279601376, -32.587456201209854 ], [ -70.583024912424136, -32.586555168345107 ], [ -70.582720564104207, -32.584642350583124 ], [ -70.582428610738546, -32.583960496210132 ], [ -70.582078088114699, -32.583734897957598 ], [ -70.581226162730147, -32.583398423625489 ], [ -70.580059850352384, -32.5828358108514 ], [ -70.579334412251427, -32.582136938111148 ], [ -70.579147777369698, -32.581516925191245 ], [ -70.578908245192423, -32.57976110534382 ], [ -70.578923316227957, -32.578719168240461 ], [ -70.578774201280694, -32.577336528297728 ], [ -70.578411439111079, -32.576619568434353 ], [ -70.578012825178476, -32.57590305854734 ], [ -70.577039002003161, -32.575103476058466 ], [ -70.576840433901168, -32.574727143505584 ], [ -70.576798380169478, -32.574114326170125 ], [ -70.576853989478806, -32.573716775783105 ], [ -70.576807233066589, -32.573194234618065 ], [ -70.576662738154809, -32.572451920062186 ], [ -70.576479131493912, -32.57177327134518 ], [ -70.576437082253776, -32.571160452751108 ], [ -70.57653624548135, -32.570608963536365 ], [ -70.576516799650406, -32.570275602855773 ], [ -70.575346246326149, -32.56980321164118 ], [ -70.573483289547241, -32.569429625364442 ], [ -70.572038820129933, -32.569380096373962 ], [ -70.571458006298144, -32.569418911648953 ], [ -70.570260075917318, -32.569501494739576 ], [ -70.56931384090268, -32.569621560542799 ], [ -70.56865599024708, -32.569751541938622 ], [ -70.56806780753503, -32.56994382542436 ], [ -70.567480896837381, -32.570108973151065 ], [ -70.566674475613581, -32.570326434971925 ], [ -70.566087393337739, -32.570487071567442 ], [ -70.565318368080895, -32.57067258103703 ], [ -70.564411048982677, -32.570733459540058 ], [ -70.562883953423864, -32.57089683965345 ], [ -70.561971826542248, -32.571047977500278 ], [ -70.560909585786789, -32.571313728006714 ], [ -70.560503135849956, -32.571485616065381 ], [ -70.559169878763143, -32.572110932408265 ], [ -70.55843856837518, -32.572268890491927 ] ] ] } },
{ "type": "Feature", "properties": { "capa": "colegios", "popup": "<strong>ESCUELA GUILLERMO BANADOS HONORATO</strong><br><br><strong>Dirección:</strong> TOCORNAL LAS CADENAS 3341", "etiqueta": "" }, "geometry": { "type": "Point", "coordinates": [ -70.624252, -32.794331 ] } },
{ "type": "Feature", "properties": { "capa": "colegios", "popup": "<strong>ACONCAGUA EDUCA</strong><br><br><strong>Dirección:</strong> JAHUEL 753", "etiqueta": "" }, "geometry": { "type": "Point", "coordinates": [ -70.65619, -32.76006 ] } },
{ "type": "Feature", "properties": { "capa": "colegios", "popup": "<strong>ESCUELA ESPECIAL MARÍA REBECA ESPÍNOLA ESPINOSA DE SANTA MARÍA</strong><br><br><strong>Dirección:</strong> SAN FERNANDO 748", "etiqueta": "" }, "geometry": { "type": "Point", "coordinates": [ -70.63512421, -32.75550079 ] } },
{ "type": "Feature", "properties": { "capa": "colegios", "popup": "<strong>ESCUELA ESPECIAL DE LENGUAJE HAKUNA MATATA</strong><br><br><strong>Dirección:</strong> SAN FERNANDO 162", "etiqueta": "" }, "geometry": { "type": "Point", "coordinates": [ -70.643639, -32.754291 ] } },
{ "type": "Feature", "properties": { "capa": "colegios", "popup": "<strong>COLEGIO SANTA MARIA COLLEGE</strong><br><br><strong>Dirección:</strong> LAUTARO 680", "etiqueta": "" }, "geometry": { "type": "Point", "coordinates": [ -70.657806, -32.75124 ] } },
{ "type": "Feature", "properties": { "capa": "colegios", "popup": "<strong>ESCUELA DE LENGUAJE PAIDEIA</strong><br><br><strong>Dirección:</strong> BERNARDO O'HIGGINS 550", "etiqueta": "" }, "geometry": { "type": "Point", "coordinates": [ -70.65552, -32.748837 ] } },
{ "type": "Feature", "properties": { "capa": "colegios", "popup": "<strong>COLEGIO BICENTENARIO SANTA MARÍA DE ACONCAGUA</strong><br><br><strong>Dirección:</strong> ALMIRANTE LATORRE 800", "etiqueta": "" }, "geometry": { "type": "Point", "coordinates": [ -70.656273, -32.747372 ] } },
{ "type": "Feature", "properties": { "capa": "colegios", "popup": "<strong>LICEO DARIO SALAS</strong><br><br><strong>Dirección:</strong> CALLE JAHUEL 729", "etiqueta": "" }, "geometry": { "type": "Point", "coordinates": [ -70.655724, -32.745449 ] } },
{ "type": "Feature", "properties": { "capa": "colegios", "popup": "<strong>ESCUELA BASICA AURORA VELASCO PEREZ</strong><br><br><strong>Dirección:</strong> PRAT 0", "etiqueta": "" }, "geometry": { "type": "Point", "coordinates": [ -70.629341, -32.73386 ] } },
{ "type": "Feature", "properties": { "capa": "colegios", "popup": "<strong>ESCUELA LA HIGUERA</strong><br><br><strong>Dirección:</strong> LA HIGUERA 0", "etiqueta": "" }, "geometry": { "type": "Point", "coordinates": [ -70.640022, -32.71265 ] } },
{ "type": "Feature", "properties": { "capa": "colegios", "popup": "<strong>ESCUELA SANTA FILOMENA</strong><br><br><strong>Dirección:</strong> CALLE PRINCIPAL SANTA FILOMENA 713", "etiqueta": "" }, "geometry": { "type": "Point", "coordinates": [ -70.613823, -32.693642 ] } },
{ "type": "Feature", "properties": { "capa": "colegios", "popup": "<strong>ESCUELA JULIO TEJEDOR ZUNIGA</strong><br><br><strong>Dirección:</strong> JAHUELITO 0", "etiqueta": "" }, "geometry": { "type": "Point", "coordinates": [ -70.599571, -32.683331 ] } },
{ "type": "Feature", "properties": { "capa": "jardines", "popup": "<strong>BLONDIM</strong><br><br><strong>Dirección:</strong> CALLE ALMIRANTE LATORRE N 1102 ", "etiqueta": "" }, "geometry": { "type": "MultiPoint", "coordinates": [ [ -70.658655, -32.746841 ] ] } },
{ "type": "Feature", "properties": { "capa": "jardines", "popup": "<strong>PULGARCITA</strong><br><br><strong>Dirección:</strong> PJE. LAURA VICUNA 43, VILLA SAN FCO., LAS CADENAS ", "etiqueta": "" }, "geometry": { "type": "MultiPoint", "coordinates": [ [ -70.629104, -32.7912 ] ] } },
{ "type": "Feature", "properties": { "capa": "jardines", "popup": "<strong>CASTILLO DE LA ALEGRIA</strong><br><br><strong>Dirección:</strong> SAN FERNANDO 748, SAN FERNANDO ", "etiqueta": "" }, "geometry": { "type": "MultiPoint", "coordinates": [ [ -70.635126, -32.755347 ] ] } },
{ "type": "Feature", "properties": { "capa": "jardines", "popup": "<strong>CAMPANITA DE JAHUEL</strong><br><br><strong>Dirección:</strong> CALLE SALECIANOS S/N SANTA FILOMENA ", "etiqueta": "" }, "geometry": { "type": "MultiPoint", "coordinates": [ [ -70.614338, -32.693285 ] ] } },
{ "type": "Feature", "properties": { "capa": "jardines", "popup": "<strong>LOS PINITOS DE TOCORNAL</strong><br><br><strong>Dirección:</strong> CIRCUNVALACION LOS ROBLES N 230 ", "etiqueta": "" }, "geometry": { "type": "MultiPoint", "coordinates": [ [ -70.646478, -32.781956 ] ] } },
{ "type": "Feature", "properties": { "capa": "jardines", "popup": "<strong>CREANDO RAÍCES</strong><br><br><strong>Dirección:</strong> EL CANELO ", "etiqueta": "" }, "geometry": { "type": "MultiPoint", "coordinates": [ [ -70.652247, -32.745925 ] ] } },
{ "type": "Feature", "properties": { "capa": "jardines", "popup": "<strong>PMI-CREZCAMOS SANAMENTE</strong><br><br><strong>Dirección:</strong> CALLE JAHUELITO S/N ", "etiqueta": "" }, "geometry": { "type": "MultiPoint", "coordinates": [ [ -70.599349, -32.68323 ] ] } },
{ "type": "Feature", "properties": { "capa": "jardines", "popup": "<strong>NA</strong><br><br><strong>Dirección:</strong> NA ", "etiqueta": "" }, "geometry": { "type": "MultiPoint", "coordinates": [ [ -70.642283000146961, -32.716985000073294 ] ] } },
{ "type": "Feature", "properties": { "capa": "bomberos", "popup": "<strong>Cuerpo de Bomberos</strong><br><br><strong>Dirección:</strong> Almirante Latorre 730", "etiqueta": "" }, "geometry": { "type": "Point", "coordinates": [ -70.655664013508826, -32.747600039626249 ] } },
{ "type": "Feature", "properties": { "capa": "comisarias", "popup": "<strong>TCIA. SANTA MARIA</strong><br><br><strong>Dirección:</strong> IRARRAZAVAL 182", "etiqueta": "" }, "geometry": { "type": "Point", "coordinates": [ -70.65778, -32.74869 ] } },
{ "type": "Feature", "properties": { "capa": "salud", "popup": "<strong>Centro Comunitario de Salud Familiar Las Cadenas</strong><br><br><strong>Tipo de atención:</strong> Centro Comunitario de Salud Familiar (CECOSF)<br><strong>Dirección:</strong>  NA", "etiqueta": "" }, "geometry": { "type": "Point", "coordinates": [ -70.62957, -32.79228 ] } },
{ "type": "Feature", "properties": { "capa": "salud", "popup": "<strong>Centro de Salud Familiar Santa María Dr. Jorge Ahumada Lemus</strong><br><br><strong>Tipo de atención:</strong> Centro de Salud Familiar (CESFAM)<br><strong>Dirección:</strong>  246", "etiqueta": "" }, "geometry": { "type": "Point", "coordinates": [ -70.65742, -32.75076 ] } },
{ "type": "Feature", "properties": { "capa": "salud", "popup": "<strong>Posta de Salud Rural Santa Filomena (Santa María)</strong><br><br><strong>Tipo de atención:</strong> Posta de Salud Rural (PSR)<br><strong>Dirección:</strong>  NA", "etiqueta": "" }, "geometry": { "type": "Point", "coordinates": [ -70.61752, -32.70201 ] } },
{ "type": "Feature", "properties": { "capa": "salud", "popup": "<strong>SUR Dr. Jorge Ahumada Lemus</strong><br><br><strong>Tipo de atención:</strong> Servicio de Urgencia Rural (SUR)<br><strong>Dirección:</strong>  720", "etiqueta": "" }, "geometry": { "type": "Point", "coordinates": [ -70.657438, -32.750705 ] } },
{ "type": "Feature", "properties": { "capa": "municipios", "popup": "<strong>Municipalidad de Santa María</strong><br><br><strong>Dirección:</strong> Bernardo OHiggins Nº 843<br><strong>Región:</strong> Valparaíso", "etiqueta": "" }, "geometry": { "type": "Point", "coordinates": [ -70.657317979999945, -32.748429390999959 ] } }
]
}
