{
"type": "FeatureCollection",
"name": "5803",
"crs": { "type": "name", "properties": { "name": "urn:ogc:def:crs:OGC:1.3:CRS84" } },
"features": [
{ "type": "Feature", "properties": { "capa": "comuna", "popup": "", "etiqueta": "" }, "geometry": { "type": "Polygon", "coordinates": [ [ [ -71.118411022037961, -32.955583849656357 ], [ -71.117825209979927, -32.956191949713414 ], [ -71.117731435745739, -32.956837652889327 ], [ -71.117748996012907, -32.957573590662982 ], [ -71.117658600342494, -32.958357309062492 ], [ -71.117405501807823, -32.959189810042787 ], [ -71.116930998200019, -32.959888067216447 ], [ -71.116021006613849, -32.960639578711586 ], [ -71.115326003434717, -32.961249518483939 ], [ -71.114743421718458, -32.961995547936937 ], [ -71.113997200195087, -32.962744419355623 ], [ -71.113415695558842, -32.963536448939948 ], [ -71.113214926584419, -32.964276008957277 ], [ -71.112536303286191, -32.965575867868488 ], [ -71.111413652624478, -32.966561066572289 ], [ -71.110134731934266, -32.967870988710317 ], [ -71.108849302051496, -32.968904939955507 ], [ -71.10707718830399, -32.970131189301341 ], [ -71.104809539591258, -32.971181747604767 ], [ -71.103732498193139, -32.971798065679572 ], [ -71.103088628916623, -32.97226900637434 ], [ -71.10277314687707, -32.972780436727675 ], [ -71.102525411284645, -32.973842866098309 ], [ -71.102271129668722, -32.974629334785689 ], [ -71.101470117201245, -32.975378984586861 ], [ -71.100721405547915, -32.976035774599573 ], [ -71.099915923961888, -32.976601467282492 ], [ -71.099103984387284, -32.976891119801195 ], [ -71.098287603541905, -32.976996966427613 ], [ -71.097639405284028, -32.977283930366724 ], [ -71.096830627779227, -32.977711587784945 ], [ -71.09520227232494, -32.978107047293506 ], [ -71.093954895975941, -32.978449998232364 ], [ -71.092760836435659, -32.978746093003629 ], [ -71.091512270717203, -32.979043089558303 ], [ -71.090538698171855, -32.979427517677117 ], [ -71.089666698135673, -32.979488142058095 ], [ -71.088408359645243, -32.97937112829942 ], [ -71.087413114345324, -32.978835633140179 ], [ -71.086637209790027, -32.978342487192272 ], [ -71.085334880800133, -32.977513061206544 ], [ -71.084564404764109, -32.977249857790305 ], [ -71.083577849766257, -32.977082232489664 ], [ -71.082974372338157, -32.976954304352596 ], [ -71.082536804759911, -32.976915654357704 ], [ -71.08155457515015, -32.9769320365981 ], [ -71.08063439217706, -32.977269398995524 ], [ -71.079653322292344, -32.977331697061345 ], [ -71.079055240145863, -32.977433782779428 ], [ -71.078573779984481, -32.977855870518631 ], [ -71.077930806328297, -32.97837269425991 ], [ -71.077563891247138, -32.979022993364794 ], [ -71.077380033057935, -32.980498386795922 ], [ -71.077178028900008, -32.981191965537455 ], [ -71.076919105689015, -32.981794441193166 ], [ -71.076219441151892, -32.982220151464794 ], [ -71.075242443330353, -32.982466445693994 ], [ -71.074426059790042, -32.982572064850032 ], [ -71.073665248728148, -32.982722704777899 ], [ -71.072799649188354, -32.983059178485341 ], [ -71.071993916972346, -32.983624700333145 ], [ -71.071298512246301, -32.984234410560994 ], [ -71.07059978734695, -32.98470609873609 ], [ -71.069948127880281, -32.984854980074786 ], [ -71.069072831925325, -32.984777444351245 ], [ -71.068466098104324, -32.984511428590416 ], [ -71.067755555867421, -32.984477175696874 ], [ -71.0670504619127, -32.984672878242478 ], [ -71.066512174326462, -32.985003962133916 ], [ -71.065644377507496, -32.98524830075668 ], [ -71.064826794716268, -32.985307852655083 ], [ -71.064054163621876, -32.98495258420558 ], [ -71.062596814160031, -32.984493529407487 ], [ -71.061612260608641, -32.984417746062398 ], [ -71.060351737415445, -32.984208511143009 ], [ -71.059310708578764, -32.984225764612546 ], [ -71.059096559198181, -32.984229223293454 ], [ -71.058067120425306, -32.984568298446462 ], [ -71.05574077848685, -32.985480877848865 ], [ -71.053787815906333, -32.986019150077496 ], [ -71.052924145947784, -32.986447505129057 ], [ -71.05157686705769, -32.987205754503904 ], [ -71.050281942880687, -32.987871227968867 ], [ -71.049261017441779, -32.988578141286332 ], [ -71.047858908980004, -32.989337400107708 ], [ -71.046725576451266, -32.989908137236228 ], [ -71.045531268975964, -32.990203790470609 ], [ -71.043028138589605, -32.990566813607956 ], [ -71.041501042132467, -32.990637900566639 ], [ -71.03895943061427, -32.990518397800265 ], [ -71.037480488347938, -32.990312427071672 ], [ -71.0362693212914, -32.989872093914897 ], [ -71.0349456393472, -32.989295583374535 ], [ -71.033843592444867, -32.988853372732692 ], [ -71.032640724024887, -32.988780991354133 ], [ -71.030346367500456, -32.988726285965846 ], [ -71.027762520790873, -32.989053156994906 ], [ -71.027825428013571, -32.989166642922505 ], [ -71.027836267984114, -32.989644371002314 ], [ -71.027680762421909, -32.990269229683229 ], [ -71.027299847097026, -32.99094274065169 ], [ -71.027082347898755, -32.991329468517122 ], [ -71.027038567605089, -32.991902866039112 ], [ -71.026997387934131, -32.992570857545779 ], [ -71.027408740875771, -32.993231498628447 ], [ -71.027478622618347, -32.993803050664667 ], [ -71.027673599255834, -32.994895538486766 ], [ -71.027800791716899, -32.99551572941516 ], [ -71.027988058114303, -32.996274717595561 ], [ -71.028000126081821, -32.996802069507162 ], [ -71.028015393848392, -32.99746921777853 ], [ -71.027746736493, -32.998095766700551 ], [ -71.027648685379745, -32.998764681710277 ], [ -71.027174014685301, -33.000296528809997 ], [ -71.02712633929653, -33.000680498225009 ], [ -71.027137270895224, -33.001158298078103 ], [ -71.027042512107485, -33.001971438459933 ], [ -71.026999079461817, -33.002544756284443 ], [ -71.027016506778324, -33.003306503836299 ], [ -71.026972812722903, -33.003879900373938 ], [ -71.026932799065207, -33.004529920406853 ], [ -71.026940659323941, -33.004624426846057 ], [ -71.026832722250973, -33.005198866488435 ], [ -71.026727048034218, -33.00556575134798 ], [ -71.026605929082777, -33.005901416269502 ], [ -71.026358321949445, -33.006157946312143 ], [ -71.02608796767646, -33.006401324624512 ], [ -71.025700103882869, -33.006628585439621 ], [ -71.025184415214255, -33.006821792794383 ], [ -71.024727766521025, -33.007005028640457 ], [ -71.02433948950241, -33.007241304492375 ], [ -71.023986765107779, -33.00746798986156 ], [ -71.02349881911006, -33.007832059152243 ], [ -71.022968441189917, -33.008323216552739 ], [ -71.022535905075557, -33.008772007767973 ], [ -71.022038420766151, -33.009325718663796 ], [ -71.021567176246194, -33.009838370131739 ], [ -71.021399922516707, -33.010016978937934 ], [ -71.02101497645117, -33.010442461171728 ], [ -71.020619172448775, -33.010845659555123 ], [ -71.020368855098226, -33.011165384996609 ], [ -71.020064820290315, -33.011621173385322 ], [ -71.01989129721845, -33.012074921775806 ], [ -71.01969723776088, -33.012704826788969 ], [ -71.019592347773369, -33.013211540864603 ], [ -71.019574058972495, -33.013482370919299 ], [ -71.019598703353992, -33.013720960799752 ], [ -71.019644725842639, -33.014008775551339 ], [ -71.019659504027388, -33.014206966940094 ], [ -71.019730169100882, -33.014471850661259 ], [ -71.019790544871128, -33.0147007749812 ], [ -71.019823062986106, -33.015038453256246 ], [ -71.019855080739475, -33.015358113028029 ], [ -71.019836196355541, -33.015529737746363 ], [ -71.019828198654594, -33.015705765667953 ], [ -71.019806908582339, -33.015917986377531 ], [ -71.019701488588808, -33.016163188498169 ], [ -71.0194793504904, -33.016369721063604 ], [ -71.019149779273917, -33.016614043640011 ], [ -71.018994500087175, -33.017049396956139 ], [ -71.019053972152236, -33.01729636153167 ], [ -71.019219572981612, -33.017559782971063 ], [ -71.019400368814004, -33.01772817426771 ], [ -71.019612137659081, -33.018008799852986 ], [ -71.019789687878358, -33.01825392686154 ], [ -71.019874277737088, -33.018487039128026 ], [ -71.019959628468868, -33.019207129648649 ], [ -71.019971802437595, -33.019725394681124 ], [ -71.019972682786573, -33.020221383264158 ], [ -71.019943585456204, -33.020614135042429 ], [ -71.019905390886947, -33.020934931532899 ], [ -71.019792537334439, -33.021342633577682 ], [ -71.01954678162889, -33.021829094821889 ], [ -71.019286618742825, -33.022099259691892 ], [ -71.019118929330432, -33.0222868112659 ], [ -71.018874551640536, -33.022480184666001 ], [ -71.018638593859805, -33.022727497822636 ], [ -71.018505620739873, -33.023072360196871 ], [ -71.01835647794482, -33.023485079899572 ], [ -71.018183492065504, -33.023925223444152 ], [ -71.018071065212752, -33.024332916931328 ], [ -71.017964928363625, -33.024578054976544 ], [ -71.017655889939562, -33.024758952211705 ], [ -71.017338685829614, -33.024989551248332 ], [ -71.017141137315477, -33.025191103476928 ], [ -71.016989426237032, -33.025414519120837 ], [ -71.016985876993331, -33.025743693736146 ], [ -71.017021946148631, -33.02599111146494 ], [ -71.01709264625643, -33.026265082131793 ], [ -71.017129105280546, -33.026760495408737 ], [ -71.017148367855199, -33.027120920344657 ], [ -71.017098662273895, -33.027437321837098 ], [ -71.017063398907425, -33.027694832348025 ], [ -71.01695940364192, -33.027899525060619 ], [ -71.016758582565217, -33.028173231464827 ], [ -71.016551628690053, -33.028316423977572 ], [ -71.016420046162182, -33.028399667957686 ], [ -71.016200693739478, -33.028637695538926 ], [ -71.015960396197599, -33.028984289612694 ], [ -71.015763777439801, -33.029415799574025 ], [ -71.015478971070536, -33.029983999924625 ], [ -71.015290452421638, -33.03050565545005 ], [ -71.015036097143891, -33.031163492459761 ], [ -71.014833474046711, -33.031743884336564 ], [ -71.014672001874402, -33.03217489803837 ], [ -71.014584663170893, -33.032541550912839 ], [ -71.014584958716625, -33.032789548280626 ], [ -71.014537290514397, -33.033326952718085 ], [ -71.014544990872992, -33.033561236114195 ], [ -71.01457294554632, -33.033980103963245 ], [ -71.014580991756333, -33.034318178321492 ], [ -71.014586150781014, -33.034737413847473 ], [ -71.014556238678679, -33.035130177759001 ], [ -71.014454479319923, -33.035564660182565 ], [ -71.014358043377555, -33.035859283042285 ], [ -71.014179750251529, -33.036403303388717 ], [ -71.01394465395515, -33.03692563407445 ], [ -71.01378041048018, -33.037424288131227 ], [ -71.013681197845258, -33.037782119565257 ], [ -71.013582211585785, -33.038022705571649 ], [ -71.013316178209337, -33.038419281900822 ], [ -71.012862684399408, -33.038791769850626 ], [ -71.012370148010589, -33.038971110708935 ], [ -71.012045132150888, -33.039111620608736 ], [ -71.011575183899922, -33.039335583825817 ], [ -71.011173974734447, -33.03958554862308 ], [ -71.010820040309142, -33.039839331428766 ], [ -71.010596363396644, -33.0400819262209 ], [ -71.010394999737514, -33.040364644136311 ], [ -71.010133852297898, -33.040652906555117 ], [ -71.009863453109176, -33.040900759852327 ], [ -71.009667185592633, -33.041052782913376 ], [ -71.009460773401585, -33.041186868332204 ], [ -71.009221186427112, -33.041258325650958 ], [ -71.009066022224715, -33.041296950471839 ], [ -71.008901066385718, -33.041290594079946 ], [ -71.008841398487917, -33.041305074995797 ], [ -71.008580972395478, -33.041331801805192 ], [ -71.008376196036579, -33.041402770285465 ], [ -71.008144965190851, -33.041564218225624 ], [ -71.008001534782721, -33.04173341383725 ], [ -71.00794242384039, -33.04200039336164 ], [ -71.008045655537899, -33.042332427773651 ], [ -71.008112717468791, -33.042678490561535 ], [ -71.008107341950137, -33.043048326428291 ], [ -71.007951153668316, -33.043637046706962 ], [ -71.007796435928611, -33.044058856871402 ], [ -71.007533970660475, -33.044378754017089 ], [ -71.007299267826198, -33.044607927469414 ], [ -71.007059013403463, -33.04482825098102 ], [ -71.006765940736969, -33.045040336811951 ], [ -71.006464127462749, -33.045315800944792 ], [ -71.006036614727449, -33.045633769608528 ], [ -71.005421290317415, -33.045932226192093 ], [ -71.004701237616587, -33.046196311274578 ], [ -71.004111322952653, -33.046435768905816 ], [ -71.003654544003723, -33.046627946272856 ], [ -71.003065163837405, -33.046871897328465 ], [ -71.002594858955234, -33.047086820768939 ], [ -71.001828037265753, -33.047595209109751 ], [ -71.001613211453787, -33.047905242910758 ], [ -71.001433753212837, -33.048417646670686 ], [ -71.0014334046665, -33.048417725733245 ], [ -71.001422804546152, -33.048449366568803 ], [ -71.001398302996762, -33.048541218371881 ], [ -71.001397412766337, -33.048544483274952 ], [ -71.001273536885279, -33.04899741060165 ], [ -71.001101191504773, -33.049514205337083 ], [ -71.001008787201371, -33.049659967676718 ], [ -71.000891687312517, -33.04990076143725 ], [ -71.000858888024851, -33.050149288966026 ], [ -71.000890393738516, -33.050405797921407 ], [ -71.001088215340488, -33.050731815390506 ], [ -71.001545635686526, -33.050981487324222 ], [ -71.0019852199826, -33.051136736710141 ], [ -71.002489460521247, -33.051299958080932 ], [ -71.002698688032396, -33.051377787706663 ], [ -71.003032403177286, -33.051525719976112 ], [ -71.003467792340999, -33.051793764603865 ], [ -71.003751711174743, -33.052109381771899 ], [ -71.003908478869931, -33.052400000863386 ], [ -71.003983416330925, -33.052633205017422 ], [ -71.004208967129088, -33.052823430041698 ], [ -71.004460746038617, -33.052905152518861 ], [ -71.00488783836235, -33.052880260368447 ], [ -71.005299087997727, -33.052729293767641 ], [ -71.005709653116867, -33.052582992132187 ], [ -71.006121250400284, -33.052432016739367 ], [ -71.006530715083187, -33.052326286977269 ], [ -71.006955989216777, -33.052337395151334 ], [ -71.007396554473146, -33.052492682052559 ], [ -71.007580035369941, -33.052661045753084 ], [ -71.007713400155325, -33.05300604170283 ], [ -71.007774174777566, -33.053546128992288 ], [ -71.007747507390036, -33.054137269029049 ], [ -71.007768557612081, -33.054623919663683 ], [ -71.007850279150119, -33.055159236320733 ], [ -71.007947875715843, -33.055829491500504 ], [ -71.00800078738439, -33.056081146453323 ], [ -71.008184021244475, -33.056736502893173 ], [ -71.008317559404716, -33.057077060322577 ], [ -71.008495586629408, -33.057371764817923 ], [ -71.008759954529324, -33.057651558690644 ], [ -71.009044159027326, -33.057962650288154 ], [ -71.009387255278753, -33.058367353142721 ], [ -71.009607329946931, -33.058697576133049 ], [ -71.009866898148289, -33.059063066075986 ], [ -71.009964908837361, -33.059264422905095 ], [ -71.0101221912672, -33.059541431875836 ], [ -71.010152413288296, -33.059824997554053 ], [ -71.010218978450851, -33.060225216752542 ], [ -71.010142720466376, -33.060506065366219 ], [ -71.010048464735192, -33.060701434316599 ], [ -71.009934971582211, -33.060861063326904 ], [ -71.009815826229442, -33.061142529522272 ], [ -71.009668913951245, -33.06156879635995 ], [ -71.009531931650201, -33.062242829520329 ], [ -71.009351434058473, -33.062940095825816 ], [ -71.00924632039046, -33.063383640875941 ], [ -71.009122204659221, -33.063755461615393 ], [ -71.00897963663374, -33.064091382233791 ], [ -71.00878898268941, -33.064554404201324 ], [ -71.008778696081094, -33.064734900899822 ], [ -71.008935958747998, -33.065057049942368 ], [ -71.009101226302391, -33.065171626772567 ], [ -71.009312652889335, -33.065213283303841 ], [ -71.009528477627924, -33.065151221968534 ], [ -71.009766152089171, -33.065066201398913 ], [ -71.010132460807512, -33.06497016676721 ], [ -71.010539756059018, -33.064909448319618 ], [ -71.010732324313224, -33.064897329920363 ], [ -71.01138898290445, -33.064972359023628 ], [ -71.011683994135311, -33.065039775398574 ], [ -71.011892619775224, -33.065135623251528 ], [ -71.012139958312289, -33.065321048304156 ], [ -71.012366377781333, -33.065493217874504 ], [ -71.012621131911075, -33.065746045209579 ], [ -71.012853089493859, -33.066026425264425 ], [ -71.013124344777054, -33.066387286531864 ], [ -71.013450531141544, -33.0667021211448 ], [ -71.013803083059642, -33.066926401142155 ], [ -71.014179442129404, -33.067082625162541 ], [ -71.014622237004289, -33.067170252293309 ], [ -71.015125321411176, -33.067346957720453 ], [ -71.01553777658566, -33.06764687342892 ], [ -71.01576209309863, -33.067868640395496 ], [ -71.016002564015352, -33.06819844757198 ], [ -71.016350535423797, -33.068517502705312 ], [ -71.016784034532165, -33.068812566376756 ], [ -71.017095362761864, -33.069005958853971 ], [ -71.017405534859776, -33.069194788943307 ], [ -71.017742102155708, -33.069536556093929 ], [ -71.018026330908242, -33.069834032063412 ], [ -71.018211318279739, -33.070223389657201 ], [ -71.018239078018667, -33.070547548876419 ], [ -71.018220931151603, -33.070940121465668 ], [ -71.018068594845744, -33.071492663365468 ], [ -71.017942758840718, -33.071918597782052 ], [ -71.018070019573756, -33.072407957196233 ], [ -71.018353415588024, -33.072741496147856 ], [ -71.018912540495592, -33.073084236398707 ], [ -71.019149581644555, -33.073274320121634 ], [ -71.019531024280496, -33.073547684537075 ], [ -71.019896815569254, -33.073938468735726 ], [ -71.020159360787446, -33.07424988366062 ], [ -71.020502284562312, -33.074672654460933 ], [ -71.020983233582299, -33.075106779195657 ], [ -71.021533498406185, -33.075647932259223 ], [ -71.022045161724051, -33.076108593045703 ], [ -71.022455891234884, -33.076449069495332 ], [ -71.022976458653815, -33.076715659218522 ], [ -71.023562620156497, -33.076949637495652 ], [ -71.024148983780108, -33.07716558348173 ], [ -71.024652143645469, -33.077342247759312 ], [ -71.025071853614193, -33.077484288447565 ], [ -71.025406358378234, -33.077618625497628 ], [ -71.025714997051963, -33.077857101916322 ], [ -71.026123041498423, -33.07825175929645 ], [ -71.026257515703179, -33.078578761311284 ], [ -71.026304881173189, -33.078956675811867 ], [ -71.026351108477698, -33.079334682777883 ], [ -71.026479867600628, -33.079783522541149 ], [ -71.026598303284317, -33.080467010885862 ], [ -71.026826273245547, -33.081089986102008 ], [ -71.027103201389764, -33.081563455575555 ], [ -71.027360271376295, -33.082001194590482 ], [ -71.027723939047732, -33.082441632063549 ], [ -71.028150072869053, -33.082908089804008 ], [ -71.028871005918859, -33.083559163956323 ], [ -71.028879533625854, -33.083563605498831 ], [ -71.029163854904851, -33.083788875936001 ], [ -71.029324014638533, -33.083930545683593 ], [ -71.029270967324365, -33.083963028037275 ], [ -71.029203769747852, -33.0840136919347 ], [ -71.029178642072736, -33.084027620888548 ], [ -71.029514345189355, -33.084094330957868 ], [ -71.029845118351702, -33.08415653849783 ], [ -71.030135267900263, -33.084440443339858 ], [ -71.030483894180563, -33.084813447103166 ], [ -71.030777276765832, -33.085241575009341 ], [ -71.031023471747531, -33.086094290855748 ], [ -71.031211088487893, -33.086853254661115 ], [ -71.031451898967802, -33.087471504708411 ], [ -71.03152409297391, -33.088137714477554 ], [ -71.031935013825901, -33.088753264082605 ], [ -71.032365561070222, -33.090225145942682 ], [ -71.032548755404434, -33.090794836949591 ], [ -71.032674223100159, -33.091315751395904 ], [ -71.032975316823837, -33.092077365958311 ], [ -71.033788207714323, -33.092920828574492 ], [ -71.034198377574739, -33.093486812159391 ], [ -71.03650251046443, -33.095072354930167 ], [ -71.036846841899361, -33.095256142494442 ], [ -71.03793785389675, -33.095860477120723 ], [ -71.038514674717106, -33.096279442163556 ], [ -71.039086864722151, -33.096509064470418 ], [ -71.039602380914246, -33.096739612583058 ], [ -71.040173340227369, -33.096919606759897 ], [ -71.04080020259893, -33.097053692116539 ], [ -71.041484695489231, -33.097231820808489 ], [ -71.0420511973619, -33.097222537989921 ], [ -71.042460878538819, -33.097301443797846 ], [ -71.042507076198945, -33.097314205686182 ], [ -71.042926686454663, -33.097420059751606 ], [ -71.043020312466837, -33.09744563617101 ], [ -71.043477150704589, -33.097582422402148 ], [ -71.043878182901921, -33.097765259509849 ], [ -71.044223685739979, -33.097998502229046 ], [ -71.044683870202135, -33.098279580199474 ], [ -71.045257131897344, -33.098554219976485 ], [ -71.045655887763772, -33.098642307922347 ], [ -71.046509301656712, -33.098772569974969 ], [ -71.049686258337701, -33.098594098233505 ], [ -71.049983843241861, -33.098562164624354 ], [ -71.050368515321267, -33.098519784130104 ], [ -71.050753729983086, -33.098481901598099 ], [ -71.051138873677999, -33.098448523807022 ], [ -71.051525347777854, -33.09841955518835 ], [ -71.051912455189978, -33.098395156039402 ], [ -71.052299612009435, -33.09838427342379 ], [ -71.052687488379448, -33.098377884279437 ], [ -71.053076171436572, -33.098375986349787 ], [ -71.053464503252442, -33.098374093687958 ], [ -71.05384904238116, -33.098412892871295 ], [ -71.054234228296892, -33.098460619523244 ], [ -71.054616061699988, -33.098526425367737 ], [ -71.054989877639173, -33.098606029121754 ], [ -71.055345648220921, -33.098739856792712 ], [ -71.055691666691942, -33.09889201851594 ], [ -71.056052687926524, -33.098998720303562 ], [ -71.056439723473432, -33.099023951598511 ], [ -71.056829688426475, -33.099035540773556 ], [ -71.057210805872288, -33.099096842968862 ], [ -71.057587344605096, -33.099176320531669 ], [ -71.05796951667304, -33.099260209423115 ], [ -71.05833073733362, -33.099371481697354 ], [ -71.058609357903833, -33.099587763193384 ], [ -71.058853851476414, -33.099849744977242 ], [ -71.059094907196368, -33.100107276995672 ], [ -71.059380921799672, -33.100328013932511 ], [ -71.0596902764307, -33.100525833490629 ], [ -71.060004438845141, -33.100718992189265 ], [ -71.060323234769783, -33.100907567569472 ], [ -71.060645965315388, -33.101091643943668 ], [ -71.06097287392538, -33.101266637712406 ], [ -71.061303167387365, -33.101432488728094 ], [ -71.061662277007031, -33.101539279239248 ], [ -71.062054306288587, -33.101582361133076 ], [ -71.062439212828281, -33.101621127294244 ], [ -71.062826764906461, -33.101641675647905 ], [ -71.063214988026175, -33.101630815257366 ], [ -71.063594979882922, -33.101601990666701 ], [ -71.063989480429839, -33.101536800430601 ], [ -71.064338288169836, -33.101431882194333 ], [ -71.064696760883947, -33.101308703832053 ], [ -71.065068270847803, -33.101176296325406 ], [ -71.065395714853707, -33.101017505785677 ], [ -71.065730091158656, -33.100858673569967 ], [ -71.066031737346222, -33.100655245403146 ], [ -71.066321205073478, -33.100434067551994 ], [ -71.066604510357905, -33.100208410816052 ], [ -71.06688625347202, -33.099987286775551 ], [ -71.067152569817793, -33.099748391755689 ], [ -71.06741141128208, -33.099505187796467 ], [ -71.06767702245034, -33.099266303506923 ], [ -71.067940878310523, -33.099027447917308 ], [ -71.06815723125851, -33.098757835874906 ], [ -71.06834368198561, -33.098470695397324 ], [ -71.068513406082133, -33.098170238341858 ], [ -71.068724155339353, -33.097860161869178 ], [ -71.068903232694623, -33.09757314263085 ], [ -71.069068694285122, -33.097304374261114 ], [ -71.069394878852989, -33.097010404058821 ], [ -71.069776096011807, -33.096832685064832 ], [ -71.070150582094186, -33.096727250222521 ], [ -71.070542846734355, -33.096680175854907 ], [ -71.070908090050793, -33.096633549237872 ], [ -71.07129146136964, -33.096622670919544 ], [ -71.071678745749878, -33.096602713660822 ], [ -71.072068593921927, -33.096609750139677 ], [ -71.07244684933525, -33.096680066733157 ], [ -71.072818566809929, -33.096782109830329 ], [ -71.07316964549095, -33.096988213286188 ], [ -71.073460837085236, -33.097181720668758 ], [ -71.073755824959918, -33.097402275308234 ], [ -71.074021331923603, -33.097600788534955 ], [ -71.074271281863204, -33.097835609796441 ], [ -71.074495437577738, -33.098070787140344 ], [ -71.074792949718386, -33.098349953403492 ], [ -71.075042044461838, -33.09858929396971 ], [ -71.07523927856559, -33.098761828884754 ], [ -71.075535254587109, -33.098964338061975 ], [ -71.075930585177332, -33.099174202876867 ], [ -71.076232821558037, -33.099340407020122 ], [ -71.076560154172853, -33.099506339182298 ], [ -71.077034823070662, -33.099741916921239 ], [ -71.07733374107471, -33.099867690720792 ], [ -71.077697477916402, -33.099987876010943 ], [ -71.078072727566791, -33.100112375417524 ], [ -71.078442520850118, -33.100232458028529 ], [ -71.078786128242925, -33.10032143228112 ], [ -71.079200698949919, -33.100427172855298 ], [ -71.07954500253706, -33.10055676326283 ], [ -71.07981648778896, -33.100795720050421 ], [ -71.080058219940369, -33.101053198877764 ], [ -71.080293740241544, -33.101315213167169 ], [ -71.080562738058433, -33.101545270821973 ], [ -71.080843210954754, -33.101770556895559 ], [ -71.08112710733063, -33.101995710700955 ], [ -71.081414233149943, -33.102216377425904 ], [ -71.081703972168413, -33.10243242014667 ], [ -71.081995647056331, -33.102648576718238 ], [ -71.082288879622965, -33.102860052892154 ], [ -71.082583625850816, -33.103076083495388 ], [ -71.082893896763437, -33.103269247876661 ], [ -71.083221818673081, -33.103444165821358 ], [ -71.083542742706626, -33.103623705300649 ], [ -71.083845865724527, -33.103785369455984 ], [ -71.084137166014969, -33.103951809442265 ], [ -71.08450889965934, -33.104153028916137 ], [ -71.084908141514319, -33.104385404361004 ], [ -71.085312563953536, -33.104640075644639 ], [ -71.085677062566589, -33.104872955477461 ], [ -71.085955898732465, -33.105057626292208 ], [ -71.086247904200405, -33.105201592233335 ], [ -71.086636459696777, -33.105289717161163 ], [ -71.087033332694361, -33.105310107386629 ], [ -71.087401653638935, -33.105322035858237 ], [ -71.087729086865053, -33.105334575349978 ], [ -71.088103067195931, -33.105377950359092 ], [ -71.0884803569203, -33.105457246159439 ], [ -71.088854897799933, -33.105550179229333 ], [ -71.089214177201171, -33.105665825271892 ], [ -71.08953627892609, -33.105849835243177 ], [ -71.089816262240575, -33.106075108024413 ], [ -71.090082681892596, -33.106413265184486 ], [ -71.090220866139504, -33.106762659297175 ], [ -71.090325472259394, -33.107035936169204 ], [ -71.090451811320932, -33.107322441417018 ], [ -71.090649877264667, -33.107472405360781 ], [ -71.091352079542474, -33.107627425648552 ], [ -71.091764311036457, -33.10772872990254 ], [ -71.092110649307742, -33.107831139415929 ], [ -71.092477908443655, -33.107942208959017 ], [ -71.092840623900884, -33.108057786388812 ], [ -71.093177332232301, -33.108164860805537 ], [ -71.093493516754421, -33.108294810015551 ], [ -71.093844341212233, -33.108460300881688 ], [ -71.094208529906524, -33.10865260389852 ], [ -71.094556085394998, -33.108894754683803 ], [ -71.094802875061433, -33.109088955200527 ], [ -71.094979193690449, -33.109239351801527 ], [ -71.095424414914945, -33.109583502867764 ], [ -71.095721360218619, -33.109808475630381 ], [ -71.095961798795997, -33.109993768130337 ], [ -71.096206966105015, -33.110237637572439 ], [ -71.096481403220949, -33.110471999937289 ], [ -71.096756905738815, -33.110688318824096 ], [ -71.097107120240523, -33.110871835961689 ], [ -71.097467883658624, -33.110978419366901 ], [ -71.097881161689926, -33.111052646938553 ], [ -71.098229352287305, -33.111091846089849 ], [ -71.098614045926269, -33.11117105847989 ], [ -71.099037357240974, -33.111272151727363 ], [ -71.099339042954412, -33.111352687493842 ], [ -71.099720308622238, -33.11149061083259 ], [ -71.100031424849533, -33.111620628109925 ], [ -71.100458230610712, -33.111798263777075 ], [ -71.100831513848902, -33.111976874990646 ], [ -71.101197046422868, -33.11220961649412 ], [ -71.101459781185568, -33.112371990947423 ], [ -71.101822061858201, -33.112541771250925 ], [ -71.102017797572088, -33.112633174667138 ], [ -71.102385977481177, -33.112807286181585 ], [ -71.102760019795809, -33.112976865498936 ], [ -71.103036912905722, -33.113084848115271 ], [ -71.10329561423282, -33.113206730099513 ], [ -71.103499183255977, -33.113302505145981 ], [ -71.103680989693075, -33.113398646516899 ], [ -71.103906447964775, -33.113503062896982 ], [ -71.104141614329734, -33.113580203960076 ], [ -71.104361841711523, -33.11361253390367 ], [ -71.104632086390026, -33.113644092606187 ], [ -71.104803351995571, -33.113677249434048 ], [ -71.104932626751477, -33.113720201227871 ], [ -71.10509229420839, -33.113830160282632 ], [ -71.10519983512431, -33.113999729348883 ], [ -71.105223473392712, -33.114206766048952 ], [ -71.105203272078597, -33.11448213780541 ], [ -71.10522155998116, -33.114630535801297 ], [ -71.105326203830302, -33.114858808493281 ], [ -71.105579666182649, -33.115084418578455 ], [ -71.10582643967939, -33.115265151663841 ], [ -71.106225678839436, -33.11553343247116 ], [ -71.106576871606507, -33.115770979915077 ], [ -71.10698644498558, -33.115993945986126 ], [ -71.107259342389099, -33.116147196647496 ], [ -71.107355023746635, -33.116213172832218 ], [ -71.107691564093116, -33.116410408133156 ], [ -71.108024981895653, -33.116675289894289 ], [ -71.108209493160061, -33.116784897644926 ], [ -71.108450683627325, -33.116911571738569 ], [ -71.108667974416448, -33.117011611053293 ], [ -71.108859938104459, -33.117139116961958 ], [ -71.109051706858054, -33.117262119645282 ], [ -71.109176398409375, -33.117417801311561 ], [ -71.109228983091171, -33.11752062914271 ], [ -71.1093612339656, -33.11769871484303 ], [ -71.109412263663643, -33.117846630394091 ], [ -71.109581024766172, -33.118123382643354 ], [ -71.109774714117847, -33.118381612730765 ], [ -71.110011234243956, -33.118621019116908 ], [ -71.11019493432967, -33.118744156657172 ], [ -71.110357545565748, -33.118782031958766 ], [ -71.110520939234476, -33.118779263219942 ], [ -71.11070628323715, -33.118798580438131 ], [ -71.110936012099714, -33.118812786020513 ], [ -71.111185452694542, -33.118740964330016 ], [ -71.111436235372409, -33.118655526837763 ], [ -71.111619794422623, -33.118589328279498 ], [ -71.111786495688207, -33.118541365780516 ], [ -71.112109882902303, -33.118481806865603 ], [ -71.112300686865282, -33.118446953735209 ], [ -71.112699357391733, -33.118345561021805 ], [ -71.113208884515828, -33.118170111467521 ], [ -71.113679157058655, -33.117950191295463 ], [ -71.114338819616179, -33.117713534548464 ], [ -71.114830801744446, -33.117560908090084 ], [ -71.11530548860857, -33.117426598964833 ], [ -71.115780708173645, -33.117274253400758 ], [ -71.116296302519189, -33.117143678694802 ], [ -71.116651761385526, -33.116997945395589 ], [ -71.116886698680105, -33.116903752894103 ], [ -71.117196341670336, -33.116776747736779 ], [ -71.117523366162999, -33.116631420873425 ], [ -71.117940372202739, -33.11649357633101 ], [ -71.118248839298232, -33.116398132808037 ], [ -71.1186558911063, -33.116310097271175 ], [ -71.118947684571836, -33.116214934192818 ], [ -71.119164554949421, -33.116143576864296 ], [ -71.119332797724027, -33.116050590293142 ], [ -71.119494930158083, -33.11592608863895 ], [ -71.11970759282687, -33.115760097194041 ], [ -71.119887790381284, -33.115594732186317 ], [ -71.120168828317929, -33.115373574633232 ], [ -71.120364440962618, -33.115221464773171 ], [ -71.120602883483443, -33.115032501020416 ], [ -71.120738257800113, -33.114949010161112 ], [ -71.120906364030802, -33.114865035423975 ], [ -71.121048221488905, -33.114817557699695 ], [ -71.121270530267196, -33.114804686244305 ], [ -71.121500490895116, -33.114814288484148 ], [ -71.121720903329859, -33.11484665860354 ], [ -71.121874110103249, -33.114920654927239 ], [ -71.122237293582728, -33.115162458882494 ], [ -71.122482221041565, -33.11539275867262 ], [ -71.12264298803639, -33.115660542505246 ], [ -71.122778676763431, -33.115951284225254 ], [ -71.122880914025899, -33.116238164436695 ], [ -71.122970424855751, -33.116448505645145 ], [ -71.123157685863262, -33.116675280865579 ], [ -71.123343035255829, -33.116753307717914 ], [ -71.123550016080458, -33.116821879197936 ], [ -71.123891338159183, -33.116906258355314 ], [ -71.124196357520617, -33.116977737703841 ], [ -71.124431264272488, -33.117050337302167 ], [ -71.124612904521243, -33.1171419451912 ], [ -71.124690984289103, -33.117212787075168 ], [ -71.124781177838585, -33.117341929133552 ], [ -71.124893207635992, -33.117714259094114 ], [ -71.124905087855623, -33.118025208995419 ], [ -71.124967944772663, -33.118353239795553 ], [ -71.125033476872645, -33.118613706021399 ], [ -71.125126083296976, -33.118846524739688 ], [ -71.125372541485063, -33.11908129900835 ], [ -71.125585571564798, -33.119203912253035 ], [ -71.125812894739028, -33.119285725043902 ], [ -71.126260038358211, -33.119345686683872 ], [ -71.126554461192598, -33.119363191318939 ], [ -71.126977791371928, -33.119378494517179 ], [ -71.127234266673739, -33.119387707282002 ], [ -71.127580422587002, -33.11939531448953 ], [ -71.127937687965385, -33.119452298178501 ], [ -71.128164616779202, -33.119543126366011 ], [ -71.128516332365763, -33.119726526444992 ], [ -71.128767561506322, -33.119852987890873 ], [ -71.129047278021176, -33.119915800606805 ], [ -71.129468715450201, -33.119976189911974 ], [ -71.129967004650098, -33.12003083111501 ], [ -71.130478612272398, -33.120080736908044 ], [ -71.130859724328317, -33.12016892139517 ], [ -71.131328005306131, -33.120336727479653 ], [ -71.131909085039254, -33.120547662265174 ], [ -71.13228835195558, -33.120690022870996 ], [ -71.13258434414675, -33.12079037236748 ], [ -71.132743761872021, -33.120844524784275 ], [ -71.133368104469213, -33.120960081477627 ], [ -71.133853807373654, -33.121005835244375 ], [ -71.134352300491116, -33.121064962100476 ], [ -71.134851476328194, -33.121101469372547 ], [ -71.135120568468182, -33.121123968540054 ], [ -71.135478594719615, -33.121153806918812 ], [ -71.135671474689218, -33.121150499569033 ], [ -71.135839108406074, -33.121134180248582 ], [ -71.136088657697059, -33.121107295607956 ], [ -71.13608885442811, -33.121111798451018 ], [ -71.136109316253638, -33.121213613050834 ], [ -71.13725574801586, -33.119919864882213 ], [ -71.138064811184947, -33.118851891424121 ], [ -71.13888246314643, -33.118135251442013 ], [ -71.139493564576327, -33.117509987401874 ], [ -71.13978313471155, -33.116538759852858 ], [ -71.139759709343878, -33.115573056235107 ], [ -71.139363678966035, -33.11215438352901 ], [ -71.139333873763221, -33.110925209696639 ], [ -71.139516978265902, -33.109868123948189 ], [ -71.140217435117108, -33.108626406197331 ], [ -71.141137168932559, -33.107820090168246 ], [ -71.142065412488677, -33.107365034378503 ], [ -71.142893500178829, -33.107087289582083 ], [ -71.143928176129819, -33.106718075739415 ], [ -71.145595081886199, -33.106601543908994 ], [ -71.146738335408941, -33.106406253569865 ], [ -71.147879444653114, -33.106123082597314 ], [ -71.148816181780248, -33.106019020895822 ], [ -71.149863567994188, -33.10617669248667 ], [ -71.150698121757756, -33.106162214719518 ], [ -71.151219720442626, -33.1061532827487 ], [ -71.151632716402943, -33.105970482655302 ], [ -71.15164193401607, -33.105884113958041 ], [ -71.151559330332447, -33.104735345323228 ], [ -71.151187739520225, -33.102947324563928 ], [ -71.150395557491976, -33.099602235270801 ], [ -71.150041782068456, -33.097422893131011 ], [ -71.150074034282099, -33.096502179249178 ], [ -71.150159729966958, -33.09553444696882 ], [ -71.150358181287942, -33.094702836237694 ], [ -71.150622483610832, -33.094330166427717 ], [ -71.151263488159913, -33.093721028792658 ], [ -71.15155817509897, -33.093475484907167 ], [ -71.15233496988472, -33.092828243396774 ], [ -71.154006213605612, -33.091879206777072 ], [ -71.155950760768533, -33.090925422212877 ], [ -71.157034432631747, -33.090538560106587 ], [ -71.15784155993137, -33.090018412492164 ], [ -71.159397941466764, -33.088841255728532 ], [ -71.159819298047395, -33.088189785658265 ], [ -71.160349772087301, -33.087536495388342 ], [ -71.160942938652553, -33.087204127201971 ], [ -71.161809166114736, -33.086867092847449 ], [ -71.162673131619016, -33.08643797258101 ], [ -71.163752297532767, -33.085867117587085 ], [ -71.16450703777997, -33.085439881617958 ], [ -71.16487924483647, -33.085019361097558 ], [ -71.165273828926715, -33.084391386636888 ], [ -71.165803198038802, -33.083691996915725 ], [ -71.166498663850291, -33.083081764192023 ], [ -71.167304628729966, -33.082515701586622 ], [ -71.168433757143163, -33.081759921867196 ], [ -71.169622028838077, -33.081187118636457 ], [ -71.170319794336692, -33.080668795954011 ], [ -71.170796807837391, -33.080062343420586 ], [ -71.171271553990323, -33.07936395726432 ], [ -71.171964685978722, -33.078661691322615 ], [ -71.172880901093208, -33.078139621006763 ], [ -71.173799456318974, -33.077709548862622 ], [ -71.174940919499363, -33.077459522179147 ], [ -71.17608237818817, -33.077209559519879 ], [ -71.177057726702856, -33.076870443944891 ], [ -71.177153408060391, -33.076316650894476 ], [ -71.176999929097462, -33.074524972614341 ], [ -71.177017819046355, -33.071925093484808 ], [ -71.17741299422805, -33.070215876056146 ], [ -71.177710038346419, -33.068968375266493 ], [ -71.177905828857533, -33.068044800892118 ], [ -71.17793099516021, -33.066848071086781 ], [ -71.177768549214122, -33.064688442543257 ], [ -71.177683321551541, -33.063447693988678 ], [ -71.177772189187664, -33.062617882570436 ], [ -71.178143108060056, -33.062151325527466 ], [ -71.178625640809869, -33.061774861130417 ], [ -71.179164981221618, -33.061489373646161 ], [ -71.179758948185793, -33.061202928341267 ], [ -71.180966856154484, -33.060330644913321 ], [ -71.181336610810263, -33.059818001799094 ], [ -71.181747548730243, -33.058752588959756 ], [ -71.182001225779956, -33.057965988625654 ], [ -71.182616862803727, -33.056344868314454 ], [ -71.183240429256514, -33.055045689251799 ], [ -71.183502121075193, -33.054581029348682 ], [ -71.183867385052864, -33.053884442984085 ], [ -71.184123388739167, -33.05318976808362 ], [ -71.184984812011194, -33.050460086311624 ], [ -71.185491663054066, -33.047759662147385 ], [ -71.185528102315246, -33.047022884513105 ], [ -71.18599688275637, -33.046094438404786 ], [ -71.18631079633748, -33.045536812435024 ], [ -71.186786384211814, -33.04488437939392 ], [ -71.186935376988203, -33.044283621516662 ], [ -71.186987763142326, -33.041982166979537 ], [ -71.187078810989618, -33.041244430591163 ], [ -71.18734271895211, -33.040871695471701 ], [ -71.187766980684387, -33.040358152881929 ], [ -71.187808040879389, -33.039805383918619 ], [ -71.187631676436297, -33.039302304081147 ], [ -71.187618029230492, -33.038750420115093 ], [ -71.187771558499065, -33.038333671471889 ], [ -71.187982065211173, -33.038007895026475 ], [ -71.188518955917147, -33.037630367989436 ], [ -71.188896632815428, -33.037439723070186 ], [ -71.189385814894962, -33.037339090924803 ], [ -71.189767956420184, -33.037332455610787 ], [ -71.190585884164477, -33.037271995233276 ], [ -71.191396892186134, -33.036935736576588 ], [ -71.191715386276869, -33.036562033595025 ], [ -71.191757470551295, -33.036055193922543 ], [ -71.191698298523519, -33.035872217263048 ], [ -71.19144516854783, -33.035577556039172 ], [ -71.191273438513278, -33.035258489972243 ], [ -71.190928755837078, -33.034574429131581 ], [ -71.190581799524878, -33.033798361846962 ], [ -71.190458998028916, -33.033248396208897 ], [ -71.190609090343216, -33.032693637350583 ], [ -71.190818346600452, -33.032321854893354 ], [ -71.191383612391292, -33.030885668961147 ], [ -71.191648701638385, -33.030558926577534 ], [ -71.192017228297161, -33.030000327877943 ], [ -71.192440274608856, -33.029440769150973 ], [ -71.193074922678989, -33.028601427788089 ], [ -71.193880140160331, -33.028035144330921 ], [ -71.194575075965801, -33.027424774253696 ], [ -71.194777549044332, -33.0267770431294 ], [ -71.194874138598621, -33.02626931718541 ], [ -71.195012786376196, -33.025254603672558 ], [ -71.195051429204767, -33.02460982940265 ], [ -71.195696372866379, -33.0241843492513 ], [ -71.196479322908459, -33.023825506050997 ], [ -71.20108886699046, -33.022501940803977 ], [ -71.208866089953233, -33.018960580181741 ], [ -71.208973166440146, -33.018911849288095 ], [ -71.211167680610671, -33.017124636304246 ], [ -71.211350397939469, -33.015694998619672 ], [ -71.204956532005227, -33.013323623250216 ], [ -71.20280245459891, -33.012349549618506 ], [ -71.20247150806172, -33.012217325382721 ], [ -71.201658117707936, -33.01025330321901 ], [ -71.201205496162132, -33.009617122208866 ], [ -71.200755080878665, -33.009072944813717 ], [ -71.200748224936419, -33.008797004285157 ], [ -71.200732225941209, -33.008153117597047 ], [ -71.200537428966797, -33.006855141303738 ], [ -71.200712652549484, -33.006723068537035 ], [ -71.200957979758627, -33.006614286406155 ], [ -71.201408046495771, -33.006432302545576 ], [ -71.201937288047091, -33.006109521732128 ], [ -71.202303065861102, -33.005859361043228 ], [ -71.202753035580173, -33.005677226463369 ], [ -71.203287462207328, -33.005563334623403 ], [ -71.203738470378866, -33.005416046134883 ], [ -71.204149759540144, -33.005339193678807 ], [ -71.204728056292481, -33.005328976060049 ], [ -71.205511260557785, -33.005245472991668 ], [ -71.206253966973449, -33.005197548885924 ], [ -71.206620508355456, -33.004982155643106 ], [ -71.207481920847698, -33.004723139138612 ], [ -71.208220282112336, -33.004501088871358 ], [ -71.208834728868339, -33.004281301874045 ], [ -71.209574821186521, -33.004128948697193 ], [ -71.210316645456587, -33.004046148127415 ], [ -71.210972358121822, -33.003825620199123 ], [ -71.211995454788791, -33.003424458454475 ], [ -71.21232504576821, -33.003383820627405 ], [ -71.213106395910771, -33.003230641721387 ], [ -71.213430765881768, -33.002981109461729 ], [ -71.213671629362267, -33.002698264096253 ], [ -71.213954722644274, -33.00244946260603 ], [ -71.214318709217608, -33.002129637012715 ], [ -71.214808344946377, -33.001877242582353 ], [ -71.215093954409483, -33.001732849942819 ], [ -71.215543962756129, -33.001550743758415 ], [ -71.215996580708662, -33.001473044151474 ], [ -71.216533574720884, -33.001463506385363 ], [ -71.216989676340077, -33.001525065641161 ], [ -71.217525798088175, -33.001480670596756 ], [ -71.218018904907197, -33.001367524457429 ], [ -71.218264105453883, -33.001258637029373 ], [ -71.218715062421452, -33.001111295397173 ], [ -71.219247607976399, -33.000927782871102 ], [ -71.219903273030909, -33.000707208724926 ], [ -71.220394536506973, -33.000524277725802 ], [ -71.220968522244291, -33.000340019631686 ], [ -71.221379856321306, -33.000263036184158 ], [ -71.221873734793149, -33.000184581300744 ], [ -71.222328084697551, -33.000176490655768 ], [ -71.222534711585951, -33.000172810349994 ], [ -71.222354443962942, -32.999902694323971 ], [ -71.220700760509231, -32.99810040015258 ], [ -71.22044162978743, -32.997299508503737 ], [ -71.221108366577838, -32.997207121860136 ], [ -71.221272648680355, -32.994223971421313 ], [ -71.220162773858618, -32.993800709715686 ], [ -71.220133529204546, -32.99263330906718 ], [ -71.220200886681184, -32.991504450706586 ], [ -71.220188786374308, -32.991021392872575 ], [ -71.220126915807413, -32.990458627142857 ], [ -71.219726665144378, -32.989740837359719 ], [ -71.219526412701242, -32.98938198134384 ], [ -71.21937509598321, -32.989062514512874 ], [ -71.219313231704533, -32.988499747595334 ], [ -71.219295090227376, -32.987775161180934 ], [ -71.219318653935588, -32.986808195799611 ], [ -71.219672517394002, -32.985674167681672 ], [ -71.219851505816052, -32.985187711225066 ], [ -71.220216536231746, -32.984496569119116 ], [ -71.22035070770427, -32.984131690701403 ], [ -71.220529693431359, -32.983645307126316 ], [ -71.22050347879474, -32.982598633137322 ], [ -71.220443633030527, -32.982116424788401 ], [ -71.220381682513576, -32.981553658800649 ], [ -71.220130851326687, -32.981074847785941 ], [ -71.219786368974795, -32.980678222254738 ], [ -71.219441978251055, -32.980281668037065 ], [ -71.21910061215489, -32.980005839419448 ], [ -71.218608869876775, -32.979450713195646 ], [ -71.218263482023076, -32.979013839000018 ], [ -71.217964833513633, -32.978535797928771 ], [ -71.217759669082511, -32.977975648904547 ], [ -71.217753765354445, -32.977739582555714 ], [ -71.217706896652828, -32.977505649721842 ], [ -71.217662536047456, -32.97702848218205 ], [ -71.217677731050486, -32.976374440367692 ], [ -71.217692830832107, -32.976017959608242 ], [ -71.217681708790579, -32.975373397390648 ], [ -71.21760729235244, -32.975005061415246 ], [ -71.21728834640912, -32.974320832344716 ], [ -71.217279518664824, -32.973915206971384 ], [ -71.21730354141215, -32.973351132432271 ], [ -71.217291989975905, -32.973109923075455 ], [ -71.216836069816395, -32.973228533006434 ], [ -71.215337099610807, -32.97327900437125 ], [ -71.214431735246649, -32.973295067752012 ], [ -71.213750264288976, -32.973211711472615 ], [ -71.213121901730887, -32.972984244772235 ], [ -71.212659657431757, -32.972610665664703 ], [ -71.212252904762693, -32.97218845262271 ], [ -71.212019319432628, -32.971906261447231 ], [ -71.211560741158181, -32.971675776855307 ], [ -71.211163423494526, -32.971635167366145 ], [ -71.210088301796176, -32.971654132531228 ], [ -71.209244293264263, -32.971859958383597 ], [ -71.208513372745131, -32.972063778349437 ], [ -71.207441807476997, -32.972225896621367 ], [ -71.206479858233095, -32.972242902981705 ], [ -71.205513076951291, -32.972069099724003 ], [ -71.204479214873942, -32.971467051343247 ], [ -71.20396516383407, -32.971285239933565 ], [ -71.203510074616204, -32.971197830207885 ], [ -71.202773308759518, -32.971163110923882 ], [ -71.202042464597184, -32.97136689255516 ], [ -71.200575857996341, -32.971583640729136 ], [ -71.199951086004432, -32.971499208152657 ], [ -71.199378087515612, -32.971222973023231 ], [ -71.19880754681742, -32.9710422101749 ], [ -71.198126101012562, -32.970958693505224 ], [ -71.197560289944334, -32.970968655098083 ], [ -71.196149171380284, -32.971136652995 ], [ -71.195246089635276, -32.971247980176933 ], [ -71.194039603699665, -32.971674827278548 ], [ -71.19302687179443, -32.971931231479608 ], [ -71.192125043199255, -32.972090236754212 ], [ -71.19133285937437, -32.972104144973102 ], [ -71.190254095905871, -32.971979837598511 ], [ -71.189281455811766, -32.971567473789364 ], [ -71.188767518857958, -32.971385597020181 ], [ -71.187748979344406, -32.971403524483911 ], [ -71.186849494453782, -32.971657821562438 ], [ -71.186002983215488, -32.971768017640152 ], [ -71.184984435617096, -32.971785923170927 ], [ -71.183567400748572, -32.971715272457708 ], [ -71.182658510496921, -32.97158800049683 ], [ -71.181631295054387, -32.971256978590482 ], [ -71.180832441238522, -32.970999526382322 ], [ -71.178542048081098, -32.969942053460095 ], [ -71.176886977628598, -32.969398257681256 ], [ -71.175975693366709, -32.969175607558107 ], [ -71.174894814365729, -32.968955756704261 ], [ -71.174102649405469, -32.968969554629382 ], [ -71.1732538079373, -32.968984407669772 ], [ -71.172184530678209, -32.969241554492747 ], [ -71.169524105285575, -32.97040929009755 ], [ -71.167730860467657, -32.971156127725607 ], [ -71.166947906832306, -32.971551499023164 ], [ -71.166216963855305, -32.971755074016876 ], [ -71.165205301843585, -32.972058958137879 ], [ -71.164417758715459, -32.972263504141253 ], [ -71.163630123060855, -32.972467974308366 ], [ -71.162786068714851, -32.972673489278385 ], [ -71.161711976485833, -32.972739814934798 ], [ -71.159845763313982, -32.972819913749149 ], [ -71.158316687868293, -32.972798562864703 ], [ -71.157470120934434, -32.972908715316294 ], [ -71.156572755169563, -32.973258203739555 ], [ -71.156130535216448, -32.9736952706984 ], [ -71.155683672769939, -32.973941600764412 ], [ -71.154950364528787, -32.974049705733549 ], [ -71.15436812147739, -32.973391714755863 ], [ -71.154184527392886, -32.972822213051664 ], [ -71.153717884942125, -32.972257594949042 ], [ -71.153145102048981, -32.971981213726458 ], [ -71.152576863732847, -32.971895568938535 ], [ -71.151890814062156, -32.97162106086796 ], [ -71.151371161128182, -32.971200588517213 ], [ -71.151139009509293, -32.970965975913572 ], [ -71.150568466116169, -32.970784915605108 ], [ -71.150001393813284, -32.970746960027462 ], [ -71.148673399057415, -32.970841407685107 ], [ -71.147768019421903, -32.970856986919102 ], [ -71.146860242182882, -32.970777155374073 ], [ -71.145946785794649, -32.970458876789557 ], [ -71.145484910703118, -32.970085033775398 ], [ -71.145249228705183, -32.969707303363947 ], [ -71.144957134304022, -32.969330615145793 ], [ -71.144667260538256, -32.969049258933147 ], [ -71.144320798299461, -32.968768874795714 ], [ -71.143806959262008, -32.968586808371143 ], [ -71.143409673937711, -32.968545908056662 ], [ -71.142906121508574, -32.968793164409149 ], [ -71.141891032424041, -32.968953751980422 ], [ -71.141266230787735, -32.968869025224997 ], [ -71.140640370037715, -32.968736663482609 ], [ -71.139840131019682, -32.968416248455547 ], [ -71.139379356364373, -32.968090160952698 ], [ -71.138916282920249, -32.967668590282173 ], [ -71.138508655292085, -32.967198420181525 ], [ -71.137932499225045, -32.966778782951565 ], [ -71.137360944328904, -32.966549955879991 ], [ -71.136679573982533, -32.966466172683312 ], [ -71.135945061100571, -32.966526463792924 ], [ -71.135435845691873, -32.966535247889709 ], [ -71.134633263867585, -32.966119467857389 ], [ -71.134224603176847, -32.96560150443986 ], [ -71.133468388794256, -32.964755492149244 ], [ -71.132604658648575, -32.964149925408904 ], [ -71.13185640693267, -32.963637752434039 ], [ -71.131567825842609, -32.963404065640937 ], [ -71.131221427384205, -32.963123715591614 ], [ -71.130480062153254, -32.962897679828977 ], [ -71.129909697524866, -32.962716593184858 ], [ -71.129278168405406, -32.96234558151081 ], [ -71.128639689918884, -32.961688348263706 ], [ -71.12800245649737, -32.961078959477014 ], [ -71.127314272429572, -32.960708904188174 ], [ -71.126842236493857, -32.959905729438375 ], [ -71.126602088970643, -32.959337144013162 ], [ -71.126154357853252, -32.958366448985814 ], [ -71.125968607812055, -32.957701564205905 ], [ -71.125731989769591, -32.957276160113146 ], [ -71.125439931301045, -32.956899348037474 ], [ -71.125149018184501, -32.956570312277123 ], [ -71.124633003427419, -32.956292755098801 ], [ -71.123950578458889, -32.956161196872131 ], [ -71.123215083718335, -32.956173704842918 ], [ -71.122700217008202, -32.95594384251909 ], [ -71.122073238753956, -32.955763606949652 ], [ -71.121332047796187, -32.95553765939453 ], [ -71.120701656842172, -32.955214305780274 ], [ -71.119514615839222, -32.954649814840678 ], [ -71.119537938798942, -32.954782541409429 ], [ -71.118948845195192, -32.955252629841979 ], [ -71.118411022037961, -32.955583849656357 ] ] ] } },
{ "type": "Feature", "properties": { "capa": "colegios", "popup": "<strong>ESCUELA LA RAMAYANA</strong><br><br><strong>Dirección:</strong> LA RAMAYANA 0", "etiqueta": "" }, "geometry": { "type": "Point", "coordinates": [ -71.084793, -33.076832 ] } },
{ "type": "Feature", "properties": { "capa": "colegios", "popup": "<strong>ESCUELA LA DORMIDA</strong><br><br><strong>Dirección:</strong> CUESTA LA DORMIDA 0", "etiqueta": "" }, "geometry": { "type": "Point", "coordinates": [ -71.045517, -33.05772 ] } },
{ "type": "Feature", "properties": { "capa": "colegios", "popup": "<strong>ESCUELA BÁSICA QUEBRADA DE ALVARADO</strong><br><br><strong>Dirección:</strong> AVENIDA PEDRO DE ALVARADO 0", "etiqueta": "" }, "geometry": { "type": "Point", "coordinates": [ -71.11219, -33.05262 ] } },
{ "type": "Feature", "properties": { "capa": "colegios", "popup": "<strong>ESCUELA LAS BELLOTAS DE LA VEGA</strong><br><br><strong>Dirección:</strong> CAMINO PUBLICO 0", "etiqueta": "" }, "geometry": { "type": "Point", "coordinates": [ -71.032623, -33.041241 ] } },
{ "type": "Feature", "properties": { "capa": "colegios", "popup": "<strong>ESCUELA LAS PALMAS DEL NIÑO DIOS</strong><br><br><strong>Dirección:</strong> SECTOR LOS CORRALES 0", "etiqueta": "" }, "geometry": { "type": "Point", "coordinates": [ -71.072533, -33.02272 ] } },
{ "type": "Feature", "properties": { "capa": "colegios", "popup": "<strong>ESCUELA DE LENGUAJE SAN RAFAEL</strong><br><br><strong>Dirección:</strong> AVENIDA GRANIZO 5758", "etiqueta": "" }, "geometry": { "type": "Point", "coordinates": [ -71.1741, -33.012405 ] } },
{ "type": "Feature", "properties": { "capa": "colegios", "popup": "<strong>ESCUELA BASICA LO NARVAEZ</strong><br><br><strong>Dirección:</strong> LAUTARO 0", "etiqueta": "" }, "geometry": { "type": "Point", "coordinates": [ -71.171913, -33.00528 ] } },
{ "type": "Feature", "properties": { "capa": "colegios", "popup": "<strong>ESCUELA ESPECIAL HELLEN KELLER</strong><br><br><strong>Dirección:</strong> CALLE BAQUEDANO 5970", "etiqueta": "" }, "geometry": { "type": "Point", "coordinates": [ -71.17496, -33.003372 ] } },
{ "type": "Feature", "properties": { "capa": "colegios", "popup": "<strong>LICEO DE OLMUE</strong><br><br><strong>Dirección:</strong> BLANCO ENCALADA 4631", "etiqueta": "" }, "geometry": { "type": "Point", "coordinates": [ -71.190536, -32.99622 ] } },
{ "type": "Feature", "properties": { "capa": "colegios", "popup": "<strong>ESCUELA ATENAS</strong><br><br><strong>Dirección:</strong> PRAT 101", "etiqueta": "" }, "geometry": { "type": "Point", "coordinates": [ -71.181824, -32.995369 ] } },
{ "type": "Feature", "properties": { "capa": "colegios", "popup": "<strong>COLEGIO PART. IGNACIO CARRERA PINTO</strong><br><br><strong>Dirección:</strong> PRAT 4917", "etiqueta": "" }, "geometry": { "type": "Point", "coordinates": [ -71.184921, -32.995338 ] } },
{ "type": "Feature", "properties": { "capa": "colegios", "popup": "<strong>ESCUELA MONTEVIDEO</strong><br><br><strong>Dirección:</strong> AVENIDA GRANIZO 6883", "etiqueta": "" }, "geometry": { "type": "Point", "coordinates": [ -71.161797, -32.991791 ] } },
{ "type": "Feature", "properties": { "capa": "jardines", "popup": "<strong>BLANCA NIEVES</strong><br><br><strong>Dirección:</strong> BAQUEDANO S/N, POB. CARLOS CONDELL, LO NARVAEZ ", "etiqueta": "" }, "geometry": { "type": "MultiPoint", "coordinates": [ [ -71.17113, -33.001744 ] ] } },
{ "type": "Feature", "properties": { "capa": "jardines", "popup": "<strong>LAS ACACIAS</strong><br><br><strong>Dirección:</strong> AV. GRANIZO 6785,PARADERO 35 ", "etiqueta": "" }, "geometry": { "type": "MultiPoint", "coordinates": [ [ -71.1619, -32.992297 ] ] } },
{ "type": "Feature", "properties": { "capa": "jardines", "popup": "<strong>NIDO DE CONDORES</strong><br><br><strong>Dirección:</strong> RUTA F-10-G,SECTOR QUEBRADA DE ALVARADO ", "etiqueta": "" }, "geometry": { "type": "MultiPoint", "coordinates": [ [ -71.112268, -33.053128 ] ] } },
{ "type": "Feature", "properties": { "capa": "jardines", "popup": "<strong>LOS PATAGÜITOS DE OLMUÉ</strong><br><br><strong>Dirección:</strong> ALCALDE HUGO QUINTEROS N 5871,VILLA OLIMPICA ", "etiqueta": "" }, "geometry": { "type": "MultiPoint", "coordinates": [ [ -71.169673, -33.000732 ] ] } },
{ "type": "Feature", "properties": { "capa": "jardines", "popup": "<strong>RETOÑOS DE AMOR</strong><br><br><strong>Dirección:</strong> CAMINO PUBLICO S/N ", "etiqueta": "" }, "geometry": { "type": "MultiPoint", "coordinates": [ [ -71.032762, -33.041301 ] ] } },
{ "type": "Feature", "properties": { "capa": "jardines", "popup": "<strong>NA</strong><br><br><strong>Dirección:</strong> NA ", "etiqueta": "" }, "geometry": { "type": "MultiPoint", "coordinates": [ [ -71.099445000205293, -33.044433999681317 ] ] } },
{ "type": "Feature", "properties": { "capa": "bomberos", "popup": "<strong>Cuerpo de Bomberos</strong><br><br><strong>Dirección:</strong> Diego Portales 2005", "etiqueta": "" }, "geometry": { "type": "Point", "coordinates": [ -71.185874933955304, -32.998223008470511 ] } },
{ "type": "Feature", "properties": { "capa": "comisarias", "popup": "<strong>TCIA. OLMUE</strong><br><br><strong>Dirección:</strong> ADOLFO EASTMAN S/N", "etiqueta": "" }, "geometry": { "type": "Point", "coordinates": [ -71.187728, -32.998334 ] } },
{ "type": "Feature", "properties": { "capa": "salud", "popup": "<strong>Posta de Salud Rural Quebrada Alvarado</strong><br><br><strong>Tipo de atención:</strong> Posta de Salud Rural (PSR)<br><strong>Dirección:</strong>  NA", "etiqueta": "" }, "geometry": { "type": "Point", "coordinates": [ -71.10814, -33.05398 ] } },
{ "type": "Feature", "properties": { "capa": "salud", "popup": "<strong>Posta de Salud Rural La Vega (Olmué)</strong><br><br><strong>Tipo de atención:</strong> Posta de Salud Rural (PSR)<br><strong>Dirección:</strong>  NA", "etiqueta": "" }, "geometry": { "type": "Point", "coordinates": [ -71.04649, -33.03775 ] } },
{ "type": "Feature", "properties": { "capa": "salud", "popup": "<strong>Posta de Salud Rural Las Palmas</strong><br><br><strong>Tipo de atención:</strong> Posta de Salud Rural (PSR)<br><strong>Dirección:</strong>  NA", "etiqueta": "" }, "geometry": { "type": "Point", "coordinates": [ -71.0724, -33.02285 ] } },
{ "type": "Feature", "properties": { "capa": "salud", "popup": "<strong>SAPU  Manuel Lucero (Olmué)</strong><br><br><strong>Tipo de atención:</strong> Servicio de Atención Primaria de Urgencia (SAPU)<br><strong>Dirección:</strong>  2250", "etiqueta": "" }, "geometry": { "type": "Point", "coordinates": [ -71.180597, -32.99447 ] } },
{ "type": "Feature", "properties": { "capa": "salud", "popup": "<strong>Centro de Salud Familiar Manuel Lucero</strong><br><br><strong>Tipo de atención:</strong> Centro de Salud Familiar (CESFAM)<br><strong>Dirección:</strong>  2250", "etiqueta": "" }, "geometry": { "type": "Point", "coordinates": [ -71.18069, -32.99443 ] } },
{ "type": "Feature", "properties": { "capa": "salud", "popup": "<strong>SUR  Manuel Lucero (Olmué)</strong><br><br><strong>Tipo de atención:</strong> Servicio de Urgencia Rural (SUR)<br><strong>Dirección:</strong>  2250", "etiqueta": "" }, "geometry": { "type": "Point", "coordinates": [ -71.18101, -32.990852 ] } }
]
}
