{
"type": "FeatureCollection",
"name": "6102",
"crs": { "type": "name", "properties": { "name": "urn:ogc:def:crs:OGC:1.3:CRS84" } },
"features": [
{ "type": "Feature", "properties": { "capa": "comuna", "popup": "", "etiqueta": "" }, "geometry": { "type": "Polygon", "coordinates": [ [ [ -70.352925237897551, -33.952629586186724 ], [ -70.352427911691635, -33.952674206632736 ], [ -70.352010032489446, -33.952658407923032 ], [ -70.351510989603028, -33.95273466152112 ], [ -70.351163981188563, -33.952816706361112 ], [ -70.350701185323857, -33.952926098861226 ], [ -70.350312690912943, -33.953070060148796 ], [ -70.350070994694164, -33.953314654734406 ], [ -70.349831011562642, -33.953527612030605 ], [ -70.34966343803292, -33.953806778400619 ], [ -70.349307752791105, -33.954047081099056 ], [ -70.349071200325668, -33.954196760918272 ], [ -70.348639492457991, -33.954434201191738 ], [ -70.348518639407885, -33.954556460100235 ], [ -70.348117123018596, -33.954937773297651 ], [ -70.347713159618479, -33.955366539034934 ], [ -70.347383408738949, -33.955829953127221 ], [ -70.347176137758495, -33.956139323643193 ], [ -70.34677722828016, -33.956473101630344 ], [ -70.346570042639655, -33.956782470552909 ], [ -70.346440507372321, -33.95706306356788 ], [ -70.346348938502146, -33.957345089250879 ], [ -70.346209096863547, -33.957815729789274 ], [ -70.3461918312438, -33.958132255769769 ], [ -70.346212532919509, -33.958450285677117 ], [ -70.346210816239008, -33.959179827533291 ], [ -70.3461987024574, -33.959401365541936 ], [ -70.34640418040054, -33.959821613278933 ], [ -70.346462940999913, -33.960141073397757 ], [ -70.346483643573947, -33.960459029483317 ], [ -70.34653363841278, -33.960936754893062 ], [ -70.346550907625797, -33.961318133375592 ], [ -70.346537077163674, -33.961571309109104 ], [ -70.346438722419862, -33.961979958049263 ], [ -70.346709840260814, -33.962592966894597 ], [ -70.347065576706569, -33.963050574854165 ], [ -70.347432524127086, -33.963302389424697 ], [ -70.347860772582592, -33.963826132793081 ], [ -70.348556710009618, -33.964328324611216 ], [ -70.349062804671021, -33.964823358793829 ], [ -70.349180175851089, -33.965462204502941 ], [ -70.349085262553118, -33.965807579662865 ], [ -70.349660268776589, -33.966432098479224 ], [ -70.350358043258353, -33.966902640318288 ], [ -70.350829446780139, -33.967332814940583 ], [ -70.350808766663974, -33.967712762618397 ], [ -70.350864027426994, -33.968095422694802 ], [ -70.350624047888715, -33.969006357216429 ], [ -70.350520377813368, -33.969509922781697 ], [ -70.350093784054621, -33.970350358762886 ], [ -70.349751885257476, -33.971035242895574 ], [ -70.349311425103991, -33.971431022897967 ], [ -70.348664648879208, -33.972120207299966 ], [ -70.348150034595662, -33.9724814100516 ], [ -70.34773722907822, -33.973068514994416 ], [ -70.347488423592281, -33.97343973132871 ], [ -70.347086089736081, -33.973836858958485 ], [ -70.346721639632051, -33.9742354917935 ], [ -70.346236301443611, -33.974756380945365 ], [ -70.345614521739932, -33.975684484499524 ], [ -70.344859638660594, -33.976258550899132 ], [ -70.34434317744082, -33.976651376733486 ], [ -70.343512414567741, -33.977222570087918 ], [ -70.342724775319894, -33.977700204318971 ], [ -70.34204417752467, -33.978308903681153 ], [ -70.3415656674307, -33.978703151040456 ], [ -70.341233171299635, -33.979213932573408 ], [ -70.340882517521749, -33.979359300473163 ], [ -70.340488636812367, -33.979598073931065 ], [ -70.339790762617596, -33.979825381003472 ], [ -70.338904721015211, -33.980013805289495 ], [ -70.338134324929229, -33.980174814206755 ], [ -70.337222346269641, -33.980140182547444 ], [ -70.336263696537785, -33.980262445478964 ], [ -70.335389783090037, -33.980229233654576 ], [ -70.334740287664886, -33.980268048692729 ], [ -70.334026982210162, -33.980082304417671 ], [ -70.332563933836155, -33.980375636731686 ], [ -70.332023197442453, -33.980513729364283 ], [ -70.331211448310697, -33.980736607012226 ], [ -70.330553327262194, -33.980933585993967 ], [ -70.330007412979199, -33.981166656528316 ], [ -70.329501284181831, -33.981369449951309 ], [ -70.329318073677939, -33.981933475507233 ], [ -70.329098608067511, -33.982464426409024 ], [ -70.328999969456063, -33.98287299059735 ], [ -70.328740796513429, -33.983434142848978 ], [ -70.328353623524279, -33.984244233531733 ], [ -70.32828959789903, -33.984717581055918 ], [ -70.32818578139829, -33.985221204779386 ], [ -70.328040534596639, -33.985786665450235 ], [ -70.327786521576982, -33.986252829170951 ], [ -70.327783746681092, -33.986998190777669 ], [ -70.327902809388846, -33.98760541878017 ], [ -70.3280113465364, -33.988402621981706 ], [ -70.328016381593599, -33.989005540025545 ], [ -70.327979896518301, -33.989670296856119 ], [ -70.327793209534278, -33.990297595856411 ], [ -70.327602984086354, -33.990988243564168 ], [ -70.327207052523192, -33.991956592852489 ], [ -70.326868337355421, -33.992578067752419 ], [ -70.326526080130478, -33.993262966463035 ], [ -70.326000801946208, -33.99381390530948 ], [ -70.325708683290529, -33.994278628520398 ], [ -70.324963127418798, -33.994678497911764 ], [ -70.324337690673588, -33.994971870713236 ], [ -70.324083542008339, -33.995438027989337 ], [ -70.323862285157247, -33.996000607672435 ], [ -70.323913908641686, -33.996446704931031 ], [ -70.323887835938862, -33.99692148816569 ], [ -70.323526632346272, -33.997256706575804 ], [ -70.323125714234962, -33.997622124348986 ], [ -70.322773226097269, -33.997799005672121 ], [ -70.32214603134905, -33.998124004835546 ], [ -70.321670861191294, -33.998454902670566 ], [ -70.321383064330476, -33.998840375060311 ], [ -70.32112716125549, -33.999338237908979 ], [ -70.321066542940102, -33.99974823428375 ], [ -70.32111478696244, -34.000257604668555 ], [ -70.321499815673008, -34.000875057631774 ], [ -70.321922923070133, -34.001493872675276 ], [ -70.322494442033687, -34.00218186381661 ], [ -70.323653310072686, -34.003272802390086 ], [ -70.324247395614478, -34.004247104795176 ], [ -70.325206087567167, -34.004822832558744 ], [ -70.326042024736267, -34.005552503765834 ], [ -70.32630606924269, -34.006292252442755 ], [ -70.326485601145478, -34.007187312240362 ], [ -70.326639954169153, -34.007843433866455 ], [ -70.326795304322829, -34.00848373527748 ], [ -70.327152863450308, -34.008909831714469 ], [ -70.327544872968929, -34.009400493557294 ], [ -70.327790105854973, -34.009790566619635 ], [ -70.327682606261561, -34.010327323710108 ], [ -70.32927671703888, -34.010463617006614 ], [ -70.330645437816472, -34.010515746634496 ], [ -70.33139159106787, -34.010800733679496 ], [ -70.332684246998795, -34.010849896446835 ], [ -70.333754976833703, -34.010764561177183 ], [ -70.335123703001202, -34.010816566265085 ], [ -70.336274409845856, -34.010666660706733 ], [ -70.337093493721923, -34.009621435296516 ], [ -70.338399748349602, -34.009418844080955 ], [ -70.339554585647946, -34.009205921019763 ], [ -70.340546214330502, -34.009180563231538 ], [ -70.342149214835885, -34.009115355859905 ], [ -70.34343142515668, -34.009353123080302 ], [ -70.344219505477326, -34.010270168343624 ], [ -70.345107245793926, -34.010749810548006 ], [ -70.345905687283079, -34.011478127715037 ], [ -70.346916689033065, -34.012498281748115 ], [ -70.347652676948726, -34.012972031820119 ], [ -70.348685372114502, -34.013583108515427 ], [ -70.350123607223736, -34.013763686382546 ], [ -70.350856185134575, -34.014300397507377 ], [ -70.352801910887123, -34.014941592899049 ], [ -70.353465137061391, -34.015349472248225 ], [ -70.354039169511111, -34.016006181582121 ], [ -70.354349805139734, -34.017287964702319 ], [ -70.354688136726864, -34.018061993560771 ], [ -70.355338647248288, -34.018717114584888 ], [ -70.356451066098913, -34.019268070744573 ], [ -70.357743769640521, -34.019317041722303 ], [ -70.358874370392499, -34.019548930321193 ], [ -70.35936807638781, -34.020265748974907 ], [ -70.360999902034024, -34.021088468232605 ], [ -70.361334771514066, -34.021929815474159 ], [ -70.36170144854168, -34.022195916113766 ], [ -70.364870965375488, -34.022757017842508 ], [ -70.365921749916154, -34.023053408042756 ], [ -70.367241888006546, -34.023990464128218 ], [ -70.368635511880456, -34.024993396751391 ], [ -70.369395704901436, -34.026418250641811 ], [ -70.369169765132739, -34.027774372817547 ], [ -70.369142166192262, -34.028282272971559 ], [ -70.370106688211152, -34.028759987929362 ], [ -70.370846369100917, -34.029170760934598 ], [ -70.37127494903477, -34.029695810685922 ], [ -70.371693174986646, -34.030409724328948 ], [ -70.372025579489559, -34.031309427677414 ], [ -70.372195188601722, -34.032392236278739 ], [ -70.372150490229814, -34.033214738221837 ], [ -70.372112549883781, -34.033911355723298 ], [ -70.372544495805002, -34.034373495173341 ], [ -70.373336548475848, -34.035227579632583 ], [ -70.374300981561504, -34.035709840392592 ], [ -70.37542086900541, -34.036130368876542 ], [ -70.37661684465219, -34.036558234477916 ], [ -70.377816533934336, -34.036918673458736 ], [ -70.378778212785335, -34.037463871066898 ], [ -70.37960077853144, -34.037747037634247 ], [ -70.380161126944415, -34.038659894102274 ], [ -70.380603586747711, -34.038928777680788 ], [ -70.381896679259853, -34.03897741201218 ], [ -70.383708609035693, -34.039297886948958 ], [ -70.384537859145837, -34.039455135977725 ], [ -70.385872819438418, -34.040140348874473 ], [ -70.386220198857103, -34.040356133905881 ], [ -70.386191588413624, -34.040386671473556 ], [ -70.388572662905716, -34.040838208444519 ], [ -70.388688448559321, -34.040836900570767 ], [ -70.389980704739926, -34.040533078055688 ], [ -70.390449598368761, -34.040461730541033 ], [ -70.391199228100319, -34.040453323488116 ], [ -70.391809042244432, -34.040485352017967 ], [ -70.392703851403994, -34.04074833060082 ], [ -70.393190064551519, -34.041063288224258 ], [ -70.393414292131268, -34.041208495193622 ], [ -70.39394768659416, -34.041640596708767 ], [ -70.394221626043404, -34.041862584479695 ], [ -70.394394046882411, -34.041965307463741 ], [ -70.395120926779413, -34.042398532836351 ], [ -70.395921982366019, -34.04266255206123 ], [ -70.396907872610569, -34.042768369133391 ], [ -70.397563914059191, -34.042760985806886 ], [ -70.398499757362615, -34.042672257063906 ], [ -70.399249493095368, -34.042663798869043 ], [ -70.399903519622811, -34.042539261659257 ], [ -70.400461375210895, -34.042259794960124 ], [ -70.40073415852838, -34.04211351864555 ], [ -70.401204689785985, -34.041861268433728 ], [ -70.40208587779091, -34.041304921559345 ], [ -70.40254874102925, -34.040948517136258 ], [ -70.402922315321632, -34.040866243237659 ], [ -70.403575680689016, -34.040702762642127 ], [ -70.403994812142699, -34.040541880367279 ], [ -70.404508921573054, -34.040457995975501 ], [ -70.404883777761341, -34.040453712055665 ], [ -70.405632935877364, -34.040406142293662 ], [ -70.406006503881528, -34.040323785242364 ], [ -70.406286293159923, -34.040242647412349 ], [ -70.406752905966272, -34.04012021846809 ], [ -70.4071264721738, -34.040037931855871 ], [ -70.407500038381343, -34.039955643675029 ], [ -70.408152741690358, -34.039753066798148 ], [ -70.409222067458501, -34.0392336667027 ], [ -70.409638599187758, -34.038916773555712 ], [ -70.410101972669182, -34.038599341024671 ], [ -70.410705877695335, -34.038280294187963 ], [ -70.411313832326812, -34.038195305100011 ], [ -70.412157123104834, -34.038185620428301 ], [ -70.412766280580442, -34.038178621558821 ], [ -70.413378583057892, -34.038366611201411 ], [ -70.413757312781669, -34.038596362686043 ], [ -70.414231028566988, -34.038903031264603 ], [ -70.414611705838297, -34.039249774620714 ], [ -70.415088022246323, -34.039712506552519 ], [ -70.416037513653876, -34.040442823975575 ], [ -70.416984313708824, -34.040775650075055 ], [ -70.417163412623651, -34.040787547490837 ], [ -70.418759048740327, -34.040893915509294 ], [ -70.419031250847837, -34.040912048565225 ], [ -70.420214664453667, -34.040697370352646 ], [ -70.421587544431034, -34.040685638921055 ], [ -70.42374064626695, -34.04032451994879 ], [ -70.42514069489178, -34.039804771257266 ], [ -70.426706183547509, -34.039038934766175 ], [ -70.430212036810204, -34.037615719844233 ], [ -70.432454995327362, -34.037001050937747 ], [ -70.433560869052812, -34.036281113834569 ], [ -70.434715887810867, -34.036067367082154 ], [ -70.435918892774723, -34.036368836110562 ], [ -70.436417702099178, -34.037017900714517 ], [ -70.436836503871149, -34.0377315770642 ], [ -70.438779984733813, -34.03843894010879 ], [ -70.439731399434393, -34.03917237410753 ], [ -70.440970079193121, -34.040236269528968 ], [ -70.441835143337016, -34.041155751696806 ], [ -70.442641426220277, -34.041757670687964 ], [ -70.4432088650358, -34.042539833330757 ], [ -70.443863693758786, -34.043131628152587 ], [ -70.446344240498902, -34.045191980733357 ], [ -70.448185180468542, -34.046404289405437 ], [ -70.448835717041092, -34.047063479665518 ], [ -70.450102019994858, -34.047614860623568 ], [ -70.452238455387288, -34.048995744986861 ], [ -70.45311718470326, -34.049663369620923 ], [ -70.453751680059796, -34.050637202061189 ], [ -70.45438875447951, -34.051548132755372 ], [ -70.45529973960241, -34.053041117122405 ], [ -70.455450096919719, -34.054505944447335 ], [ -70.455531516623807, -34.055842162228252 ], [ -70.455608867857961, -34.057241220025631 ], [ -70.455537710507684, -34.05857178250168 ], [ -70.455476638543104, -34.059713480203683 ], [ -70.455503721850604, -34.06074206589598 ], [ -70.455545678564249, -34.06126991114467 ], [ -70.457506929001568, -34.061657845095596 ], [ -70.459098133728972, -34.06184292572339 ], [ -70.462053541606366, -34.063605135397459 ], [ -70.463441577959216, -34.064732981794762 ], [ -70.464231639065048, -34.065649497004102 ], [ -70.465689137647246, -34.066910420916017 ], [ -70.466617263524071, -34.068088777205496 ], [ -70.467734833314509, -34.068571417359529 ], [ -70.469405924321805, -34.068696161893847 ], [ -70.470921067795771, -34.068878230526842 ], [ -70.472736464170296, -34.069138975713969 ], [ -70.474493574255931, -34.069073209442287 ], [ -70.476403003579435, -34.069017482942165 ], [ -70.478391366968665, -34.068901677401023 ], [ -70.479470209488895, -34.068689235491448 ], [ -70.480462712232253, -34.068662728677054 ], [ -70.482587910598809, -34.068835601385786 ], [ -70.48409314565518, -34.069206297165927 ], [ -70.486137762445821, -34.069470723286358 ], [ -70.487579795632058, -34.069591341059663 ], [ -70.489472537850872, -34.069850089055237 ], [ -70.491063416489808, -34.070034756660959 ], [ -70.492962845767565, -34.07016763749661 ], [ -70.495170139371311, -34.070214892911693 ], [ -70.495394372340954, -34.070674607364658 ], [ -70.495819636593097, -34.070864528859403 ], [ -70.496197354813887, -34.0710159487383 ], [ -70.496666738024544, -34.071049237412495 ], [ -70.497131915323081, -34.070848472338795 ], [ -70.49768961729923, -34.070568642815516 ], [ -70.497873714440288, -34.070371300297218 ], [ -70.498102523428003, -34.070056398718364 ], [ -70.498798735739499, -34.069657787804267 ], [ -70.499358395144654, -34.06949486649971 ], [ -70.499684442270308, -34.069373872804263 ], [ -70.500245563234415, -34.069289013852668 ], [ -70.500884260909842, -34.069591331386015 ], [ -70.501049238308411, -34.069669319521914 ], [ -70.501568229184016, -34.069858076483683 ], [ -70.502180253183724, -34.070006614685646 ], [ -70.502695804410109, -34.070000310477091 ], [ -70.50325752634717, -34.069954434546808 ], [ -70.50400263934948, -34.069672209706333 ], [ -70.504372091273012, -34.069355574686064 ], [ -70.504647821962948, -34.0690400874212 ], [ -70.505248204694894, -34.068525597954014 ], [ -70.505853323344994, -34.068284082381865 ], [ -70.507116715757206, -34.068151577358826 ], [ -70.508522753450023, -34.068134323748147 ], [ -70.509133481180768, -34.068204834632446 ], [ -70.509795221541552, -34.068508816945844 ], [ -70.510599621555968, -34.068928055405777 ], [ -70.511407493558963, -34.069542344039874 ], [ -70.511883020347881, -34.069926614750287 ], [ -70.512313948477896, -34.070428446430242 ], [ -70.512891617307858, -34.071279659328084 ], [ -70.51328046475669, -34.07205511160592 ], [ -70.513851909160067, -34.072555280262989 ], [ -70.514325471333436, -34.072822551034896 ], [ -70.515122750402625, -34.073032788240219 ], [ -70.52814344596699, -34.074629472707599 ], [ -70.528477179976491, -34.07506611686869 ], [ -70.528811002020916, -34.075374073969648 ], [ -70.529242581429514, -34.075914913300878 ], [ -70.529580526741071, -34.076456844444138 ], [ -70.529821945380419, -34.076843956616194 ], [ -70.529924089218113, -34.077310813028824 ], [ -70.530028339605153, -34.077894731119102 ], [ -70.529976327150194, -34.078087815015721 ], [ -70.529764602322572, -34.078873348534231 ], [ -70.529585560899918, -34.079343705633121 ], [ -70.52963943915573, -34.079733154280596 ], [ -70.529739482732282, -34.080083022986955 ], [ -70.530119404520448, -34.08035139721467 ], [ -70.530312479424467, -34.080661102168207 ], [ -70.530380398348157, -34.081830685675634 ], [ -70.530623942401448, -34.082334783782166 ], [ -70.531155098262658, -34.083186485630236 ], [ -70.531775694885113, -34.083802893941574 ], [ -70.532159152442247, -34.084266239756921 ], [ -70.532639163621042, -34.084884544827965 ], [ -70.532927488691271, -34.085271064950355 ], [ -70.532981387608316, -34.085660511634437 ], [ -70.532847109236272, -34.086013226879146 ], [ -70.532900216737559, -34.086363751868078 ], [ -70.533049348752812, -34.086830017907516 ], [ -70.533196284387216, -34.087179297825827 ], [ -70.533205427440166, -34.087686389062881 ], [ -70.533211755173042, -34.088037350527678 ], [ -70.533171918483433, -34.088428038806036 ], [ -70.533178951393793, -34.088818069854902 ], [ -70.533300364094345, -34.089617843484533 ], [ -70.533716505954771, -34.090020717760957 ], [ -70.534283879193268, -34.090286736409581 ], [ -70.534901914718844, -34.090747216048868 ], [ -70.535477835427301, -34.091481175713248 ], [ -70.535956502726435, -34.09202140035422 ], [ -70.53657579140183, -34.092559863653676 ], [ -70.537144072837094, -34.092864862538612 ], [ -70.537948041660172, -34.093244916539902 ], [ -70.538516332078586, -34.093549908492982 ], [ -70.539181107846716, -34.094009706812344 ], [ -70.539472319203938, -34.09455219092839 ], [ -70.540091031160941, -34.095051639780216 ], [ -70.540942702322241, -34.095470078834389 ], [ -70.541605473050666, -34.095812875758682 ], [ -70.541845500199614, -34.096121971445207 ], [ -70.542366861729292, -34.096427534010154 ], [ -70.542695776277284, -34.096462481242042 ], [ -70.543074395508299, -34.096652747350284 ], [ -70.543465238115388, -34.097149351839512 ], [ -70.543513346492105, -34.09758348235389 ], [ -70.543658928365375, -34.097854756538773 ], [ -70.54380309539205, -34.098048040399263 ], [ -70.544088682397287, -34.098278475888868 ], [ -70.544424602007894, -34.098703448027337 ], [ -70.5447628311871, -34.099245401437585 ], [ -70.544911963202352, -34.099711650828375 ], [ -70.545161231320662, -34.100527753283451 ], [ -70.545698325944187, -34.101691418054024 ], [ -70.545731563609706, -34.102010199404013 ], [ -70.545755133606136, -34.102236836473693 ], [ -70.545814779944365, -34.102938310006024 ], [ -70.545925888070272, -34.103402894443356 ], [ -70.546253463230215, -34.103792211593799 ], [ -70.546374418688288, -34.103807087367045 ], [ -70.546488275658959, -34.1038661545523 ], [ -70.546721550171952, -34.104041026204833 ], [ -70.54715388596199, -34.104364974208934 ], [ -70.547959515770046, -34.104822873569262 ], [ -70.548342449609365, -34.105247240106181 ], [ -70.548678419525629, -34.105672198818304 ], [ -70.548872420592687, -34.106020789578608 ], [ -70.549020168304097, -34.106409042202415 ], [ -70.549261763911559, -34.106796111147069 ], [ -70.549642578625111, -34.107103413588632 ], [ -70.549978650949313, -34.107528292317262 ], [ -70.55031401450276, -34.107914175003287 ], [ -70.550831983095591, -34.108242273384 ], [ -70.551119697311407, -34.10837219870578 ], [ -70.552023335113589, -34.109063005407123 ], [ -70.552454703418093, -34.109564755393514 ], [ -70.552502461451837, -34.109714257789456 ], [ -70.552703363376921, -34.110341842171813 ], [ -70.553187327142993, -34.111154956305214 ], [ -70.55390062900446, -34.111692139092924 ], [ -70.554515180863362, -34.11195746338322 ], [ -70.554893984249006, -34.112147688701185 ], [ -70.555753757315856, -34.112995110802586 ], [ -70.55652040473214, -34.113882638633392 ], [ -70.556902707055812, -34.114267907015055 ], [ -70.557756084117855, -34.114764285407453 ], [ -70.558418984203684, -34.115106984832344 ], [ -70.559649775855917, -34.115715571012331 ], [ -70.560263657571625, -34.115941870161869 ], [ -70.56078529308742, -34.116247273395196 ], [ -70.56098071528929, -34.116673908956948 ], [ -70.560988600700853, -34.117103001068088 ], [ -70.560996485214091, -34.117532018862725 ], [ -70.56087294350634, -34.118469908361114 ], [ -70.560802822811894, -34.119758155544616 ], [ -70.560868435760241, -34.120771647838183 ], [ -70.561168400301611, -34.121782235117152 ], [ -70.561463438481937, -34.122519707858473 ], [ -70.561846520543284, -34.122943952894332 ], [ -70.562416441403926, -34.123326816663834 ], [ -70.562750489823799, -34.123634671073816 ], [ -70.563036845786897, -34.123904053917812 ], [ -70.56332329337819, -34.12417358240193 ], [ -70.563516593759346, -34.124483226654398 ], [ -70.563942990787041, -34.124711820273596 ], [ -70.564098157684384, -34.124773816938124 ], [ -70.564604644909565, -34.124976418082895 ], [ -70.564844123187882, -34.12524654177642 ], [ -70.564903320368487, -34.125909003233218 ], [ -70.565007884267558, -34.126492877569781 ], [ -70.565205596275064, -34.127036413108584 ], [ -70.56559087741222, -34.127577777509998 ], [ -70.566303677115442, -34.128075811136874 ], [ -70.566687617067885, -34.128539033532093 ], [ -70.56697616132702, -34.128925465063418 ], [ -70.567031691584631, -34.129392951815134 ], [ -70.56699847817363, -34.130134598145659 ], [ -70.566964455380571, -34.130837251654789 ], [ -70.56727901934191, -34.132627786111691 ], [ -70.568191875655529, -34.133786541963332 ], [ -70.56886217426603, -34.134519199564508 ], [ -70.569623479401344, -34.135094673279461 ], [ -70.570428080638393, -34.135474422323163 ], [ -70.571280939372514, -34.135931703413895 ], [ -70.571804907813117, -34.13635411226322 ], [ -70.572663654105583, -34.137123412702628 ], [ -70.573003576609111, -34.137743192590975 ], [ -70.573107579061116, -34.138288061789005 ], [ -70.573179922187578, -34.138740111129032 ], [ -70.573213660214705, -34.138949841096775 ], [ -70.573149376772975, -34.139325633683043 ], [ -70.573086617772276, -34.139692690584489 ], [ -70.572772705987816, -34.14047701211269 ], [ -70.572551950396644, -34.141221060817884 ], [ -70.572519507740154, -34.142001774872924 ], [ -70.572532516243783, -34.142703750546367 ], [ -70.572593149830524, -34.143444268943881 ], [ -70.573134436891493, -34.144802761802687 ], [ -70.573330714289497, -34.145268365272841 ], [ -70.57352563612973, -34.145655978243418 ], [ -70.573864879506885, -34.146236760199685 ], [ -70.574346913691713, -34.146932868348522 ], [ -70.574600911439973, -34.147008282780789 ], [ -70.575101852466602, -34.147157279596165 ], [ -70.575573214665852, -34.147268240843736 ], [ -70.576280532849196, -34.147454178092104 ], [ -70.576890339806795, -34.147446418788867 ], [ -70.577640936125576, -34.147436699028312 ], [ -70.578065311045577, -34.147548254661707 ], [ -70.578442062679116, -34.147621492494565 ], [ -70.578915518851304, -34.147849424324093 ], [ -70.579572230443105, -34.147841048746685 ], [ -70.579951615937063, -34.147888613926725 ], [ -70.580070238470327, -34.147903412803345 ], [ -70.581456000288867, -34.148206902947813 ], [ -70.581883292936894, -34.148474496095524 ], [ -70.582265870145051, -34.148859675235705 ], [ -70.582791340568818, -34.149360096227305 ], [ -70.583077935483786, -34.149629426074505 ], [ -70.5835506873768, -34.149818345934868 ], [ -70.583879822910376, -34.149853176691636 ], [ -70.584301944855639, -34.14984772890412 ], [ -70.584820962680709, -34.149997042611801 ], [ -70.585199916085003, -34.15018724107204 ], [ -70.586058194355218, -34.150917370862878 ], [ -70.586579323221216, -34.151183734746361 ], [ -70.587100453883849, -34.151450096302995 ], [ -70.587711831994852, -34.151520122212219 ], [ -70.588039514054316, -34.151476879012208 ], [ -70.588407525978454, -34.151082006590357 ], [ -70.588544583737971, -34.1508852138534 ], [ -70.588865687434591, -34.150490946779009 ], [ -70.589286439449054, -34.15040749169647 ], [ -70.589663210845529, -34.150480619255141 ], [ -70.590134519145849, -34.150591525585014 ], [ -70.590792065272581, -34.150622007794631 ], [ -70.591730941288404, -34.150648912686279 ], [ -70.592343049729735, -34.150757983309042 ], [ -70.592999777491229, -34.150749460824258 ], [ -70.593563520637673, -34.15078114656184 ], [ -70.59422033553578, -34.150772616645291 ], [ -70.594828692612481, -34.150686632005197 ], [ -70.595342511887011, -34.150563016386577 ], [ -70.596552878544628, -34.150167510017297 ], [ -70.597208040542583, -34.149953477474618 ], [ -70.598001058902355, -34.149709059993206 ], [ -70.5984679654578, -34.149586042142964 ], [ -70.599077865840172, -34.149578023580858 ], [ -70.599829211353935, -34.149607309245319 ], [ -70.600250391864776, -34.149764038264841 ], [ -70.600538069249666, -34.149871166728786 ], [ -70.601853066281706, -34.149932018657054 ], [ -70.60269895408922, -34.149998982193253 ], [ -70.603591745632642, -34.150065327895277 ], [ -70.604297668732357, -34.150173186756938 ], [ -70.605427275947633, -34.15035343419315 ], [ -70.606320723261234, -34.150458828264775 ], [ -70.606885204822845, -34.150529446010601 ], [ -70.607590394897287, -34.150598217799967 ], [ -70.608341657766019, -34.150627305362583 ], [ -70.609328353799384, -34.150692451445309 ], [ -70.610031325933392, -34.150644229179463 ], [ -70.610591280884265, -34.15048086829924 ], [ -70.611105159447604, -34.150357038275587 ], [ -70.611478894538408, -34.150274125011755 ], [ -70.612088798514037, -34.15026611543599 ], [ -70.6123262735493, -34.150419010181402 ], [ -70.612801316146246, -34.150724870209586 ], [ -70.613463317018486, -34.150989267635282 ], [ -70.614170742101351, -34.151175056932033 ], [ -70.614979398333602, -34.151749544454582 ], [ -70.615316629484511, -34.152213222143409 ], [ -70.615607052120922, -34.152677588644885 ], [ -70.615802183268642, -34.153065128961181 ], [ -70.616324899457737, -34.153409423801868 ], [ -70.616471072422442, -34.153437711996318 ], [ -70.616890061942328, -34.153518990416842 ], [ -70.617220707543893, -34.15363164343465 ], [ -70.617506591891484, -34.153861896993405 ], [ -70.617979529735734, -34.154050827458271 ], [ -70.618225085116975, -34.154314114267684 ], [ -70.618410684241184, -34.154513257759248 ], [ -70.618882048237083, -34.154624051003914 ], [ -70.619256626845925, -34.154580106156438 ], [ -70.619585884550389, -34.154284712780907 ], [ -70.619713095876094, -34.15391087641828 ], [ -70.61979945631424, -34.15351962824419 ], [ -70.620121166373679, -34.153164277389891 ], [ -70.620628249181891, -34.152689393027643 ], [ -70.621090005695805, -34.152293185925608 ], [ -70.621315832276778, -34.152142315135677 ], [ -70.621506912022554, -34.152014580971787 ], [ -70.621972301323481, -34.151813413991306 ], [ -70.622575499375515, -34.151454335951364 ], [ -70.623039388489914, -34.15117510451023 ], [ -70.623317070320653, -34.150976340464517 ], [ -70.623642577558783, -34.150816020782926 ], [ -70.624248658304566, -34.150612911380477 ], [ -70.624806342314415, -34.150332504789731 ], [ -70.625084852391851, -34.150172729554903 ], [ -70.626067722500409, -34.150042701938141 ], [ -70.626583728274326, -34.150035863969002 ], [ -70.627151212005614, -34.150262362666211 ], [ -70.627624808314977, -34.150490176600925 ], [ -70.628237615645617, -34.150638136159742 ], [ -70.628802861673506, -34.150747645409979 ], [ -70.629398561487875, -34.150615415199049 ], [ -70.629550471992317, -34.150581633714246 ], [ -70.63029433364143, -34.150220725347545 ], [ -70.630853491786667, -34.150018205531978 ], [ -70.631415736543204, -34.149971729917553 ], [ -70.631885589572775, -34.150004486470905 ], [ -70.632262302578752, -34.150077557878639 ], [ -70.632779807640887, -34.150148680724158 ], [ -70.633344303575541, -34.150219102467076 ], [ -70.633946182900743, -34.150219069013318 ], [ -70.63428326223638, -34.150245606041757 ], [ -70.634660817862098, -34.150357662001845 ], [ -70.634945987150715, -34.150548953956402 ], [ -70.635653537099415, -34.150734543500199 ], [ -70.636270119150879, -34.151077428671776 ], [ -70.636553875389538, -34.151190655140944 ], [ -70.637213603524103, -34.15133794291895 ], [ -70.637730367476124, -34.151370052178002 ], [ -70.63847947169323, -34.151282046075849 ], [ -70.638759464889191, -34.151200228017963 ], [ -70.639132419344023, -34.15107823675843 ], [ -70.639503199875861, -34.150839190710585 ], [ -70.639734871794374, -34.150680082532624 ], [ -70.640013263294179, -34.15052027598842 ], [ -70.640387721528796, -34.150476268045608 ], [ -70.640903060752777, -34.150430375521125 ], [ -70.641419156358225, -34.150423547991231 ], [ -70.641653661563154, -34.150420337921972 ], [ -70.641886659395041, -34.150339214867209 ], [ -70.642307440155577, -34.150255577497539 ], [ -70.642541191673971, -34.150213447289666 ], [ -70.642926763865276, -34.150128728121771 ], [ -70.643523273061689, -34.15004428616421 ], [ -70.644273956517083, -34.150034157822041 ], [ -70.644768627303023, -34.150063577887174 ], [ -70.645193225903512, -34.150057887015208 ], [ -70.645798764965193, -34.149894049955321 ], [ -70.646677682029065, -34.149656293367798 ], [ -70.647816903912812, -34.149211524076655 ], [ -70.648899659494447, -34.148815296199622 ], [ -70.649751108771866, -34.148326581813379 ], [ -70.650428581328214, -34.147888068243212 ], [ -70.652016632070655, -34.147726794814687 ], [ -70.659766935219295, -34.146903256870637 ], [ -70.66433931330306, -34.14656026479723 ], [ -70.683780514341422, -34.145096270205997 ], [ -70.683846492005785, -34.144848346616314 ], [ -70.683930096412638, -34.144400732776958 ], [ -70.684010916042112, -34.143597993116636 ], [ -70.684044339658911, -34.143016995253937 ], [ -70.684341434082924, -34.14175049128373 ], [ -70.685608073006577, -34.140700631579492 ], [ -70.687942536613534, -34.139325015823431 ], [ -70.689347494531361, -34.138091644468822 ], [ -70.683385299633869, -34.117665817256416 ], [ -70.681026060491376, -34.109299741935104 ], [ -70.681162941282793, -34.108677361509095 ], [ -70.681499513070293, -34.108291068758987 ], [ -70.68178344807373, -34.108144020578578 ], [ -70.682353114711148, -34.107945337553851 ], [ -70.682810996791247, -34.107891344375901 ], [ -70.683036629336115, -34.10769737267762 ], [ -70.682913419106683, -34.107269582839351 ], [ -70.681862272544961, -34.10632965979913 ], [ -70.68094264383241, -34.105536700440403 ], [ -70.680228201110538, -34.10492057832019 ], [ -70.678290471262315, -34.102656590809111 ], [ -70.676821989877467, -34.100911233272321 ], [ -70.676167721703209, -34.099727238450747 ], [ -70.6755623560164, -34.098113092366525 ], [ -70.675546370495908, -34.097302144795194 ], [ -70.675107355731726, -34.089577928298851 ], [ -70.675318864065375, -34.088668510452656 ], [ -70.67619390579712, -34.086509317205021 ], [ -70.676468874715695, -34.086032204374376 ], [ -70.676803851095244, -34.085451223853795 ], [ -70.678875272715644, -34.082893840381786 ], [ -70.679933572561978, -34.081304757896341 ], [ -70.680609342810854, -34.080675226817377 ], [ -70.681805741564133, -34.0802770936901 ], [ -70.681764893371536, -34.080011646260303 ], [ -70.681739828578472, -34.079848514961675 ], [ -70.681539842934981, -34.079311040748699 ], [ -70.681315946833564, -34.078709108646073 ], [ -70.681221193435718, -34.078465082668856 ], [ -70.679805448547938, -34.074817017671649 ], [ -70.678532878048458, -34.07135105978373 ], [ -70.675058541279199, -34.06219024355736 ], [ -70.674616674363975, -34.06103849528931 ], [ -70.67243800647509, -34.055358496932421 ], [ -70.672014263969032, -34.054253619460852 ], [ -70.671756469940377, -34.053581506574204 ], [ -70.671591561712106, -34.053151459806742 ], [ -70.670344761183173, -34.049900599738656 ], [ -70.670299304633161, -34.049781990345032 ], [ -70.67019043600726, -34.049498107748178 ], [ -70.673311359374068, -34.050135560574489 ], [ -70.675957912083774, -34.051229716665219 ], [ -70.677699541502093, -34.052336023859496 ], [ -70.68087714137684, -34.052820039090669 ], [ -70.684472229686605, -34.052755598359404 ], [ -70.685274654305715, -34.05274459724054 ], [ -70.685955172150898, -34.052735336233937 ], [ -70.687051272206062, -34.052720221506895 ], [ -70.694206761279219, -34.052192378090709 ], [ -70.706680433141216, -34.051253826372516 ], [ -70.707136292215296, -34.051225629781484 ], [ -70.726508561030329, -34.04970195196524 ], [ -70.726798512949529, -34.049646169557498 ], [ -70.727019056538296, -34.049213665971827 ], [ -70.727013162691733, -34.048927429459233 ], [ -70.726776265273202, -34.04854907235358 ], [ -70.726422720716727, -34.04807676687183 ], [ -70.726360573468739, -34.047839113344715 ], [ -70.726240148915011, -34.047554486621806 ], [ -70.725944890647412, -34.047129154345946 ], [ -70.725761357648352, -34.046559166480591 ], [ -70.725635226097623, -34.045988372392145 ], [ -70.725452663279057, -34.045466016010074 ], [ -70.725085614348913, -34.044325964218046 ], [ -70.724843819315467, -34.043709072172895 ], [ -70.72449030799666, -34.043236832777296 ], [ -70.724127144280118, -34.042287602996026 ], [ -70.723045514287548, -34.03982147978779 ], [ -70.72244746178545, -34.038589215715106 ], [ -70.722083378194057, -34.037592271015079 ], [ -70.72189700202712, -34.036879155525632 ], [ -70.721599877060385, -34.036358397134713 ], [ -70.721420255326052, -34.035979226873948 ], [ -70.721297063062934, -34.035551545947285 ], [ -70.720940626829545, -34.034936174974042 ], [ -70.720574740319393, -34.033843810450954 ], [ -70.720333009964634, -34.033226833231772 ], [ -70.720092247095451, -34.032657634850537 ], [ -70.719796111173835, -34.032184578302044 ], [ -70.719496216701074, -34.031520765431829 ], [ -70.719011828031881, -34.030239171198978 ], [ -70.718705124329261, -34.02924141217828 ], [ -70.718041263046089, -34.027580635279179 ], [ -70.717799600963303, -34.026613063663902 ], [ -70.717828030845411, -34.026328930789866 ], [ -70.717820755389923, -34.025967954697556 ], [ -70.71776747181886, -34.025459142807875 ], [ -70.717660661233253, -34.025208590450873 ], [ -70.717437589785263, -34.024890075468782 ], [ -70.717287045618377, -34.024591231783894 ], [ -70.717062917751619, -34.024233284471372 ], [ -70.716941807783343, -34.023603016747956 ], [ -70.716767027070077, -34.022915509635389 ], [ -70.716692029421949, -34.022513077955125 ], [ -70.716588994455492, -34.022484894145208 ], [ -70.703558402151643, -34.01892068655107 ], [ -70.686576231405724, -34.014041847074374 ], [ -70.681259310749851, -34.007548501497133 ], [ -70.679155021569841, -34.008732298121856 ], [ -70.678647624351285, -34.008952196098981 ], [ -70.677558922820779, -34.009233800950859 ], [ -70.676560675351212, -34.009492001889527 ], [ -70.675722090846961, -34.00965102630267 ], [ -70.674782459347966, -34.009800488352639 ], [ -70.674375892630167, -34.009884476029214 ], [ -70.674156566258617, -34.009913612707074 ], [ -70.673906875033808, -34.009995463127822 ], [ -70.673819381820067, -34.010070746411955 ], [ -70.673410143512612, -34.010289950635347 ], [ -70.673066872988045, -34.01039922302899 ], [ -70.672347306275768, -34.010539762174297 ], [ -70.669405630944127, -34.011076664201468 ], [ -70.668153597728676, -34.011328270236852 ], [ -70.66759119576696, -34.011441312879732 ], [ -70.667435851003177, -34.011521869884206 ], [ -70.6669679257582, -34.011685116297585 ], [ -70.666846765484266, -34.011772006182291 ], [ -70.666690405624223, -34.011950456019072 ], [ -70.666444363356106, -34.012215294520004 ], [ -70.667568690274138, -34.01510318343788 ], [ -70.667797659161963, -34.015570784210496 ], [ -70.667833145310624, -34.015779505176482 ], [ -70.667870678719822, -34.016092873449637 ], [ -70.66824445692977, -34.017504944091193 ], [ -70.6682776954936, -34.017630442822309 ], [ -70.667809739705902, -34.017793766839901 ], [ -70.667561130052704, -34.017927891102666 ], [ -70.667250660612424, -34.018115153487102 ], [ -70.666534597329772, -34.018438739882512 ], [ -70.666035235541443, -34.018602334859018 ], [ -70.665659504394057, -34.018659799570997 ], [ -70.665284191861616, -34.018743334718458 ], [ -70.664876462723825, -34.018775006603761 ], [ -70.663653359752118, -34.018870013253938 ], [ -70.662774685233359, -34.018908122655731 ], [ -70.662272764144774, -34.018940986537764 ], [ -70.661864611002173, -34.018946503808841 ], [ -70.66133078265301, -34.018953717956684 ], [ -70.660858729649291, -34.018907795044349 ], [ -70.660355877906085, -34.018888435443486 ], [ -70.6600100094537, -34.018866955298137 ], [ -70.659475583724884, -34.018848019349321 ], [ -70.658912903285412, -34.018986364406437 ], [ -70.658381200350206, -34.019098212242397 ], [ -70.65778652281864, -34.019210832793284 ], [ -70.656846569722788, -34.019328104508766 ], [ -70.656785239043401, -34.017733462452028 ], [ -70.656806426707689, -34.017262470090316 ], [ -70.656800416080131, -34.016948672784068 ], [ -70.656827239774515, -34.016712958076909 ], [ -70.656606365605711, -34.016663632660752 ], [ -70.656325837013839, -34.016772013767657 ], [ -70.656048264777581, -34.017037256431109 ], [ -70.655800147401152, -34.017197574205952 ], [ -70.655522064921797, -34.017436672447381 ], [ -70.655149375469975, -34.017650966492269 ], [ -70.654868752555018, -34.017759345594051 ], [ -70.654337466438108, -34.017897246421946 ], [ -70.653558649544635, -34.018221601307253 ], [ -70.652839906587502, -34.018414317805082 ], [ -70.652276292798462, -34.018500418254611 ], [ -70.651873116322534, -34.018767266027957 ], [ -70.65122180360558, -34.019194494721759 ], [ -70.650942184108771, -34.019355226124702 ], [ -70.650694048766056, -34.01951545985326 ], [ -70.650446417378191, -34.019701837171233 ], [ -70.650260567624002, -34.019835157269171 ], [ -70.650013352156137, -34.020047678415118 ], [ -70.649765718073326, -34.020234054564483 ], [ -70.649497908727568, -34.020372758473428 ], [ -70.64923511287941, -34.020440477527515 ], [ -70.649120065640957, -34.0204642557242 ], [ -70.648640303295494, -34.020510728022252 ], [ -70.648443016191123, -34.020465726225567 ], [ -70.648291977950819, -34.020431259156069 ], [ -70.647819338347219, -34.020286306257425 ], [ -70.647093996366024, -34.020139122407961 ], [ -70.646873207537169, -34.020089778879488 ], [ -70.646433648393923, -34.020095665378108 ], [ -70.646024891583451, -34.020074914463549 ], [ -70.645644507162913, -34.019897027468332 ], [ -70.645329021530074, -34.01982272455232 ], [ -70.644354619839703, -34.019783532965626 ], [ -70.644101841105268, -34.019708387848098 ], [ -70.643817164093434, -34.019607592397719 ], [ -70.643470788092912, -34.019559848631744 ], [ -70.643031231644599, -34.019565723254019 ], [ -70.642852163272508, -34.019568189255082 ], [ -70.642685778213902, -34.019570412527685 ], [ -70.642466503944618, -34.019599491528254 ], [ -70.642163020702299, -34.020152704679688 ], [ -70.642449716228583, -34.020358226924699 ], [ -70.642706435872171, -34.020642452010549 ], [ -70.642803146699038, -34.020771912347371 ], [ -70.642963660368935, -34.020952820395777 ], [ -70.643091770009931, -34.021081861076269 ], [ -70.643282764415744, -34.02121013392842 ], [ -70.643757344380333, -34.021386843272452 ], [ -70.644136133392934, -34.021486454266686 ], [ -70.644264621224636, -34.023263112751806 ], [ -70.644337002080363, -34.023759149783004 ], [ -70.64437394888968, -34.024046311059486 ], [ -70.644243318576017, -34.024095040287534 ], [ -70.643842191157248, -34.024158024169367 ], [ -70.643588896789851, -34.024056808134191 ], [ -70.643273309647384, -34.023982575867201 ], [ -70.642893502843563, -34.023830675141205 ], [ -70.642770211765765, -34.023781499044176 ], [ -70.642513697836392, -34.023678847107185 ], [ -70.642228001236688, -34.023525761289036 ], [ -70.641880605648325, -34.023425799035714 ], [ -70.641534629398109, -34.023404194212731 ], [ -70.640594101380486, -34.023495273491797 ], [ -70.639460812869189, -34.023684726656121 ], [ -70.639315674763679, -34.0237127388259 ], [ -70.638435799197396, -34.023968686718739 ], [ -70.638779261063107, -34.032667621655854 ], [ -70.638803268539078, -34.033274597597995 ], [ -70.638180072192185, -34.033341113012106 ], [ -70.637607030584235, -34.033348822480882 ], [ -70.636919465455662, -34.033357906193629 ], [ -70.635926276399445, -34.033411091527967 ], [ -70.635767688717507, -34.033432704225447 ], [ -70.633376403075587, -34.034000363118032 ], [ -70.630479520438925, -34.034624915277519 ], [ -70.627776796074542, -34.034908718876999 ], [ -70.625677309288037, -34.035270179521596 ], [ -70.620972082051836, -34.035751609262768 ], [ -70.617368369017029, -34.03613268030125 ], [ -70.614769207828459, -34.03658621932103 ], [ -70.609057887237, -34.036909024373109 ], [ -70.60636466435335, -34.03676843434679 ], [ -70.605242348763255, -34.036710996785011 ], [ -70.603532741589845, -34.036480815875954 ], [ -70.601622918804239, -34.036257727167701 ], [ -70.599308470560132, -34.035868491120866 ], [ -70.596287523396214, -34.035240546825186 ], [ -70.593774419913572, -34.034939476524045 ], [ -70.59246307992305, -34.034537174076178 ], [ -70.59155431723218, -34.034215263744947 ], [ -70.590440188887584, -34.033643584070091 ], [ -70.587768577673032, -34.03313708132346 ], [ -70.587763165323466, -34.033137077601218 ], [ -70.586429125804045, -34.033695338408648 ], [ -70.58482606061996, -34.033801706387571 ], [ -70.584113388477505, -34.033224791961672 ], [ -70.583109206737149, -34.033156542640953 ], [ -70.58210927492641, -34.033336218288191 ], [ -70.58050488472729, -34.033356855782394 ], [ -70.579898493164421, -34.033112229463164 ], [ -70.579393930130593, -34.03295183678285 ], [ -70.578499265599774, -34.033382699170865 ], [ -70.577209619025069, -34.034152156307009 ], [ -70.575911930731934, -34.03450247822488 ], [ -70.574809083430665, -34.034516611312547 ], [ -70.573303327351425, -34.034450200296533 ], [ -70.57279102982298, -34.033870581263344 ], [ -70.570492123331618, -34.034319269720683 ], [ -70.569488024236279, -34.034250981825281 ], [ -70.568483755359338, -34.034178181095925 ], [ -70.56787282640596, -34.033685490934914 ], [ -70.567257350180626, -34.032940360370169 ], [ -70.566450418713728, -34.032702655493537 ], [ -70.565537127615499, -34.032128113617617 ], [ -70.564424764460455, -34.031641789336625 ], [ -70.562405631077795, -34.03091448790726 ], [ -70.560790358687314, -34.03035340884648 ], [ -70.559893960408004, -34.030698392982018 ], [ -70.559290783915557, -34.030620427059318 ], [ -70.558275929291298, -34.029966006895663 ], [ -70.557470531248597, -34.029809334368309 ], [ -70.557035439427253, -34.030058329847662 ], [ -70.556577174664838, -34.030321208240551 ], [ -70.555689895183988, -34.031166531700428 ], [ -70.554708614195178, -34.032351225841424 ], [ -70.552324684857126, -34.033630312156554 ], [ -70.552243061235458, -34.033698936294698 ], [ -70.551139627334308, -34.034650673414298 ], [ -70.550149057765452, -34.035330458048882 ], [ -70.549153528597913, -34.035757875075412 ], [ -70.54774982652485, -34.035775556619953 ], [ -70.546746750610609, -34.035788181294116 ], [ -70.545553990034236, -34.036389361204343 ], [ -70.543951155717181, -34.036495121338774 ], [ -70.542051888136157, -34.036852642485421 ], [ -70.540852961523683, -34.037115592877591 ], [ -70.539451890616064, -34.037300025107889 ], [ -70.538458182333628, -34.037812877343512 ], [ -70.536754706162014, -34.037919877369859 ], [ -70.535745942115412, -34.03759887614148 ], [ -70.535142732385268, -34.037520717803289 ], [ -70.534147177166602, -34.037952447293812 ], [ -70.533042733559071, -34.03750636933777 ], [ -70.532237379533811, -34.037723845661503 ], [ -70.53093370396931, -34.037740014163155 ], [ -70.530029654738726, -34.037670158323273 ], [ -70.528526847828573, -34.037769966080944 ], [ -70.526923515844842, -34.037875583801537 ], [ -70.525915391398712, -34.038113487827282 ], [ -70.525825128678946, -34.038137212685712 ], [ -70.524905408338242, -34.038099056833289 ], [ -70.524319404040753, -34.038074707409926 ], [ -70.522518281896097, -34.038345019859783 ], [ -70.521322328707214, -34.038779202409202 ], [ -70.520015654566279, -34.0386284872001 ], [ -70.518411205976676, -34.038648316479254 ], [ -70.51751012477979, -34.038745136564231 ], [ -70.51669249707281, -34.03932781449609 ], [ -70.516321519809921, -34.039593975212554 ], [ -70.515634153209021, -34.040436550320806 ], [ -70.514242944006611, -34.042040852695379 ], [ -70.512355706663868, -34.042230818259405 ], [ -70.511252728208575, -34.042244456544388 ], [ -70.5109129260793, -34.042248633929361 ], [ -70.510450245198953, -34.042254320144941 ], [ -70.509343953756897, -34.042101104824553 ], [ -70.508332279168741, -34.041613034847849 ], [ -70.507821886068726, -34.041118808302691 ], [ -70.507410499889417, -34.040537672378605 ], [ -70.506702650801728, -34.040212666592296 ], [ -70.506094972851372, -34.039886504271628 ], [ -70.505386868642134, -34.039561567451557 ], [ -70.505075581734928, -34.038979197816282 ], [ -70.504468005294214, -34.038652951101781 ], [ -70.504351604294641, -34.037734583720599 ], [ -70.504639228678926, -34.036982656501237 ], [ -70.504230829397954, -34.036568278144095 ], [ -70.503819136893142, -34.035987131885854 ], [ -70.504012401341683, -34.035569971959987 ], [ -70.504406077235146, -34.03514585106214 ], [ -70.504289682523776, -34.034227409233921 ], [ -70.503980392571464, -34.033811890334938 ], [ -70.503773381204127, -34.033399625599635 ], [ -70.503359121314219, -34.032651704556216 ], [ -70.503350293569937, -34.032151322753734 ], [ -70.50343573592987, -34.031316177718743 ], [ -70.503727720736563, -34.030812116329066 ], [ -70.503857442853473, -34.030243996865721 ], [ -70.503599895861512, -34.02977295630123 ], [ -70.502596995118751, -34.029238778950166 ], [ -70.502316229371644, -34.028632905754115 ], [ -70.50209191735027, -34.028028112955752 ], [ -70.502373079254411, -34.02751916451944 ], [ -70.502545450686071, -34.026496279241563 ], [ -70.502419848243051, -34.025430939129876 ], [ -70.50237304961, -34.024794355606595 ], [ -70.502002643675638, -34.023984281578095 ], [ -70.501493902577423, -34.023575623991228 ], [ -70.500989888414225, -34.023414972799884 ], [ -70.500979570364862, -34.022828988533782 ], [ -70.501067965487138, -34.022160612880789 ], [ -70.501057646539465, -34.021574555923003 ], [ -70.501048835863159, -34.021074172084973 ], [ -70.500339755185209, -34.020663448489834 ], [ -70.499127665558873, -34.020177815719741 ], [ -70.498558064498468, -34.019075552006946 ], [ -70.497963178557754, -34.01882579611086 ], [ -70.497293621057366, -34.018531883238829 ], [ -70.496683205940343, -34.01803882375669 ], [ -70.495876516120262, -34.017796140564371 ], [ -70.495466832248411, -34.017300632334837 ], [ -70.495155787886333, -34.0167182305225 ], [ -70.495162988781644, -34.015757789695783 ], [ -70.493631420511036, -34.015568966640465 ], [ -70.492929406879455, -34.015577491572245 ], [ -70.492164704315726, -34.015374904888162 ], [ -70.49141807675386, -34.015180958850465 ], [ -70.490710600467025, -34.014851492534788 ], [ -70.489492817318407, -34.014032070292103 ], [ -70.488680439365936, -34.013460228583348 ], [ -70.488037353420353, -34.012462594721725 ], [ -70.486861202693575, -34.012643627704847 ], [ -70.48586743332568, -34.013160638009474 ], [ -70.485478257093462, -34.013832639325187 ], [ -70.484774675003365, -34.013755444222866 ], [ -70.483884742797486, -34.013450597679508 ], [ -70.483259111117846, -34.013106433998736 ], [ -70.482498190461499, -34.012858604755174 ], [ -70.481442905361263, -34.012461028024717 ], [ -70.480933197675796, -34.011966600391126 ], [ -70.48013099044897, -34.011976332733319 ], [ -70.479619363962058, -34.011396303296571 ], [ -70.47891623911444, -34.011323573806195 ], [ -70.478508180294952, -34.010909174395948 ], [ -70.478101588424309, -34.010589461236592 ], [ -70.478042626602317, -34.010545032769322 ], [ -70.476991229410643, -34.010174482630696 ], [ -70.476589911549041, -34.010179301991805 ], [ -70.475785274379376, -34.010022080619208 ], [ -70.474579323839677, -34.009869665675119 ], [ -70.473575117844831, -34.009800663345665 ], [ -70.472763257321958, -34.00977426471237 ], [ -70.471876805189467, -34.010154615422209 ], [ -70.470878272055629, -34.010414556776738 ], [ -70.470471554420868, -34.01008573321274 ], [ -70.470064840379337, -34.009756982095873 ], [ -70.468361889722189, -34.009862946692671 ], [ -70.467263305825256, -34.010124053570109 ], [ -70.466363758052566, -34.01030158946552 ], [ -70.465861001530783, -34.010226470208444 ], [ -70.465240401315043, -34.009751470184789 ], [ -70.464057826735683, -34.010329137669139 ], [ -70.463354718956069, -34.010256319396305 ], [ -70.462545419530088, -34.00984656512167 ], [ -70.460124998828547, -34.00904121775713 ], [ -70.459228387648523, -34.009385473870772 ], [ -70.458038102829079, -34.010152588490108 ], [ -70.457243432467493, -34.010576808984879 ], [ -70.456542822902676, -34.010670803158909 ], [ -70.456041810909142, -34.010676736478551 ], [ -70.45523960547898, -34.010686231427322 ], [ -70.454711935081079, -34.011017150318224 ], [ -70.453697230475498, -34.011700959143162 ], [ -70.45251474662598, -34.011733030545898 ], [ -70.45154285842176, -34.011478412166184 ], [ -70.450739352231039, -34.01140678034124 ], [ -70.449734037715118, -34.011251828665564 ], [ -70.448824568948439, -34.0108431641384 ], [ -70.447906673984377, -34.011228219899905 ], [ -70.447124390492249, -34.011115683328285 ], [ -70.445825274776126, -34.011378959949923 ], [ -70.444428741259017, -34.011814679650996 ], [ -70.443214701390204, -34.012063483685637 ], [ -70.44231618937502, -34.011420165936677 ], [ -70.44133001795781, -34.011594029558616 ], [ -70.440012930546104, -34.011614039400321 ], [ -70.439299937705115, -34.010955008555037 ], [ -70.43849491066662, -34.010797619584871 ], [ -70.437007998547074, -34.011820430455501 ], [ -70.436005509232729, -34.011832215024008 ], [ -70.434822012083586, -34.011467276127 ], [ -70.433993122197876, -34.011436314132752 ], [ -70.432180098274017, -34.010956944621746 ], [ -70.431213427484977, -34.010760833495574 ], [ -70.430169540209064, -34.010646727340088 ], [ -70.429576334117939, -34.011154121618489 ], [ -70.429190502313517, -34.012078414287345 ], [ -70.428795198672731, -34.012416623620247 ], [ -70.428097610142231, -34.012672796199425 ], [ -70.426600732112945, -34.013109405785876 ], [ -70.426011709476072, -34.01386923792974 ], [ -70.425415757235129, -34.014209836292096 ], [ -70.424826640275185, -34.014965158189604 ], [ -70.424332155440496, -34.015390196784189 ], [ -70.423734754217008, -34.015645110207927 ], [ -70.422524661545538, -34.015244310479737 ], [ -70.421106962822037, -34.014426515279673 ], [ -70.419800889654041, -34.014274793284791 ], [ -70.418296878103064, -34.014292148698303 ], [ -70.417193946360172, -34.014304864432972 ], [ -70.416503983628104, -34.014312888368103 ], [ -70.415688510979479, -34.014236585003367 ], [ -70.414585846036218, -34.014249273940315 ], [ -70.413484242901603, -34.014347561200793 ], [ -70.412680569624257, -34.01427110224332 ], [ -70.412073510613112, -34.013944458210062 ], [ -70.411261914194952, -34.013367581536208 ], [ -70.410750900359062, -34.012791758310073 ], [ -70.410236973286715, -34.012044724930789 ], [ -70.410028074558952, -34.011546620839674 ], [ -70.409444405881189, -34.010588364375543 ], [ -70.408698518531111, -34.009974740274963 ], [ -70.408087337151159, -34.00939554607136 ], [ -70.407272867022385, -34.008656371753077 ], [ -70.406311278901242, -34.007945914318213 ], [ -70.405982898850823, -34.0078550350539 ], [ -70.405245876974277, -34.007340427523353 ], [ -70.40473902413477, -34.007012600345945 ], [ -70.404925812628449, -34.006176274851697 ], [ -70.405013629235654, -34.005422269573138 ], [ -70.405303374542342, -34.004751649383572 ], [ -70.405190846179963, -34.003999858860688 ], [ -70.405177110939277, -34.003165971664842 ], [ -70.405197344592736, -34.002218815970657 ], [ -70.402870453783635, -34.000901747241628 ], [ -70.40250186424278, -33.99902118759374 ], [ -70.40109141851687, -33.998622382035855 ], [ -70.399291990594833, -33.997646444417001 ], [ -70.398582380809188, -33.996815815754417 ], [ -70.398727534186051, -33.995411875136895 ], [ -70.398981770886195, -33.994949113920569 ], [ -70.399543851251039, -33.993923691208053 ], [ -70.399650851381168, -33.992087276699536 ], [ -70.399597269569426, -33.990820934609083 ], [ -70.399177656618718, -33.989991514356007 ], [ -70.398297407353297, -33.986444007093944 ], [ -70.398176823797755, -33.985958321638037 ], [ -70.399192933368454, -33.984463361389466 ], [ -70.398930857969162, -33.983027998512661 ], [ -70.399452155718407, -33.98152056329652 ], [ -70.398376574980972, -33.979111468860289 ], [ -70.397917042695695, -33.977984114038144 ], [ -70.395416300929654, -33.976187199272218 ], [ -70.393760862167881, -33.973248080899843 ], [ -70.393737788939831, -33.972725306657949 ], [ -70.393821822741387, -33.972011978558676 ], [ -70.393569975559913, -33.971374481307578 ], [ -70.39282229068094, -33.970932014648966 ], [ -70.392783990110487, -33.969349894955208 ], [ -70.390403963952352, -33.96650905272697 ], [ -70.38774878741593, -33.962007518940013 ], [ -70.38741322263985, -33.958480729761902 ], [ -70.385429490964242, -33.955211488889418 ], [ -70.38582620316339, -33.95246107507036 ], [ -70.387031526678996, -33.949295753248641 ], [ -70.386985721582661, -33.947975081156621 ], [ -70.387397751854024, -33.947506056921021 ], [ -70.38795480434824, -33.945601474425388 ], [ -70.388015887092621, -33.942385873881435 ], [ -70.388618478781822, -33.940990292709678 ], [ -70.388595526826322, -33.940057209359324 ], [ -70.387824968145267, -33.938388555292853 ], [ -70.387832905659124, -33.937856340989633 ], [ -70.386894379986273, -33.935567320384912 ], [ -70.387580983917474, -33.933981453714843 ], [ -70.387741055616274, -33.932239214853873 ], [ -70.386459358233509, -33.930716082206104 ], [ -70.384898044947207, -33.929660538106752 ], [ -70.384783039031262, -33.9292900892818 ], [ -70.384599680305371, -33.928978327705529 ], [ -70.384413683227478, -33.928684177889124 ], [ -70.383829133302442, -33.928328980947775 ], [ -70.383737008375107, -33.928271432049435 ], [ -70.383311374017069, -33.928174414487373 ], [ -70.382893783174097, -33.927056194527317 ], [ -70.382730682356154, -33.92674693595535 ], [ -70.382567759404665, -33.926437601722434 ], [ -70.382412989562681, -33.926128248476928 ], [ -70.382262222613591, -33.92581427047309 ], [ -70.382107028766796, -33.925500415791973 ], [ -70.381943579402531, -33.925191159025466 ], [ -70.381774902741626, -33.92488188771911 ], [ -70.381603376624639, -33.924577227811234 ], [ -70.381430080826561, -33.924272588430398 ], [ -70.38125713986301, -33.923967944233063 ], [ -70.381084908568539, -33.92366321769709 ], [ -70.380912606307149, -33.923354059363433 ], [ -70.380739668038544, -33.923049414862973 ], [ -70.380565314923359, -33.922744784926813 ], [ -70.380389103193863, -33.922440176263855 ], [ -70.3802098614469, -33.922140034553692 ], [ -70.380026740774539, -33.921835501997712 ], [ -70.379830935890382, -33.921535618310379 ], [ -70.379611957166844, -33.921249438986678 ], [ -70.379387666705014, -33.920963393624397 ], [ -70.37917641618786, -33.92067269431594 ], [ -70.37899690314967, -33.920377132292032 ], [ -70.378866804638648, -33.920062992203569 ], [ -70.378787078258867, -33.919734695050472 ], [ -70.378720236415205, -33.919546025441932 ], [ -70.378642994775504, -33.918821798862737 ], [ -70.378482835041808, -33.919309399536942 ], [ -70.378312246766001, -33.919644710691607 ], [ -70.377996056853974, -33.92017232392142 ], [ -70.377676572819809, -33.920759739845032 ], [ -70.376979022018531, -33.921692615714754 ], [ -70.376728145915877, -33.922342499074702 ], [ -70.376660180279785, -33.923598704297376 ], [ -70.376547504593717, -33.924835611344555 ], [ -70.376444330388367, -33.925688256759742 ], [ -70.376344360473666, -33.926128639803643 ], [ -70.376254341197367, -33.926735944599642 ], [ -70.376334075661987, -33.927373413308672 ], [ -70.376227187821272, -33.927940349781728 ], [ -70.375754555404214, -33.928937708599719 ], [ -70.37534052368639, -33.92955653741344 ], [ -70.374698580397833, -33.930166828232693 ], [ -70.37413083166355, -33.930811675503584 ], [ -70.373692482550993, -33.931175824804967 ], [ -70.373195507586345, -33.931918500692923 ], [ -70.372700321167457, -33.93262946239755 ], [ -70.372091080148493, -33.933336153439662 ], [ -70.371654507005246, -33.933668656922656 ], [ -70.371288629478229, -33.934098995840316 ], [ -70.370884792740569, -33.934527909785267 ], [ -70.370444701794682, -33.934923685218699 ], [ -70.370201404778086, -33.93520002976954 ], [ -70.369774354675158, -33.936056274065983 ], [ -70.369562088163406, -33.936460740719404 ], [ -70.369268685815214, -33.936957198806425 ], [ -70.369027986726394, -33.937186009794345 ], [ -70.368603258768488, -33.937296965872321 ], [ -70.368287451538791, -33.937507107315874 ], [ -70.368151089075297, -33.937914347721033 ], [ -70.36790264830536, -33.938285601194565 ], [ -70.367529894174851, -33.938842555132666 ], [ -70.367355568907442, -33.939248443193911 ], [ -70.367210738025761, -33.939813946469052 ], [ -70.367074368375725, -33.940221259309617 ], [ -70.366972623390026, -33.940693199631092 ], [ -70.366870968235844, -33.941165211861637 ], [ -70.366577535344916, -33.941661664129441 ], [ -70.366515547098743, -33.942103537786117 ], [ -70.366491517164889, -33.942546690217611 ], [ -70.366432858075157, -33.942925141858552 ], [ -70.366175667714359, -33.943454729575905 ], [ -70.365789110071191, -33.944264929837594 ], [ -70.365540552520287, -33.944636253242109 ], [ -70.365283441211233, -33.945165838511507 ], [ -70.364765549873525, -33.945590457930301 ], [ -70.364292634487143, -33.945889798614665 ], [ -70.363822960222308, -33.946125865543777 ], [ -70.36358132239404, -33.94637048530435 ], [ -70.363592628590197, -33.946862593982388 ], [ -70.36331122503924, -33.947137499550742 ], [ -70.363062649522035, -33.947508818621209 ], [ -70.362781332209352, -33.947783721357169 ], [ -70.362610388200665, -33.948126180813254 ], [ -70.36240841548377, -33.948340588564371 ], [ -70.361976863024637, -33.948578072749768 ], [ -70.361697161781152, -33.948821337422061 ], [ -70.361381205431101, -33.949031388568578 ], [ -70.361060114310902, -33.949336499756328 ], [ -70.360612155021428, -33.94987476167632 ], [ -70.360323882951789, -33.950276284821364 ], [ -70.35988880101192, -33.950577039007356 ], [ -70.359375987850527, -33.950906648737757 ], [ -70.358681826392811, -33.951070782847587 ], [ -70.357994602624046, -33.951108211773828 ], [ -70.357032883348865, -33.95129390532405 ], [ -70.356461352707214, -33.951304047003802 ], [ -70.355882877190112, -33.951440810529625 ], [ -70.355525505810533, -33.951712842130554 ], [ -70.35516641864875, -33.952016510766988 ], [ -70.354852148436493, -33.952194908003605 ], [ -70.354427326155488, -33.952305743178059 ], [ -70.354083752000335, -33.952324446566905 ], [ -70.353505353738356, -33.952461199511013 ], [ -70.352925237897551, -33.952629586186724 ] ] ] } },
{ "type": "Feature", "properties": { "capa": "colegios", "popup": "<strong>COLEGIO SANTA TERESA DE TUNCA</strong><br><br><strong>Dirección:</strong> CAMINO TUNCA 15", "etiqueta": "" }, "geometry": { "type": "Point", "coordinates": [ -70.649834, -34.126579 ] } },
{ "type": "Feature", "properties": { "capa": "colegios", "popup": "<strong>COLEGIO MARIANO LATORRE</strong><br><br><strong>Dirección:</strong> CAMINO REAL 10", "etiqueta": "" }, "geometry": { "type": "Point", "coordinates": [ -70.683937, -34.120491 ] } },
{ "type": "Feature", "properties": { "capa": "colegios", "popup": "<strong>COLEGIO MUNICIPAL CRISTO DEL PARQUE</strong><br><br><strong>Dirección:</strong> KM12 SECTOR EL CARMEN 0", "etiqueta": "" }, "geometry": { "type": "Point", "coordinates": [ -70.652657, -34.086189 ] } },
{ "type": "Feature", "properties": { "capa": "colegios", "popup": "<strong>ESCUELA EUGENIO GARCIA FERNANDEZ</strong><br><br><strong>Dirección:</strong> CAMINO LA LEONERA BAJA 6", "etiqueta": "" }, "geometry": { "type": "Point", "coordinates": [ -70.637703, -34.050228 ] } },
{ "type": "Feature", "properties": { "capa": "colegios", "popup": "<strong>INSTITUTO LAUTARO DE CODEGUA</strong><br><br><strong>Dirección:</strong> LIBERTADOR BERNARDO O'HIGGINS 430", "etiqueta": "" }, "geometry": { "type": "Point", "coordinates": [ -70.667641, -34.03981 ] } },
{ "type": "Feature", "properties": { "capa": "colegios", "popup": "<strong>COLEGIO NATALIA PERALTA P</strong><br><br><strong>Dirección:</strong> O'HIGGINS 376", "etiqueta": "" }, "geometry": { "type": "Point", "coordinates": [ -70.66797638, -34.03926086 ] } },
{ "type": "Feature", "properties": { "capa": "colegios", "popup": "<strong>COLEGIO JESUS ANDINO</strong><br><br><strong>Dirección:</strong> O'HIGGINS 349", "etiqueta": "" }, "geometry": { "type": "Point", "coordinates": [ -70.668198, -34.038872 ] } },
{ "type": "Feature", "properties": { "capa": "colegios", "popup": "<strong>LICEO MUNICIPAL DE CODEGUA</strong><br><br><strong>Dirección:</strong> CALLE B 255", "etiqueta": "" }, "geometry": { "type": "Point", "coordinates": [ -70.664452, -34.038509 ] } },
{ "type": "Feature", "properties": { "capa": "colegios", "popup": "<strong>ESCUELA ESPECIAL DE LENGUAJE CODEGUA</strong><br><br><strong>Dirección:</strong> CARLOS VALENZUELA RIOS 23", "etiqueta": "" }, "geometry": { "type": "Point", "coordinates": [ -70.6595, -34.03589 ] } },
{ "type": "Feature", "properties": { "capa": "jardines", "popup": "<strong>PASITOS</strong><br><br><strong>Dirección:</strong> PASAJE COLONIAL N 041, CASAS DEL CARMEN ", "etiqueta": "" }, "geometry": { "type": "MultiPoint", "coordinates": [ [ -70.652319, -34.085869 ] ] } },
{ "type": "Feature", "properties": { "capa": "jardines", "popup": "<strong>NA</strong><br><br><strong>Dirección:</strong> NA ", "etiqueta": "" }, "geometry": { "type": "MultiPoint", "coordinates": [ [ -70.657924999815265, -34.035564999678222 ] ] } },
{ "type": "Feature", "properties": { "capa": "jardines", "popup": "<strong>NA</strong><br><br><strong>Dirección:</strong> NA ", "etiqueta": "" }, "geometry": { "type": "MultiPoint", "coordinates": [ [ -70.706807999990687, -34.041010000202633 ] ] } },
{ "type": "Feature", "properties": { "capa": "jardines", "popup": "<strong>NA</strong><br><br><strong>Dirección:</strong> NA ", "etiqueta": "" }, "geometry": { "type": "MultiPoint", "coordinates": [ [ -70.656209000486896, -34.036967999819488 ] ] } },
{ "type": "Feature", "properties": { "capa": "jardines", "popup": "<strong>NA</strong><br><br><strong>Dirección:</strong> NA ", "etiqueta": "" }, "geometry": { "type": "MultiPoint", "coordinates": [ [ -70.666340999986858, -34.037778000237509 ] ] } },
{ "type": "Feature", "properties": { "capa": "bomberos", "popup": "<strong>Cuerpo de Bomberos</strong><br><br><strong>Dirección:</strong> O Higgins 300", "etiqueta": "" }, "geometry": { "type": "Point", "coordinates": [ -70.667948634458654, -34.035217996842924 ] } },
{ "type": "Feature", "properties": { "capa": "comisarias", "popup": "<strong>TCIA. CODEGUA</strong><br><br><strong>Dirección:</strong> LIBERTADOR BERNARDO O'HIGGINS 389", "etiqueta": "" }, "geometry": { "type": "Point", "coordinates": [ -70.668213903999913, -34.039133829999919 ] } },
{ "type": "Feature", "properties": { "capa": "salud", "popup": "<strong>Centro de Salud Familiar Codegua</strong><br><br><strong>Tipo de atención:</strong> Centro de Salud Familiar (CESFAM)<br><strong>Dirección:</strong>  376", "etiqueta": "" }, "geometry": { "type": "Point", "coordinates": [ -70.66704, -34.03911 ] } },
{ "type": "Feature", "properties": { "capa": "salud", "popup": "<strong>SUR Codegua</strong><br><br><strong>Tipo de atención:</strong> Servicio de Urgencia Rural (SUR)<br><strong>Dirección:</strong>  376", "etiqueta": "" }, "geometry": { "type": "Point", "coordinates": [ -70.667039, -34.039108 ] } }
]
}
