{
"type": "FeatureCollection",
"name": "6103",
"crs": { "type": "name", "properties": { "name": "urn:ogc:def:crs:OGC:1.3:CRS84" } },
"features": [
{ "type": "Feature", "properties": { "capa": "comuna", "popup": "", "etiqueta": "" }, "geometry": { "type": "Polygon", "coordinates": [ [ [ -70.900579055441625, -34.237025696871896 ], [ -70.900627840249768, -34.237593553924675 ], [ -70.900221352583713, -34.237508707129187 ], [ -70.899745053243649, -34.237447764635895 ], [ -70.899207440292187, -34.237488227111477 ], [ -70.898636965171008, -34.237617834786469 ], [ -70.897958844929335, -34.237928450964418 ], [ -70.897310908979534, -34.23831216569878 ], [ -70.896993852193248, -34.238558390297271 ], [ -70.896662346903952, -34.238795014106827 ], [ -70.896328334416694, -34.23902702251744 ], [ -70.895981723955884, -34.239240684281768 ], [ -70.895632008917474, -34.239458750792252 ], [ -70.89529102550361, -34.239681556940432 ], [ -70.894965307161357, -34.239922813814253 ], [ -70.894638509942482, -34.240159654348368 ], [ -70.894289129975647, -34.240373207042921 ], [ -70.893928141978748, -34.240572829847608 ], [ -70.893562689354852, -34.240767792240661 ], [ -70.893193396433119, -34.240958160347517 ], [ -70.89282026231524, -34.241143858452418 ], [ -70.892444708135997, -34.24132486579304 ], [ -70.892066017039767, -34.24149690866065 ], [ -70.891682618771441, -34.241673233818283 ], [ -70.891293572794922, -34.241835832200032 ], [ -70.890898441630682, -34.241984857605466 ], [ -70.890497051005553, -34.242124523662866 ], [ -70.890085608232383, -34.242232359884476 ], [ -70.889661567485675, -34.24232170211134 ], [ -70.889231567315349, -34.242379297866655 ], [ -70.888801365024108, -34.242427957074284 ], [ -70.888369742496394, -34.242408976830589 ], [ -70.887935743924757, -34.242367281024499 ], [ -70.887502240324835, -34.242343747108741 ], [ -70.887069282002287, -34.242324708922801 ], [ -70.886637333386119, -34.242283124465921 ], [ -70.886203152456488, -34.242273039129259 ], [ -70.885768419062941, -34.242289996544265 ], [ -70.885340173302382, -34.242338686992959 ], [ -70.88492901260021, -34.242455514399246 ], [ -70.884537078540049, -34.242608975763126 ], [ -70.884130701366786, -34.242752982779841 ], [ -70.88371520629336, -34.242847121658755 ], [ -70.883285587008743, -34.242882235554681 ], [ -70.882847722088101, -34.242894576839902 ], [ -70.882407851229445, -34.242888775641489 ], [ -70.881972810612083, -34.242856160601498 ], [ -70.881548503964055, -34.242810304220058 ], [ -70.881158017988142, -34.242657487802617 ], [ -70.880772183488759, -34.242477859373842 ], [ -70.880349860320877, -34.242405081866309 ], [ -70.879915865342497, -34.242363431357248 ], [ -70.87967549324047, -34.242357367239862 ], [ -70.879376920189486, -34.242349832762706 ], [ -70.878953898132295, -34.242389630478165 ], [ -70.878574748895261, -34.242570577959469 ], [ -70.878203653054783, -34.24276979232036 ], [ -70.877868239195664, -34.243001772696438 ], [ -70.877596277836673, -34.243267422558034 ], [ -70.877408326024707, -34.243603361164077 ], [ -70.877287437940296, -34.243955260435975 ], [ -70.877205713707326, -34.244308406527807 ], [ -70.877174132535188, -34.244676666460528 ], [ -70.877230099374017, -34.245029993685883 ], [ -70.877343367049889, -34.24537609116426 ], [ -70.877473183489911, -34.245718388943359 ], [ -70.877616696543072, -34.246056561822606 ], [ -70.877769479311652, -34.246399541483704 ], [ -70.877928026569407, -34.24673371735804 ], [ -70.878088458492627, -34.2470725165944 ], [ -70.878247554621026, -34.247411188974077 ], [ -70.878401221331828, -34.247749721875039 ], [ -70.878548669904262, -34.248092561718622 ], [ -70.878694863530228, -34.248430839411007 ], [ -70.878842481884249, -34.248769169207137 ], [ -70.878993395258703, -34.2491075964017 ], [ -70.879150619298045, -34.249441789739521 ], [ -70.879316833676754, -34.24977621416523 ], [ -70.879494523134895, -34.250106548851804 ], [ -70.879682795645408, -34.250432730732015 ], [ -70.87987595499105, -34.250754554172836 ], [ -70.88007044923323, -34.251076429844929 ], [ -70.88026085344589, -34.251398219637849 ], [ -70.88044787460322, -34.251719841132505 ], [ -70.880636065367028, -34.252046021956723 ], [ -70.880819995421447, -34.252376553410166 ], [ -70.880994492267078, -34.252706786559465 ], [ -70.881152442145165, -34.253040891352093 ], [ -70.881294851168846, -34.253388088210563 ], [ -70.881430203925973, -34.25372601123037 ], [ -70.881600017854012, -34.254209215973617 ], [ -70.88162501707005, -34.25455688469475 ], [ -70.881663846748211, -34.254846505190997 ], [ -70.881680646142343, -34.255153452244826 ], [ -70.881686001898061, -34.255405915728538 ], [ -70.881680415275312, -34.255590442977784 ], [ -70.881565330307623, -34.255807305135541 ], [ -70.8813638094433, -34.255989670129615 ], [ -70.881149200125307, -34.256135598073449 ], [ -70.880927989986588, -34.256276826590607 ], [ -70.880712924324413, -34.256418256083165 ], [ -70.880311911890018, -34.256742621152256 ], [ -70.880111743888506, -34.256898076002209 ], [ -70.879911942399659, -34.257058031454058 ], [ -70.879713562943891, -34.257217964327559 ], [ -70.879518402151774, -34.257382648724693 ], [ -70.879327612561852, -34.257551919788853 ], [ -70.879141973911757, -34.257716826273281 ], [ -70.878962502196075, -34.257891019974281 ], [ -70.878791050639279, -34.258069890856753 ], [ -70.878631082246741, -34.258249176397051 ], [ -70.878481299851202, -34.258442413934311 ], [ -70.878340438624775, -34.258644821917756 ], [ -70.878205353565605, -34.258843005558425 ], [ -70.878074473520286, -34.259050283104827 ], [ -70.877944730742115, -34.259248678875288 ], [ -70.877816064145648, -34.259451563802116 ], [ -70.877689535539574, -34.259654564062302 ], [ -70.877566387293896, -34.259857586106129 ], [ -70.877446823326224, -34.260069786561658 ], [ -70.877328849376596, -34.260277530312031 ], [ -70.877213802138144, -34.260480870846429 ], [ -70.877101172266137, -34.260688901649779 ], [ -70.876990250989792, -34.260905844212409 ], [ -70.876878953319363, -34.261113854661332 ], [ -70.876767576597175, -34.261326297694737 ], [ -70.876660828893648, -34.26153896589225 ], [ -70.876559598642601, -34.261751696659012 ], [ -70.876468430421042, -34.26196486492298 ], [ -70.87638938316762, -34.262183017326507 ], [ -70.876329316417838, -34.262410629190931 ], [ -70.876289018892479, -34.262639046714803 ], [ -70.876259492167421, -34.262867815527621 ], [ -70.876232269621042, -34.263092118788471 ], [ -70.876197858755788, -34.263325246605326 ], [ -70.876148911352573, -34.263548847803101 ], [ -70.876083135809154, -34.26377181957951 ], [ -70.876008035753088, -34.264003576499846 ], [ -70.875911633946686, -34.264225613858017 ], [ -70.875782843382723, -34.264419413776878 ], [ -70.875609291564771, -34.264584721805171 ], [ -70.875389188150507, -34.264716985663185 ], [ -70.875140356613414, -34.264825682337275 ], [ -70.874878673777886, -34.264920541156847 ], [ -70.874622419461645, -34.265015537214502 ], [ -70.874370259666435, -34.265110619283824 ], [ -70.874113714296016, -34.26519653404052 ], [ -70.873854298808254, -34.265273406236389 ], [ -70.873595249833159, -34.265354778807243 ], [ -70.873338078336985, -34.265440627240714 ], [ -70.873085916745154, -34.265535779357556 ], [ -70.872840632655155, -34.265640133417342 ], [ -70.872595434803387, -34.265744485120436 ], [ -70.872348390913743, -34.26585780338057 ], [ -70.87210260286885, -34.26597568054941 ], [ -70.871863492001467, -34.266093750575997 ], [ -70.87163384937719, -34.266225637151351 ], [ -70.871418741494196, -34.266367051401829 ], [ -70.871222173940353, -34.266518078654506 ], [ -70.871046048449116, -34.266692283824895 ], [ -70.870887417648049, -34.266885204267645 ], [ -70.870746357893935, -34.267092112331497 ], [ -70.870625263196999, -34.267308762210995 ], [ -70.870525092059665, -34.267526051466916 ], [ -70.870446557744273, -34.267744192415485 ], [ -70.870405040306778, -34.267954529645131 ], [ -70.870477800251535, -34.268186684831804 ], [ -70.870630196744543, -34.268399085501819 ], [ -70.87081772365336, -34.268558577370449 ], [ -70.871049459352264, -34.268701513274742 ], [ -70.871307088090902, -34.268800399546514 ], [ -70.871571729078667, -34.268854341040829 ], [ -70.871841448242719, -34.268872454168296 ], [ -70.872115942850826, -34.268877197922933 ], [ -70.872393698343416, -34.268868521825652 ], [ -70.872953909314163, -34.268842379203242 ], [ -70.873231753739972, -34.268833700132902 ], [ -70.873508008147709, -34.268829549531077 ], [ -70.873784682967013, -34.268816307840424 ], [ -70.874061907555273, -34.268807708943598 ], [ -70.87433946272354, -34.268790019696802 ], [ -70.874616137542844, -34.268776775772785 ], [ -70.874892556342289, -34.268768040275361 ], [ -70.875169155703119, -34.268759374560069 ], [ -70.875444696848518, -34.268755157141051 ], [ -70.875719190558328, -34.268759893478553 ], [ -70.875992004418535, -34.268769086278297 ], [ -70.876265819900283, -34.268787348640998 ], [ -70.876541461656998, -34.268823678852968 ], [ -70.876815087594238, -34.268873409600587 ], [ -70.877084396228213, -34.268941080458994 ], [ -70.877345891315841, -34.269017439223646 ], [ -70.877595681355302, -34.269111482647645 ], [ -70.877836431648092, -34.269223170583743 ], [ -70.878074168991404, -34.269339335590111 ], [ -70.878307397690307, -34.269468791764524 ], [ -70.878534139654548, -34.269602556427316 ], [ -70.878752811154257, -34.269749519366009 ], [ -70.878960201610639, -34.269905222624566 ], [ -70.879155224960499, -34.270064955873373 ], [ -70.879332564974007, -34.27023759177164 ], [ -70.879482960020553, -34.270422828100202 ], [ -70.879613545418479, -34.27062543144487 ], [ -70.879734972492045, -34.270832311004774 ], [ -70.879855517420026, -34.271043488276575 ], [ -70.879985226960542, -34.271250609556546 ], [ -70.880129593413216, -34.27144465459336 ], [ -70.880274429684789, -34.271647775861233 ], [ -70.880420221763814, -34.271841871945639 ], [ -70.880568353954175, -34.272045164477653 ], [ -70.880721883222748, -34.272235004540775 ], [ -70.880882345688676, -34.27242052746648 ], [ -70.881052302448879, -34.272592904648604 ], [ -70.881240862420256, -34.272761523765944 ], [ -70.881528134664975, -34.272919837438771 ], [ -70.881802031893415, -34.272965045683044 ], [ -70.881946995725755, -34.272830305742673 ], [ -70.882063616812573, -34.272649539882693 ], [ -70.882168806837399, -34.272454840655655 ], [ -70.882265313746686, -34.272241882338655 ], [ -70.882356275355747, -34.272019702087498 ], [ -70.882443930266206, -34.271792845212808 ], [ -70.882532465525671, -34.271561616781781 ], [ -70.882623391202088, -34.271325920252863 ], [ -70.882720572746166, -34.271099434167013 ], [ -70.882826403269789, -34.270877763863552 ], [ -70.882943920875263, -34.270665516440822 ], [ -70.883075972323709, -34.270462720922154 ], [ -70.883219877940647, -34.270264840818086 ], [ -70.883374680121989, -34.270080827552327 ], [ -70.88353721769623, -34.269892632155305 ], [ -70.883705208044248, -34.269713585976483 ], [ -70.883877725002989, -34.269530111946729 ], [ -70.88405052313442, -34.269351286963875 ], [ -70.884222327729134, -34.269167823279119 ], [ -70.884391373597609, -34.268984328014533 ], [ -70.884554896623712, -34.268800622258212 ], [ -70.884718596617958, -34.268616913131069 ], [ -70.884882832008074, -34.268433268931588 ], [ -70.885048490329638, -34.268249677039869 ], [ -70.885216817545896, -34.268066044658873 ], [ -70.885387651960087, -34.267887173504448 ], [ -70.885563034544589, -34.267712812681964 ], [ -70.885920479586034, -34.267364503460854 ], [ -70.886096739824552, -34.26718569614426 ], [ -70.886267568848893, -34.267006751105669 ], [ -70.886431172723377, -34.266823041029191 ], [ -70.886586217449832, -34.266634513916166 ], [ -70.88673332645908, -34.266441307819377 ], [ -70.886876592475545, -34.26624335960296 ], [ -70.887015763970922, -34.266045326287397 ], [ -70.887153598773168, -34.265847239052825 ], [ -70.887290519988767, -34.265640154946951 ], [ -70.887426138647214, -34.26544646029248 ], [ -70.887558795560167, -34.26524372568533 ], [ -70.887690829042327, -34.265040926742628 ], [ -70.887821347066563, -34.2648380760848 ], [ -70.887950619127523, -34.264635172226669 ], [ -70.888080347532664, -34.264436839644794 ], [ -70.888210331059327, -34.264233997923739 ], [ -70.888338889857948, -34.264031103002054 ], [ -70.88846815742734, -34.2638281986819 ], [ -70.888596002963624, -34.263625315402393 ], [ -70.888723935636506, -34.263422356649059 ], [ -70.888851779376168, -34.263219473132963 ], [ -70.888980167494879, -34.26302101322802 ], [ -70.889108978720117, -34.262813682359926 ], [ -70.889239321572887, -34.262615266043056 ], [ -70.889370180058634, -34.262407977235661 ], [ -70.889494890474595, -34.262200413960521 ], [ -70.889617809649849, -34.261988299062651 ], [ -70.889753839736713, -34.261785657833151 ], [ -70.889922182224311, -34.261615682549888 ], [ -70.890131813079023, -34.261473952199019 ], [ -70.890372477133525, -34.261351464862678 ], [ -70.890630749065906, -34.261256552274347 ], [ -70.890896989953191, -34.261179835289191 ], [ -70.891161880672598, -34.261130245510323 ], [ -70.891431231527392, -34.261085166770094 ], [ -70.891704090303378, -34.261053772672909 ], [ -70.891979366445753, -34.261026993576728 ], [ -70.892256979106236, -34.261009264086418 ], [ -70.892533880300988, -34.260991543501639 ], [ -70.892810235320042, -34.260969325945709 ], [ -70.893085088355946, -34.260951488046807 ], [ -70.893635505893457, -34.26091587534512 ], [ -70.893911071293388, -34.260898099057556 ], [ -70.895013021177675, -34.260844942418899 ], [ -70.89528858567931, -34.260827163146573 ], [ -70.895564061247697, -34.260809384612898 ], [ -70.895839257440045, -34.260787103901201 ], [ -70.896117236613136, -34.260773938900797 ], [ -70.896397097756747, -34.260765250088468 ], [ -70.896677581432854, -34.260756624382928 ], [ -70.896958155838803, -34.260747997191608 ], [ -70.897236848274247, -34.260734891580526 ], [ -70.897512577167547, -34.260712599712434 ], [ -70.897784719087909, -34.260681129746942 ], [ -70.898051852900593, -34.260640575964146 ], [ -70.898313061425654, -34.260581795885912 ], [ -70.898569142367066, -34.260504701865457 ], [ -70.898821550097267, -34.26041857888584 ], [ -70.899071082320262, -34.260323268035684 ], [ -70.899317768680433, -34.26022799939706 ], [ -70.899562457187415, -34.260119096320011 ], [ -70.899805807204629, -34.26001006614301 ], [ -70.900048447552763, -34.259901120464093 ], [ -70.900531357595, -34.259664945782006 ], [ -70.900772201312563, -34.259551373425907 ], [ -70.901014290993416, -34.259437854373239 ], [ -70.901256812763933, -34.25931989750822 ], [ -70.90150052929377, -34.259215437602499 ], [ -70.90174592297825, -34.259106519107831 ], [ -70.901993199531574, -34.259002225247876 ], [ -70.902243003045783, -34.258911408385714 ], [ -70.902496992709189, -34.258820821588188 ], [ -70.902757326275164, -34.258739443438415 ], [ -70.903024006438628, -34.258667272478149 ], [ -70.903293561211001, -34.258604289427126 ], [ -70.903566075033879, -34.258550271567131 ], [ -70.903839341644996, -34.258509906085109 ], [ -70.9041109670341, -34.258487514879796 ], [ -70.904383593146406, -34.258474045109431 ], [ -70.904671839164891, -34.258474662096553 ], [ -70.904968594025746, -34.258493611988186 ], [ -70.905258456113415, -34.258530395094475 ], [ -70.905528003699246, -34.258593420521201 ], [ -70.905764512147243, -34.258682443197053 ], [ -70.905956007812989, -34.258814933134872 ], [ -70.906106237569531, -34.25899120121948 ], [ -70.906226372865746, -34.259197926755178 ], [ -70.906329468019322, -34.259422126949282 ], [ -70.906425373955685, -34.259655008791654 ], [ -70.906526333813844, -34.259879168417605 ], [ -70.906643637620277, -34.260090368739675 ], [ -70.906776595468827, -34.260297485071263 ], [ -70.906915582809603, -34.260495791034081 ], [ -70.907047922617252, -34.260702990263574 ], [ -70.907164933572915, -34.260905109937319 ], [ -70.907253954820931, -34.261124357961073 ], [ -70.907313949705483, -34.261342580848819 ], [ -70.907352884486542, -34.261573614648086 ], [ -70.907370273175488, -34.261803949924825 ], [ -70.907364514974532, -34.262033537684225 ], [ -70.907334906502754, -34.262266746390296 ], [ -70.907271431544785, -34.262485413255895 ], [ -70.907153527663752, -34.262693109464429 ], [ -70.907010774585316, -34.262895652734962 ], [ -70.9068731059714, -34.263102769583305 ], [ -70.906773289668607, -34.263315650076052 ], [ -70.90672780706744, -34.263539355980356 ], [ -70.90669891095969, -34.263772625844013 ], [ -70.90668784641035, -34.264015518980479 ], [ -70.906701342699165, -34.26425477730691 ], [ -70.906743661433907, -34.264485980543128 ], [ -70.906821247128349, -34.264691224090562 ], [ -70.906948172789782, -34.264871104292048 ], [ -70.90713914204278, -34.265030781771429 ], [ -70.907373139699558, -34.265169255140343 ], [ -70.907626773630156, -34.265294791163818 ], [ -70.907877535646762, -34.265411286768916 ], [ -70.908116724667579, -34.26552744442008 ], [ -70.90835997137853, -34.265630168921653 ], [ -70.908606434956511, -34.2657374961736 ], [ -70.908856246555544, -34.26583147496499 ], [ -70.90910785029358, -34.265930005291189 ], [ -70.909358283526814, -34.266023899234185 ], [ -70.909608387976633, -34.266126884452724 ], [ -70.909855186626217, -34.26622526595385 ], [ -70.910105660283634, -34.266332675594498 ], [ -70.910371679287024, -34.266427211258062 ], [ -70.910637992039526, -34.266530753519305 ], [ -70.910889178959266, -34.26663815014912 ], [ -70.911108112767053, -34.266767101202241 ], [ -70.91127849982027, -34.266916973321763 ], [ -70.911384211766276, -34.267114241410809 ], [ -70.911439503071989, -34.267332313643365 ], [ -70.911467718256773, -34.267576512744483 ], [ -70.911491124759792, -34.267820565629833 ], [ -70.911534792764073, -34.268051745700468 ], [ -70.911598646811115, -34.26827463352825 ], [ -70.911668557299791, -34.268497721206515 ], [ -70.911739890719872, -34.268720786764128 ], [ -70.911810589929345, -34.268939430910542 ], [ -70.911875527344606, -34.269166807718264 ], [ -70.911932528144334, -34.269389506256424 ], [ -70.911977418755711, -34.269611728348721 ], [ -70.912016001397149, -34.26983826001409 ], [ -70.912048440460396, -34.270064592116441 ], [ -70.912074572451999, -34.270295232261688 ], [ -70.912094811495351, -34.270521089510176 ], [ -70.912108033798035, -34.270751340894009 ], [ -70.912113862067585, -34.270981264269658 ], [ -70.91211292422642, -34.271210923481995 ], [ -70.912104509707163, -34.271440478138182 ], [ -70.912089949813037, -34.271669758984025 ], [ -70.912070668373772, -34.271898819470501 ], [ -70.912048093710681, -34.272127782086052 ], [ -70.912023637077084, -34.272352268504889 ], [ -70.911998136601113, -34.27258563566685 ], [ -70.91197280141516, -34.272814567460969 ], [ -70.911949057145563, -34.273039043880424 ], [ -70.911924801734571, -34.273272390577858 ], [ -70.911897672612994, -34.273496771498969 ], [ -70.911868242007657, -34.273725546407817 ], [ -70.911838097241656, -34.273954257596344 ], [ -70.91180946613693, -34.274183019383145 ], [ -70.911782873309562, -34.274407465425348 ], [ -70.911758795765024, -34.274640884041517 ], [ -70.911739678717453, -34.27486543501297 ], [ -70.911726288429833, -34.275099277705081 ], [ -70.911715454747508, -34.275324216425055 ], [ -70.911705610110303, -34.275553571303575 ], [ -70.911697028504392, -34.275787560543741 ], [ -70.911690036018229, -34.276017093054563 ], [ -70.911683831354551, -34.276242107260984 ], [ -70.911679419728188, -34.276471672676749 ], [ -70.911675723160798, -34.276701375533854 ], [ -70.91167416009219, -34.276930970872058 ], [ -70.911673224047675, -34.277160777880596 ], [ -70.911674245432152, -34.27739055382672 ], [ -70.911675978282332, -34.277620319494972 ], [ -70.911679302947206, -34.27784570204097 ], [ -70.911683797218586, -34.27807564609946 ], [ -70.911689537453256, -34.278305496742895 ], [ -70.911696704212574, -34.27853554643287 ], [ -70.911703247541098, -34.278765532399085 ], [ -70.911711747400318, -34.278995487302531 ], [ -70.911723378786618, -34.279230120911265 ], [ -70.911738026715639, -34.279460423414477 ], [ -70.911758104062244, -34.279690789122434 ], [ -70.911783945898023, -34.279912422086333 ], [ -70.911816224162806, -34.280143262351956 ], [ -70.911856147090674, -34.280369772322175 ], [ -70.91190797898426, -34.280587750051772 ], [ -70.911997240082471, -34.280816075149509 ], [ -70.912123860316711, -34.281031925134592 ], [ -70.912285909207426, -34.281213022576488 ], [ -70.912484621039852, -34.281354842132096 ], [ -70.912726124120837, -34.281453004663021 ], [ -70.912993744820383, -34.281529559154841 ], [ -70.913267050957373, -34.281601740185579 ], [ -70.913528198396989, -34.281687111830934 ], [ -70.913783910130817, -34.281772123394568 ], [ -70.91429587618093, -34.281942432774741 ], [ -70.914552138582025, -34.282032088372553 ], [ -70.914809101669036, -34.282117225770556 ], [ -70.915066408810816, -34.282197925145923 ], [ -70.915324337586767, -34.282278542053696 ], [ -70.915582981421693, -34.28235929397411 ], [ -70.915841624358279, -34.282439970849488 ], [ -70.916358824891546, -34.282601399335242 ], [ -70.916618349075449, -34.282677703385119 ], [ -70.916877082741891, -34.282758378470355 ], [ -70.91713635180426, -34.282839116569299 ], [ -70.917395622663236, -34.282919854590659 ], [ -70.91791395776869, -34.283072247533759 ], [ -70.918173942788329, -34.283153046937564 ], [ -70.918433302580539, -34.283233707463872 ], [ -70.918692740526168, -34.283310007970741 ], [ -70.918952814479013, -34.283390731437123 ], [ -70.919472492565816, -34.283543243769664 ], [ -70.919732732707004, -34.283619529150705 ], [ -70.919992717726643, -34.28370017735346 ], [ -70.920252871629557, -34.283776464076517 ], [ -70.920513989424776, -34.283848229008029 ], [ -70.920774232260882, -34.283924511885495 ], [ -70.921035186562705, -34.284000784302414 ], [ -70.92113314155624, -34.284031158162513 ], [ -70.9211461168222, -34.284034352011631 ], [ -70.924275134908058, -34.284790135919749 ], [ -70.924512145514299, -34.284612240754804 ], [ -70.924827656299968, -34.28441545831916 ], [ -70.925298926871079, -34.284223981668625 ], [ -70.925398618308051, -34.284182233105376 ], [ -70.92565010077351, -34.284159075324936 ], [ -70.925919503730583, -34.284113993342906 ], [ -70.926155078829012, -34.284013748231231 ], [ -70.926367296831728, -34.283876642669711 ], [ -70.926572822385594, -34.283734841471855 ], [ -70.9267714632511, -34.28358376720923 ], [ -70.926966421023948, -34.283423517807996 ], [ -70.927157628330477, -34.283258747089405 ], [ -70.927347407315722, -34.283093850608203 ], [ -70.927534934224553, -34.282919977803751 ], [ -70.927723538213399, -34.282750446796904 ], [ -70.92791331719863, -34.282585623543518 ], [ -70.928103552528043, -34.282425298756145 ], [ -70.92829190319199, -34.282260349424249 ], [ -70.928479466931734, -34.282099918616233 ], [ -70.928665768538494, -34.281934927079398 ], [ -70.928851699141063, -34.28176543565209 ], [ -70.929036751191262, -34.281600390015996 ], [ -70.929222428468918, -34.281435408632504 ], [ -70.92940819378147, -34.281270423956123 ], [ -70.929595752131334, -34.281109992000843 ], [ -70.929780252615956, -34.280940373467203 ], [ -70.92996467943874, -34.280775336602723 ], [ -70.930150974757296, -34.280610343208032 ], [ -70.930343416349032, -34.280445621902317 ], [ -70.930544341630323, -34.280290073999431 ], [ -70.930755371161908, -34.280148400359423 ], [ -70.930974964333117, -34.280011540865281 ], [ -70.931204038323841, -34.279888491164101 ], [ -70.931441599597349, -34.279774762035103 ], [ -70.931699627187982, -34.279657238235352 ], [ -70.931973033037977, -34.279531198121667 ], [ -70.932334589668471, -34.279384489067802 ], [ -70.932621921201985, -34.279334382263407 ], [ -70.93294457089921, -34.279299449851784 ], [ -70.933137894636559, -34.279278599216042 ], [ -70.933433940726658, -34.279655582216684 ], [ -70.933566345213009, -34.280416878997528 ], [ -70.933767142035208, -34.281654256494896 ], [ -70.933791183647159, -34.282703559650763 ], [ -70.93358427378945, -34.283708791798666 ], [ -70.933485736687615, -34.28442609082613 ], [ -70.933636032021184, -34.285855203309836 ], [ -70.93365251880158, -34.28601160931116 ], [ -70.933706217394317, -34.286521974021682 ], [ -70.93373244730229, -34.287666674498183 ], [ -70.934500205036301, -34.288561083984497 ], [ -70.934965327537569, -34.288792317609847 ], [ -70.935832815336099, -34.289017191483069 ], [ -70.936700309422832, -34.289242058816939 ], [ -70.937222907034297, -34.289472300487233 ], [ -70.937867017059332, -34.289986915455316 ], [ -70.938221689899791, -34.290410748140296 ], [ -70.938575357525465, -34.290786879655634 ], [ -70.939158730657496, -34.291159373572768 ], [ -70.93991679646787, -34.291624456139445 ], [ -70.940785334396949, -34.291896993401416 ], [ -70.94142180245386, -34.292077770563644 ], [ -70.941942323160418, -34.292212592460388 ], [ -70.942405288806683, -34.292348399735012 ], [ -70.943217558063026, -34.292669527685931 ], [ -70.943569982420328, -34.292997947602096 ], [ -70.943925793426274, -34.293469386934305 ], [ -70.944051726449317, -34.293944548473092 ], [ -70.943936484276463, -34.294817822452096 ], [ -70.943787236378526, -34.295822153450537 ], [ -70.943291959229782, -34.296784260374743 ], [ -70.942799967220026, -34.297889459250776 ], [ -70.942376420546736, -34.299470731925062 ], [ -70.942335420538839, -34.300187048926198 ], [ -70.942173978010928, -34.300666768978424 ], [ -70.942130867860442, -34.301287685956694 ], [ -70.942142837911589, -34.301807497323537 ], [ -70.942147342064445, -34.302003091030542 ], [ -70.942168209928496, -34.302909289301375 ], [ -70.942129405403165, -34.303721076937222 ], [ -70.942029826255592, -34.30439060508354 ], [ -70.941810895142766, -34.304871236855377 ], [ -70.941421720707169, -34.305449924683934 ], [ -70.941186578596728, -34.305930295129642 ], [ -70.941092307594175, -34.306123170779159 ], [ -70.941106490195878, -34.306743179233216 ], [ -70.941357624115014, -34.307633909214765 ], [ -70.941359294981453, -34.308027355214769 ], [ -70.941392503002561, -34.309172011241287 ], [ -70.9418053309779, -34.309836146778622 ], [ -70.941975031718215, -34.310042712408972 ], [ -70.942461144254437, -34.310634183438708 ], [ -70.943333717415769, -34.311130736150261 ], [ -70.943684679315808, -34.311330432159288 ], [ -70.945336057692501, -34.311973190191409 ], [ -70.946407116310809, -34.312193714797601 ], [ -70.947234276041257, -34.312375710397475 ], [ -70.947620700733779, -34.312460713168868 ], [ -70.948373497925033, -34.312687315574578 ], [ -70.949183783701201, -34.312912998794182 ], [ -70.94977176878389, -34.313476153548564 ], [ -70.950612762569733, -34.314032097744466 ], [ -70.950809686754738, -34.314136653507781 ], [ -70.951162339284153, -34.31393115971435 ], [ -70.951502828624598, -34.313734871106583 ], [ -70.951901816256353, -34.313585363682137 ], [ -70.952353957203485, -34.313244143498338 ], [ -70.952749715391775, -34.31295153810435 ], [ -70.953146575812951, -34.312706629431737 ], [ -70.953542241474779, -34.312414097104984 ], [ -70.95382634176822, -34.312266416329599 ], [ -70.9540518521422, -34.31207195506088 ], [ -70.954220896214053, -34.311926110112267 ], [ -70.954390116355682, -34.311780261200276 ], [ -70.954417604803382, -34.311595164257632 ], [ -70.954439770733032, -34.31144545787776 ], [ -70.954550402751835, -34.311252903124526 ], [ -70.954604567570215, -34.311108890973522 ], [ -70.955057702054035, -34.310815361766032 ], [ -70.955659878721605, -34.310500394299311 ], [ -70.956322811146762, -34.310141612368682 ], [ -70.956893719255916, -34.310642886388607 ], [ -70.957477310678556, -34.311015284835001 ], [ -70.957887439216478, -34.311342737430039 ], [ -70.958643589818649, -34.311663177650154 ], [ -70.959109997809122, -34.311991203503069 ], [ -70.95940960392268, -34.312511208310617 ], [ -70.959656078280446, -34.313222925844478 ], [ -70.959844140585162, -34.313887862574781 ], [ -70.959914931422816, -34.314459317132368 ], [ -70.960180085348625, -34.314741218857371 ], [ -70.960268709541282, -34.314835306087105 ], [ -70.960569356802253, -34.315403080748268 ], [ -70.960878019730501, -34.316009134984903 ], [ -70.960930908042869, -34.316112952267105 ], [ -70.961190724179218, -34.317397039840586 ], [ -70.96154461009553, -34.317773022314491 ], [ -70.96218455912414, -34.31809685164108 ], [ -70.96299826298997, -34.318465534064252 ], [ -70.96352231227894, -34.318743350617602 ], [ -70.964509509572224, -34.319156881209743 ], [ -70.965378495760632, -34.319429228971394 ], [ -70.966068259066702, -34.319418154255928 ], [ -70.966816711106901, -34.319453848265667 ], [ -70.96745344057355, -34.3196344800511 ], [ -70.968035000007021, -34.319911426913748 ], [ -70.968398774577977, -34.320716670453329 ], [ -70.968522664832065, -34.321096402509767 ], [ -70.968877622438484, -34.321520061145563 ], [ -70.96945799789242, -34.321749304016855 ], [ -70.969805251546958, -34.321839149346786 ], [ -70.970614471022884, -34.322016988672253 ], [ -70.970819689352908, -34.321994701928901 ], [ -70.971130669934595, -34.321960962429401 ], [ -70.971530862207146, -34.321859088006761 ], [ -70.97181830872502, -34.321854458528541 ], [ -70.972447338731371, -34.321701179625144 ], [ -70.97278995079084, -34.321600227818038 ], [ -70.973248656626055, -34.321545120518905 ], [ -70.973708656933582, -34.32153770516495 ], [ -70.974397227276981, -34.321478887548437 ], [ -70.974858343292084, -34.321519165664384 ], [ -70.97526067624996, -34.321512674723763 ], [ -70.975895291082423, -34.321597939038526 ], [ -70.976819495813047, -34.321773808377351 ], [ -70.977512720327894, -34.321905758919712 ], [ -70.978035628756473, -34.322135888793099 ], [ -70.978501140228275, -34.322366943925417 ], [ -70.97896768386434, -34.322645622260772 ], [ -70.97943320162436, -34.322876674505906 ], [ -70.979899840481849, -34.323155421628336 ], [ -70.980251415032924, -34.323436027000213 ], [ -70.98048585825407, -34.323623097221493 ], [ -70.98077779095847, -34.323809161769802 ], [ -70.980885989441191, -34.323912665231127 ], [ -70.98107197034939, -34.324090693794254 ], [ -70.981315377858792, -34.324219634585226 ], [ -70.981421396130301, -34.324275826243664 ], [ -70.981714369083818, -34.32450973617393 ], [ -70.982183268102546, -34.324883794257168 ], [ -70.982303859742927, -34.325120418496056 ], [ -70.9824255742774, -34.325404740012075 ], [ -70.982551777693345, -34.325879775753997 ], [ -70.982716834143659, -34.326416818952708 ], [ -70.983154860761019, -34.327574171789671 ], [ -70.983470899756085, -34.327909780228488 ], [ -70.984215270749957, -34.328143015333083 ], [ -70.984330256902965, -34.328141151810932 ], [ -70.984615896908807, -34.327968335915841 ], [ -70.984897321121011, -34.327797951452595 ], [ -70.985632699080583, -34.327657060469548 ], [ -70.985985097386759, -34.327589520727116 ], [ -70.986729126122512, -34.327434302706095 ], [ -70.987356953284689, -34.327233251061358 ], [ -70.98792850009599, -34.327080824732491 ], [ -70.988729923991897, -34.326924736311945 ], [ -70.989039154655416, -34.326820219476183 ], [ -70.989471689871436, -34.326674106375947 ], [ -70.989872916104886, -34.326619870386565 ], [ -70.990276485144605, -34.326661025140432 ], [ -70.990389089863783, -34.326705432191432 ], [ -70.990624725149317, -34.326798434763901 ], [ -70.991088041138582, -34.326934045896948 ], [ -70.991719324119671, -34.326876062203063 ], [ -70.992120551251418, -34.326821818183774 ], [ -70.992349389883529, -34.326770378360749 ], [ -70.99269434115601, -34.326764763963162 ], [ -70.993208381416082, -34.326613250014724 ], [ -70.993608567400429, -34.326511377530515 ], [ -70.994240882545768, -34.326501004809693 ], [ -70.99463593825152, -34.326494642596629 ], [ -70.995046804306284, -34.32653558820676 ], [ -70.995449245960316, -34.326529102847196 ], [ -70.996080431923332, -34.32647102391504 ], [ -70.996654215539721, -34.326413952393047 ], [ -70.99723026111397, -34.326452344550397 ], [ -70.997577380021212, -34.326542036472709 ], [ -70.997923459577677, -34.326584104496568 ], [ -70.998327032210653, -34.326625306747111 ], [ -70.998731734025924, -34.326714056321556 ], [ -70.999077725547494, -34.326756122033608 ], [ -70.999598545393042, -34.326890761399675 ], [ -71.000622340050995, -34.32726698324813 ], [ -71.001226254060299, -34.327627532518093 ], [ -71.001579138355041, -34.327955768983905 ], [ -71.002048142476681, -34.328329821349506 ], [ -71.002345804635965, -34.328754315874278 ], [ -71.002643380556989, -34.32917881047694 ], [ -71.003801095159176, -34.329493945243506 ], [ -71.004266711733877, -34.329724825072475 ], [ -71.004560950413605, -34.329697848274826 ], [ -71.004804812470525, -34.329675389240315 ], [ -71.004929062949046, -34.329639968122294 ], [ -71.005066991176093, -34.329520931750608 ], [ -71.005350003609706, -34.329325362092519 ], [ -71.005630657067414, -34.329034547182118 ], [ -71.00619981795333, -34.328786646109464 ], [ -71.006728446853614, -34.328736100669659 ], [ -71.007234597210598, -34.328769756584286 ], [ -71.00758296118282, -34.328907116018399 ], [ -71.008106078918843, -34.329137110222554 ], [ -71.008576167307027, -34.329558834358558 ], [ -71.008993313483927, -34.33017221061035 ], [ -71.009238163687669, -34.330788488104751 ], [ -71.009710540084882, -34.331305525641262 ], [ -71.009832355230671, -34.331589742373318 ], [ -71.010074850950033, -34.332110627206198 ], [ -71.010254074730682, -34.33239397403436 ], [ -71.010608239124707, -34.332769803269628 ], [ -71.011077309721685, -34.333143818594614 ], [ -71.011254261662955, -34.333331770687629 ], [ -71.01142298323964, -34.333532932340773 ], [ -71.011609486069034, -34.333755369032907 ], [ -71.011909406592935, -34.334275230837846 ], [ -71.012269285170476, -34.334889611110093 ], [ -71.012577267175743, -34.335087003718876 ], [ -71.013035383716144, -34.335974089732545 ], [ -71.013934635943102, -34.337081633735913 ], [ -71.014176760658259, -34.337134671682072 ], [ -71.014549124021627, -34.337216291394519 ], [ -71.014981615220222, -34.33706440318339 ], [ -71.017497232189044, -34.33640747061461 ], [ -71.018800135202397, -34.335852852586392 ], [ -71.020082481168799, -34.335306831142518 ], [ -71.020223767298376, -34.335246665710763 ], [ -71.020328452470011, -34.335186217615487 ], [ -71.020498381382424, -34.335087761082988 ], [ -71.020783849810016, -34.334987914325197 ], [ -71.021181745988699, -34.334790485135564 ], [ -71.021580694094595, -34.334640678446746 ], [ -71.021806100264016, -34.334446169617785 ], [ -71.022199413238113, -34.33405795322976 ], [ -71.022540952709122, -34.333909239383267 ], [ -71.022766262758807, -34.333714582723935 ], [ -71.022992809788633, -34.333567768018575 ], [ -71.023506830285783, -34.333416127638607 ], [ -71.023792014845768, -34.333315982170177 ], [ -71.024077108675897, -34.333215839549432 ], [ -71.024418640062095, -34.333067047062407 ], [ -71.024703821927133, -34.332966899693652 ], [ -71.024815374719097, -34.332821984188335 ], [ -71.024984417892639, -34.332675969073328 ], [ -71.025382203578559, -34.332478528507941 ], [ -71.025784666792134, -34.332471942721597 ], [ -71.02637108251804, -34.332939310465285 ], [ -71.02699245977648, -34.333268271661787 ], [ -71.028338357057663, -34.333431591970061 ], [ -71.028854574834, -34.333375321135989 ], [ -71.029083495212774, -34.333323812634276 ], [ -71.029538857518503, -34.333125404055927 ], [ -71.029883737824093, -34.333119685489244 ], [ -71.030252113565908, -34.333113575991455 ], [ -71.030742709593682, -34.332962293082424 ], [ -71.031138182117758, -34.332669442647152 ], [ -71.031699323743126, -34.332087626552259 ], [ -71.032321401687497, -34.331647865980358 ], [ -71.033340084033171, -34.330963014769544 ], [ -71.034302316246382, -34.330326735149335 ], [ -71.035140514475046, -34.329310940027867 ], [ -71.035530282697039, -34.328779596381871 ], [ -71.035696994742409, -34.328538250235916 ], [ -71.036029176463117, -34.328007863133088 ], [ -71.036423544957685, -34.327667298772262 ], [ -71.036592560283452, -34.327521417121673 ], [ -71.037220255393279, -34.327320113454903 ], [ -71.037734211211728, -34.327168488488923 ], [ -71.038130784172012, -34.326923239240962 ], [ -71.038636747679377, -34.326437740235463 ], [ -71.039087344422526, -34.326048517910657 ], [ -71.039480537022371, -34.325660322754004 ], [ -71.039982929726492, -34.325031659817313 ], [ -71.040548489266428, -34.324640515438965 ], [ -71.041239507518952, -34.324676710963224 ], [ -71.0419879254232, -34.324711944255725 ], [ -71.042277683306295, -34.324802614349181 ], [ -71.043145703805763, -34.325026629901323 ], [ -71.044007946341338, -34.325012236030922 ], [ -71.044979377303065, -34.324757439189369 ], [ -71.045492142853774, -34.324558013266028 ], [ -71.046182004974526, -34.324546558643021 ], [ -71.046584331644183, -34.324539759314568 ], [ -71.047279896270368, -34.324766703018398 ], [ -71.047685791946648, -34.32490305856976 ], [ -71.048207826314453, -34.325085183891311 ], [ -71.048727541232196, -34.325171843009343 ], [ -71.04941856756956, -34.325208065011921 ], [ -71.050164667820354, -34.325147784023926 ], [ -71.050679656701391, -34.325043802092601 ], [ -71.051201697357385, -34.325225915980589 ], [ -71.051728295166825, -34.32559873417329 ], [ -71.052023959472933, -34.325927780534407 ], [ -71.052488428898997, -34.326110853220293 ], [ -71.053296675499467, -34.326240443006327 ], [ -71.053643936340535, -34.326330046873352 ], [ -71.054052172128152, -34.326561697300804 ], [ -71.054170640151185, -34.326702852741761 ], [ -71.054464975848973, -34.326984201463063 ], [ -71.054754750800072, -34.327074766724927 ], [ -71.054977818654791, -34.326784735578393 ], [ -71.054970751608451, -34.326498640493838 ], [ -71.055076424926895, -34.326115148624048 ], [ -71.05582020213437, -34.325959516881127 ], [ -71.056282441941917, -34.326047182550958 ], [ -71.056630865202962, -34.326184399552808 ], [ -71.057036695302244, -34.326320798796033 ], [ -71.057385123054857, -34.326458013124871 ], [ -71.057848530672274, -34.326593367382095 ], [ -71.058427996132821, -34.32677448307269 ], [ -71.058658042100646, -34.326770615014119 ], [ -71.059062709779965, -34.326859238318782 ], [ -71.059757157800234, -34.327038413477496 ], [ -71.06021940479431, -34.327125990480994 ], [ -71.060726566654267, -34.32728452887612 ], [ -71.061037091790098, -34.327637086094562 ], [ -71.061225808068372, -34.328301912344017 ], [ -71.061697401134637, -34.328771041455404 ], [ -71.06210567195653, -34.32900273633075 ], [ -71.062509186198994, -34.329043654010697 ], [ -71.063900559793112, -34.329497347303516 ], [ -71.064596295099221, -34.329724113653668 ], [ -71.065063148654048, -34.330002525718754 ], [ -71.065415113073939, -34.330282873775616 ], [ -71.065886741174509, -34.330752060058437 ], [ -71.066127234549128, -34.331177357589333 ], [ -71.066544887375841, -34.331790520975929 ], [ -71.066960119242893, -34.332308368329194 ], [ -71.067646433018282, -34.332153634539964 ], [ -71.067686037942522, -34.332153038864512 ], [ -71.067813569966773, -34.332150811201466 ], [ -71.068336345444678, -34.332141978439019 ], [ -71.069429789181555, -34.332171212527626 ], [ -71.069949566981379, -34.332257851716328 ], [ -71.070701572756846, -34.332435990906482 ], [ -71.070987864041257, -34.332383432907982 ], [ -71.071329302002653, -34.332234512094701 ], [ -71.071498261632883, -34.332088510051648 ], [ -71.071780943486488, -34.331892868488218 ], [ -71.071948730815265, -34.331699244951359 ], [ -71.07235117606254, -34.331692432108021 ], [ -71.072469680916484, -34.331833569273641 ], [ -71.072644502952258, -34.331925963066567 ], [ -71.072933137941249, -34.331968790975957 ], [ -71.073275658372566, -34.331867634911291 ], [ -71.073445876542493, -34.331769322105103 ], [ -71.073613567751536, -34.331575624101333 ], [ -71.073842363264504, -34.331524034378283 ], [ -71.074129733425579, -34.331519165084174 ], [ -71.074649511225374, -34.331605784917194 ], [ -71.074999161585112, -34.331790642633727 ], [ -71.075413267863084, -34.332260765552242 ], [ -71.075770770396716, -34.332746028349604 ], [ -71.075829909186808, -34.332826272572241 ], [ -71.076294958026253, -34.332996759578279 ], [ -71.07670044137582, -34.333145432759572 ], [ -71.077183526589536, -34.333357489704397 ], [ -71.077460523005712, -34.333003941734603 ], [ -71.077317577687808, -34.332514748839785 ], [ -71.077075758399843, -34.332041709050323 ], [ -71.077010033162082, -34.331708823285979 ], [ -71.077115701090634, -34.331325390095415 ], [ -71.077730377815371, -34.330599243245089 ], [ -71.07799666002515, -34.329735938486856 ], [ -71.078186625859971, -34.328110574314501 ], [ -71.078208736094055, -34.326678841674379 ], [ -71.078416427486061, -34.325768817452335 ], [ -71.078693191238571, -34.325334762146397 ], [ -71.079426406054949, -34.324749738496273 ], [ -71.079994214976367, -34.324453805814088 ], [ -71.080621772643951, -34.324252284093347 ], [ -71.080903317230423, -34.324008927030242 ], [ -71.081012313417091, -34.32376850268129 ], [ -71.081078355760155, -34.323638122676677 ], [ -71.081231747586486, -34.323335417065813 ], [ -71.081743145901328, -34.323088223242571 ], [ -71.082482122511919, -34.322741581336011 ], [ -71.083107393967111, -34.322444731262827 ], [ -71.083501538781192, -34.322104023393237 ], [ -71.083775905828517, -34.321574569742978 ], [ -71.084080714984211, -34.319947168938569 ], [ -71.08446894618875, -34.319367987490317 ], [ -71.085189005177781, -34.318258443093974 ], [ -71.085855189504272, -34.317292808657946 ], [ -71.086530807039566, -34.316708798095632 ], [ -71.087086549790087, -34.315935970745805 ], [ -71.08785702672445, -34.314539191535609 ], [ -71.088352344297377, -34.313997983315581 ], [ -71.088456899213298, -34.312857482894536 ], [ -71.087798679350101, -34.313089109667182 ], [ -71.087319162244697, -34.313391180000515 ], [ -71.08679450749122, -34.313657233737807 ], [ -71.086313165009173, -34.313885838469652 ], [ -71.085663018305453, -34.314447920488561 ], [ -71.08478893597443, -34.314903610672808 ], [ -71.084222678443496, -34.315280637125902 ], [ -71.083454194870754, -34.315701947884349 ], [ -71.08257786764986, -34.316028109004371 ], [ -71.081754364960915, -34.316319980271153 ], [ -71.08115417087518, -34.316430340439688 ], [ -71.080445653440918, -34.316497924777032 ], [ -71.079926353544849, -34.31662906301753 ], [ -71.079136112775927, -34.316642485629764 ], [ -71.078568915607221, -34.316463105012694 ], [ -71.077832253955108, -34.315930808216542 ], [ -71.076921103542219, -34.31540471602942 ], [ -71.075978233616638, -34.314869701380545 ], [ -71.075333357328688, -34.313852040062436 ], [ -71.073988723078799, -34.313176834041911 ], [ -71.073491993354224, -34.312781225546196 ], [ -71.072862514190234, -34.312387861181669 ], [ -71.07222771430483, -34.311774182054464 ], [ -71.07136974415674, -34.311090634838955 ], [ -71.070468473415346, -34.310444743985535 ], [ -71.069832892893956, -34.309794281090788 ], [ -71.069120329447657, -34.309622704417961 ], [ -71.06827871043437, -34.309600141323344 ], [ -71.067611272059736, -34.309464502181591 ], [ -71.066936810656216, -34.309035009064914 ], [ -71.066354307991702, -34.308751020171158 ], [ -71.064796644560403, -34.308409982169202 ], [ -71.06421415177735, -34.308125908054663 ], [ -71.063843141276791, -34.307434243741461 ], [ -71.063600389537555, -34.30655672215947 ], [ -71.062599022219004, -34.305434867033014 ], [ -71.06173948810401, -34.304677856700977 ], [ -71.061060521649338, -34.304064859572073 ], [ -71.060473585798889, -34.303597220453511 ], [ -71.059844322230575, -34.303203709172372 ], [ -71.059080444320301, -34.302739039485331 ], [ -71.058444831459553, -34.302088514672057 ], [ -71.05812796781106, -34.301799944425277 ], [ -71.057549215612852, -34.301662759542317 ], [ -71.057009629062719, -34.301854041357622 ], [ -71.056274199000867, -34.302014781000601 ], [ -71.054818547354913, -34.302222909391865 ], [ -71.054025689793562, -34.302383122197256 ], [ -71.053310623640883, -34.302101218309012 ], [ -71.053037321995475, -34.301634413488038 ], [ -71.05262449941003, -34.301194469596197 ], [ -71.052043970344187, -34.300983721311859 ], [ -71.051505965727273, -34.300698911894607 ], [ -71.050750187925914, -34.300564585234831 ], [ -71.050174935564058, -34.300574217585009 ], [ -71.049197099614346, -34.30040688910875 ], [ -71.048615693792797, -34.300159503836802 ], [ -71.047774080169418, -34.300136870668759 ], [ -71.04683868692193, -34.299895320457622 ], [ -71.04596096731234, -34.300203959044886 ], [ -71.044898271111009, -34.300184925792159 ], [ -71.044442404850415, -34.299641525646642 ], [ -71.043629975693975, -34.298993873279926 ], [ -71.042871556845682, -34.298749412945682 ], [ -71.04211767448956, -34.298688494038565 ], [ -71.04136103879712, -34.298517413408973 ], [ -71.040822194255412, -34.29819578759075 ], [ -71.040417686476232, -34.297945413246872 ], [ -71.040230079617345, -34.297507729821035 ], [ -71.039501693245626, -34.296675026163001 ], [ -71.038731856810088, -34.295953136224256 ], [ -71.038452199584043, -34.29537007039859 ], [ -71.037231028888499, -34.294288365187029 ], [ -71.036409842954669, -34.293273490594089 ], [ -71.035731146892886, -34.292660266994396 ], [ -71.034529620555972, -34.292386334713584 ], [ -71.032979361039253, -34.292338658827717 ], [ -71.031731778077713, -34.291992043585147 ], [ -71.030964612333491, -34.291380260838096 ], [ -71.030986815992378, -34.290461561577047 ], [ -71.030262999350512, -34.289812345897509 ], [ -71.029369326559788, -34.289459764901828 ], [ -71.028705723093111, -34.289470831693748 ], [ -71.028134156518831, -34.289627210184236 ], [ -71.027509555206862, -34.289417145381798 ], [ -71.027141487587159, -34.288835514132572 ], [ -71.026027580228131, -34.28852333653937 ], [ -71.025414359672453, -34.288790593489139 ], [ -71.02484719663974, -34.289130505836944 ], [ -71.02437030441159, -34.289542491566962 ], [ -71.023624348789554, -34.28981193398387 ], [ -71.02296426043057, -34.289969825155403 ], [ -71.022390920581969, -34.29005278733306 ], [ -71.021854661391643, -34.289841234026397 ], [ -71.021179615184863, -34.289374853888376 ], [ -71.020854132201237, -34.288719007194338 ], [ -71.020485321674812, -34.288100583144193 ], [ -71.019759055327171, -34.287341140974043 ], [ -71.018957383496257, -34.287133950975104 ], [ -71.017886854883969, -34.286784199934083 ], [ -71.017034141676916, -34.286284086845725 ], [ -71.016446689295194, -34.285779379393794 ], [ -71.015680658123173, -34.285204336953967 ], [ -71.014910161425902, -34.284445590803294 ], [ -71.013918549811308, -34.283690402785027 ], [ -71.013285176450566, -34.283113088139451 ], [ -71.012695142310719, -34.28249827471106 ], [ -71.011928290078515, -34.281886436203791 ], [ -71.010993192376787, -34.281644675418057 ], [ -71.010369473210403, -34.281471216023725 ], [ -71.009442251038763, -34.281559924258666 ], [ -71.008866328533685, -34.281532586832803 ], [ -71.008014502862153, -34.281069030175075 ], [ -71.007245947424195, -34.28038362159689 ], [ -71.006526849632522, -34.279917879285776 ], [ -71.006196193251157, -34.279041666895758 ], [ -71.006176122192784, -34.278197150781217 ], [ -71.006557651965295, -34.277492897142025 ], [ -71.006588766013479, -34.276941443988967 ], [ -71.006267808742237, -34.276469102818389 ], [ -71.005458510214567, -34.275931410561363 ], [ -71.005093271389725, -34.275459864671994 ], [ -71.00455113182754, -34.274991138429314 ], [ -71.003959564263496, -34.27430281121184 ], [ -71.003236963940523, -34.273690192249511 ], [ -71.002389690930855, -34.273410142191381 ], [ -71.001856289281463, -34.273308729244711 ], [ -71.000794703397816, -34.273325998123141 ], [ -70.999960401162525, -34.27359681313547 ], [ -70.999206584383444, -34.273535622115183 ], [ -70.998306343111338, -34.272889086910745 ], [ -70.997662731651303, -34.271871039434451 ], [ -70.997239544304108, -34.270812684638628 ], [ -70.996654055639581, -34.270381413424843 ], [ -70.996114598446866, -34.270022808310912 ], [ -70.99557263405616, -34.26955411114583 ], [ -70.994974149464426, -34.268572022512252 ], [ -70.994122530405392, -34.268108360979603 ], [ -70.993361051895249, -34.267716647084264 ], [ -70.992688938687877, -34.267360258503601 ], [ -70.992097522939119, -34.266671941569882 ], [ -70.991952798058634, -34.266159984166222 ], [ -70.991904177642198, -34.265977076998531 ], [ -70.991610227321658, -34.264769610517966 ], [ -70.991232996886083, -34.263783978136289 ], [ -70.990606851370131, -34.263500250550358 ], [ -70.99016735960052, -34.263197827830268 ], [ -70.989125801656144, -34.262605959721739 ], [ -70.988359210833721, -34.261993887351167 ], [ -70.987091510101379, -34.260765495837155 ], [ -70.986046642763498, -34.259606899308451 ], [ -70.98479195412807, -34.258929292749777 ], [ -70.980602345491903, -34.255727660749322 ], [ -70.979706739526705, -34.255264604817825 ], [ -70.978857056337105, -34.254874295305591 ], [ -70.978102645771614, -34.254776270290776 ], [ -70.977178247903225, -34.254974887751594 ], [ -70.976162019754909, -34.255027990927474 ], [ -70.975581899422522, -34.25481693604749 ], [ -70.97486319239799, -34.254350991234297 ], [ -70.974146976401755, -34.25399513408275 ], [ -70.973782097801319, -34.253523482263986 ], [ -70.97363398986549, -34.252864639758201 ], [ -70.973138934600627, -34.252505287237128 ], [ -70.972340358364178, -34.252407938122751 ], [ -70.971324068232107, -34.252461075589487 ], [ -70.969995765354099, -34.25240886775395 ], [ -70.968486151909033, -34.252176080200805 ], [ -70.967547305537607, -34.251750265265571 ], [ -70.961877243668809, -34.24761666724622 ], [ -70.960411147311049, -34.245436098952197 ], [ -70.958877935123468, -34.244174863032619 ], [ -70.957115175533005, -34.244460218940567 ], [ -70.956100662268582, -34.244586547760598 ], [ -70.955161784456124, -34.244160707045822 ], [ -70.954355748609558, -34.243732742586928 ], [ -70.953679741205434, -34.243192566458042 ], [ -70.953311539736788, -34.242573914478072 ], [ -70.953428157230334, -34.241874038745479 ], [ -70.953275052864882, -34.240994909532908 ], [ -70.952681599737048, -34.24019621748355 ], [ -70.950746831634319, -34.239187977363969 ], [ -70.950130751741085, -34.238914289703764 ], [ -70.94967591944139, -34.238370572190668 ], [ -70.94938098816057, -34.237089507050513 ], [ -70.948964428583537, -34.236287907570983 ], [ -70.948473048326505, -34.236075309229975 ], [ -70.947490964243812, -34.235686878035956 ], [ -70.946513206447548, -34.235482071717669 ], [ -70.945623817722392, -34.235275707526199 ], [ -70.944732836284274, -34.234996013796348 ], [ -70.943890175225263, -34.234899174696409 ], [ -70.943092721882934, -34.234838323890926 ], [ -70.942248376482766, -34.234668004528771 ], [ -70.941752715753381, -34.234271745711553 ], [ -70.941198633987838, -34.233251958657995 ], [ -70.940906585400754, -34.232578137044911 ], [ -70.940885312396503, -34.23116308244591 ], [ -70.940516774059631, -34.230325606306288 ], [ -70.939950300933035, -34.229585585102598 ], [ -70.939447081778852, -34.229148809908963 ], [ -70.938733202300668, -34.228514377975372 ], [ -70.937656690908597, -34.227911157596068 ], [ -70.93675456586935, -34.227400530782042 ], [ -70.935682995211309, -34.227011939247362 ], [ -70.934640232626151, -34.226622809658295 ], [ -70.933310810447296, -34.226262049749181 ], [ -70.932556107929315, -34.225916149251184 ], [ -70.931828576753759, -34.225498166025737 ], [ -70.930696270999377, -34.224967336394421 ], [ -70.929794307656891, -34.224456728870919 ], [ -70.928980666673127, -34.224040084297272 ], [ -70.927995215704769, -34.223649994688309 ], [ -70.927039661567377, -34.22330714294818 ], [ -70.926109027594293, -34.222796959143103 ], [ -70.92515014430046, -34.222310994387072 ], [ -70.924364058239732, -34.221888124308258 ], [ -70.922072876361483, -34.220696948323713 ], [ -70.919082698292684, -34.219447903424353 ], [ -70.916625270594707, -34.218722949711584 ], [ -70.914092479634277, -34.21721179455907 ], [ -70.911433019930598, -34.216442097055833 ], [ -70.908938869103793, -34.215359681888664 ], [ -70.905697654133903, -34.215529394025907 ], [ -70.903058699374895, -34.215665891176684 ], [ -70.901685267831951, -34.216063396362415 ], [ -70.900955759464452, -34.216421654999237 ], [ -70.900185752348989, -34.216465500786633 ], [ -70.899464570465867, -34.216747465981918 ], [ -70.898834554109328, -34.216828800049228 ], [ -70.898063750188214, -34.217031529468336 ], [ -70.897021347827462, -34.217930427982886 ], [ -70.897339391862232, -34.220312760378512 ], [ -70.897610914843384, -34.222519051949824 ], [ -70.897978861190481, -34.223532992633309 ], [ -70.89816189023469, -34.224037317489426 ], [ -70.898414069792807, -34.225035395376146 ], [ -70.898547032132981, -34.225844450757201 ], [ -70.898690882952664, -34.227130507364841 ], [ -70.898772849730776, -34.2282266529268 ], [ -70.898776064801183, -34.228369828178245 ], [ -70.898789003236232, -34.228942156873558 ], [ -70.899089316323909, -34.232086525559829 ], [ -70.899116096000839, -34.233278959744354 ], [ -70.899287743390389, -34.235805221537781 ], [ -70.899468613782943, -34.236184080040395 ], [ -70.89982285992366, -34.236608042084065 ], [ -70.900173890993969, -34.236888828101293 ], [ -70.900579055441625, -34.237025696871896 ] ] ] } },
{ "type": "Feature", "properties": { "capa": "colegios", "popup": "<strong>ESCUELA MUNICIPAL EL RULO</strong><br><br><strong>Dirección:</strong> PASAJE LA ESCUELA EL RULO 0", "etiqueta": "" }, "geometry": { "type": "Point", "coordinates": [ -71.018837, -34.30899 ] } },
{ "type": "Feature", "properties": { "capa": "colegios", "popup": "<strong>ESCUELA MUNICIPAL CHILLEHUE</strong><br><br><strong>Dirección:</strong> CAMINO PRINCIPAL CHILLEHUE 813", "etiqueta": "" }, "geometry": { "type": "Point", "coordinates": [ -70.98243, -34.282761 ] } },
{ "type": "Feature", "properties": { "capa": "colegios", "popup": "<strong>LICEO MUNICIPAL LUIS GREGORIO VALENZUELA LAVIN</strong><br><br><strong>Dirección:</strong> AVENIDA NUEVA ESTADIO 242", "etiqueta": "" }, "geometry": { "type": "Point", "coordinates": [ -70.950111, -34.26963 ] } },
{ "type": "Feature", "properties": { "capa": "colegios", "popup": "<strong>COLEGIO MUNICIPAL HUALLILEN</strong><br><br><strong>Dirección:</strong> FRANCISCO DIAZ MUÑOZ 5", "etiqueta": "" }, "geometry": { "type": "Point", "coordinates": [ -70.951431, -34.269241 ] } },
{ "type": "Feature", "properties": { "capa": "colegios", "popup": "<strong>COLEGIO CIMA</strong><br><br><strong>Dirección:</strong> EL CAJON 1950", "etiqueta": "" }, "geometry": { "type": "Point", "coordinates": [ -70.885597, -34.252651 ] } },
{ "type": "Feature", "properties": { "capa": "colegios", "popup": "<strong>ESCUELA MUNICIPAL COPEQUEN</strong><br><br><strong>Dirección:</strong> CALLE REGIDOR HERIBERTO ALVAREZ 43", "etiqueta": "" }, "geometry": { "type": "Point", "coordinates": [ -70.926041, -34.249611 ] } },
{ "type": "Feature", "properties": { "capa": "jardines", "popup": "<strong>LOS RULITOS</strong><br><br><strong>Dirección:</strong> CALLE LA ESCUELA S/N SECTOR EL RULO, COINCO ", "etiqueta": "" }, "geometry": { "type": "MultiPoint", "coordinates": [ [ -71.018689, -34.308827 ] ] } },
{ "type": "Feature", "properties": { "capa": "jardines", "popup": "<strong>SALA CUNA MANZANITA</strong><br><br><strong>Dirección:</strong> HEROES DE LA CONCEPCION N 196 ", "etiqueta": "" }, "geometry": { "type": "MultiPoint", "coordinates": [ [ -70.949487, -34.271285 ] ] } },
{ "type": "Feature", "properties": { "capa": "jardines", "popup": "<strong>SEMILLITA</strong><br><br><strong>Dirección:</strong> LA PERGOLA #140, VILLA LA UNION ", "etiqueta": "" }, "geometry": { "type": "MultiPoint", "coordinates": [ [ -70.975927, -34.273825 ] ] } },
{ "type": "Feature", "properties": { "capa": "bomberos", "popup": "<strong>Cuerpo de Bomberos</strong><br><br><strong>Dirección:</strong> Bernardo O Higgins 77", "etiqueta": "" }, "geometry": { "type": "Point", "coordinates": [ -70.950396899837628, -34.269046402013871 ] } },
{ "type": "Feature", "properties": { "capa": "comisarias", "popup": "<strong>RETEN MILLAHUE</strong><br><br><strong>Dirección:</strong> EL RULO S/N", "etiqueta": "" }, "geometry": { "type": "Point", "coordinates": [ -71.024398097999949, -34.30787107599992 ] } },
{ "type": "Feature", "properties": { "capa": "comisarias", "popup": "<strong>TCIA. COINCO</strong><br><br><strong>Dirección:</strong> LIBERTADOR BERNARDO O'HIGGINS 285", "etiqueta": "" }, "geometry": { "type": "Point", "coordinates": [ -70.949896705999947, -34.267648356999928 ] } },
{ "type": "Feature", "properties": { "capa": "salud", "popup": "<strong>Hospital de Coínco</strong><br><br><strong>Tipo de atención:</strong> Hospital<br><strong>Dirección:</strong>  157", "etiqueta": "" }, "geometry": { "type": "Point", "coordinates": [ -70.95392, -34.26859 ] } },
{ "type": "Feature", "properties": { "capa": "salud", "popup": "<strong>Posta de Salud Rural El Rulo</strong><br><br><strong>Tipo de atención:</strong> Posta de Salud Rural (PSR)<br><strong>Dirección:</strong>  NA", "etiqueta": "" }, "geometry": { "type": "Point", "coordinates": [ -71.019509, -34.307975 ] } },
{ "type": "Feature", "properties": { "capa": "municipios", "popup": "<strong>Municipalidad de Coinco</strong><br><br><strong>Dirección:</strong> Plaza de Los Héroes Nº 3<br><strong>Región:</strong> Libertador General Bernardo O'Higgins", "etiqueta": "" }, "geometry": { "type": "Point", "coordinates": [ -70.951922967999963, -34.269772674999956 ] } }
]
}
