{
"type": "FeatureCollection",
"name": "6104",
"crs": { "type": "name", "properties": { "name": "urn:ogc:def:crs:OGC:1.3:CRS84" } },
"features": [
{ "type": "Feature", "properties": { "capa": "comuna", "popup": "", "etiqueta": "" }, "geometry": { "type": "Polygon", "coordinates": [ [ [ -71.024918108749944, -34.170534806339248 ], [ -71.023196244064493, -34.170627550584925 ], [ -71.021758981830715, -34.170432239337799 ], [ -71.019069232732292, -34.169970938248333 ], [ -71.01710154406932, -34.16952865657435 ], [ -71.015327873541423, -34.168795160961849 ], [ -71.014252433839488, -34.168611543575615 ], [ -71.012981833345421, -34.168718893403799 ], [ -71.011440606388874, -34.16881737087521 ], [ -71.009461677106756, -34.168730436891479 ], [ -71.007757104092207, -34.168427137937272 ], [ -71.00657935616087, -34.167888732561032 ], [ -71.005249384213059, -34.167845404092212 ], [ -71.00412398380827, -34.168020384968123 ], [ -71.00311517664251, -34.168451533866403 ], [ -71.002198838458838, -34.168745993208361 ], [ -71.001803377612916, -34.168929721046759 ], [ -71.001628017486297, -34.16901117334114 ], [ -71.00114741521601, -34.169175754467624 ], [ -71.000710279727414, -34.169337185382965 ], [ -71.000360529654685, -34.169469935537997 ], [ -70.999883198150386, -34.169562440141704 ], [ -70.999532721340586, -34.169668165510565 ], [ -70.999109283363424, -34.169739919223147 ], [ -70.998662903312223, -34.169765878561336 ], [ -70.998237828604616, -34.169828571292648 ], [ -70.997889179866434, -34.16992532388641 ], [ -70.997496736461528, -34.170056692914429 ], [ -70.997058965864014, -34.170218048564003 ], [ -70.996710847131851, -34.170314788819425 ], [ -70.996361088075972, -34.170447527774833 ], [ -70.995924704477247, -34.170577464513045 ], [ -70.995530863293766, -34.170740316046135 ], [ -70.995102410920694, -34.170874995663951 ], [ -70.994736288153589, -34.171079200910221 ], [ -70.994368922118156, -34.171283499309702 ], [ -70.993870054403217, -34.171330166096887 ], [ -70.993526499112704, -34.17131898194576 ], [ -70.993141894406961, -34.171270349303192 ], [ -70.992843203676671, -34.171224604834599 ], [ -70.992235787136067, -34.171348886614524 ], [ -70.991757577079397, -34.171472913283409 ], [ -70.991323622525215, -34.171566822625479 ], [ -70.990957763862824, -34.17172602968823 ], [ -70.990538660256902, -34.17182043299487 ], [ -70.990125828688306, -34.171951075914052 ], [ -70.989693602492721, -34.172008979162342 ], [ -70.989255351296521, -34.17204873355287 ], [ -70.988823338001652, -34.172115715968431 ], [ -70.98839521351367, -34.1722008054995 ], [ -70.987966075726021, -34.172276823161091 ], [ -70.98753974607196, -34.17236653240132 ], [ -70.9871300029113, -34.172492756766978 ], [ -70.986734087517831, -34.172655467108704 ], [ -70.986336447358994, -34.17280911730176 ], [ -70.985938275397515, -34.172962849712171 ], [ -70.985531864986569, -34.173102679243797 ], [ -70.985114183413742, -34.173224150391853 ], [ -70.984688093609861, -34.173309266304301 ], [ -70.984251206056271, -34.173335538924192 ], [ -70.983809243021327, -34.173312033290919 ], [ -70.983373848467735, -34.173261680511665 ], [ -70.982950210166265, -34.173166742958784 ], [ -70.982534103340129, -34.173040438590547 ], [ -70.982155688026694, -34.172861375962533 ], [ -70.981834816993739, -34.172612022171577 ], [ -70.981458239633369, -34.172423990174558 ], [ -70.981099937599154, -34.172394247165983 ], [ -70.980628486466685, -34.172378814153198 ], [ -70.980149465231321, -34.172507241408532 ], [ -70.979758344146504, -34.172598054829535 ], [ -70.97919741272689, -34.17265164695776 ], [ -70.978850467194491, -34.172712420039211 ], [ -70.978457976178873, -34.172843656152303 ], [ -70.978020151682429, -34.173004944786754 ], [ -70.977629397110263, -34.173100251156804 ], [ -70.977323933082729, -34.173198392042202 ], [ -70.976894365900392, -34.17318426426268 ], [ -70.976378478704078, -34.173104234795034 ], [ -70.975955777345447, -34.173045303686429 ], [ -70.975530398108958, -34.172959233216673 ], [ -70.97514579519985, -34.172910618613294 ], [ -70.974718679519924, -34.172860545044578 ], [ -70.974288084664892, -34.172882395657069 ], [ -70.973815918473463, -34.172866873547378 ], [ -70.973341456188152, -34.172855819663091 ], [ -70.972922745146036, -34.172742967098884 ], [ -70.972494984475716, -34.172661282061917 ], [ -70.972064397705523, -34.17258414619954 ], [ -70.971638061763258, -34.172502509318257 ], [ -70.971216970185608, -34.172394121561396 ], [ -70.970793180967192, -34.172303501902199 ], [ -70.97036234716029, -34.17223087039212 ], [ -70.969928177010431, -34.17217143848373 ], [ -70.969492011702329, -34.172125554777303 ], [ -70.969057183087372, -34.172079795164507 ], [ -70.968770406712693, -34.172033947826321 ], [ -70.96846915488554, -34.172420884992761 ], [ -70.968241230738386, -34.172724210472744 ], [ -70.968008427840928, -34.173031824709419 ], [ -70.967762518523486, -34.173330046572353 ], [ -70.967499503486394, -34.173618792178175 ], [ -70.96723246759008, -34.173902873902762 ], [ -70.966976205188985, -34.174191732002441 ], [ -70.966745351635694, -34.174499459802554 ], [ -70.966541212182321, -34.174817175102284 ], [ -70.966351669454014, -34.17513975195137 ], [ -70.966160007599939, -34.175466794170966 ], [ -70.965970302276546, -34.1757939532907 ], [ -70.965790311334644, -34.17611467660717 ], [ -70.965732260404351, -34.17693380649159 ], [ -70.965671945719549, -34.177785620691637 ], [ -70.96571193422443, -34.179244988665445 ], [ -70.965054052127769, -34.181547033773107 ], [ -70.964552559535576, -34.182373191505455 ], [ -70.964373665436639, -34.183224982745863 ], [ -70.964218153586231, -34.184360852773047 ], [ -70.964165745872549, -34.184622877619958 ], [ -70.964199444373818, -34.184979915938129 ], [ -70.96424320849782, -34.18534174282118 ], [ -70.964292725432912, -34.18569476161337 ], [ -70.964342627745253, -34.186056785324638 ], [ -70.964393317880109, -34.186414365237475 ], [ -70.964447389273701, -34.186772111574108 ], [ -70.964504126867027, -34.187129815523413 ], [ -70.964562289188422, -34.187487644280942 ], [ -70.964623832768538, -34.187845493070007 ], [ -70.964685378145276, -34.188203488957413 ], [ -70.964748969884241, -34.188561525680953 ], [ -70.964817436780265, -34.188915126945524 ], [ -70.964892043661237, -34.189268998692633 ], [ -70.964967822843647, -34.189627357844145 ], [ -70.96503976262656, -34.189981124059685 ], [ -70.9651041412897, -34.190334642093973 ], [ -70.965158054579803, -34.190696822739334 ], [ -70.965171593089437, -34.19079373791331 ], [ -70.965436482012223, -34.191517797970107 ], [ -70.965922912552045, -34.192595145628609 ], [ -70.966132408659462, -34.194780540096865 ], [ -70.966006704706814, -34.196005308539362 ], [ -70.966241107503777, -34.197670149436995 ], [ -70.96617327751332, -34.19878777176617 ], [ -70.966214865019396, -34.19891725398584 ], [ -70.966329132520158, -34.19926332402094 ], [ -70.96643915188794, -34.199613892880762 ], [ -70.966538404048748, -34.19996404421444 ], [ -70.966622460308201, -34.200318205423038 ], [ -70.966683402915379, -34.200676134989827 ], [ -70.966719164846836, -34.201033139525258 ], [ -70.966737243441941, -34.201394194690096 ], [ -70.966742791437127, -34.201759290773758 ], [ -70.966744675204282, -34.20211971948487 ], [ -70.966747967529798, -34.202475692626031 ], [ -70.966755813415489, -34.202836394653126 ], [ -70.966760116345711, -34.203201437684953 ], [ -70.966755061525603, -34.203561681179721 ], [ -70.966730520450355, -34.20392120396464 ], [ -70.966682939384697, -34.204280061026637 ], [ -70.966616318526604, -34.204638337811986 ], [ -70.966533500145616, -34.204995913972631 ], [ -70.966433943455911, -34.205348588237214 ], [ -70.966310561648285, -34.20570903057601 ], [ -70.965881124721662, -34.206006202317312 ], [ -70.965336488741315, -34.206629853854828 ], [ -70.964448732255036, -34.207390257981423 ], [ -70.964541764480813, -34.208663519731324 ], [ -70.964393498441481, -34.208921465576864 ], [ -70.964256434393747, -34.209160323346943 ], [ -70.965327770591472, -34.210109965744799 ], [ -70.965933523452179, -34.210639022122201 ], [ -70.966390704846361, -34.211244174355734 ], [ -70.966859021756804, -34.21192640808556 ], [ -70.967304772987305, -34.212414073741634 ], [ -70.967968645948574, -34.212764837513454 ], [ -70.968233872637882, -34.212975303990106 ], [ -70.968224612803951, -34.213421961383311 ], [ -70.968005644860185, -34.21372108118922 ], [ -70.967645332396344, -34.214029043628059 ], [ -70.967225612546144, -34.214344161584528 ], [ -70.966829345911378, -34.214650924272043 ], [ -70.966537228154039, -34.214947670032295 ], [ -70.966202000246213, -34.215252713065794 ], [ -70.967024147377373, -34.215721564122525 ], [ -70.967992535745239, -34.216403081166547 ], [ -70.969275800688166, -34.217043044059785 ], [ -70.97065521950249, -34.21763410053773 ], [ -70.971265091138775, -34.217965992019742 ], [ -70.971504575705296, -34.218123828654662 ], [ -70.971644275410085, -34.218215907007199 ], [ -70.971920721158995, -34.218120682071792 ], [ -70.972246449382695, -34.217870139860473 ], [ -70.972531340193584, -34.217595657174897 ], [ -70.972798490175933, -34.217311634960247 ], [ -70.973064463365247, -34.217022978020502 ], [ -70.973347051794079, -34.216752962192004 ], [ -70.973915096972405, -34.216740124577896 ], [ -70.974076472126669, -34.216610332489985 ], [ -70.974566159059407, -34.216333581538713 ], [ -70.9757580868975, -34.215832120265361 ], [ -70.976527617007548, -34.215443010343421 ], [ -70.977093375973496, -34.215051124835917 ], [ -70.978173733951635, -34.216879266471814 ], [ -70.978406551222122, -34.216941765221918 ], [ -70.978700859970445, -34.217181210863579 ], [ -70.979003689239249, -34.218096668945876 ], [ -70.979271974692125, -34.218299157612542 ], [ -70.979443846660487, -34.218534594134141 ], [ -70.979666751021824, -34.218807763438008 ], [ -70.979994467217253, -34.219129319288811 ], [ -70.98031020527668, -34.219459488252326 ], [ -70.980636433861989, -34.21971348126781 ], [ -70.981135720191844, -34.219991194188687 ], [ -70.9817290268943, -34.220501681706814 ], [ -70.98224234131564, -34.22115379972464 ], [ -70.982459781225103, -34.221485257664803 ], [ -70.982639899727772, -34.222189518172776 ], [ -70.982656342490728, -34.223410814032675 ], [ -70.982691396549754, -34.223601259264314 ], [ -70.98282071711975, -34.224330788764618 ], [ -70.982939901100067, -34.225625394548963 ], [ -70.9831227325149, -34.225811380492388 ], [ -70.983175581301381, -34.226169061411476 ], [ -70.983227715927214, -34.226526605631946 ], [ -70.983281277077708, -34.226884274600771 ], [ -70.983412220903418, -34.227219935435052 ], [ -70.983501337372857, -34.228687866370763 ], [ -70.983981212007734, -34.22968952475015 ], [ -70.985036820501477, -34.231065950025446 ], [ -70.988032174662948, -34.232560863514898 ], [ -70.989926245490039, -34.233245278197536 ], [ -70.990094193617267, -34.233402096946612 ], [ -70.99085596407987, -34.234371817659429 ], [ -70.991486538290189, -34.234981290350888 ], [ -70.99211545241387, -34.236425814811639 ], [ -70.992042067241684, -34.236753632310091 ], [ -70.991939452686779, -34.237101646440991 ], [ -70.991828649988051, -34.237449425198939 ], [ -70.991714551370549, -34.23779703393965 ], [ -70.991602163145359, -34.238149343659181 ], [ -70.991496163738461, -34.238497265131848 ], [ -70.991391960063837, -34.238849736043719 ], [ -70.991281864339214, -34.23919750163931 ], [ -70.991159662917866, -34.239544873689425 ], [ -70.991018824149322, -34.239882650302441 ], [ -70.990836632334961, -34.240205586436275 ], [ -70.990605790459767, -34.240513432740798 ], [ -70.990366045381791, -34.240820905867281 ], [ -70.990154529861613, -34.24113375515649 ], [ -70.989938759021967, -34.241451105006895 ], [ -70.989725496278567, -34.241772993240808 ], [ -70.989534324006314, -34.242100136422756 ], [ -70.989385783082525, -34.242428582347692 ], [ -70.989298268309227, -34.242772655793637 ], [ -70.989272860359719, -34.243136698543971 ], [ -70.989292760738223, -34.243502296200056 ], [ -70.989337299209993, -34.243864169652866 ], [ -70.989410019628878, -34.24421790277237 ], [ -70.989544751650143, -34.244564721670947 ], [ -70.989687582881999, -34.244911777509607 ], [ -70.989799511169778, -34.245253352418906 ], [ -70.989904261918412, -34.245603611865569 ], [ -70.990006348263947, -34.245953914409 ], [ -70.990112347670831, -34.246304225890398 ], [ -70.990219150171598, -34.246654599031963 ], [ -70.990319650990628, -34.247009285015267 ], [ -70.990422362563592, -34.247359576510007 ], [ -70.990519642922337, -34.247709587344822 ], [ -70.99060118749226, -34.248063693401562 ], [ -70.990661634229397, -34.24841703536724 ], [ -70.990712324364267, -34.248779103027978 ], [ -70.990723662001457, -34.248875237076518 ], [ -70.990897289277896, -34.249445302710996 ], [ -70.990877979990856, -34.250226574717388 ], [ -70.990955714805636, -34.250750998189197 ], [ -70.99225594083947, -34.251827773468285 ], [ -70.993413624000624, -34.252867484325165 ], [ -70.994222502116742, -34.253128873706039 ], [ -70.995885634050609, -34.253572307290035 ], [ -70.996506673542498, -34.253875813773959 ], [ -70.996794512624149, -34.254067157580586 ], [ -70.996884716055106, -34.256114731298844 ], [ -70.996894360367989, -34.256334611780751 ], [ -70.995820597820668, -34.256064703438028 ], [ -70.992720171313678, -34.255029591744155 ], [ -70.992471720662294, -34.25494662098869 ], [ -70.987811949077781, -34.254585618619657 ], [ -70.986724883379424, -34.254356913412586 ], [ -70.981432601715156, -34.253400016605688 ], [ -70.979706739526705, -34.255264604817825 ], [ -70.980602345491903, -34.255727660749322 ], [ -70.98479195412807, -34.258929292749777 ], [ -70.986046642763498, -34.259606899308451 ], [ -70.987091510101379, -34.260765495837155 ], [ -70.988359210833721, -34.261993887351167 ], [ -70.989125801656144, -34.262605959721739 ], [ -70.99016735960052, -34.263197827830268 ], [ -70.990606851370131, -34.263500250550358 ], [ -70.991232996886083, -34.263783978136289 ], [ -70.991610227321658, -34.264769610517966 ], [ -70.991904177642198, -34.265977076998531 ], [ -70.991952798058634, -34.266159984166222 ], [ -70.992097522939119, -34.266671941569882 ], [ -70.992688938687877, -34.267360258503601 ], [ -70.993361051895249, -34.267716647084264 ], [ -70.994122530405392, -34.268108360979603 ], [ -70.994974149464426, -34.268572022512252 ], [ -70.99557263405616, -34.26955411114583 ], [ -70.996114598446866, -34.270022808310912 ], [ -70.996654055639581, -34.270381413424843 ], [ -70.997239544304108, -34.270812684638628 ], [ -70.997662731651303, -34.271871039434451 ], [ -70.998306343111338, -34.272889086910745 ], [ -70.999206584383444, -34.273535622115183 ], [ -70.999960401162525, -34.27359681313547 ], [ -71.000794703397816, -34.273325998123141 ], [ -71.001856289281463, -34.273308729244711 ], [ -71.002389690930855, -34.273410142191381 ], [ -71.003236963940523, -34.273690192249511 ], [ -71.003959564263496, -34.27430281121184 ], [ -71.00455113182754, -34.274991138429314 ], [ -71.005093271389725, -34.275459864671994 ], [ -71.005458510214567, -34.275931410561363 ], [ -71.006267808742237, -34.276469102818389 ], [ -71.006588766013479, -34.276941443988967 ], [ -71.006557651965295, -34.277492897142025 ], [ -71.006176122192784, -34.278197150781217 ], [ -71.006196193251157, -34.279041666895758 ], [ -71.006526849632522, -34.279917879285776 ], [ -71.007245947424195, -34.28038362159689 ], [ -71.008014502862153, -34.281069030175075 ], [ -71.008866328533685, -34.281532586832803 ], [ -71.009442251038763, -34.281559924258666 ], [ -71.010369473210403, -34.281471216023725 ], [ -71.010993192376787, -34.281644675418057 ], [ -71.011928290078515, -34.281886436203791 ], [ -71.012695142310719, -34.28249827471106 ], [ -71.013285176450566, -34.283113088139451 ], [ -71.013918549811308, -34.283690402785027 ], [ -71.014910161425902, -34.284445590803294 ], [ -71.015680658123173, -34.285204336953967 ], [ -71.016446689295194, -34.285779379393794 ], [ -71.017034141676916, -34.286284086845725 ], [ -71.017886854883969, -34.286784199934083 ], [ -71.018957383496257, -34.287133950975104 ], [ -71.019759055327171, -34.287341140974043 ], [ -71.020485321674812, -34.288100583144193 ], [ -71.020854132201237, -34.288719007194338 ], [ -71.021179615184863, -34.289374853888376 ], [ -71.021854661391643, -34.289841234026397 ], [ -71.022390920581969, -34.29005278733306 ], [ -71.02296426043057, -34.289969825155403 ], [ -71.023624348789554, -34.28981193398387 ], [ -71.02437030441159, -34.289542491566962 ], [ -71.02484719663974, -34.289130505836944 ], [ -71.025414359672453, -34.288790593489139 ], [ -71.026027580228131, -34.28852333653937 ], [ -71.027141487587159, -34.288835514132572 ], [ -71.027509555206862, -34.289417145381798 ], [ -71.028134156518831, -34.289627210184236 ], [ -71.028705723093111, -34.289470831693748 ], [ -71.029369326559788, -34.289459764901828 ], [ -71.030262999350512, -34.289812345897509 ], [ -71.030986815992378, -34.290461561577047 ], [ -71.030964612333491, -34.291380260838096 ], [ -71.031731778077713, -34.291992043585147 ], [ -71.032979361039253, -34.292338658827717 ], [ -71.034529620555972, -34.292386334713584 ], [ -71.035731146892886, -34.292660266994396 ], [ -71.036409842954669, -34.293273490594089 ], [ -71.037231028888499, -34.294288365187029 ], [ -71.038452199584043, -34.29537007039859 ], [ -71.038731856810088, -34.295953136224256 ], [ -71.039501693245626, -34.296675026163001 ], [ -71.040230079617345, -34.297507729821035 ], [ -71.040417686476232, -34.297945413246872 ], [ -71.040822194255412, -34.29819578759075 ], [ -71.04136103879712, -34.298517413408973 ], [ -71.04211767448956, -34.298688494038565 ], [ -71.042871556845682, -34.298749412945682 ], [ -71.043629975693975, -34.298993873279926 ], [ -71.044442404850415, -34.299641525646642 ], [ -71.044898271111009, -34.300184925792159 ], [ -71.04596096731234, -34.300203959044886 ], [ -71.04683868692193, -34.299895320457622 ], [ -71.047774080169418, -34.300136870668759 ], [ -71.048615693792797, -34.300159503836802 ], [ -71.049197099614346, -34.30040688910875 ], [ -71.050174935564058, -34.300574217585009 ], [ -71.050750187925914, -34.300564585234831 ], [ -71.051505965727273, -34.300698911894607 ], [ -71.052043970344187, -34.300983721311859 ], [ -71.05262449941003, -34.301194469596197 ], [ -71.053037321995475, -34.301634413488038 ], [ -71.053310623640883, -34.302101218309012 ], [ -71.054025689793562, -34.302383122197256 ], [ -71.054818547354913, -34.302222909391865 ], [ -71.056274199000867, -34.302014781000601 ], [ -71.057009629062719, -34.301854041357622 ], [ -71.057549215612852, -34.301662759542317 ], [ -71.05812796781106, -34.301799944425277 ], [ -71.058444831459553, -34.302088514672057 ], [ -71.059080444320301, -34.302739039485331 ], [ -71.059844322230575, -34.303203709172372 ], [ -71.060473585798889, -34.303597220453511 ], [ -71.061060521649338, -34.304064859572073 ], [ -71.06173948810401, -34.304677856700977 ], [ -71.062599022219004, -34.305434867033014 ], [ -71.063600389537555, -34.30655672215947 ], [ -71.063843141276791, -34.307434243741461 ], [ -71.06421415177735, -34.308125908054663 ], [ -71.064796644560403, -34.308409982169202 ], [ -71.066354307991702, -34.308751020171158 ], [ -71.066936810656216, -34.309035009064914 ], [ -71.067611272059736, -34.309464502181591 ], [ -71.06827871043437, -34.309600141323344 ], [ -71.069120329447657, -34.309622704417961 ], [ -71.069832892893956, -34.309794281090788 ], [ -71.070468473415346, -34.310444743985535 ], [ -71.07136974415674, -34.311090634838955 ], [ -71.07222771430483, -34.311774182054464 ], [ -71.072862514190234, -34.312387861181669 ], [ -71.073491993354224, -34.312781225546196 ], [ -71.073988723078799, -34.313176834041911 ], [ -71.075333357328688, -34.313852040062436 ], [ -71.075978233616638, -34.314869701380545 ], [ -71.076921103542219, -34.31540471602942 ], [ -71.077832253955108, -34.315930808216542 ], [ -71.078568915607221, -34.316463105012694 ], [ -71.079136112775927, -34.316642485629764 ], [ -71.079926353544849, -34.31662906301753 ], [ -71.080445653440918, -34.316497924777032 ], [ -71.08115417087518, -34.316430340439688 ], [ -71.081754364960915, -34.316319980271153 ], [ -71.08257786764986, -34.316028109004371 ], [ -71.083454194870754, -34.315701947884349 ], [ -71.084222678443496, -34.315280637125902 ], [ -71.08478893597443, -34.314903610672808 ], [ -71.085663018305453, -34.314447920488561 ], [ -71.086313165009173, -34.313885838469652 ], [ -71.08679450749122, -34.313657233737807 ], [ -71.087319162244697, -34.313391180000515 ], [ -71.087798679350101, -34.313089109667182 ], [ -71.088456899213298, -34.312857482894536 ], [ -71.089331029155019, -34.312401839478433 ], [ -71.090297231023484, -34.312091453815107 ], [ -71.091317754915494, -34.312184228468034 ], [ -71.091993494621661, -34.312282663646492 ], [ -71.092685602530608, -34.312366264897811 ], [ -71.093379990363786, -34.312545251371006 ], [ -71.093771565996121, -34.312950405839374 ], [ -71.094533806277639, -34.313341462239869 ], [ -71.095158825306243, -34.313551095482488 ], [ -71.095782935239768, -34.313724106527481 ], [ -71.096315688305538, -34.313788478066648 ], [ -71.096803394453062, -34.313816835599681 ], [ -71.09733258210548, -34.313734280494195 ], [ -71.097953041285692, -34.313760358698005 ], [ -71.098755962673167, -34.314003781834593 ], [ -71.099428789142863, -34.314359630577066 ], [ -71.100417933085353, -34.314967086498363 ], [ -71.101530603464255, -34.315205103166072 ], [ -71.102772372529287, -34.315293982047777 ], [ -71.103306145182898, -34.315395088348239 ], [ -71.103975152016005, -34.315464766588491 ], [ -71.104614490190244, -34.315740136452135 ], [ -71.105487384050136, -34.315871816020781 ], [ -71.106734671465944, -34.316180960515617 ], [ -71.107535711781196, -34.316350792069002 ], [ -71.108692730189063, -34.316588052475915 ], [ -71.109713321454706, -34.316680670801837 ], [ -71.111357066846423, -34.316909444625587 ], [ -71.112776766118088, -34.317031860645876 ], [ -71.113534612739528, -34.317239180935474 ], [ -71.114569954342144, -34.317919286687506 ], [ -71.115383006031067, -34.318566442158222 ], [ -71.116198923345763, -34.319323741263993 ], [ -71.117107083267058, -34.320226348684443 ], [ -71.117706344901535, -34.321171075746363 ], [ -71.118656919677306, -34.32199944639423 ], [ -71.119563289256263, -34.322828647948924 ], [ -71.120287972772374, -34.323477224119529 ], [ -71.121542816816344, -34.324079974314401 ], [ -71.121828692180785, -34.324883127309917 ], [ -71.122245583236165, -34.325610516559379 ], [ -71.123020002876302, -34.3264787608015 ], [ -71.12286714464922, -34.327436427376647 ], [ -71.122632036674744, -34.328652701925613 ], [ -71.122971511817255, -34.329822230045281 ], [ -71.123796778797427, -34.330946693177239 ], [ -71.124650733476187, -34.331446163471931 ], [ -71.12586334861696, -34.332123015480754 ], [ -71.126093859013807, -34.332486393915268 ], [ -71.127400615799729, -34.333381994383998 ], [ -71.128385541253664, -34.333805669622642 ], [ -71.129195228751854, -34.33430580237853 ], [ -71.130047301460081, -34.334731775466715 ], [ -71.130902168827177, -34.335267892632459 ], [ -71.131408498847179, -34.336030473057157 ], [ -71.131959157133196, -34.336792204638279 ], [ -71.131755563855492, -34.337493729135325 ], [ -71.13172239446196, -34.337935105029729 ], [ -71.131778708948801, -34.338411630481588 ], [ -71.132242781319519, -34.339248432993848 ], [ -71.132981748048664, -34.340447749252263 ], [ -71.133629295926269, -34.341538454777513 ], [ -71.134062106925086, -34.34289000859274 ], [ -71.134613768629293, -34.343688490458355 ], [ -71.134979939007081, -34.344159608074001 ], [ -71.135657988281864, -34.344698774189659 ], [ -71.136819104804033, -34.345082594232771 ], [ -71.137241735195744, -34.346030224745959 ], [ -71.137679292892528, -34.347565369871809 ], [ -71.138594436316893, -34.348724860623641 ], [ -71.139855474244754, -34.349547626683837 ], [ -71.141064738669513, -34.350077469678617 ], [ -71.142236228936582, -34.350865068402875 ], [ -71.142951052544134, -34.3511096595266 ], [ -71.143317391805198, -34.351580820732835 ], [ -71.143789982001465, -34.352747947398868 ], [ -71.1446913255064, -34.353356712475126 ], [ -71.144758018229723, -34.354237059719047 ], [ -71.144906827749807, -34.354858936059046 ], [ -71.144942383967063, -34.356254114812117 ], [ -71.14594068443725, -34.357191690631481 ], [ -71.147350579495892, -34.358636247119733 ], [ -71.148172805678811, -34.359613602274536 ], [ -71.148657702794452, -34.361258067198648 ], [ -71.148350346016613, -34.363100057878121 ], [ -71.148835270081719, -34.364744520380455 ], [ -71.149157458044868, -34.365216362774078 ], [ -71.150065452676188, -34.366081997673085 ], [ -71.150310330727692, -34.366996063893382 ], [ -71.150905788895244, -34.367655428415411 ], [ -71.151405856759411, -34.368262402761395 ], [ -71.151728922376591, -34.368770931260912 ], [ -71.152053022853011, -34.369316295819004 ], [ -71.152240441065686, -34.369717011217588 ], [ -71.152253593299776, -34.370231063037522 ], [ -71.15195775831377, -34.370787259134531 ], [ -71.151489434216813, -34.371530102001962 ], [ -71.150849734919831, -34.372496428128407 ], [ -71.15029092442262, -34.373167442021149 ], [ -71.149696299891659, -34.37416967652166 ], [ -71.149184626692346, -34.37495005637394 ], [ -71.14862962595025, -34.375767828006524 ], [ -71.148261098393135, -34.376949774592383 ], [ -71.147797490451424, -34.377876283906993 ], [ -71.14715667454854, -34.378805828641902 ], [ -71.147049135429256, -34.379799501556647 ], [ -71.147375974868964, -34.380454953837138 ], [ -71.147568087677314, -34.381039280436262 ], [ -71.147448362012867, -34.38155566630882 ], [ -71.146625714520084, -34.382304712341096 ], [ -71.145892505991924, -34.383088964884408 ], [ -71.145242264066781, -34.383651362304043 ], [ -71.144802237799581, -34.383769277993501 ], [ -71.144057851534328, -34.384112923134801 ], [ -71.142921338071176, -34.384720612979436 ], [ -71.142049596749771, -34.385286874436169 ], [ -71.141270278596394, -34.385998418490516 ], [ -71.140629243504591, -34.386927934594887 ], [ -71.140321735809806, -34.388769905695248 ], [ -71.140272393147896, -34.390313546695104 ], [ -71.140384376232902, -34.391229882200015 ], [ -71.140321011767696, -34.39222284948751 ], [ -71.139945759422375, -34.393147636839181 ], [ -71.13898538762011, -34.39371542834953 ], [ -71.137975047030153, -34.394063690029924 ], [ -71.137098599434992, -34.394446385559966 ], [ -71.136229518923486, -34.395122759261731 ], [ -71.135318957805424, -34.395909976064374 ], [ -71.134725870291902, -34.396985605669677 ], [ -71.134165932409019, -34.397619859782985 ], [ -71.133728611867454, -34.397847814608966 ], [ -71.133295951785584, -34.398259447409806 ], [ -71.132819310187415, -34.399079846568362 ], [ -71.133290149567173, -34.399743608122741 ], [ -71.133496176380945, -34.400196909123807 ], [ -71.133503724924282, -34.40064155927363 ], [ -71.133169397128356, -34.401076736716441 ], [ -71.132719993347919, -34.401513994664207 ], [ -71.132269463978403, -34.401903555911588 ], [ -71.132047782224163, -34.402241340861629 ], [ -71.131827311398922, -34.402626963751402 ], [ -71.131817609593881, -34.402764363735294 ], [ -71.131742573318192, -34.403821123782699 ], [ -71.131814632577004, -34.404392353073511 ], [ -71.131649274292784, -34.404681514610679 ], [ -71.131244907549103, -34.405188000898342 ], [ -71.131149015985784, -34.406097405289032 ], [ -71.131261383549727, -34.407147501073482 ], [ -71.13174638127667, -34.407914718435265 ], [ -71.131971597901554, -34.408958488074461 ], [ -71.131833354365853, -34.410063472581868 ], [ -71.131814566101696, -34.410601274848069 ], [ -71.132146221409641, -34.410891151593084 ], [ -71.132708260451977, -34.41131143273639 ], [ -71.133380806647324, -34.410977155788672 ], [ -71.134071686559295, -34.41071582421413 ], [ -71.136138513296999, -34.409746373648467 ], [ -71.136569379443245, -34.409087406526794 ], [ -71.136847947911164, -34.40885601159264 ], [ -71.137168910572299, -34.408441590884024 ], [ -71.137160380170357, -34.407847098098514 ], [ -71.137468110647347, -34.40719655843597 ], [ -71.138070377146434, -34.406648480426526 ], [ -71.1384194130585, -34.406346717886692 ], [ -71.138667164820603, -34.405885490886817 ], [ -71.138754082214234, -34.405480772857779 ], [ -71.138869405235454, -34.404914322641488 ], [ -71.138920477154315, -34.404375807122307 ], [ -71.139000045430606, -34.403675558477616 ], [ -71.139404596328916, -34.403164465469459 ], [ -71.139235905294967, -34.402429265488948 ], [ -71.139300405230671, -34.401466340024292 ], [ -71.139979949302088, -34.400137463293618 ], [ -71.140575216128468, -34.399320649398717 ], [ -71.14114978217745, -34.398961235683949 ], [ -71.141600665483168, -34.398755618428005 ], [ -71.141991242188936, -34.39834447208883 ], [ -71.142213855496138, -34.397905394164574 ], [ -71.14308420981871, -34.397342699648647 ], [ -71.143784857112763, -34.396806164914189 ], [ -71.144106038962803, -34.396424369666896 ], [ -71.144391502000545, -34.396095416909553 ], [ -71.144744048528736, -34.395773190439989 ], [ -71.145101891523865, -34.395333950774344 ], [ -71.145525051921581, -34.394594951232882 ], [ -71.145686241124594, -34.394176517104349 ], [ -71.145895402160406, -34.393511806304005 ], [ -71.146036121453037, -34.392651239099266 ], [ -71.146182688778154, -34.392403601015076 ], [ -71.146815659693644, -34.391860409760859 ], [ -71.14761267465812, -34.391412420152328 ], [ -71.148446348072724, -34.390907055824968 ], [ -71.148873191563126, -34.390443033539476 ], [ -71.149402232790138, -34.389955054283618 ], [ -71.149925125049037, -34.389606628730007 ], [ -71.150373569428751, -34.389395484294532 ], [ -71.150990827013302, -34.389194146828871 ], [ -71.151372125918797, -34.388980930133812 ], [ -71.151825880240182, -34.388657347101216 ], [ -71.152330207017087, -34.387880262641467 ], [ -71.152864189876468, -34.38737445665943 ], [ -71.153373386420554, -34.386579482356751 ], [ -71.153773882323662, -34.385947876406092 ], [ -71.154004945184425, -34.385337940306982 ], [ -71.154301632671618, -34.384761560550771 ], [ -71.154556852128678, -34.384350617544584 ], [ -71.154788549200035, -34.383713635514972 ], [ -71.154873537012421, -34.38332430319435 ], [ -71.154998990335116, -34.382796658007742 ], [ -71.155076486198027, -34.381843985224961 ], [ -71.155107231936967, -34.381173613190796 ], [ -71.15523259183486, -34.380646042676261 ], [ -71.155190887547789, -34.380085964151796 ], [ -71.155082938796724, -34.37949241241212 ], [ -71.155265971434176, -34.37893502115589 ], [ -71.155552860996565, -34.378471003689583 ], [ -71.156897504229619, -34.377274267360107 ], [ -71.157078569556589, -34.377203420098482 ], [ -71.157677952463629, -34.376663647511862 ], [ -71.158068108757817, -34.376256890871261 ], [ -71.158558092134598, -34.375880352770125 ], [ -71.159014104820599, -34.375502713436937 ], [ -71.159577049364742, -34.375015719215909 ], [ -71.160000353492933, -34.374610070434564 ], [ -71.160309808735263, -34.374110634829066 ], [ -71.16052621109057, -34.373446142106104 ], [ -71.160653505959587, -34.372891499952161 ], [ -71.160954610463037, -34.372202613225198 ], [ -71.161174069785261, -34.371844654975433 ], [ -71.161512990667234, -34.371071342783551 ], [ -71.162033532035039, -34.370024421673584 ], [ -71.162290089981866, -34.369581974958116 ], [ -71.162620543343962, -34.369006604918056 ], [ -71.16298819234872, -34.368346894372308 ], [ -71.163177615601114, -34.367902308478406 ], [ -71.163337333363671, -34.367348642508482 ], [ -71.163365483869725, -34.366732305212338 ], [ -71.163359660990068, -34.366637499087993 ], [ -71.163327777085684, -34.366086850871447 ], [ -71.163133839799002, -34.365157141255239 ], [ -71.162906036026115, -34.364226404686875 ], [ -71.162774819112556, -34.363411323388576 ], [ -71.1626417148386, -34.362623233004577 ], [ -71.16240753572211, -34.361831979913489 ], [ -71.162266228032976, -34.361237323676178 ], [ -71.162009700628872, -34.360193053873431 ], [ -71.161806720900515, -34.359461296342893 ], [ -71.161769031184477, -34.358815839385983 ], [ -71.161629553363568, -34.358167158990284 ], [ -71.161659286701152, -34.357650060131817 ], [ -71.161622583335273, -34.357441613117061 ], [ -71.161523431785781, -34.357010547922634 ], [ -71.161447133377123, -34.356526048468709 ], [ -71.161341830164574, -34.3562298852748 ], [ -71.16121610644899, -34.356036748053967 ], [ -71.161143727389927, -34.355867779967319 ], [ -71.16118099399948, -34.355675161035244 ], [ -71.161269708023681, -34.355547294236878 ], [ -71.161364874646566, -34.355455726660225 ], [ -71.161715371219287, -34.355187407098811 ], [ -71.162067746169271, -34.354860558705425 ], [ -71.162764770557786, -34.354377828926573 ], [ -71.163217415459769, -34.354085691063716 ], [ -71.163812090296389, -34.353626776260185 ], [ -71.164301921857898, -34.353250219509924 ], [ -71.165347884242095, -34.352530567840134 ], [ -71.165637531632427, -34.352089153813523 ], [ -71.165918911827177, -34.351845682454972 ], [ -71.16704944251056, -34.351489162792809 ], [ -71.167386424828152, -34.351499739341612 ], [ -71.167892211367416, -34.351515596375108 ], [ -71.16816217127996, -34.351524034027399 ], [ -71.16843250578998, -34.351505506345013 ], [ -71.168553339975489, -34.351090269219462 ], [ -71.168244936660344, -34.350436317453195 ], [ -71.168179699207784, -34.349735956602501 ], [ -71.168162442571173, -34.348491952714255 ], [ -71.168088628004284, -34.348129207293319 ], [ -71.167848530786699, -34.34728813974435 ], [ -71.168189983121152, -34.346456342250924 ], [ -71.168505202852671, -34.346213964099213 ], [ -71.169062075683811, -34.345839450788347 ], [ -71.16944800809955, -34.345518116046293 ], [ -71.170043300977085, -34.345059161017268 ], [ -71.17084134810581, -34.344579619747407 ], [ -71.171663771918105, -34.343947637775905 ], [ -71.172022435075064, -34.34348120214117 ], [ -71.172316429413044, -34.342958819928747 ], [ -71.172593196758825, -34.342800796981003 ], [ -71.172765830498562, -34.342720549691492 ], [ -71.173419230900251, -34.342461666343141 ], [ -71.174199291960363, -34.34237350752116 ], [ -71.175309136239377, -34.34246679089587 ], [ -71.176772598736733, -34.342206192640901 ], [ -71.177800722376034, -34.341873408036314 ], [ -71.178826951468409, -34.341567534278518 ], [ -71.179546254974284, -34.341337727693123 ], [ -71.180000030855226, -34.341018477032826 ], [ -71.180524898509418, -34.340611394555744 ], [ -71.180843125800493, -34.340287907275297 ], [ -71.180964583416809, -34.339841184658532 ], [ -71.18086255366515, -34.339112682289894 ], [ -71.180665982518036, -34.338236962802476 ], [ -71.180582981779068, -34.337734278084135 ], [ -71.180452258040589, -34.336887668350926 ], [ -71.180127889866228, -34.336003516089853 ], [ -71.179868818433235, -34.335684552222006 ], [ -71.179632664819763, -34.335397825814631 ], [ -71.179320893720629, -34.335099741677091 ], [ -71.178957744377144, -34.333799856152204 ], [ -71.178427556001523, -34.332512765241617 ], [ -71.178060120795791, -34.331528111410364 ], [ -71.177773368675616, -34.330712709204782 ], [ -71.177457485987446, -34.329896347302984 ], [ -71.177508698043468, -34.329411435231364 ], [ -71.177772665294754, -34.328784399069136 ], [ -71.178482904799424, -34.328049710834783 ], [ -71.178794857358241, -34.327667475333072 ], [ -71.179227451863099, -34.327216913906369 ], [ -71.179654282777079, -34.326887877793482 ], [ -71.180131874792835, -34.326731579809397 ], [ -71.180755929929134, -34.326606867779937 ], [ -71.181655316005077, -34.326188899707589 ], [ -71.182292945583626, -34.325780834245123 ], [ -71.182727522670319, -34.324744593572269 ], [ -71.183074116063125, -34.324467054316834 ], [ -71.183273515106748, -34.324198490184578 ], [ -71.183331354932946, -34.32395697284025 ], [ -71.183332118500928, -34.323835311774005 ], [ -71.183440135523952, -34.323221534573015 ], [ -71.183635685286575, -34.32215528282731 ], [ -71.183819329676737, -34.321354547569399 ], [ -71.184174639422764, -34.320658361214534 ], [ -71.184820201125291, -34.32004318896896 ], [ -71.185394153624912, -34.319718746162565 ], [ -71.185910228569128, -34.319369852691111 ], [ -71.186178645176014, -34.318972718298106 ], [ -71.186325673336881, -34.318319539965437 ], [ -71.186430322575916, -34.317957901602817 ], [ -71.186714633973452, -34.317525177747477 ], [ -71.187146029227378, -34.317097137048094 ], [ -71.18727916943395, -34.316763351366866 ], [ -71.187280359701703, -34.316078579741728 ], [ -71.187313207498391, -34.314709968708328 ], [ -71.187357226743956, -34.314114909279375 ], [ -71.187058712981766, -34.313690897183882 ], [ -71.186928913609748, -34.313120657211904 ], [ -71.187034055125523, -34.312737073789748 ], [ -71.18725767993574, -34.312494586334864 ], [ -71.187595104224442, -34.312202278833865 ], [ -71.187935000676831, -34.312005352523741 ], [ -71.188369588543267, -34.311581535305898 ], [ -71.188548650627169, -34.311278760242025 ], [ -71.188656078355379, -34.310990487211818 ], [ -71.18887483160178, -34.310557231039709 ], [ -71.189087300234476, -34.309885522322759 ], [ -71.189071291357791, -34.309265537071212 ], [ -71.188998872772842, -34.308694346936484 ], [ -71.188984014638052, -34.308122053977122 ], [ -71.189026717851704, -34.307548805834728 ], [ -71.189244220643246, -34.307067784979274 ], [ -71.189459244982928, -34.306491455370413 ], [ -71.189671701039188, -34.305819670346871 ], [ -71.18977054177158, -34.305197704964669 ], [ -71.189787193841994, -34.304947835311872 ], [ -71.189811910987046, -34.304576692970556 ], [ -71.18979209684683, -34.303813710200146 ], [ -71.189667254378534, -34.303434310326793 ], [ -71.189311387677037, -34.303011254249881 ], [ -71.189074086914943, -34.302729217412825 ], [ -71.188781793986124, -34.302543589228449 ], [ -71.188543258040525, -34.302213860503421 ], [ -71.188308439323563, -34.302027277608737 ], [ -71.187893793158096, -34.301557627972841 ], [ -71.187775234405208, -34.30141653265246 ], [ -71.186902094406932, -34.301002709858302 ], [ -71.186658628507061, -34.300482359946074 ], [ -71.186237905238684, -34.299774172186964 ], [ -71.18593327125447, -34.29911169804766 ], [ -71.185802273529859, -34.298493837318702 ], [ -71.185671275805234, -34.297875902286059 ], [ -71.185597834937511, -34.297256940064912 ], [ -71.185466751872937, -34.296639006322891 ], [ -71.185273357168654, -34.295831404145787 ], [ -71.185801036549705, -34.2940090279439 ], [ -71.185847378838574, -34.293578854639804 ], [ -71.186169904568303, -34.292714257004512 ], [ -71.186272469715874, -34.292235366548482 ], [ -71.186138922572468, -34.291522124094421 ], [ -71.186010496724506, -34.290999569079737 ], [ -71.185547297516251, -34.289714331177308 ], [ -71.185514989607057, -34.289624798814216 ], [ -71.185327876821574, -34.289055576992673 ], [ -71.185141915676297, -34.288534121419389 ], [ -71.184893468618171, -34.287822927202676 ], [ -71.184826686961628, -34.287103026031694 ], [ -71.184813873392415, -34.286965579639386 ], [ -71.184809070998909, -34.286783527488637 ], [ -71.184800201033795, -34.286440975973967 ], [ -71.184790324057232, -34.286059519617439 ], [ -71.18477312670943, -34.285391837494217 ], [ -71.184905985743342, -34.283862786548106 ], [ -71.185118518156415, -34.28319100610814 ], [ -71.18544092890177, -34.282326412179728 ], [ -71.185596002374325, -34.28165573136306 ], [ -71.185982124334572, -34.281028640615133 ], [ -71.186484291561555, -34.280447190317638 ], [ -71.186816652945311, -34.279964122207794 ], [ -71.186974181513534, -34.279388748263528 ], [ -71.187191634897744, -34.278907804423149 ], [ -71.187153051357953, -34.278582846388218 ], [ -71.187118119469829, -34.278288916988728 ], [ -71.1868759552288, -34.277816032608165 ], [ -71.186463916872583, -34.277441827936791 ], [ -71.186059853759474, -34.27702501138333 ], [ -71.185642402155366, -34.276788501019219 ], [ -71.185232929387624, -34.276509525745986 ], [ -71.184881965690948, -34.276277219096649 ], [ -71.184353896441081, -34.275857289459317 ], [ -71.184231504576871, -34.27557319062457 ], [ -71.183815872061217, -34.275055753441158 ], [ -71.183751022680852, -34.274770702471059 ], [ -71.183623876033863, -34.274295834111193 ], [ -71.18361392000557, -34.273914376823555 ], [ -71.18348792050719, -34.273487127136569 ], [ -71.183418140274227, -34.273011383737057 ], [ -71.183293377755987, -34.272631898953755 ], [ -71.183281133718666, -34.272154982267701 ], [ -71.183317027702472, -34.272067114833426 ], [ -71.18349726837603, -34.271626355431998 ], [ -71.183658597716217, -34.27119405800817 ], [ -71.183787392771762, -34.270869585349899 ], [ -71.183871027721352, -34.270522355229033 ], [ -71.18380371336383, -34.270141848116971 ], [ -71.183263268024291, -34.269244996958321 ], [ -71.18203481648338, -34.268408114275978 ], [ -71.181850157895255, -34.267934267130109 ], [ -71.181669287502686, -34.267603493168281 ], [ -71.181490793154055, -34.267368104770149 ], [ -71.181191255312456, -34.266896375739279 ], [ -71.180891719267493, -34.266424646289437 ], [ -71.180535972940248, -34.266001556057695 ], [ -71.180058045852888, -34.265294357600318 ], [ -71.179881011266588, -34.264329350372066 ], [ -71.179857763765355, -34.264214468016078 ], [ -71.179843865929584, -34.263676053714953 ], [ -71.179716672570208, -34.263201180606721 ], [ -71.179687049725402, -34.262966831901359 ], [ -71.179644461496082, -34.26262990150267 ], [ -71.179635847550827, -34.262296133989722 ], [ -71.179674826349327, -34.261579735290802 ], [ -71.179837301939813, -34.261195208983359 ], [ -71.180058445603194, -34.260857279584968 ], [ -71.180321867577121, -34.260513427084497 ], [ -71.180392007136163, -34.260421994881007 ], [ -71.180718088397796, -34.259700560498203 ], [ -71.180710907265407, -34.259422383838711 ], [ -71.180704544498255, -34.259175952251482 ], [ -71.180688540113138, -34.258556033820312 ], [ -71.180734897673389, -34.258125785980525 ], [ -71.180841154896768, -34.257789899406859 ], [ -71.181051206163019, -34.257022815071345 ], [ -71.181151305435137, -34.256448543385766 ], [ -71.18144413825145, -34.255773418766445 ], [ -71.180961757316922, -34.255783926445453 ], [ -71.180272607560184, -34.255796190847526 ], [ -71.179926757074128, -34.255754631609264 ], [ -71.179524701695684, -34.25576178399033 ], [ -71.178949107973992, -34.255724381181253 ], [ -71.178547049900601, -34.255731456346162 ], [ -71.177975231798072, -34.255837049157847 ], [ -71.177005043206378, -34.256092859195093 ], [ -71.176258362643907, -34.256106123678521 ], [ -71.175626645776546, -34.256117341873392 ], [ -71.174364347512352, -34.256187390033169 ], [ -71.173387916527744, -34.256204713658825 ], [ -71.1728698464253, -34.256166261174592 ], [ -71.172175696645695, -34.255987714423178 ], [ -71.17182503298632, -34.255755362216902 ], [ -71.171765265375527, -34.255672663927804 ], [ -71.171586705449883, -34.255425663746045 ], [ -71.171177294665881, -34.255146636161292 ], [ -71.170691065348677, -34.254889649362298 ], [ -71.170478254457862, -34.254777311270239 ], [ -71.169837971255959, -34.254454655281421 ], [ -71.169432243564614, -34.254318697683885 ], [ -71.168793193749607, -34.254043801424551 ], [ -71.16798542056128, -34.25391495486339 ], [ -71.167122838462546, -34.253882499279747 ], [ -71.166487376518745, -34.253750594835608 ], [ -71.16562226206922, -34.253622746496362 ], [ -71.165217768663084, -34.253534467655996 ], [ -71.164869488234174, -34.253397480197606 ], [ -71.164348994477095, -34.253263607343236 ], [ -71.163769754493686, -34.253082981341173 ], [ -71.163593784410992, -34.252942947362548 ], [ -71.163069629120798, -34.252665917818859 ], [ -71.162911725056787, -34.252651273943037 ], [ -71.162205663616518, -34.25258581232692 ], [ -71.161859920029968, -34.252544125275172 ], [ -71.161284260731279, -34.252506565849856 ], [ -71.160879864343201, -34.252418270988095 ], [ -71.160360598583097, -34.252331998651719 ], [ -71.159898592337541, -34.252244714916834 ], [ -71.159205805302221, -34.252113782833376 ], [ -71.158800197086819, -34.251977861549349 ], [ -71.158338279774455, -34.251890497254813 ], [ -71.157876367851998, -34.251803278403912 ], [ -71.156897631790372, -34.251725081859881 ], [ -71.156100937524471, -34.252025386576697 ], [ -71.155533885882832, -34.252321572961073 ], [ -71.155025485246099, -34.252664514466076 ], [ -71.154458517147788, -34.252960768396854 ], [ -71.154173771863981, -34.253061202005675 ], [ -71.153551792734291, -34.253453846948119 ], [ -71.152982293183513, -34.253654637133167 ], [ -71.152298007804049, -34.253857514018314 ], [ -71.151726074717146, -34.253962987411342 ], [ -71.151326447484919, -34.254065432747723 ], [ -71.150924483734627, -34.254072562997287 ], [ -71.150180234911616, -34.254180978653515 ], [ -71.149488657008675, -34.254097685557774 ], [ -71.14871788722354, -34.253929358690641 ], [ -71.148275300757774, -34.253832680220341 ], [ -71.147630946391004, -34.253801283416578 ], [ -71.146441316443415, -34.253279399774293 ], [ -71.145864026702469, -34.252855430369863 ], [ -71.144896750448936, -34.252510521975466 ], [ -71.143578439531836, -34.252149662113048 ], [ -71.143114116531152, -34.251966927188043 ], [ -71.142538643183727, -34.251929276174941 ], [ -71.142278234159264, -34.251853394931132 ], [ -71.142075532908677, -34.251794230769292 ], [ -71.141436582806634, -34.251519187410018 ], [ -71.141145781081178, -34.251381126690653 ], [ -71.140505538303444, -34.251058313627595 ], [ -71.13945730767314, -34.250504049644604 ], [ -71.139049318922247, -34.250272601554045 ], [ -71.138527493861915, -34.250090925866317 ], [ -71.137829934077473, -34.24981865923629 ], [ -71.136731530741926, -34.249501971353659 ], [ -71.136152457845157, -34.249321210301702 ], [ -71.1352849260292, -34.249097832662727 ], [ -71.135035979507762, -34.248999798690633 ], [ -71.134936708482357, -34.248960757043761 ], [ -71.134768593268504, -34.248935840120332 ], [ -71.134360052053708, -34.248875373705367 ], [ -71.134200911907854, -34.248821936954876 ], [ -71.133954402515798, -34.248739296452918 ], [ -71.133551252989335, -34.248698601027073 ], [ -71.13309298822692, -34.24875429446292 ], [ -71.132580901802584, -34.248954063721442 ], [ -71.132428555615235, -34.249064035667196 ], [ -71.131903817318431, -34.249442913949807 ], [ -71.131221825337875, -34.249741062305745 ], [ -71.130935945481866, -34.249793748507216 ], [ -71.130314987736654, -34.250233899836715 ], [ -71.129691622506485, -34.25057880865262 ], [ -71.128551420560768, -34.250932546964265 ], [ -71.127924526748174, -34.25113429137452 ], [ -71.127298740558317, -34.251383728501779 ], [ -71.126841656182194, -34.251487017516929 ], [ -71.12598381179825, -34.251645120264378 ], [ -71.125122274440187, -34.251660065037314 ], [ -71.12426082421868, -34.251674927387519 ], [ -71.123797831622937, -34.251539883801222 ], [ -71.123276115258733, -34.251358068284532 ], [ -71.122813034628109, -34.251222947709401 ], [ -71.122232779548412, -34.250994500672604 ], [ -71.121595088884419, -34.250766898016366 ], [ -71.121014751159734, -34.250538446028798 ], [ -71.119959466957809, -34.24969784718067 ], [ -71.119489224957718, -34.249276625708809 ], [ -71.119135049783907, -34.248901036164803 ], [ -71.118773792292401, -34.248239280812662 ], [ -71.118476970956223, -34.247862771066018 ], [ -71.118116918105514, -34.247248707549133 ], [ -71.117880103331998, -34.246966514026333 ], [ -71.117645504702296, -34.246779783975988 ], [ -71.11723997823357, -34.246643646899877 ], [ -71.116893961559171, -34.24664969882739 ], [ -71.116209773197752, -34.246804584954837 ], [ -71.115867563583535, -34.246905923673083 ], [ -71.115359110844508, -34.247248628837504 ], [ -71.115018095091287, -34.247397732281669 ], [ -71.114619729093732, -34.247547676781963 ], [ -71.1144794041615, -34.247563097520811 ], [ -71.114104023357086, -34.247604362296244 ], [ -71.113644554852215, -34.247612288374306 ], [ -71.113243800234287, -34.247666841216244 ], [ -71.112723322646872, -34.247532745387311 ], [ -71.112082018060491, -34.24716208387823 ], [ -71.111790173390986, -34.246976255735639 ], [ -71.11120154511454, -34.246413823330798 ], [ -71.110618968788174, -34.246089930818883 ], [ -71.109917872336467, -34.245624932733591 ], [ -71.109155778480343, -34.245017761130754 ], [ -71.108801756020128, -34.244642137727986 ], [ -71.108451216328277, -34.2444095960212 ], [ -71.107866286415856, -34.243990300353069 ], [ -71.10739613424731, -34.243568955261956 ], [ -71.10692726577129, -34.243195374222047 ], [ -71.106575548388079, -34.24291513277285 ], [ -71.106222556295506, -34.242587198172508 ], [ -71.10575607284656, -34.242308926317591 ], [ -71.10540199019924, -34.241933366572198 ], [ -71.104985817796091, -34.241368013926575 ], [ -71.104976313620384, -34.240986386509618 ], [ -71.104851956242342, -34.240606879031006 ], [ -71.104770777286745, -34.239654053661951 ], [ -71.104584244812941, -34.239084755686513 ], [ -71.104518505202137, -34.238751880992481 ], [ -71.10450672110224, -34.238274937081023 ], [ -71.104497135179841, -34.237893458281157 ], [ -71.104545062995214, -34.237510918736106 ], [ -71.104648044062742, -34.237032003478127 ], [ -71.104463981955973, -34.236558091002777 ], [ -71.104222317178227, -34.23608509378878 ], [ -71.104150645991609, -34.235513747914204 ], [ -71.10414361487787, -34.235227653915267 ], [ -71.104075418374777, -34.234799393760149 ], [ -71.103835126222791, -34.234374085792183 ], [ -71.10359356115805, -34.233901158746256 ], [ -71.103351998788256, -34.233428157003708 ], [ -71.102818575579292, -34.232769378506887 ], [ -71.102575923553061, -34.232248679015797 ], [ -71.102160918061472, -34.231731008746507 ], [ -71.102095194620347, -34.231398133200578 ], [ -71.101854833298063, -34.230972822164155 ], [ -71.101612197441526, -34.230452269018606 ], [ -71.101433913298663, -34.230216677157109 ], [ -71.10114206144263, -34.230030822004252 ], [ -71.100619429695172, -34.229801279131649 ], [ -71.100154221853927, -34.229570678002368 ], [ -71.099746258255848, -34.229339092879741 ], [ -71.099509469533473, -34.229056933643875 ], [ -71.099100505212192, -34.228777649295537 ], [ -71.098695095524462, -34.228641446712444 ], [ -71.098290690153235, -34.228552940390898 ], [ -71.097480969417376, -34.228328224944846 ], [ -71.097250190424248, -34.228284458861822 ], [ -71.096839967563227, -34.227957546462136 ], [ -71.096604372701876, -34.227723003047643 ], [ -71.096427381234705, -34.227535170426464 ], [ -71.096078131523598, -34.22735035735915 ], [ -71.095384448867932, -34.227171358794678 ], [ -71.094921542510448, -34.227036125861538 ], [ -71.094400123488626, -34.226854102925053 ], [ -71.093877439638874, -34.226624531339844 ], [ -71.093239916959831, -34.226396844962068 ], [ -71.092548606754846, -34.226313219101606 ], [ -71.091912359683505, -34.22613321859312 ], [ -71.091048460654562, -34.225711729167884 ], [ -71.090924432059907, -34.225672925542298 ], [ -71.090222523531182, -34.225160106651103 ], [ -71.090039569945489, -34.224733791836918 ], [ -71.090031408751116, -34.224399925268472 ], [ -71.089961028443554, -34.223876335909793 ], [ -71.089893007111925, -34.223448135383876 ], [ -71.089880044422372, -34.222923491307725 ], [ -71.08946516020336, -34.22240569983844 ], [ -71.089049106377828, -34.221840285151139 ], [ -71.088753868771505, -34.221511386032169 ], [ -71.088456187747596, -34.22108702263899 ], [ -71.088163218387351, -34.22085343835397 ], [ -71.087810569451207, -34.220525440110272 ], [ -71.087460189659481, -34.220292905330432 ], [ -71.087166050692744, -34.220011623494365 ], [ -71.086984389782728, -34.219632997526986 ], [ -71.08680155657126, -34.219206748334088 ], [ -71.086561308436728, -34.218781402474285 ], [ -71.086208674771953, -34.218453399134575 ], [ -71.085912105862363, -34.218076799261922 ], [ -71.085731720560048, -34.2177458634864 ], [ -71.085552423117548, -34.21746262397302 ], [ -71.085374394096235, -34.217227150285822 ], [ -71.085137683527279, -34.216944813052478 ], [ -71.084668884221543, -34.216571139141493 ], [ -71.084373681649495, -34.21624215259618 ], [ -71.08424828222573, -34.21581492352756 ], [ -71.084064294679138, -34.215340900568442 ], [ -71.083936547059196, -34.214818207236576 ], [ -71.084042066765733, -34.214434840820452 ], [ -71.084093515976988, -34.214195390345438 ], [ -71.084024357378226, -34.213719415701178 ], [ -71.083549164762601, -34.213157349487467 ], [ -71.08318663256172, -34.212349990062357 ], [ -71.083122177541753, -34.212064794255319 ], [ -71.083065894495945, -34.211912929378599 ], [ -71.082999138890557, -34.211732879528547 ], [ -71.082758933875155, -34.211307598456081 ], [ -71.082692135150637, -34.210927085824835 ], [ -71.082687438758327, -34.210736231585749 ], [ -71.082636579740182, -34.210580728631506 ], [ -71.082576888486187, -34.210398638194896 ], [ -71.082325378172939, -34.210026728592091 ], [ -71.082032556136411, -34.209793199819138 ], [ -71.081854460639761, -34.209557574692681 ], [ -71.081832081809395, -34.208651441617342 ], [ -71.081652908334405, -34.208368267368691 ], [ -71.081418584589173, -34.208181384116244 ], [ -71.081355312650459, -34.207943883095453 ], [ -71.081233461572054, -34.207659734741149 ], [ -71.081169104468458, -34.207374462142745 ], [ -71.081160807628507, -34.207040670907766 ], [ -71.081152686858346, -34.206706802573017 ], [ -71.081145563218129, -34.206420706562845 ], [ -71.081138613851095, -34.206134460253629 ], [ -71.081135006216925, -34.205991376481045 ], [ -71.080896002249048, -34.205613784820507 ], [ -71.08060085267762, -34.20528478744319 ], [ -71.080304355633245, -34.204908096770311 ], [ -71.080184947074102, -34.204719335872014 ], [ -71.080123531054767, -34.204238794336433 ], [ -71.080048386981247, -34.204013533349681 ], [ -71.079990463611736, -34.20381612107721 ], [ -71.079982259298248, -34.203482253343253 ], [ -71.079913134835451, -34.20300627465717 ], [ -71.07960745611058, -34.202248090320879 ], [ -71.079428125430397, -34.201964840323299 ], [ -71.079191572066634, -34.201682633981839 ], [ -71.078958443979047, -34.201543441735694 ], [ -71.078724145386644, -34.201356553010015 ], [ -71.078260233814348, -34.201173555540606 ], [ -71.078081001050549, -34.200890376229815 ], [ -71.07795565732232, -34.200462989093609 ], [ -71.077655858070983, -34.199943274964639 ], [ -71.076999947776372, -34.19895244043559 ], [ -71.076874527691359, -34.198525200989614 ], [ -71.076695392843931, -34.198241943684799 ], [ -71.0764470625668, -34.197772320743319 ], [ -71.076392011111224, -34.197579141589443 ], [ -71.07608855571668, -34.197264750019912 ], [ -71.075802800726478, -34.1969688187461 ], [ -71.075450212875779, -34.196640778803783 ], [ -71.074979324088687, -34.196171668539172 ], [ -71.074745137785698, -34.195984770134942 ], [ -71.074568263997818, -34.195796901680332 ], [ -71.074331654040193, -34.195514612279432 ], [ -71.074211014789128, -34.195278149978591 ], [ -71.074146605583252, -34.194992947676013 ], [ -71.074082197275686, -34.194707745151845 ], [ -71.073959311338086, -34.194375890620279 ], [ -71.073778938612179, -34.194044933850954 ], [ -71.073426371422741, -34.193716887734922 ], [ -71.073189772244888, -34.193434595829032 ], [ -71.07294850362419, -34.192961520693096 ], [ -71.072878264352127, -34.192437914320905 ], [ -71.072689819365081, -34.191773157703423 ], [ -71.072569100163946, -34.191536621751524 ], [ -71.072270534299477, -34.191064587395395 ], [ -71.072032779888175, -34.190734596984782 ], [ -71.071739963241527, -34.190500966467951 ], [ -71.071271460379833, -34.190127157483772 ], [ -71.071031381128563, -34.189701847658561 ], [ -71.070960079149543, -34.18913046735333 ], [ -71.071229472225127, -34.188410261226601 ], [ -71.071391159094802, -34.187978092242837 ], [ -71.071439222555767, -34.18759555787959 ], [ -71.07166063481543, -34.187257883707048 ], [ -71.071878544543793, -34.186777049444743 ], [ -71.071984000469953, -34.186393619401905 ], [ -71.071972333151024, -34.185916662184177 ], [ -71.071848215623163, -34.185537110219066 ], [ -71.071721676237303, -34.185062094365378 ], [ -71.071699836396107, -34.184165472247273 ], [ -71.071584818802066, -34.184157886491896 ], [ -71.070999327442607, -34.183690620331134 ], [ -71.070864638540485, -34.183503657853713 ], [ -71.070523874315555, -34.183030705364722 ], [ -71.070288481575133, -34.182796101558466 ], [ -71.070098665758977, -34.182669897806726 ], [ -71.069938396430814, -34.182563432960606 ], [ -71.06924155080705, -34.182241256802762 ], [ -71.068892546336002, -34.182056282721007 ], [ -71.068598605896952, -34.181774947593908 ], [ -71.068305919506017, -34.181541305636671 ], [ -71.068013057045292, -34.181307666748111 ], [ -71.067488488530074, -34.180982574889228 ], [ -71.067070557225605, -34.180321676357273 ], [ -71.066776537734796, -34.180040264102999 ], [ -71.066541253690545, -34.179805724810272 ], [ -71.066137203153829, -34.1797171010572 ], [ -71.065503684266005, -34.179632339406204 ], [ -71.064928630431837, -34.179594306028505 ], [ -71.064564216260422, -34.179593053805725 ], [ -71.063667972491345, -34.179795895071507 ], [ -71.063059379157707, -34.180190811560202 ], [ -71.06187390122335, -34.180301374171783 ], [ -71.06124445619534, -34.180168511745741 ], [ -71.060759833964184, -34.179851139124743 ], [ -71.060413878375229, -34.179538158868446 ], [ -71.060289910866004, -34.179538689484225 ], [ -71.059941430112787, -34.179527480410364 ], [ -71.05959254332106, -34.1795252137739 ], [ -71.059244616828366, -34.179518572157093 ], [ -71.05889597886997, -34.179511868114346 ], [ -71.058547340013234, -34.179505162584753 ], [ -71.058198858361706, -34.179493948304327 ], [ -71.057850930970716, -34.179487228653251 ], [ -71.057503317990054, -34.179471565814907 ], [ -71.057153592171844, -34.179460295049843 ], [ -71.056801018694188, -34.17944892395667 ], [ -71.056451943256263, -34.179424197527403 ], [ -71.056110502599893, -34.179377182957886 ], [ -71.055778634391231, -34.179303416040014 ], [ -71.055446308940077, -34.179207127526766 ], [ -71.055114230525632, -34.179106329389427 ], [ -71.054786805384339, -34.178992156406544 ], [ -71.054467811830335, -34.178873778440284 ], [ -71.054159765146366, -34.178737711462048 ], [ -71.05386793484989, -34.178588667069924 ], [ -71.053608544514987, -34.178395574028904 ], [ -71.053407414417805, -34.178145811496421 ], [ -71.053261103112547, -34.177884347694565 ], [ -71.053224711462065, -34.17760383324309 ], [ -71.053260814753344, -34.177307627864572 ], [ -71.053263427054176, -34.177019370516838 ], [ -71.053265418619162, -34.176731122588947 ], [ -71.053271568485584, -34.176438447999722 ], [ -71.053287078797297, -34.176150638055454 ], [ -71.053307925101777, -34.175862960904048 ], [ -71.05333144119929, -34.175575461138493 ], [ -71.053353866742043, -34.175283325817944 ], [ -71.053378089813677, -34.174995666519322 ], [ -71.053394934123574, -34.174707908880727 ], [ -71.053410136313119, -34.174411093570669 ], [ -71.053386336347984, -34.174122021434954 ], [ -71.053229863300217, -34.173873653148313 ], [ -71.052987602041142, -34.173649618357217 ], [ -71.052721777073842, -34.173465346356394 ], [ -71.052420450686498, -34.17331593962485 ], [ -71.052106599987496, -34.173188753283306 ], [ -71.051781802418418, -34.173079180977858 ], [ -71.051452479136941, -34.172991916192849 ], [ -71.051116154386136, -34.172909051910224 ], [ -71.050780381200937, -34.172830608953028 ], [ -71.050460458788919, -34.172716741860548 ], [ -71.050196063939552, -34.172532440323621 ], [ -71.049936790385601, -34.172339410719324 ], [ -71.049679631465864, -34.172141912407739 ], [ -71.04942469677475, -34.171944451538529 ], [ -71.049171256880257, -34.171742605905138 ], [ -71.048887403623525, -34.171580268391132 ], [ -71.048553375864898, -34.171492852666972 ], [ -71.048211624391485, -34.171427797697881 ], [ -71.047863924274239, -34.171344523845377 ], [ -71.047521552963261, -34.17131995409293 ], [ -71.047190056657115, -34.171381401500831 ], [ -71.046861749370237, -34.171460816464069 ], [ -71.046534520959995, -34.171562889454336 ], [ -71.046208627446291, -34.171665012117458 ], [ -71.045882950426559, -34.171776216900689 ], [ -71.045557735140861, -34.171891845223101 ], [ -71.045230879531474, -34.171998413465033 ], [ -71.044903489424499, -34.172104990491121 ], [ -71.044573903834959, -34.172197938141188 ], [ -71.044228289605812, -34.172285907579585 ], [ -71.043885628138995, -34.17229737922996 ], [ -71.043559916084973, -34.172219339274811 ], [ -71.043235752726474, -34.172109733008803 ], [ -71.042918161442614, -34.171977783743955 ], [ -71.042610315981278, -34.171837177905829 ], [ -71.042316732173376, -34.171683554929189 ], [ -71.042039680061649, -34.171507940239763 ], [ -71.041769795607578, -34.171323562483131 ], [ -71.041497953724516, -34.171139070608987 ], [ -71.041210271848044, -34.170972051041197 ], [ -71.0409369396599, -34.170792014101167 ], [ -71.040716331392431, -34.170568700989641 ], [ -71.040508310318714, -34.170336684685481 ], [ -71.040307297900853, -34.170100414909925 ], [ -71.040109203211045, -34.169859812100121 ], [ -71.039912906050105, -34.16962368443631 ], [ -71.039714651460145, -34.169387440908288 ], [ -71.039511847801606, -34.169146694105166 ], [ -71.039303122448729, -34.168914686527323 ], [ -71.039084190437549, -34.168686763984404 ], [ -71.038855627588234, -34.168472221680211 ], [ -71.038619857555389, -34.168257281930487 ], [ -71.038375416983456, -34.168051202043074 ], [ -71.038125391585353, -34.167849350072053 ], [ -71.037869144455613, -34.16764737943933 ], [ -71.037610465586397, -34.167458818325535 ], [ -71.037347765857973, -34.167265595760348 ], [ -71.037082865257119, -34.16707684128702 ], [ -71.036813715624945, -34.166892441215104 ], [ -71.036540407691319, -34.166712466927351 ], [ -71.036261960495963, -34.166536714051681 ], [ -71.035978483633329, -34.166369833288613 ], [ -71.035688467933738, -34.166211776377686 ], [ -71.035389955069888, -34.16606250174501 ], [ -71.035084899775796, -34.165921977476067 ], [ -71.034773767378837, -34.165794774046091 ], [ -71.034460837452983, -34.165662946469801 ], [ -71.034146792717877, -34.16554022167098 ], [ -71.033833953521864, -34.165408465795714 ], [ -71.033523944018995, -34.165272302777986 ], [ -71.03322438641446, -34.165127397750858 ], [ -71.032939373432683, -34.164951524878894 ], [ -71.032632089418399, -34.164828905336158 ], [ -71.032279957911854, -34.164781483488952 ], [ -71.031925141340935, -34.164792530254552 ], [ -71.031610509107608, -34.164886007745736 ], [ -71.031320812309957, -34.165052271540837 ], [ -71.031031047240347, -34.165223113647073 ], [ -71.030723093082841, -34.165361757083701 ], [ -71.030407148410887, -34.16548221364171 ], [ -71.030086647483827, -34.165597944239998 ], [ -71.029764438859402, -34.165709195667411 ], [ -71.029439627815592, -34.165815761309609 ], [ -71.029114355037734, -34.16591790430536 ], [ -71.02878424123881, -34.166010817888555 ], [ -71.028450103885731, -34.166099069531562 ], [ -71.028118884260692, -34.16618298926403 ], [ -71.027732634739678, -34.166418203405627 ], [ -71.027260260139087, -34.166853386043883 ], [ -71.026502522213775, -34.167581275732836 ], [ -71.026099783217404, -34.168469195881471 ], [ -71.026226956813858, -34.169599649320674 ], [ -71.026105364450274, -34.170271453420298 ], [ -71.024918108749944, -34.170534806339248 ] ] ] } },
{ "type": "Feature", "properties": { "capa": "colegios", "popup": "<strong>ESCUELA MUNICIPAL DE VINA LA CRUZ</strong><br><br><strong>Dirección:</strong> CARRETERA H-30 0", "etiqueta": "" }, "geometry": { "type": "Point", "coordinates": [ -71.146057, -34.325329 ] } },
{ "type": "Feature", "properties": { "capa": "colegios", "popup": "<strong>ESCUELA SUBTTE. ARTURO PEREZ CANTO</strong><br><br><strong>Dirección:</strong> RUTA H-30 0", "etiqueta": "" }, "geometry": { "type": "Point", "coordinates": [ -71.135902, -34.318481 ] } },
{ "type": "Feature", "properties": { "capa": "colegios", "popup": "<strong>ESCUELA ESPECIAL DE LENGUAJE SAN EXPEDITO</strong><br><br><strong>Dirección:</strong> EL SAUCE 130", "etiqueta": "" }, "geometry": { "type": "Point", "coordinates": [ -71.080605, -34.30128 ] } },
{ "type": "Feature", "properties": { "capa": "colegios", "popup": "<strong>COLEGIO AMADA SOFIA GARCIA</strong><br><br><strong>Dirección:</strong> AVENIDA BERNARDO O'HIGGINS 567", "etiqueta": "" }, "geometry": { "type": "Point", "coordinates": [ -71.082413, -34.294399 ] } },
{ "type": "Feature", "properties": { "capa": "colegios", "popup": "<strong>COLEGIO SAGRADA FAMILIA</strong><br><br><strong>Dirección:</strong> AVENIDA BERNARDO O'HIGGINS 426", "etiqueta": "" }, "geometry": { "type": "Point", "coordinates": [ -71.080856, -34.293541 ] } },
{ "type": "Feature", "properties": { "capa": "colegios", "popup": "<strong>ESCUELA MUNICIPAL OSVALDO RUIZ GARCIA</strong><br><br><strong>Dirección:</strong> AVENIDA BERNARDO O'HIGGINS 500", "etiqueta": "" }, "geometry": { "type": "Point", "coordinates": [ -71.089081, -34.293419 ] } },
{ "type": "Feature", "properties": { "capa": "colegios", "popup": "<strong>ESCUELA MUNICIPAL DE RINCONADA DE IDAHUE</strong><br><br><strong>Dirección:</strong> CAMINO EL CRISTO RINCONADA DE IDAHUE 0", "etiqueta": "" }, "geometry": { "type": "Point", "coordinates": [ -71.146172, -34.292671 ] } },
{ "type": "Feature", "properties": { "capa": "colegios", "popup": "<strong>INSTITUTO MONSENOR LECAROS</strong><br><br><strong>Dirección:</strong> AVENIDA ARTURO PRAT 383", "etiqueta": "" }, "geometry": { "type": "Point", "coordinates": [ -71.08197, -34.291168 ] } },
{ "type": "Feature", "properties": { "capa": "colegios", "popup": "<strong>ESCUELA ESPECIAL ANGELES</strong><br><br><strong>Dirección:</strong> AVENIDA REPUBLICA DE CHILE 701", "etiqueta": "" }, "geometry": { "type": "Point", "coordinates": [ -71.085567, -34.28951 ] } },
{ "type": "Feature", "properties": { "capa": "colegios", "popup": "<strong>LICEO BERTA ZAMORANO LIZANA</strong><br><br><strong>Dirección:</strong> AVENIDA REPUBLICA DE CHILE 233", "etiqueta": "" }, "geometry": { "type": "Point", "coordinates": [ -71.082123, -34.28756 ] } },
{ "type": "Feature", "properties": { "capa": "colegios", "popup": "<strong>ESC. LUCILA GODOY ALCAYAGA</strong><br><br><strong>Dirección:</strong> LO ULLOA 0", "etiqueta": "" }, "geometry": { "type": "Point", "coordinates": [ -71.092583, -34.281872 ] } },
{ "type": "Feature", "properties": { "capa": "colegios", "popup": "<strong>ESC. SUBTENIENTE JULIO MONTT SALAMANCA</strong><br><br><strong>Dirección:</strong> CAMINO PUBLICO MONTE GRANDE COLTAUCO 0", "etiqueta": "" }, "geometry": { "type": "Point", "coordinates": [ -71.02626, -34.2798 ] } },
{ "type": "Feature", "properties": { "capa": "colegios", "popup": "<strong>ESCUELA CAPITAN IGNACIO CARRERA PINTO</strong><br><br><strong>Dirección:</strong> AVENIDA IGNACIO CARRERA PINTO 227", "etiqueta": "" }, "geometry": { "type": "Point", "coordinates": [ -71.062622, -34.27882 ] } },
{ "type": "Feature", "properties": { "capa": "colegios", "popup": "<strong>ESCUELA MUNIC.SBTE LUIS CRUZ MARTINEZ</strong><br><br><strong>Dirección:</strong> CAMINO PUBLICO PARRAL DE PUREN 0", "etiqueta": "" }, "geometry": { "type": "Point", "coordinates": [ -71.05497, -34.265369 ] } },
{ "type": "Feature", "properties": { "capa": "colegios", "popup": "<strong>COLEGIO NUESTRA SEÑORA DE LORETO</strong><br><br><strong>Dirección:</strong> RUTA H-30 28", "etiqueta": "" }, "geometry": { "type": "Point", "coordinates": [ -71.029198, -34.263939 ] } },
{ "type": "Feature", "properties": { "capa": "colegios", "popup": "<strong>COLEGIO QUILLAYQUEN RINCONADA DE PARRAL</strong><br><br><strong>Dirección:</strong> AVENIDA QUILLAYQUEN 0", "etiqueta": "" }, "geometry": { "type": "Point", "coordinates": [ -71.071388, -34.246971 ] } },
{ "type": "Feature", "properties": { "capa": "colegios", "popup": "<strong>ESCUELA MUNICIPAL JOSEFINA VIAL DE VIAL</strong><br><br><strong>Dirección:</strong> CAMINO EL MOLINO 4", "etiqueta": "" }, "geometry": { "type": "Point", "coordinates": [ -71.039307, -34.231651 ] } },
{ "type": "Feature", "properties": { "capa": "colegios", "popup": "<strong>ESCUELA MUNICIPAL DE LO DE CUEVAS</strong><br><br><strong>Dirección:</strong> CAMINO PUBLICO LO DE CUEVAS 0", "etiqueta": "" }, "geometry": { "type": "Point", "coordinates": [ -70.999283, -34.231339 ] } },
{ "type": "Feature", "properties": { "capa": "colegios", "popup": "<strong>ESCUELA AGRICOLA SAN VICENTE DE PAUL</strong><br><br><strong>Dirección:</strong> CAMINO A LOS BRONCES 0", "etiqueta": "" }, "geometry": { "type": "Point", "coordinates": [ -70.999008, -34.21405 ] } },
{ "type": "Feature", "properties": { "capa": "jardines", "popup": "<strong>NIDO DE SUEÑOS</strong><br><br><strong>Dirección:</strong> CALLE SAN LUIS S/N ", "etiqueta": "" }, "geometry": { "type": "MultiPoint", "coordinates": [ [ -71.090855, -34.300971 ] ] } },
{ "type": "Feature", "properties": { "capa": "jardines", "popup": "<strong>LOS ENANITOS</strong><br><br><strong>Dirección:</strong> CAMINO PUBLICO S/N, ESC.G-74, LO DE CUEVAS ", "etiqueta": "" }, "geometry": { "type": "MultiPoint", "coordinates": [ [ -70.999555, -34.231475 ] ] } },
{ "type": "Feature", "properties": { "capa": "jardines", "popup": "<strong>CUNCUNITA</strong><br><br><strong>Dirección:</strong> CAM EL CRISTO ESC.G-79 RINCONADA DE IDAHUE ", "etiqueta": "" }, "geometry": { "type": "MultiPoint", "coordinates": [ [ -71.146052, -34.292397 ] ] } },
{ "type": "Feature", "properties": { "capa": "jardines", "popup": "<strong>AMANECER</strong><br><br><strong>Dirección:</strong> ESC F-83 CAM. PUBLICO S/N RINCONADA DE PARRAL ", "etiqueta": "" }, "geometry": { "type": "MultiPoint", "coordinates": [ [ -71.067828, -34.241525 ] ] } },
{ "type": "Feature", "properties": { "capa": "jardines", "popup": "<strong>PAYASITO</strong><br><br><strong>Dirección:</strong> AV. ARTURO PRATT N 69 LOCALIDAD DE COLTAUCO ", "etiqueta": "" }, "geometry": { "type": "MultiPoint", "coordinates": [ [ -71.084077, -34.288461 ] ] } },
{ "type": "Feature", "properties": { "capa": "jardines", "popup": "<strong>AYENHUE LUGAR DIVERTIDO</strong><br><br><strong>Dirección:</strong> DIEGO PORTALES S/N,SECTOR EL MOLINO,LOC. DE LORETO ", "etiqueta": "" }, "geometry": { "type": "MultiPoint", "coordinates": [ [ -71.01485, -34.262263 ] ] } },
{ "type": "Feature", "properties": { "capa": "jardines", "popup": "<strong>TIA NUVIA</strong><br><br><strong>Dirección:</strong> JUAN PABLO 2,N 143 VILLA LAM FORTUNA,LOC DE LORETO ", "etiqueta": "" }, "geometry": { "type": "MultiPoint", "coordinates": [ [ -71.026166, -34.264963 ] ] } },
{ "type": "Feature", "properties": { "capa": "jardines", "popup": "<strong>AURORA</strong><br><br><strong>Dirección:</strong> AV. QUILLAIQUE S/N, LOC RINCONADA DE PARRAL ", "etiqueta": "" }, "geometry": { "type": "MultiPoint", "coordinates": [ [ -71.0684, -34.241727 ] ] } },
{ "type": "Feature", "properties": { "capa": "bomberos", "popup": "<strong>Cuerpo de Bomberos</strong><br><br><strong>Dirección:</strong> Bernardo O Higgins 282", "etiqueta": "" }, "geometry": { "type": "Point", "coordinates": [ -71.079397773169688, -34.292136324043284 ] } },
{ "type": "Feature", "properties": { "capa": "comisarias", "popup": "<strong>RETEN IDAHUE</strong><br><br><strong>Dirección:</strong> RUTA H-30 KM 40", "etiqueta": "" }, "geometry": { "type": "Point", "coordinates": [ -71.136647704999902, -34.318710957999954 ] } },
{ "type": "Feature", "properties": { "capa": "comisarias", "popup": "<strong>TCIA. COLTAUCO</strong><br><br><strong>Dirección:</strong> ARTURO PRAT S/N", "etiqueta": "" }, "geometry": { "type": "Point", "coordinates": [ -71.084461164999936, -34.287956535999911 ] } },
{ "type": "Feature", "properties": { "capa": "salud", "popup": "<strong>Posta de Salud Rural Idahue</strong><br><br><strong>Tipo de atención:</strong> Posta de Salud Rural (PSR)<br><strong>Dirección:</strong>  NA", "etiqueta": "" }, "geometry": { "type": "Point", "coordinates": [ -71.14715, -34.29207 ] } },
{ "type": "Feature", "properties": { "capa": "salud", "popup": "<strong>Centro de Salud Familiar Francisco Labrin de Coltauco</strong><br><br><strong>Tipo de atención:</strong> Centro de Salud Familiar (CESFAM)<br><strong>Dirección:</strong>  NA", "etiqueta": "" }, "geometry": { "type": "Point", "coordinates": [ -71.08382, -34.28758 ] } },
{ "type": "Feature", "properties": { "capa": "salud", "popup": "<strong>SUR Coltauco</strong><br><br><strong>Tipo de atención:</strong> Servicio de Urgencia Rural (SUR)<br><strong>Dirección:</strong>  NA", "etiqueta": "" }, "geometry": { "type": "Point", "coordinates": [ -71.08382, -34.287581 ] } },
{ "type": "Feature", "properties": { "capa": "salud", "popup": "<strong>Centro Comunitario de Salud Familiar Loreto</strong><br><br><strong>Tipo de atención:</strong> Centro Comunitario de Salud Familiar (CECOSF)<br><strong>Dirección:</strong>  143", "etiqueta": "" }, "geometry": { "type": "Point", "coordinates": [ -71.02582, -34.26504 ] } },
{ "type": "Feature", "properties": { "capa": "salud", "popup": "<strong>Posta de Salud Rural Rinconada de Parral</strong><br><br><strong>Tipo de atención:</strong> Posta de Salud Rural (PSR)<br><strong>Dirección:</strong>  NA", "etiqueta": "" }, "geometry": { "type": "Point", "coordinates": [ -71.07092, -34.24288 ] } },
{ "type": "Feature", "properties": { "capa": "salud", "popup": "<strong>Posta de Salud Rural Lo de Cuevas</strong><br><br><strong>Tipo de atención:</strong> Posta de Salud Rural (PSR)<br><strong>Dirección:</strong>  NA", "etiqueta": "" }, "geometry": { "type": "Point", "coordinates": [ -70.99924, -34.2312 ] } }
]
}
