{
"type": "FeatureCollection",
"name": "6106",
"crs": { "type": "name", "properties": { "name": "urn:ogc:def:crs:OGC:1.3:CRS84" } },
"features": [
{ "type": "Feature", "properties": { "capa": "comuna", "popup": "", "etiqueta": "" }, "geometry": { "type": "Polygon", "coordinates": [ [ [ -70.777165148298323, -34.005738938545825 ], [ -70.776648666417316, -34.005837187253071 ], [ -70.776249636564742, -34.005799959649984 ], [ -70.775963226702686, -34.00580402265814 ], [ -70.775504972720071, -34.00581063993976 ], [ -70.775220639762964, -34.005910258040316 ], [ -70.774651791490768, -34.006109274209237 ], [ -70.774139231654274, -34.006259903452602 ], [ -70.773400603590005, -34.006556801783404 ], [ -70.773002585240434, -34.006662191013561 ], [ -70.772260992735738, -34.006859549258785 ], [ -70.771630775156581, -34.006867596982481 ], [ -70.771115431441018, -34.00687605353302 ], [ -70.770542694361964, -34.006884301573216 ], [ -70.769681475007488, -34.006801259648391 ], [ -70.769335799692911, -34.006710793944883 ], [ -70.768420269094676, -34.006771684032103 ], [ -70.767680714867353, -34.007020915393682 ], [ -70.767571682748041, -34.0070798058061 ], [ -70.76722739622889, -34.007266030213948 ], [ -70.76688764979518, -34.007461717501947 ], [ -70.766377041997799, -34.007707652420429 ], [ -70.765866519540367, -34.007953582903305 ], [ -70.765072450151706, -34.008346742542344 ], [ -70.764508583037752, -34.008784313390329 ], [ -70.763771782146776, -34.009176568148632 ], [ -70.76291556191687, -34.009331931682503 ], [ -70.762115640902451, -34.009438911028987 ], [ -70.761428314725748, -34.009448759082275 ], [ -70.760569043817128, -34.009460990772475 ], [ -70.760351947064109, -34.009446074603616 ], [ -70.759995214386677, -34.009421559091336 ], [ -70.759365171080702, -34.009430575367666 ], [ -70.758905910984936, -34.009389425009175 ], [ -70.758388470601517, -34.009301386661413 ], [ -70.757928225952213, -34.009212526866428 ], [ -70.757413647601268, -34.009267601631734 ], [ -70.756729180762107, -34.009420541893284 ], [ -70.7561837937902, -34.009625047606988 ], [ -70.754699979061769, -34.009823297015444 ], [ -70.754584224849197, -34.009840681635616 ], [ -70.754401573097425, -34.009861608555454 ], [ -70.754126529618674, -34.009892937491877 ], [ -70.753729547924948, -34.010089553260407 ], [ -70.753164451017383, -34.010479297002746 ], [ -70.7530541864095, -34.010638655401252 ], [ -70.752997586258402, -34.010720275028383 ], [ -70.752719001620804, -34.011106005990811 ], [ -70.752494848601216, -34.01134780059455 ], [ -70.752274437064784, -34.011780347570799 ], [ -70.751996912439239, -34.012213706224173 ], [ -70.751718320615126, -34.012599509332468 ], [ -70.751499950051027, -34.013127465105406 ], [ -70.751277748172214, -34.013464669491498 ], [ -70.751055453766966, -34.013801800310596 ], [ -70.750832179299735, -34.014091299108891 ], [ -70.750551616571883, -34.014381613758374 ], [ -70.750213761990153, -34.01467274276137 ], [ -70.749479867149105, -34.015208031158394 ], [ -70.749281289165665, -34.015322400730042 ], [ -70.748800228754604, -34.015599459518626 ], [ -70.748517696021324, -34.015794356941875 ], [ -70.748063382049551, -34.015991696940112 ], [ -70.747723644598992, -34.016187332101261 ], [ -70.747443063904825, -34.016477639583094 ], [ -70.747275105896151, -34.016670905825265 ], [ -70.746604241347029, -34.017491677099279 ], [ -70.746438231784211, -34.017780280986251 ], [ -70.746272222221378, -34.018068958349893 ], [ -70.746163591649022, -34.018356819420966 ], [ -70.746002377293195, -34.018883954612221 ], [ -70.745549992902625, -34.019176623579625 ], [ -70.745150906456203, -34.019277802994324 ], [ -70.744980095398176, -34.019327872948253 ], [ -70.74469745307043, -34.019522764045227 ], [ -70.744434641052607, -34.01990212102114 ], [ -70.744363551974288, -34.020004700836175 ], [ -70.743819795444608, -34.021100295443219 ], [ -70.743648025884184, -34.021446374456616 ], [ -70.743314997052153, -34.021975942245753 ], [ -70.74274800200439, -34.022270300340935 ], [ -70.742352884314869, -34.022562220538283 ], [ -70.74195758606399, -34.022854067511481 ], [ -70.741675989375238, -34.023096656577628 ], [ -70.741453722817752, -34.023433844444654 ], [ -70.741116865365996, -34.023772655533513 ], [ -70.740836237959442, -34.024062948985588 ], [ -70.740384605458786, -34.024403308404601 ], [ -70.740100165602144, -34.024502775143809 ], [ -70.739425276600556, -34.025132610321606 ], [ -70.739201048122496, -34.025374382098377 ], [ -70.73886213891862, -34.02561777622352 ], [ -70.738407751284981, -34.025815081471627 ], [ -70.738238779976655, -34.025960556507556 ], [ -70.738070783340447, -34.026153886031977 ], [ -70.737731778915148, -34.026397277921369 ], [ -70.737391975887576, -34.026592886121776 ], [ -70.737108408295086, -34.026740052823293 ], [ -70.736713251079692, -34.027031955412554 ], [ -70.735977133806642, -34.027471832443389 ], [ -70.73557799256298, -34.027572833713315 ], [ -70.735350833780444, -34.027671480771673 ], [ -70.735123586064717, -34.027770127715357 ], [ -70.734437955008957, -34.027875243441173 ], [ -70.73375337947364, -34.028027985647746 ], [ -70.733410563496591, -34.02808061372162 ], [ -70.732781344844057, -34.02813720394056 ], [ -70.732439494555933, -34.028237388458059 ], [ -70.732040348820689, -34.028338526547152 ], [ -70.73158495956551, -34.028488101615537 ], [ -70.730671179783769, -34.028644055175654 ], [ -70.730327300201438, -34.028648895822812 ], [ -70.730140060753499, -34.028651531302707 ], [ -70.729869001303044, -34.028655346048033 ], [ -70.729468881794034, -34.028708769587595 ], [ -70.729072628634, -34.028952795893531 ], [ -70.728677432791059, -34.029244673748003 ], [ -70.728511746621734, -34.029369553581034 ], [ -70.728225813765107, -34.02958506300881 ], [ -70.727720850082648, -34.03011708069716 ], [ -70.727240307999509, -34.030125311589941 ], [ -70.726440589106033, -34.029842689849822 ], [ -70.725634838025414, -34.029266294207126 ], [ -70.72418790273268, -34.027523687331119 ], [ -70.722382352791968, -34.025492231230025 ], [ -70.721216608149462, -34.024553564946139 ], [ -70.716677109303404, -34.022432989272467 ], [ -70.716692029421949, -34.022513077955125 ], [ -70.716767027070077, -34.022915509635389 ], [ -70.716941807783343, -34.023603016747956 ], [ -70.717062917751619, -34.024233284471372 ], [ -70.717287045618377, -34.024591231783894 ], [ -70.717437589785263, -34.024890075468782 ], [ -70.717660661233253, -34.025208590450873 ], [ -70.71776747181886, -34.025459142807875 ], [ -70.717820755389923, -34.025967954697556 ], [ -70.717828030845411, -34.026328930789866 ], [ -70.717799600963303, -34.026613063663902 ], [ -70.718041263046089, -34.027580635279179 ], [ -70.718705124329261, -34.02924141217828 ], [ -70.719011828031881, -34.030239171198978 ], [ -70.719496216701074, -34.031520765431829 ], [ -70.719796111173835, -34.032184578302044 ], [ -70.720092247095451, -34.032657634850537 ], [ -70.720333009964634, -34.033226833231772 ], [ -70.720574740319393, -34.033843810450954 ], [ -70.720940626829545, -34.034936174974042 ], [ -70.721297063062934, -34.035551545947285 ], [ -70.721420255326052, -34.035979226873948 ], [ -70.721599877060385, -34.036358397134713 ], [ -70.72189700202712, -34.036879155525632 ], [ -70.722083378194057, -34.037592271015079 ], [ -70.72244746178545, -34.038589215715106 ], [ -70.723045514287548, -34.03982147978779 ], [ -70.724127144280118, -34.042287602996026 ], [ -70.72449030799666, -34.043236832777296 ], [ -70.724843819315467, -34.043709072172895 ], [ -70.725085614348913, -34.044325964218046 ], [ -70.725452663279057, -34.045466016010074 ], [ -70.725635226097623, -34.045988372392145 ], [ -70.725761357648352, -34.046559166480591 ], [ -70.725944890647412, -34.047129154345946 ], [ -70.726240148915011, -34.047554486621806 ], [ -70.726360573468739, -34.047839113344715 ], [ -70.726422720716727, -34.04807676687183 ], [ -70.726776265273202, -34.04854907235358 ], [ -70.727013162691733, -34.048927429459233 ], [ -70.727019056538296, -34.049213665971827 ], [ -70.726798512949529, -34.049646169557498 ], [ -70.726508561030329, -34.04970195196524 ], [ -70.707136292215296, -34.051225629781484 ], [ -70.706680433141216, -34.051253826372516 ], [ -70.694206761279219, -34.052192378090709 ], [ -70.687051272206062, -34.052720221506895 ], [ -70.685955172150898, -34.052735336233937 ], [ -70.685274654305715, -34.05274459724054 ], [ -70.684472229686605, -34.052755598359404 ], [ -70.68087714137684, -34.052820039090669 ], [ -70.677699541502093, -34.052336023859496 ], [ -70.675957912083774, -34.051229716665219 ], [ -70.673311359374068, -34.050135560574489 ], [ -70.67019043600726, -34.049498107748178 ], [ -70.670299304633161, -34.049781990345032 ], [ -70.670344761183173, -34.049900599738656 ], [ -70.671591561712106, -34.053151459806742 ], [ -70.671756469940377, -34.053581506574204 ], [ -70.672014263969032, -34.054253619460852 ], [ -70.67243800647509, -34.055358496932421 ], [ -70.674616674363975, -34.06103849528931 ], [ -70.675058541279199, -34.06219024355736 ], [ -70.678532878048458, -34.07135105978373 ], [ -70.679805448547938, -34.074817017671649 ], [ -70.681221193435718, -34.078465082668856 ], [ -70.681315946833564, -34.078709108646073 ], [ -70.681539842934981, -34.079311040748699 ], [ -70.681739828578472, -34.079848514961675 ], [ -70.681764893371536, -34.080011646260303 ], [ -70.681805741564133, -34.0802770936901 ], [ -70.680609342810854, -34.080675226817377 ], [ -70.679933572561978, -34.081304757896341 ], [ -70.678875272715644, -34.082893840381786 ], [ -70.676803851095244, -34.085451223853795 ], [ -70.676468874715695, -34.086032204374376 ], [ -70.67619390579712, -34.086509317205021 ], [ -70.675318864065375, -34.088668510452656 ], [ -70.675107355731726, -34.089577928298851 ], [ -70.675546370495908, -34.097302144795194 ], [ -70.6755623560164, -34.098113092366525 ], [ -70.676167721703209, -34.099727238450747 ], [ -70.676821989877467, -34.100911233272321 ], [ -70.678290471262315, -34.102656590809111 ], [ -70.680228201110538, -34.10492057832019 ], [ -70.68094264383241, -34.105536700440403 ], [ -70.681862272544961, -34.10632965979913 ], [ -70.682913419106683, -34.107269582839351 ], [ -70.683036629336115, -34.10769737267762 ], [ -70.682810996791247, -34.107891344375901 ], [ -70.682353114711148, -34.107945337553851 ], [ -70.68178344807373, -34.108144020578578 ], [ -70.681499513070293, -34.108291068758987 ], [ -70.681162941282793, -34.108677361509095 ], [ -70.681026060491376, -34.109299741935104 ], [ -70.683385299633869, -34.117665817256416 ], [ -70.689347494531361, -34.138091644468822 ], [ -70.689361725642101, -34.138079112366427 ], [ -70.692054754489632, -34.133975216928313 ], [ -70.69229876476858, -34.133435340475948 ], [ -70.6921843679104, -34.132233142352561 ], [ -70.693123113670509, -34.13098030152279 ], [ -70.69325255641138, -34.129738617654787 ], [ -70.693634229914352, -34.128980402575934 ], [ -70.695083858356313, -34.127607847135543 ], [ -70.695745990382576, -34.127030573448565 ], [ -70.696606389575166, -34.127018760275448 ], [ -70.69767952060684, -34.126886694449702 ], [ -70.698102729513622, -34.126524643792187 ], [ -70.698446704317362, -34.125802983632596 ], [ -70.699161418330462, -34.125671356882329 ], [ -70.700671895056516, -34.125889409286188 ], [ -70.701888416970476, -34.125755394865635 ], [ -70.702809880042835, -34.125206031383058 ], [ -70.704116769779432, -34.123821832318065 ], [ -70.704483944473694, -34.122856360404612 ], [ -70.705046714744697, -34.12231203499406 ], [ -70.706614486019561, -34.121812317215351 ], [ -70.708897901962175, -34.121244044039329 ], [ -70.709259040876063, -34.120431920800897 ], [ -70.709816231710832, -34.119211378322319 ], [ -70.709610905582977, -34.117473950347573 ], [ -70.710739336903529, -34.116628681546906 ], [ -70.711736434529556, -34.116195428908291 ], [ -70.711793822503168, -34.115477727186949 ], [ -70.710920293534357, -34.114831653138083 ], [ -70.710617295382292, -34.114105528942467 ], [ -70.71124023391269, -34.112920111522698 ], [ -70.711551981655631, -34.110589251884946 ], [ -70.713040671541108, -34.109734434140456 ], [ -70.714243570503783, -34.108942167914869 ], [ -70.714870642182802, -34.108036122208908 ], [ -70.714850265697208, -34.1070265391782 ], [ -70.714979091295476, -34.106307838085925 ], [ -70.715477318511617, -34.106120563700586 ], [ -70.715980366985889, -34.106172114609272 ], [ -70.716771272508097, -34.106282870819939 ], [ -70.719419978479536, -34.106065423896979 ], [ -70.72092666970498, -34.106102897575504 ], [ -70.721235342514717, -34.106080546957891 ], [ -70.721928857185404, -34.106030270133559 ], [ -70.723426959618422, -34.10565305762524 ], [ -70.728904920356968, -34.105332585181458 ], [ -70.730745941174973, -34.105906247045624 ], [ -70.733780944278138, -34.107058266597818 ], [ -70.737238881403584, -34.107843525367059 ], [ -70.73969210678267, -34.108584271068665 ], [ -70.741234137731382, -34.108463209757168 ], [ -70.742773526734865, -34.108481925613411 ], [ -70.744346722935745, -34.109009689782354 ], [ -70.746393051915305, -34.110157261725838 ], [ -70.747836525100965, -34.110614654470652 ], [ -70.748771639870697, -34.110371461253159 ], [ -70.750358557837544, -34.109997161371453 ], [ -70.750518939455091, -34.109962446579516 ], [ -70.752189501354692, -34.109601261358534 ], [ -70.755569422492655, -34.10959812039728 ], [ -70.759758047473568, -34.110466915650576 ], [ -70.762367312912446, -34.110077879864463 ], [ -70.764434813386615, -34.11011127218535 ], [ -70.767033635011998, -34.109623082222249 ], [ -70.769477192721993, -34.10988543716914 ], [ -70.77071063709927, -34.11058455053891 ], [ -70.772085303825733, -34.11116430910166 ], [ -70.773223999296732, -34.11090898073487 ], [ -70.775841337895059, -34.112480674203297 ], [ -70.777931762476967, -34.112987003237876 ], [ -70.781800317722158, -34.112809117821385 ], [ -70.783252995046197, -34.113258422156825 ], [ -70.784638201705889, -34.113564499239722 ], [ -70.783475184348589, -34.112817895518816 ], [ -70.783359016910978, -34.112707672205815 ], [ -70.782831369869285, -34.112206973188982 ], [ -70.78247624158297, -34.111687220631282 ], [ -70.782416707534139, -34.111524836116949 ], [ -70.782354531540051, -34.11135502931581 ], [ -70.782289172814927, -34.110974225862151 ], [ -70.782222812468277, -34.110545719984053 ], [ -70.782212807032622, -34.110068749335355 ], [ -70.782029746547408, -34.109546572319978 ], [ -70.781964390517217, -34.109165768906799 ], [ -70.781945382165816, -34.108259458576192 ], [ -70.782229132116285, -34.108112184229334 ], [ -70.782351138603232, -34.108094752813336 ], [ -70.782972684744948, -34.108005951906136 ], [ -70.783488748909377, -34.107998457489117 ], [ -70.78428964818913, -34.107891385284354 ], [ -70.784973752108911, -34.107690566984317 ], [ -70.785312840077523, -34.107447043297981 ], [ -70.785707181622641, -34.107107277612961 ], [ -70.786044261856588, -34.106768415767739 ], [ -70.786546364404856, -34.106093121737857 ], [ -70.786628172181153, -34.105785747196329 ], [ -70.786865379518446, -34.104895581636008 ], [ -70.787137986766155, -34.104223623576722 ], [ -70.787242735718152, -34.103744835820059 ], [ -70.787289962847595, -34.103267033161131 ], [ -70.787512326423141, -34.102929764103372 ], [ -70.787675335612903, -34.102497994432369 ], [ -70.787779994733413, -34.102019356093386 ], [ -70.78788556564389, -34.101588348681474 ], [ -70.787989216854641, -34.10106193144955 ], [ -70.788635936485576, -34.1003999611955 ], [ -70.788887577952835, -34.100142263140157 ], [ -70.789563662612096, -34.099559860487091 ], [ -70.790072728900455, -34.099218408027944 ], [ -70.790700498570445, -34.099066099070221 ], [ -70.791445881067347, -34.099055155291389 ], [ -70.791844338693068, -34.099027329433014 ], [ -70.792304947160062, -34.098994975640522 ], [ -70.792615810960768, -34.09899043878896 ], [ -70.792820952933994, -34.098987443975794 ], [ -70.793563404228109, -34.098833446762498 ], [ -70.794074462979765, -34.09858738850486 ], [ -70.794529093158545, -34.098389869517199 ], [ -70.795095474656961, -34.098047560598971 ], [ -70.795489825185228, -34.097707838252703 ], [ -70.795997846732917, -34.097318658251616 ], [ -70.796276408014307, -34.096932908008078 ], [ -70.796497710679489, -34.096547919237068 ], [ -70.79654799567416, -34.096213151890673 ], [ -70.796706914834445, -34.095590554690908 ], [ -70.796752068652196, -34.095017342137055 ], [ -70.796741066086597, -34.094492595018799 ], [ -70.797016678198915, -34.09396372858064 ], [ -70.797406965647141, -34.093433110633157 ], [ -70.797654645544014, -34.093158241048471 ], [ -70.797799178185031, -34.092997973879342 ], [ -70.798020463782237, -34.092612909184041 ], [ -70.798410741349002, -34.092082361625259 ], [ -70.798859270170354, -34.091598604889825 ], [ -70.799823841596577, -34.091107358404081 ], [ -70.800224200057443, -34.091053771831369 ], [ -70.800790420757437, -34.090711439938957 ], [ -70.802540504220914, -34.089397432982445 ], [ -70.80339044432867, -34.088907842418479 ], [ -70.803952591168851, -34.088374753329667 ], [ -70.804230161608487, -34.087941132814436 ], [ -70.804225101398501, -34.087702687156764 ], [ -70.803984625091886, -34.087181311013865 ], [ -70.803799464345516, -34.086563759252229 ], [ -70.803794405932152, -34.086325312691365 ], [ -70.803785297015182, -34.085895903784554 ], [ -70.803830489460481, -34.085322687334376 ], [ -70.803883775726518, -34.085131028305895 ], [ -70.803927956668815, -34.084510107659042 ], [ -70.803972134017855, -34.083889114010852 ], [ -70.803906795953978, -34.083508395276993 ], [ -70.803758762578312, -34.083092179712715 ], [ -70.803488179234947, -34.082703395290196 ], [ -70.80348210931858, -34.082417170699358 ], [ -70.803416772153028, -34.082036378386086 ], [ -70.803406658021231, -34.08155941222067 ], [ -70.803443629983391, -34.081033813848173 ], [ -70.803442422647635, -34.080545635453689 ], [ -70.803432545671086, -34.080079819175268 ], [ -70.8033692342065, -34.07979443540701 ], [ -70.803014128378052, -34.079274812637593 ], [ -70.802659026142877, -34.078755190400223 ], [ -70.80265093861037, -34.078373557214121 ], [ -70.802639817467153, -34.077848812588648 ], [ -70.802638783506254, -34.077301536849319 ], [ -70.802678949877574, -34.076989296497892 ], [ -70.802896134665488, -34.076413629815967 ], [ -70.803002700909332, -34.0760302404911 ], [ -70.803107245943778, -34.075551590143256 ], [ -70.80309612390225, -34.07502684514818 ], [ -70.803087947436538, -34.074645286684884 ], [ -70.80302059894305, -34.074169085483632 ], [ -70.803235661910279, -34.073497937132835 ], [ -70.803396517838308, -34.072970668089077 ], [ -70.80343254297614, -34.072852762154888 ], [ -70.803557372868013, -34.07244347091769 ], [ -70.803479824902809, -34.071490304414077 ], [ -70.803407421589242, -34.07077565615085 ], [ -70.803165992170094, -34.070206571406537 ], [ -70.803042157611557, -34.06977891801322 ], [ -70.802630872941876, -34.069307837340254 ], [ -70.802450818219583, -34.068928725868943 ], [ -70.802388442799526, -34.06869104671447 ], [ -70.802381368566643, -34.068357116511081 ], [ -70.80230889159121, -34.067642469351611 ], [ -70.802126822846049, -34.067168022925912 ], [ -70.801944755897537, -34.066693576820178 ], [ -70.801762776983921, -34.066218981459073 ], [ -70.801457992981057, -34.0653645818116 ], [ -70.801014347401576, -34.063367032010071 ], [ -70.801172172413857, -34.062696652412825 ], [ -70.801278646131195, -34.062313412360673 ], [ -70.801557252328365, -34.06192764999124 ], [ -70.801720119584317, -34.061495789538583 ], [ -70.80165362449037, -34.061067292907801 ], [ -70.801701855936287, -34.060637188115962 ], [ -70.801692856613769, -34.060207848420667 ], [ -70.801913959852968, -34.059822927101564 ], [ -70.802134138725734, -34.059390226867158 ], [ -70.802148403074128, -34.059263332729863 ], [ -70.802182365680082, -34.058960048073097 ], [ -70.802168227095805, -34.058292261476183 ], [ -70.802156195959213, -34.057719808600567 ], [ -70.802147019668595, -34.057290544923355 ], [ -70.802306846127323, -34.056715571985592 ], [ -70.80275324594146, -34.056136469055645 ], [ -70.803205611467391, -34.055843517502346 ], [ -70.803599739213453, -34.05550377245396 ], [ -70.803993862467948, -34.055163880170269 ], [ -70.803982744019663, -34.054639207622323 ], [ -70.803913211721735, -34.054067599374505 ], [ -70.80372721194891, -34.053402335261467 ], [ -70.803661814596225, -34.053021542772498 ], [ -70.803648678531815, -34.052401460008582 ], [ -70.803745024642666, -34.051541176668572 ], [ -70.803908875553873, -34.0511570920198 ], [ -70.804241713044732, -34.050627295522389 ], [ -70.804515126081242, -34.050003006335032 ], [ -70.804563247932691, -34.049572753106652 ], [ -70.804438519550445, -34.049097467914287 ], [ -70.804390737262153, -34.048932334448068 ], [ -70.804286712352251, -34.048713658754266 ], [ -70.804140368707635, -34.048193925005016 ], [ -70.804110814134773, -34.048089022023248 ], [ -70.803786721743208, -34.047347115855715 ], [ -70.803600858514301, -34.046733483611533 ], [ -70.803525138620685, -34.046078640667659 ], [ -70.803605609703837, -34.04554161618168 ], [ -70.803906358474435, -34.044922171695369 ], [ -70.804218572443006, -34.044617903809659 ], [ -70.804753213767512, -34.044186417409641 ], [ -70.805226097712861, -34.043910146430868 ], [ -70.805820326086788, -34.043368159729063 ], [ -70.806214547257639, -34.0430442880279 ], [ -70.806970378957914, -34.042507824185869 ], [ -70.80761185242757, -34.042102382159712 ], [ -70.808418386839108, -34.041635191080239 ], [ -70.809110386950238, -34.041298950928919 ], [ -70.809875523400237, -34.04112259047924 ], [ -70.81052539342285, -34.04104240100542 ], [ -70.811017287516236, -34.040981673955599 ], [ -70.811673408914928, -34.040824193277594 ], [ -70.812439654784271, -34.040625344100974 ], [ -70.813128272738368, -34.04035649939798 ], [ -70.813678822328242, -34.040150408492963 ], [ -70.814330542880356, -34.040082655294199 ], [ -70.815112760795458, -34.040109296847852 ], [ -70.815813995587717, -34.04013321394379 ], [ -70.816411816324461, -34.040063661551116 ], [ -70.816884636489419, -34.039787347366513 ], [ -70.817308027754166, -34.039419428276915 ], [ -70.817742417991283, -34.038826932384552 ], [ -70.81806117977996, -34.038388017926273 ], [ -70.818168547321036, -34.037851843237405 ], [ -70.818193992999767, -34.037335421048894 ], [ -70.818140694157321, -34.036771337563692 ], [ -70.818006506515133, -34.036204460242978 ], [ -70.817847492133424, -34.035538596668452 ], [ -70.817716229405804, -34.035470510005169 ], [ -70.81740578601665, -34.035296560548332 ], [ -70.817064816975844, -34.035064187922785 ], [ -70.816735993157664, -34.034818781895645 ], [ -70.816417552067549, -34.034569157940616 ], [ -70.816122516582155, -34.034297765936792 ], [ -70.815854536556486, -34.034009352217268 ], [ -70.815607666939997, -34.033708144291637 ], [ -70.815379603553978, -34.033394098101489 ], [ -70.815166714509743, -34.033075913856862 ], [ -70.814963583864426, -34.032749237224039 ], [ -70.814763913529589, -34.032422583155828 ], [ -70.814576581555187, -34.032091832579489 ], [ -70.814388990865993, -34.031765590643509 ], [ -70.814178154472174, -34.031447595340211 ], [ -70.814001826859993, -34.031112690574922 ], [ -70.813859140256895, -34.030769978004571 ], [ -70.81372753616948, -34.030418605115969 ], [ -70.813593102388865, -34.03007170729073 ], [ -70.813442957972285, -34.029728659968114 ], [ -70.813318648204955, -34.02938212858389 ], [ -70.813243229246964, -34.029019142720379 ], [ -70.813181931805246, -34.028656759826546 ], [ -70.8131041233286, -34.028298167811748 ], [ -70.813018156352527, -34.027943831287153 ], [ -70.81293182196552, -34.027580562318626 ], [ -70.812861111077922, -34.027217728071008 ], [ -70.812788983547151, -34.026854913862543 ], [ -70.812578075288087, -34.0265368428282 ], [ -70.812270918834585, -34.026265102015032 ], [ -70.811868665826765, -34.026152323310171 ], [ -70.811433530886276, -34.02607437852361 ], [ -70.811007016179275, -34.02600132732379 ], [ -70.810568161315203, -34.025986295684056 ], [ -70.810129309146078, -34.025971335514598 ], [ -70.809691425360853, -34.025951928387208 ], [ -70.809255194475725, -34.025909964842434 ], [ -70.808827608078587, -34.025832268499784 ], [ -70.808417431031657, -34.025701128818234 ], [ -70.807989097236188, -34.025596477953236 ], [ -70.807655671348812, -34.025377853769811 ], [ -70.807619129679679, -34.02522356192258 ], [ -70.807571684259642, -34.025023631618986 ], [ -70.807617918750694, -34.024660330047432 ], [ -70.807776042901949, -34.024318799034155 ], [ -70.807958153867915, -34.023987182998873 ], [ -70.808170987216599, -34.023661171975995 ], [ -70.808391295446768, -34.023348790600203 ], [ -70.80853839367623, -34.022997966229958 ], [ -70.808615525721464, -34.022640192375825 ], [ -70.808614614829779, -34.022275293982723 ], [ -70.808574292151633, -34.021913559825968 ], [ -70.808509555060667, -34.021550929925176 ], [ -70.808405326233199, -34.021195971820504 ], [ -70.808272260586804, -34.020849120427854 ], [ -70.808123488795957, -34.020506119212747 ], [ -70.807935760664506, -34.020170930026993 ], [ -70.807727189821847, -34.019848455911017 ], [ -70.807508603662086, -34.019534698691437 ], [ -70.807279016733332, -34.019225017569497 ], [ -70.807008540289488, -34.018936472203556 ], [ -70.80674348158513, -34.018648141783117 ], [ -70.806514781293572, -34.018334013795211 ], [ -70.806290257269779, -34.018020045473918 ], [ -70.806078235998115, -34.017697472347606 ], [ -70.805882632336562, -34.017370889895666 ], [ -70.805725279838128, -34.017036727773842 ], [ -70.805650166307345, -34.016669225283529 ], [ -70.805624595762779, -34.016307937818731 ], [ -70.805616332160483, -34.01594285137012 ], [ -70.80561809645171, -34.015577986731607 ], [ -70.805624027129213, -34.015208776506753 ], [ -70.805628545655097, -34.014844092631229 ], [ -70.805624895800079, -34.014479085517507 ], [ -70.805613700995025, -34.014113820687584 ], [ -70.805634914710438, -34.01375420964871 ], [ -70.805668281733361, -34.013390431684137 ], [ -70.805708572072177, -34.01302684799667 ], [ -70.805751439677522, -34.012663521882097 ], [ -70.805797056127645, -34.012300154747429 ], [ -70.805839470083782, -34.011932181995057 ], [ -70.805893704072432, -34.011573711433066 ], [ -70.806000488606912, -34.011216981067783 ], [ -70.806169968361672, -34.010880455803758 ], [ -70.806364578486495, -34.01055368107194 ], [ -70.806588578792471, -34.010232532383149 ], [ -70.806817197337352, -34.009915968780284 ], [ -70.807001597210672, -34.009588899922015 ], [ -70.807051741169815, -34.009230193836338 ], [ -70.806966704848392, -34.008871479533433 ], [ -70.806828422685129, -34.008519900560159 ], [ -70.806662555954446, -34.008180914657885 ], [ -70.806488802015565, -34.007850540236241 ], [ -70.806283903485777, -34.007523724057471 ], [ -70.806014713429434, -34.007235304983396 ], [ -70.805703585524029, -34.006976899099143 ], [ -70.805398043343061, -34.006714127869472 ], [ -70.80508975501229, -34.006451395294818 ], [ -70.80472652661706, -34.006249745986302 ], [ -70.804313789371548, -34.006118553710486 ], [ -70.80397007418091, -34.005904131514114 ], [ -70.803648666853732, -34.005649860553028 ], [ -70.803267543119716, -34.005465680496442 ], [ -70.802925851833407, -34.005237706996382 ], [ -70.802596477347961, -34.004992267593032 ], [ -70.802278191666375, -34.00474260133327 ], [ -70.801980295945114, -34.004475644690608 ], [ -70.801720005498282, -34.00418745505818 ], [ -70.801548264683959, -34.004064466952101 ], [ -70.80143742695094, -34.003952553883749 ], [ -70.801323552912251, -34.003890103111885 ], [ -70.801230197292995, -34.003837398973722 ], [ -70.800859539830341, -34.003703067020176 ], [ -70.80061740882698, -34.003636214857003 ], [ -70.800302590642403, -34.003508303443773 ], [ -70.800038106859816, -34.003386671211182 ], [ -70.799788947437676, -34.003243022239552 ], [ -70.799551049295928, -34.003090788008272 ], [ -70.799317833173447, -34.002925039970776 ], [ -70.799084620644209, -34.00275943906297 ], [ -70.798846014630016, -34.002607139919498 ], [ -70.798600040633858, -34.002454503891521 ], [ -70.798349293888606, -34.002315308239481 ], [ -70.798095885435174, -34.002176002885804 ], [ -70.79783884509304, -34.002041108275755 ], [ -70.797711486443617, -34.00197818618021 ], [ -70.795982025604118, -34.001581145349455 ], [ -70.794923196650103, -34.000855695408603 ], [ -70.7932817392674, -33.999938989367315 ], [ -70.79304261672192, -33.999385722704545 ], [ -70.793077372540253, -33.997490467422608 ], [ -70.793366930997379, -33.996962511997339 ], [ -70.792911736676601, -33.997112306943528 ], [ -70.792401357949615, -33.997358344817044 ], [ -70.791948164176986, -33.99760354710417 ], [ -70.791554245738368, -33.997943323703602 ], [ -70.79098958451371, -33.998333231177185 ], [ -70.790420826971356, -33.998532390963291 ], [ -70.789852155667262, -33.998731546558744 ], [ -70.789226115254195, -33.998931534313868 ], [ -70.788601071971073, -33.999179224719377 ], [ -70.787691726273565, -33.999526410405757 ], [ -70.78695611475203, -33.999966503695582 ], [ -70.78610403485726, -34.000312993561273 ], [ -70.785593614807794, -34.000558929817977 ], [ -70.785310221488473, -34.00070620346618 ], [ -70.785028821530773, -34.000948887098488 ], [ -70.7847504147596, -34.001334684786833 ], [ -70.784654401025421, -34.001434102593443 ], [ -70.784470009236927, -34.001624997622557 ], [ -70.784078127279059, -34.002060160425572 ], [ -70.783626876562394, -34.002400669872976 ], [ -70.783401748870716, -34.002594814152815 ], [ -70.782837020272424, -34.002984759107811 ], [ -70.782496334200914, -34.003132856667072 ], [ -70.78226730512597, -34.00313625030892 ], [ -70.782081279301991, -34.003138946157733 ], [ -70.781866345692166, -34.003141986806959 ], [ -70.781408106980905, -34.003148625892557 ], [ -70.780895576788808, -34.003299208257417 ], [ -70.780611259103054, -34.003398764514252 ], [ -70.779539857328317, -34.004225434025777 ], [ -70.779389221533265, -34.004487635070362 ], [ -70.779263492427788, -34.004706556572089 ], [ -70.778811215835063, -34.00499949111822 ], [ -70.778300747276546, -34.005245398911448 ], [ -70.777734805054294, -34.005587619541906 ], [ -70.777165148298323, -34.005738938545825 ] ] ] } },
{ "type": "Feature", "properties": { "capa": "ds19", "popup": "<strong>DOÑA CATALINA ETAPA A</strong><br><br><strong>Programa:</strong> DS19<br><strong>Comuna:</strong> Graneros<br><strong>Región:</strong> O'Higgins<br><strong>Año de inicio:</strong> 2020", "etiqueta": "DOÑA CATALINA ETAPA A" }, "geometry": { "type": "Polygon", "coordinates": [ [ [ -70.736189925832846, -34.082871749246316 ], [ -70.735834819106088, -34.081838916012579 ], [ -70.733407665531487, -34.082400288281164 ], [ -70.733130150787403, -34.081519633112045 ], [ -70.732671109880599, -34.0816841993827 ], [ -70.73293700581479, -34.082546303863381 ], [ -70.73324367448312, -34.083526913539131 ], [ -70.736189925832846, -34.082871749246316 ] ] ] } },
{ "type": "Feature", "properties": { "capa": "ds19", "popup": "<strong>SAN BENITO 2</strong><br><br><strong>Programa:</strong> DS19<br><strong>Comuna:</strong> Graneros<br><strong>Región:</strong> O'Higgins<br><strong>Año de inicio:</strong> 2021", "etiqueta": "SAN BENITO 2" }, "geometry": { "type": "Polygon", "coordinates": [ [ [ -70.721090976960326, -34.074931780112152 ], [ -70.720744904590404, -34.074842091694023 ], [ -70.720861907461199, -34.075306281210196 ], [ -70.720536959873485, -34.075345492531014 ], [ -70.720624373137142, -34.075706457862182 ], [ -70.720941070597306, -34.075660500197621 ], [ -70.721548156557901, -34.078050695006915 ], [ -70.725294054935873, -34.077965540429403 ], [ -70.724950611036448, -34.076552391410964 ], [ -70.725358665364368, -34.076650667498434 ], [ -70.725524753080606, -34.076131287353306 ], [ -70.724766963951339, -34.07597507959634 ], [ -70.724339827610166, -34.07722213160995 ], [ -70.721636589409414, -34.076664039823378 ], [ -70.721090976960326, -34.074931780112152 ] ] ] } },
{ "type": "Feature", "properties": { "capa": "ds19", "popup": "<strong>SAN BENITO</strong><br><br><strong>Programa:</strong> DS19<br><strong>Comuna:</strong> Graneros<br><strong>Región:</strong> O'Higgins<br><strong>Año de inicio:</strong> 2019", "etiqueta": "SAN BENITO" }, "geometry": { "type": "Polygon", "coordinates": [ [ [ -70.725474914548641, -34.075905686821251 ], [ -70.721008128934955, -34.074870344419125 ], [ -70.721549706151762, -34.076708197796869 ], [ -70.724401765550681, -34.077345449695223 ], [ -70.724779198107186, -34.076081490521041 ], [ -70.725350114301165, -34.076249344234277 ], [ -70.725474914548641, -34.075905686821251 ] ] ] } },
{ "type": "Feature", "properties": { "capa": "ds19", "popup": "<strong>CONDOMINIO LOS QUILLAYES</strong><br><br><strong>Programa:</strong> DS19<br><strong>Comuna:</strong> Graneros<br><strong>Región:</strong> Libertador General Bernardo O'Higgins<br><strong>Año de inicio:</strong> 2023", "etiqueta": "CONDOMINIO LOS QUILLAYES" }, "geometry": { "type": "Polygon", "coordinates": [ [ [ -70.733415786301677, -34.067698878391191 ], [ -70.73559223894506, -34.06707000670734 ], [ -70.735255481206309, -34.066244788043186 ], [ -70.733547356253126, -34.066683946749997 ], [ -70.733437346766792, -34.06633851962777 ], [ -70.731886313800601, -34.066672663916961 ], [ -70.731925300683926, -34.066811270313515 ], [ -70.733010613769181, -34.066571478522079 ], [ -70.733415786301677, -34.067698878391191 ] ] ] } },
{ "type": "Feature", "properties": { "capa": "colegios", "popup": "<strong>ESCUELA MUNICIPAL DE TUNICHE</strong><br><br><strong>Dirección:</strong> LONGITUDINAL ANTIGUO 0", "etiqueta": "" }, "geometry": { "type": "Point", "coordinates": [ -70.750481, -34.109001 ] } },
{ "type": "Feature", "properties": { "capa": "colegios", "popup": "<strong>ESCUELA MUNICIPAL VILLA LA COMPANIA</strong><br><br><strong>Dirección:</strong> PASAJE CARLOS RUBIO 68", "etiqueta": "" }, "geometry": { "type": "Point", "coordinates": [ -70.683067, -34.078739 ] } },
{ "type": "Feature", "properties": { "capa": "colegios", "popup": "<strong>COLEGIO ANTONIO TRDAN ARKO</strong><br><br><strong>Dirección:</strong> CALLE CAUPOLICAN 240", "etiqueta": "" }, "geometry": { "type": "Point", "coordinates": [ -70.732307, -34.076569 ] } },
{ "type": "Feature", "properties": { "capa": "colegios", "popup": "<strong>LICEO INTEGRADO DE ADULTOS</strong><br><br><strong>Dirección:</strong> LUIS BARROS BORGOÑO SUR 725", "etiqueta": "" }, "geometry": { "type": "Point", "coordinates": [ -70.72828, -34.07638 ] } },
{ "type": "Feature", "properties": { "capa": "colegios", "popup": "<strong>COLEGIO PARTICULAR SAN MARTIN</strong><br><br><strong>Dirección:</strong> BARROS BORGOÑO 639", "etiqueta": "" }, "geometry": { "type": "Point", "coordinates": [ -70.728104, -34.075298 ] } },
{ "type": "Feature", "properties": { "capa": "colegios", "popup": "<strong>COLEGIO MARÍA ESCOBILLANA GUZMÁN</strong><br><br><strong>Dirección:</strong> LOS PIMIENTOS 675", "etiqueta": "" }, "geometry": { "type": "Point", "coordinates": [ -70.737183, -34.07468 ] } },
{ "type": "Feature", "properties": { "capa": "colegios", "popup": "<strong>INSTITUTO SANTA TERESA DE LOS ANDES</strong><br><br><strong>Dirección:</strong> AVENIDA ESTADIO 166", "etiqueta": "" }, "geometry": { "type": "Point", "coordinates": [ -70.729752, -34.073631 ] } },
{ "type": "Feature", "properties": { "capa": "colegios", "popup": "<strong>ESCUELA ESPECIAL TEMAIKEN</strong><br><br><strong>Dirección:</strong> MIRAFLORES 68", "etiqueta": "" }, "geometry": { "type": "Point", "coordinates": [ -70.72217, -34.07248 ] } },
{ "type": "Feature", "properties": { "capa": "colegios", "popup": "<strong>ESCUELA SIXTO MENDEZ PARADA</strong><br><br><strong>Dirección:</strong> GUILLERMO BERRIOS 236", "etiqueta": "" }, "geometry": { "type": "Point", "coordinates": [ -70.724281, -34.071541 ] } },
{ "type": "Feature", "properties": { "capa": "colegios", "popup": "<strong>COLEGIO PARTICULAR NUESTRA SENORA</strong><br><br><strong>Dirección:</strong> CALLE SANTIAGO 184", "etiqueta": "" }, "geometry": { "type": "Point", "coordinates": [ -70.729607, -34.070412 ] } },
{ "type": "Feature", "properties": { "capa": "colegios", "popup": "<strong>LICEO PROFESOR MISAEL LOBOS MONROY</strong><br><br><strong>Dirección:</strong> GUILLERMO BERRIOS 130", "etiqueta": "" }, "geometry": { "type": "Point", "coordinates": [ -70.723663, -34.070389 ] } },
{ "type": "Feature", "properties": { "capa": "colegios", "popup": "<strong>ESCUELA ESPECIAL SAN VALENTIN</strong><br><br><strong>Dirección:</strong> FRANCISCO CORREA 95", "etiqueta": "" }, "geometry": { "type": "Point", "coordinates": [ -70.720955, -34.069893 ] } },
{ "type": "Feature", "properties": { "capa": "colegios", "popup": "<strong>ESCUELA ESPECIAL NUEVO AMANECER</strong><br><br><strong>Dirección:</strong> ARTURO PRAT 111", "etiqueta": "" }, "geometry": { "type": "Point", "coordinates": [ -70.72471, -34.069553 ] } },
{ "type": "Feature", "properties": { "capa": "colegios", "popup": "<strong>COLEGIO SEBASTIAN`S COLLEGE</strong><br><br><strong>Dirección:</strong> CAMINO FUNDO SANTA JULIA 150", "etiqueta": "" }, "geometry": { "type": "Point", "coordinates": [ -70.733887, -34.068069 ] } },
{ "type": "Feature", "properties": { "capa": "colegios", "popup": "<strong>ESC. ESP.DE LENGUAJE SAN FRANCISCO DE ASIS</strong><br><br><strong>Dirección:</strong> CAMINO VECINAL 121", "etiqueta": "" }, "geometry": { "type": "Point", "coordinates": [ -70.735306, -34.067455 ] } },
{ "type": "Feature", "properties": { "capa": "colegios", "popup": "<strong>COLEGIO PARTICULAR SUBV. CHILDREN SCHOOL</strong><br><br><strong>Dirección:</strong> LUIS BARROS BORGOÑO 166", "etiqueta": "" }, "geometry": { "type": "Point", "coordinates": [ -70.725929, -34.065842 ] } },
{ "type": "Feature", "properties": { "capa": "colegios", "popup": "<strong>COLEGIO PARTICULAR GRANEROS</strong><br><br><strong>Dirección:</strong> SANTA ELENA 176", "etiqueta": "" }, "geometry": { "type": "Point", "coordinates": [ -70.726997, -34.065331 ] } },
{ "type": "Feature", "properties": { "capa": "colegios", "popup": "<strong>ESCUELA AGRICOLA CRISTO OBRERO</strong><br><br><strong>Dirección:</strong> SANTA ELENA 313", "etiqueta": "" }, "geometry": { "type": "Point", "coordinates": [ -70.728912, -34.064548 ] } },
{ "type": "Feature", "properties": { "capa": "colegios", "popup": "<strong>ESCUELA HERNAN OLGUIN MAYBE</strong><br><br><strong>Dirección:</strong> SANTA LUCIA 155", "etiqueta": "" }, "geometry": { "type": "Point", "coordinates": [ -70.726082, -34.063641 ] } },
{ "type": "Feature", "properties": { "capa": "colegios", "popup": "<strong>COLEGIO PUCARA</strong><br><br><strong>Dirección:</strong> JUAN PABLO I 420", "etiqueta": "" }, "geometry": { "type": "Point", "coordinates": [ -70.719917, -34.06324 ] } },
{ "type": "Feature", "properties": { "capa": "colegios", "popup": "<strong>COLEGIO MUNICIPAL DE CALLEJONES</strong><br><br><strong>Dirección:</strong> CAMINO REAL 8", "etiqueta": "" }, "geometry": { "type": "Point", "coordinates": [ -70.725571, -34.045391 ] } },
{ "type": "Feature", "properties": { "capa": "colegios", "popup": "<strong>COLEGIO ANTUHUE</strong><br><br><strong>Dirección:</strong> LOS ROMEROS 1555", "etiqueta": "" }, "geometry": { "type": "Point", "coordinates": [ -70.73439433999998, -34.03396016 ] } },
{ "type": "Feature", "properties": { "capa": "jardines", "popup": "<strong>NUEVO AMANECER</strong><br><br><strong>Dirección:</strong> CALLE GABRIELA MISTRAL S/N, POB. CAPRICORNIO ", "etiqueta": "" }, "geometry": { "type": "MultiPoint", "coordinates": [ [ -70.731894, -34.080524 ] ] } },
{ "type": "Feature", "properties": { "capa": "jardines", "popup": "<strong>LOS CARACOLITOS</strong><br><br><strong>Dirección:</strong> PJE. CARLOS RUBIO N 68,ES.F-52,LA COMPANIA ", "etiqueta": "" }, "geometry": { "type": "MultiPoint", "coordinates": [ [ -70.68326, -34.078841 ] ] } },
{ "type": "Feature", "properties": { "capa": "jardines", "popup": "<strong>LOS PITUFOS</strong><br><br><strong>Dirección:</strong> CAMINO REAL 060 ESQUINA VALPARAISO ", "etiqueta": "" }, "geometry": { "type": "MultiPoint", "coordinates": [ [ -70.731641, -34.067827 ] ] } },
{ "type": "Feature", "properties": { "capa": "jardines", "popup": "<strong>SAGRADA FAMILIA</strong><br><br><strong>Dirección:</strong> CALLE SAMARIA CON BELEN POBL SAGRADA FAMILIA ", "etiqueta": "" }, "geometry": { "type": "MultiPoint", "coordinates": [ [ -70.736328, -34.071242 ] ] } },
{ "type": "Feature", "properties": { "capa": "jardines", "popup": "<strong>SALA CUNA RAYITO DE LUNA</strong><br><br><strong>Dirección:</strong> PASAJE CARLOS RUBIO N 68 LA COMPAÑIA ", "etiqueta": "" }, "geometry": { "type": "MultiPoint", "coordinates": [ [ -70.68329, -34.078961 ] ] } },
{ "type": "Feature", "properties": { "capa": "jardines", "popup": "<strong>SALA CUNA DULCES SUENOS</strong><br><br><strong>Dirección:</strong> CALLE LUIS BARROS BORGOÑO SUR N 0731 ", "etiqueta": "" }, "geometry": { "type": "MultiPoint", "coordinates": [ [ -70.728469, -34.076813 ] ] } },
{ "type": "Feature", "properties": { "capa": "jardines", "popup": "<strong>NA</strong><br><br><strong>Dirección:</strong> NA ", "etiqueta": "" }, "geometry": { "type": "MultiPoint", "coordinates": [ [ -70.728657999954194, -34.063528000177499 ] ] } },
{ "type": "Feature", "properties": { "capa": "jardines", "popup": "<strong>NA</strong><br><br><strong>Dirección:</strong> NA ", "etiqueta": "" }, "geometry": { "type": "MultiPoint", "coordinates": [ [ -70.73758899963849, -34.073752999866208 ] ] } },
{ "type": "Feature", "properties": { "capa": "bomberos", "popup": "<strong>Cuerpo de Bomberos</strong><br><br><strong>Dirección:</strong> La Compañia 157", "etiqueta": "" }, "geometry": { "type": "Point", "coordinates": [ -70.684025543817086, -34.080059531768534 ] } },
{ "type": "Feature", "properties": { "capa": "comisarias", "popup": "<strong>2DA. COM. GRANEROS</strong><br><br><strong>Dirección:</strong> BERNARDO O'HIGGINS 218", "etiqueta": "" }, "geometry": { "type": "Point", "coordinates": [ -70.723620227235727, -34.069822686811165 ] } },
{ "type": "Feature", "properties": { "capa": "salud", "popup": "<strong>Centro Comunitario de Salud Familiar Tuncahue</strong><br><br><strong>Tipo de atención:</strong> Centro Comunitario de Salud Familiar (CECOSF)<br><strong>Dirección:</strong>  1015", "etiqueta": "" }, "geometry": { "type": "Point", "coordinates": [ -70.68419, -34.12028 ] } },
{ "type": "Feature", "properties": { "capa": "salud", "popup": "<strong>Hospital Santa Filomena de Graneros</strong><br><br><strong>Tipo de atención:</strong> Hospital<br><strong>Dirección:</strong>  550", "etiqueta": "" }, "geometry": { "type": "Point", "coordinates": [ -70.730862, -34.06706 ] } },
{ "type": "Feature", "properties": { "capa": "salud", "popup": "<strong>CECOSF Graneros</strong><br><br><strong>Tipo de atención:</strong> Centro Comunitario de Salud Familiar (CECOSF)<br><strong>Dirección:</strong>  125", "etiqueta": "" }, "geometry": { "type": "Point", "coordinates": [ -70.725686, -34.063548 ] } },
{ "type": "Feature", "properties": { "capa": "municipios", "popup": "<strong>Municipalidad de Graneros</strong><br><br><strong>Dirección:</strong> Luis Barros Borgoño s/n<br><strong>Región:</strong> Libertador General Bernardo O'Higgins", "etiqueta": "" }, "geometry": { "type": "Point", "coordinates": [ -70.725979, -34.064606000999952 ] } }
]
}
