{
"type": "FeatureCollection",
"name": "6113",
"crs": { "type": "name", "properties": { "name": "urn:ogc:def:crs:OGC:1.3:CRS84" } },
"features": [
{ "type": "Feature", "properties": { "capa": "comuna", "popup": "", "etiqueta": "" }, "geometry": { "type": "Polygon", "coordinates": [ [ [ -71.442172436532104, -34.255089536219003 ], [ -71.440213169574946, -34.260853385474569 ], [ -71.439315461551956, -34.263590609583076 ], [ -71.438502671272772, -34.267280198183961 ], [ -71.437578695612558, -34.269111509372934 ], [ -71.437158463722668, -34.271102733921481 ], [ -71.436945999581567, -34.271601198762148 ], [ -71.436669914955402, -34.271988375171183 ], [ -71.436626241561214, -34.272466347667333 ], [ -71.436416043869585, -34.272837071399003 ], [ -71.436366828768413, -34.272928892451638 ], [ -71.435965882809342, -34.273481253072006 ], [ -71.435689698470185, -34.273868428246885 ], [ -71.435274904981014, -34.274295730928173 ], [ -71.435075843703927, -34.274500795388093 ], [ -71.434624584902423, -34.274796028925991 ], [ -71.434344353652918, -34.275040149935478 ], [ -71.433722056519628, -34.275386489922219 ], [ -71.433326940626756, -34.275632892568716 ], [ -71.432758038455631, -34.275834961514882 ], [ -71.432075717691674, -34.276087064514428 ], [ -71.430933779302507, -34.276348213237149 ], [ -71.430072352437222, -34.276365381280044 ], [ -71.429262697278375, -34.276190600819405 ], [ -71.428913938945726, -34.276054385885757 ], [ -71.428334136616954, -34.275875041057965 ], [ -71.42775287991573, -34.275648085465981 ], [ -71.427168880657973, -34.275325686208127 ], [ -71.426134427489146, -34.274566121920678 ], [ -71.425214632588279, -34.273312918969062 ], [ -71.424325755902856, -34.272376378991957 ], [ -71.42417859658795, -34.272202407557181 ], [ -71.423849825770375, -34.271813345091019 ], [ -71.423371162064484, -34.271154942032858 ], [ -71.423133201938995, -34.270873386202283 ], [ -71.42277908964725, -34.270546417245242 ], [ -71.422374296203813, -34.27045900245286 ], [ -71.421567534518502, -34.270379533031225 ], [ -71.420304017240454, -34.270404579455182 ], [ -71.419159378515559, -34.270570249866381 ], [ -71.418460555699838, -34.270709086034117 ], [ -71.417905501957136, -34.270928981815082 ], [ -71.417396759062285, -34.271225287230052 ], [ -71.417173834039687, -34.271468166265258 ], [ -71.41683740059274, -34.271761142584872 ], [ -71.416818765940491, -34.272179162591527 ], [ -71.416606045779531, -34.272477231111985 ], [ -71.416180690797546, -34.273073364240524 ], [ -71.415262741036273, -34.273337260045963 ], [ -71.415083616070305, -34.273388797928973 ], [ -71.414110798109775, -34.273407975325505 ], [ -71.413052655468618, -34.273539019019317 ], [ -71.412391357977285, -34.273625531648378 ], [ -71.411772329813303, -34.273637722185335 ], [ -71.410923779399283, -34.27336055591234 ], [ -71.41033321884666, -34.272821215829374 ], [ -71.409845585462676, -34.272200379478136 ], [ -71.409176319016439, -34.271044188314931 ], [ -71.408314188770277, -34.270289792996607 ], [ -71.407714156381303, -34.269420047974521 ], [ -71.406685678805786, -34.269036268703246 ], [ -71.405620252624303, -34.268910224543852 ], [ -71.404774905602594, -34.26874314406561 ], [ -71.401797600391831, -34.268287373457476 ], [ -71.399494112492519, -34.268185618035034 ], [ -71.398212887623586, -34.268247415016731 ], [ -71.396988357228864, -34.268748936057847 ], [ -71.395731107496573, -34.269170137243336 ], [ -71.394989926420266, -34.269375476259974 ], [ -71.393454079473955, -34.26993024172242 ], [ -71.392823618451359, -34.269990343352447 ], [ -71.391502139176254, -34.270111499674798 ], [ -71.390424781571156, -34.269758669742849 ], [ -71.389667827875101, -34.269589758792854 ], [ -71.388566532862626, -34.269758212446746 ], [ -71.387065181223235, -34.269860965929077 ], [ -71.386011174425647, -34.270138520857472 ], [ -71.384695994137303, -34.270568198734964 ], [ -71.383959775354626, -34.271133496238086 ], [ -71.383220528351103, -34.271588656057112 ], [ -71.382120225977047, -34.271793738997218 ], [ -71.381146366869118, -34.27177589448592 ], [ -71.380260427674656, -34.27163904957024 ], [ -71.379059690956893, -34.271522640538947 ], [ -71.377207596606368, -34.271742279567547 ], [ -71.375851156697024, -34.272282784624387 ], [ -71.375022348558034, -34.272702925123767 ], [ -71.373895364423376, -34.273532834664238 ], [ -71.373297904809377, -34.274315768470856 ], [ -71.37243002893868, -34.274920255975154 ], [ -71.37124014566615, -34.275090271176587 ], [ -71.369947352292996, -34.274748004562802 ], [ -71.368226880894554, -34.274928182448932 ], [ -71.36703904488256, -34.275171530323696 ], [ -71.366206984842222, -34.275481483064524 ], [ -71.365196083703552, -34.27572132117524 ], [ -71.364538906784404, -34.275954396908354 ], [ -71.364169624642457, -34.275987153518294 ], [ -71.364009255601303, -34.276001401392563 ], [ -71.363439521590237, -34.276196077560421 ], [ -71.362035832991893, -34.276646796981609 ], [ -71.361686016443841, -34.276780797411362 ], [ -71.361115155945399, -34.27693877690362 ], [ -71.360588575203948, -34.277095827482896 ], [ -71.35975963680923, -34.277515796955782 ], [ -71.359368712455463, -34.277780421852086 ], [ -71.358982068574008, -34.278191939167876 ], [ -71.358702276600681, -34.279262487290126 ], [ -71.358545924825478, -34.280000149196418 ], [ -71.358259882374384, -34.280850502932317 ], [ -71.357933739129024, -34.281848528402044 ], [ -71.357567493292763, -34.282994224798159 ], [ -71.356881420265864, -34.283778788030013 ], [ -71.356011188114152, -34.284309795249349 ], [ -71.355450598952686, -34.284834767747284 ], [ -71.354663798731309, -34.285180480276736 ], [ -71.353685593574014, -34.285015676633556 ], [ -71.353018070757756, -34.284881529009795 ], [ -71.352225029940087, -34.285006956183516 ], [ -71.351343589508573, -34.285134076934511 ], [ -71.35099586783177, -34.285361141257553 ], [ -71.350920677944188, -34.285840067924099 ], [ -71.350981333988798, -34.286426654905334 ], [ -71.350773454848891, -34.286908127967934 ], [ -71.350798004008979, -34.287789209596994 ], [ -71.350640460169402, -34.288490178832326 ], [ -71.350040720631199, -34.289199487428981 ], [ -71.349838968001549, -34.289901304351062 ], [ -71.34920319254573, -34.290905248075447 ], [ -71.348658870975726, -34.292017557072363 ], [ -71.347879972335591, -34.292656951758623 ], [ -71.347180453325521, -34.292964236525989 ], [ -71.346390390423053, -34.293199765511986 ], [ -71.344989193751289, -34.293740870292922 ], [ -71.34390175435378, -34.294422855507797 ], [ -71.343162078853879, -34.294877788287423 ], [ -71.342109547988315, -34.295228433312779 ], [ -71.34158392305433, -34.295422166959675 ], [ -71.341021135715351, -34.295873704263371 ], [ -71.340639324770137, -34.296468681458123 ], [ -71.340529032314507, -34.297278857120332 ], [ -71.340459890783706, -34.297978124922111 ], [ -71.34047109636856, -34.298381906272326 ], [ -71.340416098811914, -34.299055349286462 ], [ -71.340558094610572, -34.299922962848406 ], [ -71.3408963435527, -34.300944950913689 ], [ -71.341051387380858, -34.301750052832702 ], [ -71.340936000579234, -34.302376716599845 ], [ -71.340685950926655, -34.302932542093508 ], [ -71.340125145271188, -34.303457451663633 ], [ -71.339334873959544, -34.303692942323849 ], [ -71.338582785539046, -34.303707235961234 ], [ -71.337881193217314, -34.303941096353114 ], [ -71.337397498945847, -34.304217766256805 ], [ -71.33697549198493, -34.304803234286311 ], [ -71.336725405501426, -34.305358904215048 ], [ -71.336038962368633, -34.30614343744476 ], [ -71.335123048189786, -34.306638318931178 ], [ -71.334290732129574, -34.306948066568445 ], [ -71.333240134438498, -34.307372163176112 ], [ -71.33227481471566, -34.307684431746488 ], [ -71.331622545292916, -34.308100852837413 ], [ -71.331102726170585, -34.308514747506102 ], [ -71.330141530613204, -34.308973822330032 ], [ -71.329404697382898, -34.309538816243951 ], [ -71.328580352074212, -34.310142176294107 ], [ -71.328201436399183, -34.310847330137676 ], [ -71.327161993987275, -34.311675160846917 ], [ -71.327045391765083, -34.312265056265005 ], [ -71.326896735856934, -34.313296412241243 ], [ -71.326252413829494, -34.314006530102453 ], [ -71.325906619937285, -34.314306903216547 ], [ -71.325930847500501, -34.315188072160431 ], [ -71.325639393598138, -34.315854702051233 ], [ -71.325521851738173, -34.316407906790303 ], [ -71.325142795925927, -34.317113054006235 ], [ -71.324760871793004, -34.317707986826548 ], [ -71.324380879037932, -34.318376368444355 ], [ -71.324045187599395, -34.319043908586444 ], [ -71.32352535500236, -34.319457773789715 ], [ -71.323006048818073, -34.319664901122763 ], [ -71.322487701136211, -34.320359094768847 ], [ -71.321971810346639, -34.320919852902072 ], [ -71.321372713103884, -34.321459144661596 ], [ -71.32075310642486, -34.321677470565803 ], [ -71.320138739618898, -34.321872799124947 ], [ -71.319568499856331, -34.322067288138697 ], [ -71.318770087113265, -34.322008927163196 ], [ -71.317749303608153, -34.321918138314388 ], [ -71.3169075929667, -34.321897292320834 ], [ -71.31611001475855, -34.321875679193951 ], [ -71.315638470201307, -34.32243557326894 ], [ -71.315257376111688, -34.323067242515172 ], [ -71.314933320551035, -34.323584831374475 ], [ -71.314886323390311, -34.323967411903347 ], [ -71.314725768397906, -34.324399779083862 ], [ -71.314566345282742, -34.324879909790141 ], [ -71.313834932486841, -34.325466276804221 ], [ -71.31316577294011, -34.325898358803329 ], [ -71.312512082382582, -34.326278000645516 ], [ -71.311637187076244, -34.326661817448077 ], [ -71.310707813439492, -34.326679365428198 ], [ -71.309866054289031, -34.326658473138238 ], [ -71.309196244362042, -34.326450795540602 ], [ -71.308699387975039, -34.326092877064511 ], [ -71.308117109889338, -34.32584676187993 ], [ -71.307677641475934, -34.32596516916783 ], [ -71.307429315690371, -34.326594311772013 ], [ -71.307186841530552, -34.327443733156777 ], [ -71.306713194915545, -34.327930146235325 ], [ -71.30623141225901, -34.328122834098131 ], [ -71.305347425103648, -34.328176192993858 ], [ -71.304418122433802, -34.328193766621979 ], [ -71.303374124665126, -34.328874512831952 ], [ -71.302516041329312, -34.329882485420093 ], [ -71.302051384155348, -34.330699297002965 ], [ -71.301258822139729, -34.330861103057167 ], [ -71.299839741807318, -34.330777581057056 ], [ -71.298249597091967, -34.330917644859611 ], [ -71.296351608711916, -34.331136952064988 ], [ -71.295427269233997, -34.331337973584503 ], [ -71.29419616945961, -34.331654859088836 ], [ -71.293093915046427, -34.331822417562741 ], [ -71.29226000806986, -34.33209520936547 ], [ -71.290850805612308, -34.332378690513401 ], [ -71.28996675647322, -34.332431942107291 ], [ -71.288905627832051, -34.332488571868154 ], [ -71.288163317573449, -34.332869670470949 ], [ -71.287605974025084, -34.333541333970842 ], [ -71.287146045582773, -34.334541685700508 ], [ -71.286548350610175, -34.335360853816695 ], [ -71.285548346934206, -34.336040777839806 ], [ -71.28458277029317, -34.336352611150076 ], [ -71.283879568190457, -34.336549418765514 ], [ -71.282605111228904, -34.336903781091607 ], [ -71.281691520991671, -34.337508499906427 ], [ -71.281046543194094, -34.33821847594772 ], [ -71.280766592218939, -34.339325646885108 ], [ -71.281081872137577, -34.341156309663226 ], [ -71.281014296370344, -34.341928936635334 ], [ -71.280896341285342, -34.342482037717808 ], [ -71.280287686866259, -34.342897453953377 ], [ -71.279584509916361, -34.343094237310389 ], [ -71.278785730660658, -34.343035626910172 ], [ -71.278073608287173, -34.342901982138642 ], [ -71.277315269388936, -34.34269570580755 ], [ -71.276507562675945, -34.342306733217228 ], [ -71.27584067047701, -34.342208868037957 ], [ -71.275264317678932, -34.342182878039118 ], [ -71.274380152657159, -34.342236093739814 ], [ -71.273854065989127, -34.342429480080263 ], [ -71.272846844349857, -34.342852264802204 ], [ -71.271759162407193, -34.343570341083058 ], [ -71.270359674331132, -34.344220705369928 ], [ -71.269499578769086, -34.344711932716216 ], [ -71.268984706669045, -34.344816904915881 ], [ -71.268411052410073, -34.344875177339269 ], [ -71.267461117234774, -34.3451193780041 ], [ -71.266753930205454, -34.345169112538798 ], [ -71.266050608626813, -34.345365822328873 ], [ -71.265392682512712, -34.34559839477653 ], [ -71.264523193267749, -34.346202173481572 ], [ -71.263777598768442, -34.346473140696034 ], [ -71.263119565754835, -34.346705629970401 ], [ -71.263047789465318, -34.347331498268041 ], [ -71.263202294304293, -34.348136718197502 ], [ -71.262834596790526, -34.34928218217221 ], [ -71.262187306729388, -34.349918616884437 ], [ -71.261665087308657, -34.350258783117376 ], [ -71.261066050253021, -34.351041223477473 ], [ -71.260689349823451, -34.351856260442098 ], [ -71.260089309349638, -34.352602081928097 ], [ -71.259520766504636, -34.352869606580882 ], [ -71.259173587410245, -34.353133115953227 ], [ -71.258921693516371, -34.353652111567335 ], [ -71.258979814515271, -34.354165236288068 ], [ -71.259135283246565, -34.35500714999074 ], [ -71.259021203493674, -34.355707211691026 ], [ -71.258815597989752, -34.356298692336956 ], [ -71.259007514965361, -34.356846127771121 ], [ -71.258683878917964, -34.35799076675211 ], [ -71.258344560082321, -34.358548008158337 ], [ -71.257998253252083, -34.358848279651539 ], [ -71.257431634598404, -34.3591893225245 ], [ -71.25695250826017, -34.359492041128007 ], [ -71.256560965865489, -34.359756361720464 ], [ -71.256019949197409, -34.360132599289514 ], [ -71.255294886592267, -34.360440880652497 ], [ -71.254590513086399, -34.360600765781136 ], [ -71.253924388947027, -34.360539549907749 ], [ -71.25339313427115, -34.360549335551759 ], [ -71.252821569493534, -34.360706764426922 ], [ -71.252117101664567, -34.360866710597634 ], [ -71.25164589487386, -34.361463069104936 ], [ -71.251123474230496, -34.36180327005917 ], [ -71.250467249525542, -34.362109148594669 ], [ -71.249899596910979, -34.362413469511011 ], [ -71.2491616614478, -34.362978090975943 ], [ -71.248549752432467, -34.363283143599887 ], [ -71.247939711912906, -34.363661650000445 ], [ -71.247286404936006, -34.364077728030558 ], [ -71.246891869354812, -34.364231951322111 ], [ -71.246412763677796, -34.364534556052931 ], [ -71.245978790258988, -34.364873110961923 ], [ -71.245692424414401, -34.365759935241464 ], [ -71.245664752710383, -34.366384910863992 ], [ -71.245549568029716, -34.367048126376268 ], [ -71.245310376313952, -34.368044279682458 ], [ -71.245774754111878, -34.368843907793618 ], [ -71.246195784604083, -34.369680963408165 ], [ -71.246305938719146, -34.370487092707307 ], [ -71.246283258953184, -34.371295513535976 ], [ -71.246172891039066, -34.372142399382732 ], [ -71.246063677460086, -34.373025971081283 ], [ -71.246036899579764, -34.37368763704179 ], [ -71.245695564924631, -34.374171394439976 ], [ -71.245352090482484, -34.374581774973571 ], [ -71.245006650526506, -34.374918702611936 ], [ -71.244664145366556, -34.375365696505618 ], [ -71.244200649714244, -34.376255841017283 ], [ -71.243962313194629, -34.377288682657856 ], [ -71.243457485157791, -34.37828970458034 ], [ -71.242946677934427, -34.379070369293501 ], [ -71.242295188249329, -34.379559878467767 ], [ -71.241603354326529, -34.380197025545897 ], [ -71.241217538691785, -34.380681586074523 ], [ -71.240832695932497, -34.381202834630642 ], [ -71.240446874009535, -34.381687467183333 ], [ -71.240286314525562, -34.38231487502361 ], [ -71.240431969162344, -34.382789623200487 ], [ -71.240314774052067, -34.383379530770455 ], [ -71.239976125359618, -34.383973418962263 ], [ -71.23961158991564, -34.384431734611688 ], [ -71.23881370358535, -34.38524363637265 ], [ -71.238291085312611, -34.385583788941922 ], [ -71.237552869575055, -34.386148201602523 ], [ -71.236774299718306, -34.386860398118962 ], [ -71.236296984383671, -34.38723642203842 ], [ -71.235825435334831, -34.387832729227732 ], [ -71.234082319204703, -34.388929833126085 ], [ -71.232420844662542, -34.389768250662918 ], [ -71.231911820595002, -34.3906223270764 ], [ -71.231489446223136, -34.391401478738885 ], [ -71.231374215728366, -34.392064757091568 ], [ -71.231084515337457, -34.392841414278578 ], [ -71.230511800716272, -34.392961981905756 ], [ -71.22977766153349, -34.393069907682872 ], [ -71.229487228117293, -34.393252018356314 ], [ -71.22906867697526, -34.393686176437242 ], [ -71.228907219175994, -34.394276881176857 ], [ -71.228613682080507, -34.394906623772222 ], [ -71.228319260144445, -34.395499750463337 ], [ -71.228066171491236, -34.395981853398048 ], [ -71.227591685849731, -34.396467987402055 ], [ -71.22697839432719, -34.39673625628329 ], [ -71.226449820224119, -34.396856076318691 ], [ -71.225696841573182, -34.39686978258483 ], [ -71.224765843782393, -34.396850016682173 ], [ -71.223379159394057, -34.396361036295509 ], [ -71.222354700881112, -34.396159265647967 ], [ -71.221108762734858, -34.395961509112389 ], [ -71.219784884957932, -34.396169157576395 ], [ -71.218637169503168, -34.396336962900982 ], [ -71.217531769189861, -34.396430426369264 ], [ -71.216464995535475, -34.396302861940249 ], [ -71.215532947614108, -34.396246336074135 ], [ -71.214144625597015, -34.396345559113115 ], [ -71.213566891190041, -34.39626059392657 ], [ -71.212987812005039, -34.396127936876297 ], [ -71.212214007710884, -34.396416614774552 ], [ -71.211554468222559, -34.396612155403488 ], [ -71.210585486966608, -34.396696221107412 ], [ -71.20969808800983, -34.396792615780612 ], [ -71.208409830230536, -34.396668910066161 ], [ -71.207476814823607, -34.396575632174802 ], [ -71.206947156454021, -34.39665868019059 ], [ -71.206375340148114, -34.396815902588187 ], [ -71.205857332927721, -34.397339521971553 ], [ -71.20515736206508, -34.397682735602444 ], [ -71.204323455088527, -34.397991577745586 ], [ -71.203258139399807, -34.398211965846187 ], [ -71.202805468446698, -34.398506395876431 ], [ -71.201953807166845, -34.398951072057294 ], [ -71.199441241775048, -34.399711973830016 ], [ -71.19801774173142, -34.399988760699749 ], [ -71.195692124733398, -34.400056981839711 ], [ -71.19454333219862, -34.400187725527424 ], [ -71.193073979447945, -34.400541942558753 ], [ -71.191583227928888, -34.40075951922163 ], [ -71.19053645795924, -34.401177849280742 ], [ -71.189079199227237, -34.401853973643661 ], [ -71.187298959319662, -34.402778630853803 ], [ -71.186122089042371, -34.403534273238201 ], [ -71.185383267840308, -34.404098463318057 ], [ -71.184818037982069, -34.404512570532127 ], [ -71.184344113787645, -34.405035314611219 ], [ -71.183867318577541, -34.405447837026969 ], [ -71.183568723068674, -34.405893957897419 ], [ -71.183359614135142, -34.406375260534517 ], [ -71.182933568348716, -34.407852947936462 ], [ -71.182476143511096, -34.409128451864902 ], [ -71.182034670057973, -34.40996192163513 ], [ -71.182004707649995, -34.410513441184499 ], [ -71.182023786070005, -34.411247771203662 ], [ -71.181936891134242, -34.411583679734022 ], [ -71.182308437030713, -34.412270284430967 ], [ -71.182591892333775, -34.413044211384779 ], [ -71.182569888100886, -34.413528007417263 ], [ -71.182428675633176, -34.414064525335384 ], [ -71.182187972052802, -34.414428364398056 ], [ -71.181814121079313, -34.414723602203495 ], [ -71.181669874102582, -34.41489664087792 ], [ -71.181585442347327, -34.41503936537049 ], [ -71.181530501384557, -34.415174915247327 ], [ -71.181574761378613, -34.415273170225227 ], [ -71.181617869732449, -34.41539559749728 ], [ -71.181532847784069, -34.415628882604572 ], [ -71.181631540294447, -34.415884074614901 ], [ -71.181754700218221, -34.416134251772988 ], [ -71.181912905217843, -34.416374865454792 ], [ -71.182092966228339, -34.416606004670591 ], [ -71.182279327123922, -34.416832599790823 ], [ -71.182370473785909, -34.416948186260932 ], [ -71.182458173612162, -34.4170683404705 ], [ -71.18263449673276, -34.417299545205928 ], [ -71.182831940143998, -34.41751693007474 ], [ -71.183044383623866, -34.417725037852172 ], [ -71.183152848007879, -34.417831303593147 ], [ -71.183366002953434, -34.418039322403011 ], [ -71.183566034411029, -34.418256660885696 ], [ -71.183746699987708, -34.418483281175106 ], [ -71.18391237178399, -34.418719327699797 ], [ -71.184064556274592, -34.418964478766753 ], [ -71.184204182317501, -34.419209926272785 ], [ -71.184330386631771, -34.419460120158476 ], [ -71.184389105010311, -34.41958972641055 ], [ -71.18448389164584, -34.419807318744269 ], [ -71.184451969113894, -34.419930049872242 ], [ -71.184955833258442, -34.421643792468181 ], [ -71.185605167885157, -34.42294287691287 ], [ -71.186868324938771, -34.42409337849827 ], [ -71.187790249745191, -34.424960671347527 ], [ -71.188278303540741, -34.425222921693837 ], [ -71.188703558809721, -34.426016375161758 ], [ -71.189456788090624, -34.427255818392958 ], [ -71.190120418506766, -34.428240869217539 ], [ -71.19059812281192, -34.428863723109927 ], [ -71.19161733875687, -34.429817870063239 ], [ -71.192135628946559, -34.430106594710729 ], [ -71.193040386947899, -34.430510028071019 ], [ -71.193115350460047, -34.430666961600231 ], [ -71.193221077677407, -34.430926595575194 ], [ -71.193317980743743, -34.431186240598585 ], [ -71.19336499407413, -34.431320705503666 ], [ -71.193458987497237, -34.431584908258586 ], [ -71.193557587481166, -34.431844595692738 ], [ -71.193665987186492, -34.432104108202033 ], [ -71.193789240535054, -34.432358849087528 ], [ -71.193920662264475, -34.432608936940575 ], [ -71.194051904330848, -34.432858954398682 ], [ -71.194174536943549, -34.433113779670911 ], [ -71.194294761172969, -34.433368498956035 ], [ -71.194420818163536, -34.433621268119779 ], [ -71.19449980612815, -34.434593078037672 ], [ -71.194662992286041, -34.435457611015366 ], [ -71.194717889231356, -34.435920527893579 ], [ -71.193875891129039, -34.438305157433113 ], [ -71.1934975818168, -34.4399494539038 ], [ -71.193327510970576, -34.440908450581802 ], [ -71.19364519747586, -34.441715039190498 ], [ -71.194564489320186, -34.442645100111591 ], [ -71.194881922500542, -34.442875671077232 ], [ -71.19495945160115, -34.443061878270214 ], [ -71.195021325761289, -34.443191495341743 ], [ -71.195163550630326, -34.443441313710998 ], [ -71.195331651471136, -34.443681803607134 ], [ -71.195527379998495, -34.443894617889413 ], [ -71.195756116222668, -34.444084386162046 ], [ -71.19601265620318, -34.444260063612283 ], [ -71.196283190139212, -34.444421973325831 ], [ -71.196614067506133, -34.444695726744996 ], [ -71.196948612694342, -34.444833736194283 ], [ -71.197079114548941, -34.444921570844009 ], [ -71.197345196434398, -34.445083558542414 ], [ -71.197628900570791, -34.445213691045197 ], [ -71.197929538848626, -34.445330002048486 ], [ -71.198238081402621, -34.445428149726041 ], [ -71.198394790707312, -34.445474962942889 ], [ -71.198553340659998, -34.445517164599792 ], [ -71.198712602976741, -34.445559352900801 ], [ -71.199033480297913, -34.445621232592977 ], [ -71.199357092090807, -34.445664968387987 ], [ -71.201788805513772, -34.445154992097308 ], [ -71.203853614635349, -34.444820940841659 ], [ -71.2047297792612, -34.444470857692657 ], [ -71.205253215000852, -34.444088801457191 ], [ -71.20542287711362, -34.443695770378255 ], [ -71.205450331425325, -34.443088681510496 ], [ -71.205825938605173, -34.442618150043778 ], [ -71.206661306242395, -34.441491067426831 ], [ -71.207832787526314, -34.440206794985748 ], [ -71.208404134911632, -34.439323104997328 ], [ -71.20888166853689, -34.438834770013806 ], [ -71.209844970643616, -34.438235727269543 ], [ -71.211421560679625, -34.436942989083008 ], [ -71.212081670598181, -34.436334568667355 ], [ -71.212624192842668, -34.436067576649592 ], [ -71.212898999166171, -34.435864071771405 ], [ -71.213139059552816, -34.435674859762926 ], [ -71.213254147215437, -34.435573659246188 ], [ -71.213467980389041, -34.435366899138373 ], [ -71.213571155492673, -34.435256829680633 ], [ -71.21378401219755, -34.435050234750875 ], [ -71.213997930711116, -34.434843399257687 ], [ -71.214210217884116, -34.434632235625656 ], [ -71.214428592939797, -34.434425465779547 ], [ -71.214658726942531, -34.434231925088888 ], [ -71.214909234735927, -34.434060615705327 ], [ -71.215045938559228, -34.433981547950779 ], [ -71.215188847944532, -34.43391130437854 ], [ -71.215335705425503, -34.433845495106475 ], [ -71.215635782256257, -34.433731928016762 ], [ -71.215940962416155, -34.433622625474463 ], [ -71.216255948585697, -34.433540398044684 ], [ -71.216575475738992, -34.4334714558901 ], [ -71.216895003790626, -34.433402587029292 ], [ -71.217215984418047, -34.433338121379471 ], [ -71.217538421214556, -34.433278208616024 ], [ -71.218024824804914, -34.433206308501312 ], [ -71.218352665866178, -34.433168748405642 ], [ -71.218683301586282, -34.433149231137783 ], [ -71.219010879441157, -34.433165812147024 ], [ -71.219337627252713, -34.433204932616945 ], [ -71.21966327822129, -34.433253082629264 ], [ -71.219825318128883, -34.433286256457883 ], [ -71.220144795874845, -34.433357118479876 ], [ -71.220458361807914, -34.433437023319087 ], [ -71.220769526544217, -34.433530561658642 ], [ -71.220923937060107, -34.433581892970174 ], [ -71.221076771930967, -34.433637686034295 ], [ -71.221377188324908, -34.43374943801529 ], [ -71.22166765767372, -34.433879319220587 ], [ -71.221928789841982, -34.434045921231437 ], [ -71.222050625649004, -34.434142824100533 ], [ -71.222173949964471, -34.434235340677965 ], [ -71.222498979298891, -34.434246418743854 ], [ -71.222884594609326, -34.43411163254558 ], [ -71.224700130222729, -34.433685606114068 ], [ -71.225364683208667, -34.433538423506619 ], [ -71.226198373691247, -34.433564233271795 ], [ -71.227209061030891, -34.433595453926714 ], [ -71.228533054690487, -34.43397177607595 ], [ -71.229169360152312, -34.434452581489403 ], [ -71.229929121083643, -34.435000113493125 ], [ -71.231464426345852, -34.436305366480113 ], [ -71.232901570001985, -34.437544592683494 ], [ -71.234168457758983, -34.438631959401825 ], [ -71.234528252793211, -34.439415433587406 ], [ -71.234653395298807, -34.439525261232546 ], [ -71.234884015290135, -34.439719351235553 ], [ -71.23511463707807, -34.439913514132726 ], [ -71.235345346900914, -34.440107601752153 ], [ -71.236120760077753, -34.440372597594461 ], [ -71.236193337664517, -34.441195812279631 ], [ -71.236245695970823, -34.441497889862163 ], [ -71.236449360215431, -34.442105036962495 ], [ -71.236479598406206, -34.442898153105084 ], [ -71.236461138925435, -34.444044828514855 ], [ -71.236232794366728, -34.445458128796993 ], [ -71.236622758421461, -34.446685663539547 ], [ -71.236316439197765, -34.447632282819598 ], [ -71.235611041612486, -34.450123540587249 ], [ -71.235601060431378, -34.451448055496527 ], [ -71.235425184671783, -34.452425892200459 ], [ -71.235905470735077, -34.453478653511858 ], [ -71.236245421984677, -34.454718327933683 ], [ -71.236075508343632, -34.456297400094577 ], [ -71.235411678501492, -34.458229903962966 ], [ -71.23472959758773, -34.459465454081268 ], [ -71.234593678891983, -34.461755736019114 ], [ -71.234327402072097, -34.463277113188688 ], [ -71.233701249369602, -34.464732836188951 ], [ -71.23312991006911, -34.465421804623702 ], [ -71.232664002440274, -34.466845273283219 ], [ -71.232774813223841, -34.466977889978843 ], [ -71.234375779045081, -34.469533764520008 ], [ -71.234983050058617, -34.470699714539712 ], [ -71.237683136969352, -34.473733002558838 ], [ -71.238602761190336, -34.474553469770576 ], [ -71.241171748866805, -34.475370121779626 ], [ -71.242014616538327, -34.475696538780895 ], [ -71.243144545350475, -34.475825356513312 ], [ -71.243340355624525, -34.47592390378459 ], [ -71.244545892040861, -34.476398003582318 ], [ -71.245117640074795, -34.476690383936315 ], [ -71.245730302776678, -34.477267907363043 ], [ -71.245986169020739, -34.477537138095336 ], [ -71.246097209772998, -34.477973066741363 ], [ -71.246156846229781, -34.478357871514355 ], [ -71.246281886327424, -34.478544127696232 ], [ -71.24627544989842, -34.479242044473516 ], [ -71.247137746332911, -34.481344466467085 ], [ -71.249268905919692, -34.483841107811557 ], [ -71.250891508562887, -34.484266543712636 ], [ -71.251482975515614, -34.484725592148166 ], [ -71.252196084239301, -34.485080841514034 ], [ -71.252686081989125, -34.48492047379014 ], [ -71.252976659135754, -34.484996209387113 ], [ -71.253286111683153, -34.485017606409755 ], [ -71.253592302447743, -34.485057009882304 ], [ -71.253892916471045, -34.485114536771434 ], [ -71.254180594754274, -34.48520841708028 ], [ -71.254464059040487, -34.485311384895155 ], [ -71.254835453121657, -34.485304455711677 ], [ -71.255578305962715, -34.485389043098557 ], [ -71.256120065537516, -34.484716767336259 ], [ -71.256306834268244, -34.484484952417802 ], [ -71.256419990552999, -34.484272003159731 ], [ -71.256690693372306, -34.483762340424903 ], [ -71.257002596523776, -34.483255905263434 ], [ -71.257092635563012, -34.483082155863812 ], [ -71.257288190715528, -34.482415384759285 ], [ -71.257151097023396, -34.481511552120615 ], [ -71.257074308134577, -34.480892725140443 ], [ -71.257116386120813, -34.480319412109971 ], [ -71.257156074588394, -34.479650795057765 ], [ -71.257205862814686, -34.479363607896047 ], [ -71.25748094402266, -34.478881484463379 ], [ -71.257665784070497, -34.47860516911836 ], [ -71.257868622763326, -34.478301785456445 ], [ -71.258258867990747, -34.477817532070574 ], [ -71.25904053883184, -34.476896564847515 ], [ -71.259377045042328, -34.476556437124962 ], [ -71.259655963853206, -34.476217299593998 ], [ -71.259788541714428, -34.476063809977454 ], [ -71.259991176489692, -34.475829408006277 ], [ -71.260441553145583, -34.47543938481315 ], [ -71.261126032561151, -34.475188235135889 ], [ -71.261471442872732, -34.475181841266483 ], [ -71.262209725983936, -34.474786555667798 ], [ -71.262488627726825, -34.474447411683919 ], [ -71.263327803322525, -34.473525353445893 ], [ -71.263715418282786, -34.472945710537658 ], [ -71.264046734027588, -34.472414746469717 ], [ -71.264265417205394, -34.472276644855434 ], [ -71.264565825514509, -34.47208717392688 ], [ -71.264669730050144, -34.472021584317993 ], [ -71.265296433419905, -34.472009890661234 ], [ -71.265590934407697, -34.472004429671138 ], [ -71.265936420177781, -34.471998022227453 ], [ -71.266342558399188, -34.472081036058157 ], [ -71.267091820719799, -34.472119793936876 ], [ -71.268239354714879, -34.47239886642496 ], [ -71.268807022600797, -34.472703322414986 ], [ -71.270189389685882, -34.473344786164986 ], [ -71.272455979284899, -34.473580638466608 ], [ -71.274038906036935, -34.473365878102413 ], [ -71.275279454291464, -34.472898017376693 ], [ -71.276522052501491, -34.471688812125763 ], [ -71.279137615130495, -34.470769057729946 ], [ -71.280184720171746, -34.470601215902263 ], [ -71.281175478386828, -34.470008193156509 ], [ -71.282086499442315, -34.469768798127468 ], [ -71.283111716133362, -34.469619877228979 ], [ -71.283949144505826, -34.46922955321395 ], [ -71.284607608710786, -34.468941314820491 ], [ -71.285315419170914, -34.468631544606353 ], [ -71.285884603413038, -34.468382341489395 ], [ -71.286400200453514, -34.468277270935424 ], [ -71.286915705865823, -34.468172200989727 ], [ -71.287282341570929, -34.468098423841688 ], [ -71.287486144156091, -34.468057383761241 ], [ -71.287947684176018, -34.4679616659567 ], [ -71.288516066222584, -34.467712908169204 ], [ -71.288860224282658, -34.467658676115057 ], [ -71.289429392355089, -34.467409456762333 ], [ -71.289710760871756, -34.467165629095248 ], [ -71.289937070746333, -34.467018328467695 ], [ -71.290906747298322, -34.466666172791207 ], [ -71.291419718563205, -34.466465709392914 ], [ -71.291935207805864, -34.466360691972952 ], [ -71.292279356882773, -34.466306450152729 ], [ -71.292564629477667, -34.466205749636437 ], [ -71.293130525885829, -34.465860561324554 ], [ -71.293411002375422, -34.465653153325846 ], [ -71.293526364922528, -34.465567457202617 ], [ -71.29386790169859, -34.465417911861351 ], [ -71.294323281970634, -34.465218517162505 ], [ -71.294667339419405, -34.465164419023786 ], [ -71.295298053766899, -34.465057149175941 ], [ -71.295814920126872, -34.464999653636163 ], [ -71.296275431575808, -34.464991072628969 ], [ -71.296849782927438, -34.464932492011329 ], [ -71.297410558938495, -34.464922022374125 ], [ -71.297770981895113, -34.464915244809035 ], [ -71.299087262619665, -34.464604216860252 ], [ -71.299348784656772, -34.464532160768414 ], [ -71.299830407413197, -34.464399386874383 ], [ -71.300287075869335, -34.464247657507741 ], [ -71.300387797673935, -34.464197458965693 ], [ -71.300684858860308, -34.464049322838079 ], [ -71.301366495107999, -34.463702583581025 ], [ -71.301537905342315, -34.463651570739266 ], [ -71.302302694144288, -34.463446391051214 ], [ -71.302741625365158, -34.463438119475931 ], [ -71.303431197330056, -34.463377409880408 ], [ -71.303774016900348, -34.463275524492033 ], [ -71.304115435997133, -34.463125954306562 ], [ -71.304510584229376, -34.462832311014381 ], [ -71.305073111056913, -34.462344590454173 ], [ -71.305520577171308, -34.461859040151978 ], [ -71.306028145968071, -34.461467848076047 ], [ -71.306246715059856, -34.461034326310852 ], [ -71.306919115728135, -34.460353755014765 ], [ -71.30725657954271, -34.460061117443566 ], [ -71.307936928504589, -34.459666582387754 ], [ -71.308394869873496, -34.459562583743093 ], [ -71.308967860277477, -34.459456334767914 ], [ -71.309369539261823, -34.459400958916056 ], [ -71.310175527497663, -34.459385796341742 ], [ -71.310577115752167, -34.459330418961734 ], [ -71.311316326823061, -34.458982461670068 ], [ -71.311543977882366, -34.458882733733226 ], [ -71.311946880372133, -34.458875184619394 ], [ -71.312287040030867, -34.458677904523164 ], [ -71.312733128129622, -34.458144643896844 ], [ -71.312759386783696, -34.458020217137083 ], [ -71.313062669701708, -34.457565950414732 ], [ -71.313508747020649, -34.45703268713099 ], [ -71.313788696199168, -34.456741195648064 ], [ -71.314181833103476, -34.456493276982336 ], [ -71.314697853250451, -34.456294580199987 ], [ -71.314990516285164, -34.456228030808674 ], [ -71.315155676041741, -34.456190484766068 ], [ -71.315439565231074, -34.456041972961998 ], [ -71.315838589693783, -34.455891278742598 ], [ -71.316018924690425, -34.455734979978843 ], [ -71.316232255705785, -34.455549916560777 ], [ -71.316513594578041, -34.455306029070051 ], [ -71.317013816054114, -34.454768403288803 ], [ -71.31730231719412, -34.454670908056514 ], [ -71.317644409129059, -34.454476900938765 ], [ -71.318038732707862, -34.454227543716677 ], [ -71.318373586018211, -34.453839578821906 ], [ -71.33252589383757, -34.442931453491155 ], [ -71.33876550556279, -34.437468991839445 ], [ -71.339733176176736, -34.436869745932668 ], [ -71.340852608174771, -34.437263082508181 ], [ -71.34158089842677, -34.438087536936877 ], [ -71.342492081179017, -34.438236840801984 ], [ -71.343674876743933, -34.437294667035857 ], [ -71.345370775626108, -34.436676093101816 ], [ -71.345982052227498, -34.436916798064722 ], [ -71.345799169608696, -34.437587442911038 ], [ -71.345614284645123, -34.438177032309383 ], [ -71.346033328063896, -34.438750451054347 ], [ -71.346649374719462, -34.439157900406705 ], [ -71.349195105013237, -34.440109730233161 ], [ -71.349881614621324, -34.439429325503767 ], [ -71.350356977018563, -34.438419447325579 ], [ -71.351755315251069, -34.437973345867789 ], [ -71.353156126545557, -34.43761277948596 ], [ -71.353961522791622, -34.437597269929029 ], [ -71.354397412316942, -34.438756373558142 ], [ -71.355233302773655, -34.439826675859187 ], [ -71.355849400633161, -34.440234075512123 ], [ -71.356547500305084, -34.439968180569906 ], [ -71.358739760602546, -34.439091918940349 ], [ -71.358913165995105, -34.438087836991066 ], [ -71.359191751531014, -34.437248490098241 ], [ -71.360073274607529, -34.43689099896644 ], [ -71.360829480006956, -34.436451875932576 ], [ -71.3619857159822, -34.436274958112783 ], [ -71.362690599731124, -34.43626133313353 ], [ -71.363582919659038, -34.435743786763716 ], [ -71.364038423000267, -34.435187195459385 ], [ -71.363844471340542, -34.434494716105121 ], [ -71.36372007623325, -34.433695648455817 ], [ -71.3641589005546, -34.432870177867507 ], [ -71.364699620778609, -34.432463043127271 ], [ -71.365339072140586, -34.432203698440986 ], [ -71.366107301490089, -34.432354633963293 ], [ -71.366613192233928, -34.43242600579044 ], [ -71.368008778926708, -34.431898608722364 ], [ -71.370208005659194, -34.431274448207759 ], [ -71.371502843597938, -34.430744460957676 ], [ -71.372441101572861, -34.431159041585062 ], [ -71.37269845183377, -34.432001529679823 ], [ -71.373039753251248, -34.432499774446036 ], [ -71.373755351206569, -34.433026791333511 ], [ -71.374320952967338, -34.434196815640369 ], [ -71.375363686806409, -34.434861704753317 ], [ -71.376131406811155, -34.434080465428984 ], [ -71.378013873201425, -34.432957524973204 ], [ -71.378606264520599, -34.432526726295627 ], [ -71.378683571737312, -34.431691328279719 ], [ -71.379065031441243, -34.430935608344697 ], [ -71.379662042795928, -34.430671551725375 ], [ -71.380784160756662, -34.431150065145509 ], [ -71.382632400436293, -34.432367214133912 ], [ -71.383869251225121, -34.433343752345692 ], [ -71.384853658351119, -34.433933182752995 ], [ -71.386014155035753, -34.433680549378906 ], [ -71.386800314758332, -34.433394818524022 ], [ -71.387072875293654, -34.432614097469802 ], [ -71.387948328453788, -34.431510671266864 ], [ -71.389514341725658, -34.429893377060054 ], [ -71.390324422685936, -34.429034710456932 ], [ -71.390870807686142, -34.428412656593814 ], [ -71.391090552672622, -34.428195066649877 ], [ -71.391686542642816, -34.427897220050262 ], [ -71.391625174234193, -34.427254409807936 ], [ -71.392126679402793, -34.426672003431634 ], [ -71.392465832948417, -34.42645074408123 ], [ -71.39309981806187, -34.425973124799036 ], [ -71.393863405816305, -34.425493111625677 ], [ -71.395039570017801, -34.42498248537575 ], [ -71.39589727426457, -34.424774837292716 ], [ -71.397200933659377, -34.424425794989681 ], [ -71.398148261025398, -34.42433572247527 ], [ -71.399184961779056, -34.424351124084787 ], [ -71.400100420512047, -34.424655231377471 ], [ -71.400791867260963, -34.424677398198213 ], [ -71.40148033519641, -34.42459230988181 ], [ -71.401955019365559, -34.424582982987772 ], [ -71.40242970353475, -34.424573654610661 ], [ -71.402943493164855, -34.424420425735121 ], [ -71.403276460013132, -34.423984490908282 ], [ -71.403392457669142, -34.423148765208509 ], [ -71.403363909209418, -34.422515878403857 ], [ -71.403260193319966, -34.421909653825239 ], [ -71.403195581993145, -34.421159531338347 ], [ -71.40295519461975, -34.420305552457847 ], [ -71.402758009024993, -34.419450650412294 ], [ -71.40247350089642, -34.418561792983098 ], [ -71.402363745633323, -34.417740990542171 ], [ -71.402347372938948, -34.417168794912946 ], [ -71.402239580494765, -34.416419517693249 ], [ -71.402172853635463, -34.415597944258153 ], [ -71.402153412296073, -34.414918422701064 ], [ -71.402092912558331, -34.414311347114918 ], [ -71.402114539498768, -34.413559601654661 ], [ -71.402268731724035, -34.412912562157175 ], [ -71.402565626722065, -34.412727778142184 ], [ -71.403208755786792, -34.412572081925987 ], [ -71.403639239250737, -34.412527799666037 ], [ -71.404197085855643, -34.412409519850144 ], [ -71.40479607440227, -34.412218790330272 ], [ -71.405435096369516, -34.411920033802559 ], [ -71.406111068739335, -34.411405778445932 ], [ -71.406479465142411, -34.410886790868908 ], [ -71.406753951665678, -34.410648229857458 ], [ -71.406896970645448, -34.410215951071272 ], [ -71.406790259772833, -34.409496052131701 ], [ -71.40669166248388, -34.409068604016952 ], [ -71.406417402336061, -34.408537377635213 ], [ -71.40525977846373, -34.407307807688618 ], [ -71.404942429724983, -34.406777423932269 ], [ -71.404622942995871, -34.40617536915056 ], [ -71.40404774093966, -34.405685800669765 ], [ -71.403646157176723, -34.40522856120382 ], [ -71.40285015820686, -34.404564302104681 ], [ -71.40222871806634, -34.403968248270779 ], [ -71.401955613151983, -34.403472732977157 ], [ -71.401899219613384, -34.403008704758335 ], [ -71.402235093409914, -34.402680026922894 ], [ -71.402866893820587, -34.402130912784614 ], [ -71.403372275219652, -34.401691663499349 ], [ -71.404030301046745, -34.40123131732588 ], [ -71.404600925288264, -34.400880365993999 ], [ -71.405285099276625, -34.400652214855917 ], [ -71.406184859950045, -34.400419890834058 ], [ -71.407214177450371, -34.400184862972793 ], [ -71.408119053131003, -34.400131300125189 ], [ -71.408770361356403, -34.400261527814763 ], [ -71.409472890620961, -34.400677074911172 ], [ -71.409744068649047, -34.401101120793676 ], [ -71.410153871996812, -34.401844437419967 ], [ -71.410344831368334, -34.402484682805472 ], [ -71.410869849041205, -34.402724771709003 ], [ -71.411783988149054, -34.402993077603576 ], [ -71.412478339151292, -34.40312250925426 ], [ -71.413215878457436, -34.403251010519753 ], [ -71.414058955436417, -34.403321884657416 ], [ -71.415051618978183, -34.403175177801664 ], [ -71.415679380563361, -34.402798380532367 ], [ -71.416125611494223, -34.40243927378431 ], [ -71.41632312048246, -34.401722677403072 ], [ -71.416602546841503, -34.400929942909229 ], [ -71.416805089988614, -34.400153202904519 ], [ -71.416730929570335, -34.399535770623125 ], [ -71.416673806599718, -34.39906149988353 ], [ -71.416653851424002, -34.398209764399262 ], [ -71.416587006885393, -34.397388127001555 ], [ -71.416706418139484, -34.396722925063273 ], [ -71.416803688616753, -34.395916803702129 ], [ -71.416812158831576, -34.395068272534417 ], [ -71.416762457741854, -34.394486397350491 ], [ -71.416827230765406, -34.393733723576396 ], [ -71.416985425883581, -34.393094489789306 ], [ -71.41695033768859, -34.39201388286849 ], [ -71.416873304458022, -34.390834696740285 ], [ -71.416943130505047, -34.390260871535375 ], [ -71.41726458544295, -34.38943155920132 ], [ -71.417633241459143, -34.388744368991865 ], [ -71.417820175479875, -34.387738913668564 ], [ -71.418053193074684, -34.386839783255269 ], [ -71.418556434686735, -34.386328952161648 ], [ -71.419445707529221, -34.385738843711685 ], [ -71.420343292483011, -34.385434824002033 ], [ -71.42132920608374, -34.385200687410638 ], [ -71.422900485279811, -34.38581357799913 ], [ -71.423892670019541, -34.385793917720889 ], [ -71.42526056434707, -34.385337410247516 ], [ -71.426188830361085, -34.384603425151191 ], [ -71.426590162595716, -34.383557811913519 ], [ -71.426258330319655, -34.382526817976107 ], [ -71.425668819897609, -34.381536604803607 ], [ -71.425303025913919, -34.380828284911587 ], [ -71.425334857715995, -34.380434085325334 ], [ -71.425655532017927, -34.380020123644698 ], [ -71.426262037666845, -34.379664302134543 ], [ -71.426850419804893, -34.379115930376067 ], [ -71.427305222460191, -34.378427077049992 ], [ -71.427281480885554, -34.377604664945885 ], [ -71.427041001883993, -34.376750659625692 ], [ -71.426843707593093, -34.375895944950074 ], [ -71.426863145339212, -34.37507260047677 ], [ -71.427017090527755, -34.374425463565935 ], [ -71.427391891020491, -34.373952891557771 ], [ -71.427862150088586, -34.373800429295606 ], [ -71.429041061338225, -34.373608118504279 ], [ -71.428986288360406, -34.373213568333526 ], [ -71.428932555631675, -34.372855039778322 ], [ -71.42887891273449, -34.372496508205614 ], [ -71.428825090174257, -34.372137906884099 ], [ -71.428858151769958, -34.371777654274553 ], [ -71.42876106724394, -34.371419911458105 ], [ -71.428663983616232, -34.371062169338252 ], [ -71.428480199987206, -34.370706220793053 ], [ -71.428339768155482, -34.3703493387018 ], [ -71.428242689917653, -34.369991669123706 ], [ -71.428231276821975, -34.369596332261253 ], [ -71.42826424858616, -34.369236007178287 ], [ -71.428210523043973, -34.368877477170109 ], [ -71.428113447501104, -34.368519807981336 ], [ -71.428015333505769, -34.36812611770538 ], [ -71.427874999590401, -34.367769306928849 ], [ -71.427734486910296, -34.367412424190142 ], [ -71.427723165442757, -34.367017085537292 ], [ -71.427497082841953, -34.366697868154709 ], [ -71.427443362689644, -34.3663393376656 ], [ -71.427259593433661, -34.365983313440147 ], [ -71.427290497276047, -34.365551169525517 ], [ -71.427365786876649, -34.365154111402155 ], [ -71.42731206582603, -34.364795506828415 ], [ -71.426999386530156, -34.364478079925121 ], [ -71.426729968301714, -34.364159795352869 ], [ -71.426632904436943, -34.363802050409014 ], [ -71.426363489801773, -34.363483764010361 ], [ -71.426093037612432, -34.363129456918976 ], [ -71.426039415376493, -34.362770923025067 ], [ -71.426071270534777, -34.362374653337177 ], [ -71.426059870913832, -34.361979314643612 ], [ -71.425876210353991, -34.361623360136832 ], [ -71.425650150211069, -34.361304139260831 ], [ -71.425283987918107, -34.361095595291978 ], [ -71.424768793322883, -34.36080211785842 ], [ -71.425342788941663, -34.360747239500633 ], [ -71.426321430680176, -34.360910624199207 ], [ -71.427241310022694, -34.360892303261757 ], [ -71.42804619422904, -34.360876330835907 ], [ -71.428508931703249, -34.360962566623236 ], [ -71.429541146270367, -34.360846725592829 ], [ -71.430514390930639, -34.360684264012022 ], [ -71.430970241021569, -34.360532077192921 ], [ -71.431484877763012, -34.360426504724543 ], [ -71.432165198877144, -34.360078938885394 ], [ -71.432447083925084, -34.35988256840249 ], [ -71.432578303533575, -34.359800787585819 ], [ -71.432842671433491, -34.359636153403635 ], [ -71.433241014074866, -34.359485101509158 ], [ -71.43387063157941, -34.359377157658699 ], [ -71.434675498717795, -34.359361142674459 ], [ -71.440595472796943, -34.360125965990036 ], [ -71.445643692079969, -34.360777872580059 ], [ -71.446814170844036, -34.360906682076056 ], [ -71.447163950561162, -34.360945252732648 ], [ -71.458629968694211, -34.362071236968262 ], [ -71.458726959795442, -34.36144677495372 ], [ -71.458904018636275, -34.360609259619054 ], [ -71.459073612477084, -34.359519461441572 ], [ -71.459549613576456, -34.358590339704485 ], [ -71.459623499110251, -34.357669300604194 ], [ -71.459584608346674, -34.356335765601941 ], [ -71.459653355517034, -34.355248068450564 ], [ -71.460232573940871, -34.354402466146318 ], [ -71.460505125493029, -34.353396338971734 ], [ -71.460966813734984, -34.351967141221124 ], [ -71.460628416570827, -34.350720794941346 ], [ -71.460010158263046, -34.350232867553977 ], [ -71.459384622703155, -34.349492649732845 ], [ -71.459362772082187, -34.348744801793892 ], [ -71.459137036231084, -34.347915454406383 ], [ -71.45899998026816, -34.346665056147188 ], [ -71.458774209382767, -34.34583112975119 ], [ -71.458436008949661, -34.344589350143607 ], [ -71.457781334736893, -34.342848987892438 ], [ -71.457227067020071, -34.34110667733291 ], [ -71.456869323737962, -34.339193582063224 ], [ -71.457431380746613, -34.337762379035361 ], [ -71.458309831584856, -34.336825106648568 ], [ -71.458958061283752, -34.334891804578177 ], [ -71.459551856669719, -34.334546347859337 ], [ -71.459937142298443, -34.333957077116132 ], [ -71.460010752947767, -34.333036041114518 ], [ -71.459983909490447, -34.33211702460045 ], [ -71.459245879704156, -34.330964372305729 ], [ -71.458424026322078, -34.330394851314274 ], [ -71.456707287423626, -34.330181395949417 ], [ -71.455782515856072, -34.329528325627678 ], [ -71.455549744399661, -34.328451180644954 ], [ -71.45563311883781, -34.327863475419591 ], [ -71.456396468538699, -34.326428236969107 ], [ -71.457179151781133, -34.325659732225553 ], [ -71.457863607840508, -34.324978864231326 ], [ -71.458145838739838, -34.32430607203257 ], [ -71.458530872840299, -34.32371230623184 ], [ -71.458801090569324, -34.32262506282008 ], [ -71.458769405192612, -34.321539303973175 ], [ -71.458703812905526, -34.321149268794038 ], [ -71.458625290268216, -34.320682093561132 ], [ -71.458625089045597, -34.320681285616814 ], [ -71.458420380060332, -34.320108522382768 ], [ -71.458127963164003, -34.319635302843956 ], [ -71.457962031754604, -34.319192407655116 ], [ -71.4578436832075, -34.318836665463643 ], [ -71.457688613328216, -34.318451748937996 ], [ -71.45763962190756, -34.318004953815297 ], [ -71.457551127072307, -34.317439678551011 ], [ -71.457289294218128, -34.316573971745093 ], [ -71.457214922695741, -34.316328126909205 ], [ -71.456946051541308, -34.315376447326102 ], [ -71.456893950153159, -34.314380016937619 ], [ -71.456980250404172, -34.31389941362518 ], [ -71.457667959263205, -34.312811103743712 ], [ -71.457854808842299, -34.312610603976637 ], [ -71.45857475194866, -34.311837811612662 ], [ -71.458952829495544, -34.311233254292084 ], [ -71.459083611624507, -34.310782922953322 ], [ -71.45899598546012, -34.310247392835464 ], [ -71.458801515472445, -34.309743993561952 ], [ -71.458463122799884, -34.309243337467954 ], [ -71.457794359410215, -34.308510615188375 ], [ -71.457060076496973, -34.308076173077495 ], [ -71.456915992115285, -34.30799095587367 ], [ -71.456529785713386, -34.307614146746907 ], [ -71.455831848636535, -34.306932958727785 ], [ -71.45565734460439, -34.306762679224981 ], [ -71.455123111115029, -34.306238023315309 ], [ -71.45476849037685, -34.30586035371276 ], [ -71.454462464003939, -34.305381782336184 ], [ -71.454217408086009, -34.304631164336584 ], [ -71.454075590153806, -34.303892730228533 ], [ -71.453948543219795, -34.303068476741302 ], [ -71.453878477322576, -34.302428455587574 ], [ -71.453918115484498, -34.301429739524082 ], [ -71.454089517633975, -34.301093367715481 ], [ -71.454714439644519, -34.301558383413301 ], [ -71.454902484881259, -34.301631790969211 ], [ -71.455513067084922, -34.301869987178513 ], [ -71.455954836083777, -34.302160310714079 ], [ -71.456676704279786, -34.302372266371599 ], [ -71.456983693646663, -34.302486857632864 ], [ -71.457475848251477, -34.302517822180342 ], [ -71.457979954941152, -34.302537539096882 ], [ -71.458481364888357, -34.302467797440741 ], [ -71.458875065036338, -34.302400217392673 ], [ -71.459198547471829, -34.302393646313725 ], [ -71.45956685853497, -34.302480854990009 ], [ -71.459670984056174, -34.302563252709632 ], [ -71.459891021893441, -34.302708091345046 ], [ -71.460215376593069, -34.302731411721517 ], [ -71.460574012800592, -34.302694367449604 ], [ -71.460965098851105, -34.302537247461693 ], [ -71.461496342747196, -34.302257959911451 ], [ -71.461673483334707, -34.302164887106763 ], [ -71.46202767198325, -34.301978668464166 ], [ -71.462427661236546, -34.301843226277981 ], [ -71.462497553758922, -34.301829117843504 ], [ -71.46292374237747, -34.301743662770726 ], [ -71.463118369570296, -34.301752745845576 ], [ -71.463320304557953, -34.301762124267732 ], [ -71.463531241563075, -34.301771986525708 ], [ -71.463588546891685, -34.301790035419508 ], [ -71.464095945008566, -34.301949910662373 ], [ -71.464169104703615, -34.301986694792852 ], [ -71.464950994733641, -34.30237899996682 ], [ -71.465844315384786, -34.302415294881676 ], [ -71.466360918538399, -34.302436277060529 ], [ -71.467417334617551, -34.302270754056131 ], [ -71.468384574938483, -34.30225118326608 ], [ -71.46847140519553, -34.301845894057152 ], [ -71.468502035950095, -34.301144251867917 ], [ -71.468835257021581, -34.300364132660114 ], [ -71.469225826540821, -34.299807372935 ], [ -71.469636003587752, -34.299181900368772 ], [ -71.471431246258859, -34.296975251255958 ], [ -71.471836383757065, -34.296072551934216 ], [ -71.471997493010008, -34.295412145138741 ], [ -71.472094362838675, -34.294694395156789 ], [ -71.472119853433171, -34.294085543538166 ], [ -71.472007256798847, -34.293583541338698 ], [ -71.471692340697899, -34.293131116722023 ], [ -71.471437014341319, -34.292780883747781 ], [ -71.471544198626077, -34.292648884461663 ], [ -71.471636332536548, -34.292443557021784 ], [ -71.471646034341617, -34.292212861866474 ], [ -71.471495582701209, -34.291815682886472 ], [ -71.471421925339484, -34.291582534616076 ], [ -71.471135324136284, -34.291112180888959 ], [ -71.470683026882327, -34.2906139289693 ], [ -71.470416545246536, -34.290328984940288 ], [ -71.470204950674642, -34.290140714638731 ], [ -71.469979607387302, -34.289613510128177 ], [ -71.469926017490693, -34.289393914082687 ], [ -71.469778909379784, -34.289098289470246 ], [ -71.46962952673455, -34.288855662507359 ], [ -71.469209979360883, -34.288207928470335 ], [ -71.468999027084408, -34.287910559960324 ], [ -71.468538762672168, -34.287473538257593 ], [ -71.467824639750532, -34.287002708037662 ], [ -71.46719950933084, -34.28669337373826 ], [ -71.466728132758533, -34.286520892613268 ], [ -71.466444667574009, -34.286433250242041 ], [ -71.465587525672618, -34.286329020704564 ], [ -71.464952455394311, -34.28625768540914 ], [ -71.464441357116769, -34.286269449565509 ], [ -71.463683238305777, -34.286088619826835 ], [ -71.4632712475603, -34.286023717892135 ], [ -71.462957004297493, -34.285908770173258 ], [ -71.462395569821325, -34.285601230255658 ], [ -71.462116589026692, -34.285407802768937 ], [ -71.461675922260696, -34.285262600302033 ], [ -71.460758505200388, -34.285077199980257 ], [ -71.460156337515983, -34.284980363592766 ], [ -71.459743168180822, -34.28494191313203 ], [ -71.459071752964434, -34.284975485660986 ], [ -71.458588145829538, -34.285093834804783 ], [ -71.4580034081566, -34.285341760249011 ], [ -71.457734090539475, -34.285678255249657 ], [ -71.457544795746173, -34.286104501840633 ], [ -71.45736955240055, -34.286371753865687 ], [ -71.457081847167871, -34.286862233995379 ], [ -71.456943836295835, -34.286968990102856 ], [ -71.456773010864765, -34.287061116354472 ], [ -71.456501597478081, -34.287164049085057 ], [ -71.456200911589548, -34.287169194085415 ], [ -71.455824536350107, -34.286992032066195 ], [ -71.455601584378087, -34.286736239570395 ], [ -71.455391251939147, -34.28657768249343 ], [ -71.455132028690869, -34.286390118541718 ], [ -71.454905045978137, -34.286231081338627 ], [ -71.454730417080171, -34.286018187609351 ], [ -71.454639052127547, -34.285807687007029 ], [ -71.454632860040292, -34.285558108519403 ], [ -71.454790492813103, -34.285382646512026 ], [ -71.454962958567862, -34.285249057628775 ], [ -71.455604279323921, -34.284685761093584 ], [ -71.455909092971197, -34.2844497391497 ], [ -71.456001066981543, -34.284378545510329 ], [ -71.456228272476466, -34.284135734205599 ], [ -71.456315655197443, -34.284041294161085 ], [ -71.456528509207359, -34.283742640191377 ], [ -71.456673023882061, -34.283483539278933 ], [ -71.456633431534229, -34.283233006784748 ], [ -71.456614036907254, -34.282899942311964 ], [ -71.456542292058757, -34.282620734213957 ], [ -71.456518514551504, -34.282528301740697 ], [ -71.45648489689863, -34.282397367067759 ], [ -71.456497078952211, -34.282106800060575 ], [ -71.456659974954249, -34.2818067853391 ], [ -71.456967099068407, -34.281662811769117 ], [ -71.457327563347533, -34.281410456050587 ], [ -71.457450060314613, -34.281275429029762 ], [ -71.457691024406444, -34.281102205655493 ], [ -71.457903292714818, -34.280817446115137 ], [ -71.458000633260681, -34.280487725641741 ], [ -71.458060183479191, -34.280192440834597 ], [ -71.458419367659005, -34.279923934015436 ], [ -71.459039985841045, -34.279366723364639 ], [ -71.459605432193257, -34.27898653908948 ], [ -71.460189747658021, -34.27872576599367 ], [ -71.460768984048158, -34.278583849958736 ], [ -71.461032333258544, -34.278571689088118 ], [ -71.461389355193504, -34.278601737562227 ], [ -71.461794198044274, -34.278633334433032 ], [ -71.462196502256063, -34.278724285135809 ], [ -71.462454866714921, -34.278830906835282 ], [ -71.46302083768326, -34.279005861438669 ], [ -71.463307207121105, -34.279014133430707 ], [ -71.463501413902378, -34.278940509407064 ], [ -71.463649580228719, -34.278825786562102 ], [ -71.463921113091331, -34.278615452032291 ], [ -71.464262637291, -34.278446839459818 ], [ -71.464696324147226, -34.278360269439936 ], [ -71.465008998951546, -34.278309738178407 ], [ -71.465318383226972, -34.278338517433546 ], [ -71.465677941105952, -34.278309197050234 ], [ -71.465849034234978, -34.278214985764443 ], [ -71.466098475728117, -34.277964397482364 ], [ -71.466309300443839, -34.277494499758006 ], [ -71.466296372788591, -34.277289591802166 ], [ -71.466203015372699, -34.277026703826522 ], [ -71.466108111956189, -34.27673526534825 ], [ -71.465935929170726, -34.276374850870504 ], [ -71.465850468844494, -34.275861510975979 ], [ -71.465812804281256, -34.275482805124497 ], [ -71.465664476258169, -34.275189708898786 ], [ -71.465379818110947, -34.274959325659658 ], [ -71.464908089399046, -34.274723623809038 ], [ -71.463851246620109, -34.274012620049 ], [ -71.463690126587395, -34.273869186163296 ], [ -71.463292826890054, -34.273659380389908 ], [ -71.463038613546104, -34.273453637613983 ], [ -71.462788633063795, -34.27314899250775 ], [ -71.46243745916135, -34.272705614613635 ], [ -71.462292261767033, -34.272476556325095 ], [ -71.462107283378657, -34.272256126393586 ], [ -71.461974882485563, -34.271928879237848 ], [ -71.461945102435593, -34.271362274607945 ], [ -71.462044960959204, -34.270991659438323 ], [ -71.462138417189777, -34.270608911791641 ], [ -71.462267843760984, -34.270291321514016 ], [ -71.462329908363955, -34.270174416947391 ], [ -71.462510023273381, -34.270011712975524 ], [ -71.462597188602018, -34.269819046912296 ], [ -71.46262909406596, -34.26972645634379 ], [ -71.462639320487156, -34.269482383006945 ], [ -71.462629338407723, -34.269082217693487 ], [ -71.462452507738973, -34.268832820422112 ], [ -71.462167791201253, -34.268602430899946 ], [ -71.461878031521522, -34.268513278414389 ], [ -71.461419676029266, -34.268371531476589 ], [ -71.460724054809234, -34.268351387099841 ], [ -71.460303015333878, -34.268339238854267 ], [ -71.460130369017733, -34.268312499938922 ], [ -71.459876451219543, -34.26826265082164 ], [ -71.459300800904018, -34.268149691401028 ], [ -71.458843738985749, -34.267975781004836 ], [ -71.458461292931645, -34.267868392022315 ], [ -71.458194768176725, -34.267764288682862 ], [ -71.457364741023881, -34.267258347543056 ], [ -71.457197786433369, -34.267170338392809 ], [ -71.456885514074301, -34.266961388953007 ], [ -71.456367811382819, -34.266546515991344 ], [ -71.456019364765567, -34.266179428989005 ], [ -71.455784914357892, -34.265923864920339 ], [ -71.455332500322911, -34.265245346352543 ], [ -71.455049092630574, -34.264820231582249 ], [ -71.454883495394455, -34.264304424636599 ], [ -71.454899306641778, -34.263927300787586 ], [ -71.455235175048429, -34.263599154074427 ], [ -71.455453290490965, -34.263476835392389 ], [ -71.456074457543636, -34.263339346656238 ], [ -71.456376765789571, -34.263148205089735 ], [ -71.456529066162844, -34.262708299502762 ], [ -71.456543358359013, -34.262591101529814 ], [ -71.456597998386158, -34.262481808025328 ], [ -71.456607473815779, -34.262257173498007 ], [ -71.456578707065432, -34.262161148285351 ], [ -71.456585467786283, -34.261999122984008 ], [ -71.456525837617704, -34.261508741302151 ], [ -71.456400545093459, -34.26130519908196 ], [ -71.456173112324763, -34.260987678352663 ], [ -71.455920611169759, -34.260829669632919 ], [ -71.455814144638907, -34.260530180363801 ], [ -71.455676597297554, -34.260070310730882 ], [ -71.455683508935365, -34.259907249395454 ], [ -71.455787773695434, -34.259332710069685 ], [ -71.455846675330307, -34.25904881303731 ], [ -71.455922088898404, -34.258922855626452 ], [ -71.456270306445248, -34.258328950554905 ], [ -71.456362291235394, -34.258063297007176 ], [ -71.456439082819131, -34.257841079296156 ], [ -71.456503608806003, -34.257576344872263 ], [ -71.456483716512366, -34.257329699242099 ], [ -71.456407087523672, -34.257218015558308 ], [ -71.456366914864176, -34.256989723641695 ], [ -71.456426952867872, -34.256521757207338 ], [ -71.456518933166436, -34.256256029644412 ], [ -71.456525978653204, -34.25608845923221 ], [ -71.456492610731985, -34.255919779954731 ], [ -71.456295081980784, -34.25581340095323 ], [ -71.456011192791436, -34.255838737572553 ], [ -71.455688225090611, -34.255829333235752 ], [ -71.455364010528143, -34.25585355686291 ], [ -71.454906489570789, -34.255890789585209 ], [ -71.454644253373047, -34.255743016877723 ], [ -71.454351585846752, -34.255558113521097 ], [ -71.454054761815627, -34.255230088596896 ], [ -71.453930126858168, -34.254898612019645 ], [ -71.453921904578365, -34.254612514853484 ], [ -71.453913593365343, -34.25432641968451 ], [ -71.453962706956872, -34.254039175633714 ], [ -71.454119743248327, -34.253511290296345 ], [ -71.454048467320419, -34.253035615066118 ], [ -71.453807695468086, -34.252658829030899 ], [ -71.453621576219319, -34.252185453760141 ], [ -71.453490202998907, -34.251615635386081 ], [ -71.453416077614932, -34.251044669658548 ], [ -71.453399460578794, -34.250472478588357 ], [ -71.453385615743628, -34.249995726577097 ], [ -71.453139403693939, -34.249428132885136 ], [ -71.45308839914874, -34.248918151892198 ], [ -71.453058447520533, -34.248618678881037 ], [ -71.452998665536697, -34.24848641867117 ], [ -71.452865114800019, -34.247559332000471 ], [ -71.452944685771257, -34.246872143618845 ], [ -71.453461159567439, -34.246153090316668 ], [ -71.454137464313931, -34.245514511489681 ], [ -71.454952127580498, -34.244780542181068 ], [ -71.455856780478925, -34.244285384798317 ], [ -71.456300873419423, -34.243751669065432 ], [ -71.456632901528209, -34.243315620099423 ], [ -71.457418217732737, -34.242852311699181 ], [ -71.458100594192246, -34.242427400863129 ], [ -71.458891841074276, -34.24176499903524 ], [ -71.459974485264809, -34.241166240906011 ], [ -71.46048122940816, -34.240675197172159 ], [ -71.461204013885748, -34.239651011851514 ], [ -71.461891722744781, -34.238910021031863 ], [ -71.462839599879743, -34.237564096800021 ], [ -71.460709466169007, -34.238593592128282 ], [ -71.457304027487083, -34.239916060362987 ], [ -71.453959048118733, -34.240635381565852 ], [ -71.450419377777166, -34.242383466110915 ], [ -71.447472678168111, -34.245237701799518 ], [ -71.44502234266929, -34.248298582618681 ], [ -71.443847700213894, -34.251430359863875 ], [ -71.442172436532104, -34.255089536219003 ] ] ] } },
{ "type": "Feature", "properties": { "capa": "colegios", "popup": "<strong>ESCUELA MUNICIPAL EL SALTO</strong><br><br><strong>Dirección:</strong> EL SALTO DE ALMAHUE 0", "etiqueta": "" }, "geometry": { "type": "Point", "coordinates": [ -71.28791, -34.440708 ] } },
{ "type": "Feature", "properties": { "capa": "colegios", "popup": "<strong>ESCUELA FERNANDO HUERTA PENA</strong><br><br><strong>Dirección:</strong> CAMINO A PICHIDEGUA 18", "etiqueta": "" }, "geometry": { "type": "Point", "coordinates": [ -71.194839, -34.417332 ] } },
{ "type": "Feature", "properties": { "capa": "colegios", "popup": "<strong>ESCUELA MUNICIPAL DE CALEUCHE</strong><br><br><strong>Dirección:</strong> CAMINO A PICHIDEGUA 15", "etiqueta": "" }, "geometry": { "type": "Point", "coordinates": [ -71.373161, -34.416889 ] } },
{ "type": "Feature", "properties": { "capa": "colegios", "popup": "<strong>ESCUELA LARMAHUE</strong><br><br><strong>Dirección:</strong> LARMAHUE PORTEZUELO 0", "etiqueta": "" }, "geometry": { "type": "Point", "coordinates": [ -71.24247, -34.413479 ] } },
{ "type": "Feature", "properties": { "capa": "colegios", "popup": "<strong>ESCUELA AMELIA LYNCH DE LYON</strong><br><br><strong>Dirección:</strong> CAMINO PUBLICO 10", "etiqueta": "" }, "geometry": { "type": "Point", "coordinates": [ -71.301964, -34.408218 ] } },
{ "type": "Feature", "properties": { "capa": "colegios", "popup": "<strong>ESCUELA MUNICIPAL DE SAN ROBERTO</strong><br><br><strong>Dirección:</strong> CAMINO PUBLICO 14", "etiqueta": "" }, "geometry": { "type": "Point", "coordinates": [ -71.366707, -34.401371 ] } },
{ "type": "Feature", "properties": { "capa": "colegios", "popup": "<strong>ESCUELA ESPECIAL DE PICHIDEGUA</strong><br><br><strong>Dirección:</strong> CAMINO A PICHIDEGUA 0", "etiqueta": "" }, "geometry": { "type": "Point", "coordinates": [ -71.237274, -34.399597 ] } },
{ "type": "Feature", "properties": { "capa": "colegios", "popup": "<strong>ESCUELA ESP. DE LENGUAJE TREMUN</strong><br><br><strong>Dirección:</strong> AVENIDA IGNACIO CARRERA PINTO 51", "etiqueta": "" }, "geometry": { "type": "Point", "coordinates": [ -71.259152, -34.369902 ] } },
{ "type": "Feature", "properties": { "capa": "colegios", "popup": "<strong>CENTRO EDUCATIVO SIGLO XXI</strong><br><br><strong>Dirección:</strong> IGNACIO CARRERA PINTO 0", "etiqueta": "" }, "geometry": { "type": "Point", "coordinates": [ -71.265259, -34.366261 ] } },
{ "type": "Feature", "properties": { "capa": "colegios", "popup": "<strong>LICEO LATINOAMERICANO</strong><br><br><strong>Dirección:</strong> INDEPENDENCIA 840", "etiqueta": "" }, "geometry": { "type": "Point", "coordinates": [ -71.278816, -34.361252 ] } },
{ "type": "Feature", "properties": { "capa": "colegios", "popup": "<strong>COLEGIO DE ADULTOS RENACER</strong><br><br><strong>Dirección:</strong> INDEPENDENCIA 840", "etiqueta": "" }, "geometry": { "type": "Point", "coordinates": [ -71.278597, -34.361139 ] } },
{ "type": "Feature", "properties": { "capa": "colegios", "popup": "<strong>ESCUELA BASICA JOSE BERNALES CASTILLO</strong><br><br><strong>Dirección:</strong> EL TOCO 0", "etiqueta": "" }, "geometry": { "type": "Point", "coordinates": [ -71.412109, -34.35754 ] } },
{ "type": "Feature", "properties": { "capa": "colegios", "popup": "<strong>ESCUELA ENRIQUE SERRANO DE VIALE RIGO</strong><br><br><strong>Dirección:</strong> SANTA MARIA 439", "etiqueta": "" }, "geometry": { "type": "Point", "coordinates": [ -71.283821, -34.356171 ] } },
{ "type": "Feature", "properties": { "capa": "colegios", "popup": "<strong>ELENA GAETE DARBEAUX</strong><br><br><strong>Dirección:</strong> EL TRUENO 1026", "etiqueta": "" }, "geometry": { "type": "Point", "coordinates": [ -71.283989, -34.354568 ] } },
{ "type": "Feature", "properties": { "capa": "colegios", "popup": "<strong>ESCUELA REINO DE DINAMARCA</strong><br><br><strong>Dirección:</strong> CAMINO PUBLICO 0", "etiqueta": "" }, "geometry": { "type": "Point", "coordinates": [ -71.344292, -34.309929 ] } },
{ "type": "Feature", "properties": { "capa": "colegios", "popup": "<strong>ESCUELA BASICA PATAGUAS CERRO</strong><br><br><strong>Dirección:</strong> CAMINO PICHIDEGUA 12", "etiqueta": "" }, "geometry": { "type": "Point", "coordinates": [ -71.389183, -34.308109 ] } },
{ "type": "Feature", "properties": { "capa": "colegios", "popup": "<strong>ESCUELA BASICA SAN JOSE</strong><br><br><strong>Dirección:</strong> CAMINO A PICHIDEGUA 20", "etiqueta": "" }, "geometry": { "type": "Point", "coordinates": [ -71.438766, -34.29586 ] } },
{ "type": "Feature", "properties": { "capa": "jardines", "popup": "<strong>RABITO</strong><br><br><strong>Dirección:</strong> AVDA.IGNACIO CARRERA PINTO 104 MAL PASO ", "etiqueta": "" }, "geometry": { "type": "MultiPoint", "coordinates": [ [ -71.263065, -34.367792 ] ] } },
{ "type": "Feature", "properties": { "capa": "jardines", "popup": "<strong>LOS POLLITOS</strong><br><br><strong>Dirección:</strong> CAMINO PUBLICO S/N  PICHIDEGUA KM 21 ", "etiqueta": "" }, "geometry": { "type": "MultiPoint", "coordinates": [ [ -71.412146, -34.357661 ] ] } },
{ "type": "Feature", "properties": { "capa": "jardines", "popup": "<strong>LA CUNCUNITA</strong><br><br><strong>Dirección:</strong> PATAGUA CERRO S/N (AL LADO SUPERMERCADO CARRENO) ", "etiqueta": "" }, "geometry": { "type": "MultiPoint", "coordinates": [ [ -71.387333, -34.309456 ] ] } },
{ "type": "Feature", "properties": { "capa": "jardines", "popup": "<strong>LOS TIERNECITOS</strong><br><br><strong>Dirección:</strong> MIRAFLORES CON SANTA MARIA DE PICHIDEGUA ", "etiqueta": "" }, "geometry": { "type": "MultiPoint", "coordinates": [ [ -71.279333, -34.36075 ] ] } },
{ "type": "Feature", "properties": { "capa": "jardines", "popup": "<strong>FRUTITOS DEL CAMPO</strong><br><br><strong>Dirección:</strong> CAMINO PUBLICO LARMAHUE S/N SECTOR SANTA AMELIA ", "etiqueta": "" }, "geometry": { "type": "MultiPoint", "coordinates": [ [ -71.366891, -34.402705 ] ] } },
{ "type": "Feature", "properties": { "capa": "jardines", "popup": "<strong>RAYITO DE SOL</strong><br><br><strong>Dirección:</strong> SAN ROBERTO S/N ", "etiqueta": "" }, "geometry": { "type": "MultiPoint", "coordinates": [ [ -71.299947, -34.409155 ] ] } },
{ "type": "Feature", "properties": { "capa": "jardines", "popup": "<strong>PASITOS DE LA ORILLA</strong><br><br><strong>Dirección:</strong> CAMINO PUBLICO S/N LOCALIDAD PATAGUA ORILLA ", "etiqueta": "" }, "geometry": { "type": "MultiPoint", "coordinates": [ [ -71.338685, -34.312468 ] ] } },
{ "type": "Feature", "properties": { "capa": "jardines", "popup": "<strong>RUEDITAS DE LARMAHUE</strong><br><br><strong>Dirección:</strong> POBLACION 1 DE MAYO, SECTOR PORTEZUELOS LAMARHUE ", "etiqueta": "" }, "geometry": { "type": "MultiPoint", "coordinates": [ [ -71.233402, -34.413691 ] ] } },
{ "type": "Feature", "properties": { "capa": "bomberos", "popup": "<strong>Cuerpo de Bomberos</strong><br><br><strong>Dirección:</strong> Covadonga 17", "etiqueta": "" }, "geometry": { "type": "Point", "coordinates": [ -71.282322683427083, -34.357064475674491 ] } },
{ "type": "Feature", "properties": { "capa": "comisarias", "popup": "<strong>RETEN ALMAHUE VIEJO</strong><br><br><strong>Dirección:</strong> PORTEZUELO S/N", "etiqueta": "" }, "geometry": { "type": "Point", "coordinates": [ -71.236691128999936, -34.412651159999939 ] } },
{ "type": "Feature", "properties": { "capa": "comisarias", "popup": "<strong>TCIA. PICHIDEGUA</strong><br><br><strong>Dirección:</strong> INDEPENDENCIA S/N", "etiqueta": "" }, "geometry": { "type": "Point", "coordinates": [ -71.278996710999934, -34.361055591999978 ] } },
{ "type": "Feature", "properties": { "capa": "salud", "popup": "<strong>Posta de Salud Rural Larmahue</strong><br><br><strong>Tipo de atención:</strong> Posta de Salud Rural (PSR)<br><strong>Dirección:</strong>  NA", "etiqueta": "" }, "geometry": { "type": "Point", "coordinates": [ -71.22743, -34.41452 ] } },
{ "type": "Feature", "properties": { "capa": "salud", "popup": "<strong>Posta de Salud Rural Santa Amelia</strong><br><br><strong>Tipo de atención:</strong> Posta de Salud Rural (PSR)<br><strong>Dirección:</strong>  NA", "etiqueta": "" }, "geometry": { "type": "Point", "coordinates": [ -71.30117, -34.40851 ] } },
{ "type": "Feature", "properties": { "capa": "salud", "popup": "<strong>Posta de Salud Rural San Roberto</strong><br><br><strong>Tipo de atención:</strong> Posta de Salud Rural (PSR)<br><strong>Dirección:</strong>  NA", "etiqueta": "" }, "geometry": { "type": "Point", "coordinates": [ -71.36671, -34.40309 ] } },
{ "type": "Feature", "properties": { "capa": "salud", "popup": "<strong>Hospital de Pichidegua</strong><br><br><strong>Tipo de atención:</strong> Hospital<br><strong>Dirección:</strong>  160", "etiqueta": "" }, "geometry": { "type": "Point", "coordinates": [ -71.28325, -34.35925 ] } },
{ "type": "Feature", "properties": { "capa": "salud", "popup": "<strong>Posta de Salud Rural Patagua Orilla</strong><br><br><strong>Tipo de atención:</strong> Posta de Salud Rural (PSR)<br><strong>Dirección:</strong>  NA", "etiqueta": "" }, "geometry": { "type": "Point", "coordinates": [ -71.34112, -34.31275 ] } },
{ "type": "Feature", "properties": { "capa": "salud", "popup": "<strong>Posta de Salud Rural Patagua Cerro</strong><br><br><strong>Tipo de atención:</strong> Posta de Salud Rural (PSR)<br><strong>Dirección:</strong>  NA", "etiqueta": "" }, "geometry": { "type": "Point", "coordinates": [ -71.38972, -34.30771 ] } },
{ "type": "Feature", "properties": { "capa": "salud", "popup": "<strong>Posta de Salud Rural San José de Marchigue</strong><br><br><strong>Tipo de atención:</strong> Posta de Salud Rural (PSR)<br><strong>Dirección:</strong>  NA", "etiqueta": "" }, "geometry": { "type": "Point", "coordinates": [ -71.43905, -34.2956 ] } }
]
}
