{
"type": "FeatureCollection",
"name": "6204",
"crs": { "type": "name", "properties": { "name": "urn:ogc:def:crs:OGC:1.3:CRS84" } },
"features": [
{ "type": "Feature", "properties": { "capa": "comuna", "popup": "", "etiqueta": "" }, "geometry": { "type": "Polygon", "coordinates": [ [ [ -71.80071281536047, -34.207284298321561 ], [ -71.799924331696246, -34.208402127502687 ], [ -71.799900878480798, -34.209159899151935 ], [ -71.799128811528405, -34.210471126151397 ], [ -71.798306138882793, -34.2117204371024 ], [ -71.797889846105392, -34.212550242390982 ], [ -71.79748695619206, -34.21307327219418 ], [ -71.796770637787873, -34.21380631372233 ], [ -71.795410406988012, -34.21373366372012 ], [ -71.794723601834178, -34.213695270577787 ], [ -71.79432410216269, -34.214475055840687 ], [ -71.794464356128017, -34.214985691180509 ], [ -71.794906716218321, -34.215489510816681 ], [ -71.795385359262937, -34.216709047470822 ], [ -71.795425911011492, -34.21793857524397 ], [ -71.795473343855136, -34.219370878688494 ], [ -71.795530873762559, -34.221113850840879 ], [ -71.796181599879631, -34.2221267447716 ], [ -71.79719556966333, -34.222923830756827 ], [ -71.797289765207395, -34.223615923049465 ], [ -71.796636292042166, -34.224676447690854 ], [ -71.796183557308638, -34.225917304228425 ], [ -71.79573906821112, -34.226378138891505 ], [ -71.79478475554545, -34.226999404006726 ], [ -71.793144439023166, -34.226937627235642 ], [ -71.790924206984386, -34.227934797300662 ], [ -71.790451244885617, -34.228797477091 ], [ -71.79083339898726, -34.229996702442008 ], [ -71.790567877650517, -34.231089050383311 ], [ -71.789471513490682, -34.23136635296278 ], [ -71.78898594982509, -34.231877725166264 ], [ -71.789309217563229, -34.232537433805433 ], [ -71.790214772370234, -34.232814349130038 ], [ -71.791557242578591, -34.233653698072111 ], [ -71.792778872313249, -34.234126103662405 ], [ -71.793199988145389, -34.234702485365467 ], [ -71.79314428720788, -34.236132560208532 ], [ -71.793318481321265, -34.238287599862872 ], [ -71.793368296497022, -34.239791922713053 ], [ -71.792818532034715, -34.240344283351845 ], [ -71.792092724726189, -34.240735972467483 ], [ -71.791652907766448, -34.242323528921951 ], [ -71.79202138501789, -34.243176048843139 ], [ -71.792039542664753, -34.243725504527752 ], [ -71.791393285666203, -34.244294679037068 ], [ -71.790836561955373, -34.244699495010885 ], [ -71.790757280241664, -34.245174516367058 ], [ -71.790695265944336, -34.246226116315249 ], [ -71.790237228455695, -34.246687242302755 ], [ -71.789113478256084, -34.247186195645945 ], [ -71.788190099975523, -34.247995983470119 ], [ -71.787346095036852, -34.248330667594551 ], [ -71.786912913033817, -34.249602654872177 ], [ -71.786767138921093, -34.250944535109902 ], [ -71.78623138997385, -34.251984459588513 ], [ -71.785579919153378, -34.252395913059758 ], [ -71.785225607435649, -34.252751866076764 ], [ -71.784927625476129, -34.252960614696825 ], [ -71.78418691871029, -34.253374088215267 ], [ -71.783635299226944, -34.253936569142141 ], [ -71.783656079056072, -34.254567052461645 ], [ -71.783869447800669, -34.255274316609302 ], [ -71.783767764798725, -34.256196179553612 ], [ -71.783351659769238, -34.256863692612441 ], [ -71.782798599388144, -34.25754790450258 ], [ -71.782293207209307, -34.258040651016685 ], [ -71.781781559162823, -34.258340943586411 ], [ -71.781263484568782, -34.258448932022901 ], [ -71.78062494679348, -34.258415354840359 ], [ -71.780280502170825, -34.25882653036571 ], [ -71.780312687010834, -34.259036856487207 ], [ -71.780388410497707, -34.259216212727466 ], [ -71.780208954951718, -34.259535763330938 ], [ -71.779747145437184, -34.259942881085379 ], [ -71.779282842199436, -34.260268969891875 ], [ -71.779488337210566, -34.260737597044482 ], [ -71.779883583359165, -34.261201843421603 ], [ -71.77971717224942, -34.261917808788446 ], [ -71.779358156054542, -34.262556984771109 ], [ -71.778991187074453, -34.262957369709881 ], [ -71.778621612081722, -34.263281379930085 ], [ -71.77796216511986, -34.263454078754016 ], [ -71.77712053981837, -34.263869727204629 ], [ -71.776663819259937, -34.264430027283098 ], [ -71.776352084991728, -34.265117675841573 ], [ -71.775396627872396, -34.266351764028272 ], [ -71.775226489652525, -34.266958439443464 ], [ -71.774256155533749, -34.267413467445799 ], [ -71.773396891811672, -34.267721747989725 ], [ -71.773190444586334, -34.268496286938102 ], [ -71.772816632240421, -34.269467136287517 ], [ -71.772615002679956, -34.270385864605167 ], [ -71.773463746231741, -34.271521551514077 ], [ -71.773852384373114, -34.272763879202174 ], [ -71.773343688190664, -34.273160295282651 ], [ -71.773005697963328, -34.273456620300664 ], [ -71.772963540027035, -34.273938767462255 ], [ -71.773165761577275, -34.2748003492244 ], [ -71.772843562834325, -34.275577508656106 ], [ -71.772248168447163, -34.277551648327567 ], [ -71.771989244337874, -34.278346278054805 ], [ -71.771728739193676, -34.279325858670205 ], [ -71.770933606199733, -34.279605200931435 ], [ -71.770161681181122, -34.280401908900814 ], [ -71.769264910999311, -34.281336429593296 ], [ -71.769467031039923, -34.282198092895321 ], [ -71.769093122574262, -34.283168860477275 ], [ -71.768719208718721, -34.284139699977047 ], [ -71.767798632283544, -34.284352960675768 ], [ -71.766406810430098, -34.284336265583541 ], [ -71.76509283478255, -34.285497591239427 ], [ -71.764756818153899, -34.285924339745954 ], [ -71.764450289622758, -34.286314383432185 ], [ -71.762654835847542, -34.288366747436491 ], [ -71.761516671280873, -34.289017915121974 ], [ -71.761125331905461, -34.289459785683135 ], [ -71.760490593105473, -34.290000634747273 ], [ -71.760200454336697, -34.290370507795295 ], [ -71.760319575434949, -34.290881139192066 ], [ -71.760477887334105, -34.291651275216189 ], [ -71.760531893150656, -34.291944783831752 ], [ -71.760590807361936, -34.292385510169389 ], [ -71.760432621226926, -34.29297853050484 ], [ -71.760360756902529, -34.293495904107509 ], [ -71.760249433180931, -34.294161569244885 ], [ -71.760273749677353, -34.294344458878911 ], [ -71.760308169525786, -34.294602298054443 ], [ -71.760246520842784, -34.295214336383587 ], [ -71.759847451464324, -34.295750017288142 ], [ -71.759510948847108, -34.296201945416563 ], [ -71.756891715701855, -34.29784824437931 ], [ -71.755645229583266, -34.29909723665461 ], [ -71.753827102330277, -34.300537938200542 ], [ -71.752493766191733, -34.301555126411138 ], [ -71.751441893791252, -34.302382312592684 ], [ -71.750718637698128, -34.302650536159234 ], [ -71.750353085361255, -34.302855333300244 ], [ -71.749590371667594, -34.303357354297631 ], [ -71.749019583034368, -34.303774270283043 ], [ -71.747872810810648, -34.304446632664714 ], [ -71.747212619145415, -34.305108064438393 ], [ -71.74664706948694, -34.305686505759589 ], [ -71.746130720556565, -34.306742894290956 ], [ -71.746007907382506, -34.306994074230431 ], [ -71.745255564738784, -34.307819144003183 ], [ -71.745155716994972, -34.307906677247281 ], [ -71.744592695195692, -34.308399759325809 ], [ -71.743880630314379, -34.308885545212128 ], [ -71.743735150849062, -34.308984735179649 ], [ -71.742870671508442, -34.309367959544666 ], [ -71.742198927508639, -34.309665701758632 ], [ -71.740667933261506, -34.310508259540697 ], [ -71.739415654805981, -34.310940389609428 ], [ -71.73773103337389, -34.311345623796363 ], [ -71.737192801483204, -34.311475080562289 ], [ -71.734401616419504, -34.312507390791694 ], [ -71.73190756710234, -34.313694587029154 ], [ -71.729502983699263, -34.314637295261264 ], [ -71.727856166069273, -34.314916528282829 ], [ -71.724067808819399, -34.315243272668873 ], [ -71.720665067778256, -34.315542571452326 ], [ -71.72049457652048, -34.315557512286922 ], [ -71.720376806488431, -34.315567883392553 ], [ -71.720181591797399, -34.31558891199618 ], [ -71.719019258058012, -34.315713992087112 ], [ -71.717831288197047, -34.315841845426036 ], [ -71.716417316583659, -34.315993904126167 ], [ -71.715926247143699, -34.3148659069698 ], [ -71.714656338352412, -34.315016667516815 ], [ -71.713600328311742, -34.315132469471692 ], [ -71.713392398866176, -34.315153917393388 ], [ -71.712170620909504, -34.315287781474723 ], [ -71.71103987013889, -34.315437711752466 ], [ -71.709487781652228, -34.315634768757413 ], [ -71.707923560519347, -34.31580903460916 ], [ -71.706360131700563, -34.315983263001364 ], [ -71.704790760526166, -34.316152802624835 ], [ -71.703215357164638, -34.316317654991977 ], [ -71.701663351322978, -34.31651018180554 ], [ -71.700110210909145, -34.316698060608061 ], [ -71.698534164353845, -34.316826828753925 ], [ -71.697018792707823, -34.317002242147971 ], [ -71.695615311620301, -34.317167123266593 ], [ -71.694201325633856, -34.31731818758729 ], [ -71.692770787289987, -34.317477872263737 ], [ -71.692892684182453, -34.319022257628369 ], [ -71.692950495262565, -34.319402415796944 ], [ -71.691816340775333, -34.320412736078218 ], [ -71.69033504402465, -34.321688410698343 ], [ -71.690090244126566, -34.320834629445528 ], [ -71.689789135131534, -34.319722431291332 ], [ -71.68948790845721, -34.318592288861801 ], [ -71.68941794227301, -34.318324349928815 ], [ -71.689370745686276, -34.318292968307297 ], [ -71.689366272974482, -34.318152825560141 ], [ -71.688540667329463, -34.317503145781359 ], [ -71.68766817052493, -34.317188361439939 ], [ -71.687204044255282, -34.317055432273676 ], [ -71.681675947642418, -34.313169604185738 ], [ -71.679199398405288, -34.31122029901541 ], [ -71.67808827582364, -34.310624425359933 ], [ -71.677557573611665, -34.310206747953437 ], [ -71.677085841306521, -34.309835409962872 ], [ -71.676564318978421, -34.309703694213361 ], [ -71.675812901599457, -34.309577001679244 ], [ -71.674638322924437, -34.308791728829483 ], [ -71.671749243952661, -34.30651732805299 ], [ -71.6707031495161, -34.306158572883035 ], [ -71.669677139612645, -34.305947587728831 ], [ -71.669616558128197, -34.300780156670697 ], [ -71.666169849943813, -34.287347507638735 ], [ -71.665840296693617, -34.287198416375183 ], [ -71.66364455362779, -34.287624831158375 ], [ -71.662353812905081, -34.288157742315249 ], [ -71.661232347121228, -34.287677282101008 ], [ -71.660592544517996, -34.286523762019478 ], [ -71.659949883475534, -34.285284633304904 ], [ -71.659024385170909, -34.284637645147981 ], [ -71.658122512558265, -34.284742892155919 ], [ -71.65774146158779, -34.285418252562891 ], [ -71.657564220388963, -34.286174856052796 ], [ -71.657384100089672, -34.286845854099965 ], [ -71.656796754607441, -34.287358935422141 ], [ -71.655876412632551, -34.286878565643839 ], [ -71.654845154771223, -34.286062506310138 ], [ -71.65396903236622, -34.285536113441673 ], [ -71.652620799465296, -34.285696043369875 ], [ -71.652128750861692, -34.286040283502835 ], [ -71.651620893705697, -34.285884528483095 ], [ -71.650932415888803, -34.285439642757822 ], [ -71.650179763326307, -34.284829461539921 ], [ -71.649166845469807, -34.28460338888776 ], [ -71.647842011885444, -34.284046040028755 ], [ -71.646705796662928, -34.28296631630851 ], [ -71.644983343580961, -34.282687969440616 ], [ -71.643859501753184, -34.282126308740679 ], [ -71.642550366228392, -34.282073478010155 ], [ -71.640762584964008, -34.281764946504204 ], [ -71.638733830624659, -34.282236866007167 ], [ -71.637421927390506, -34.282098373983899 ], [ -71.63580088781589, -34.281718604368038 ], [ -71.634445541156239, -34.280521697806016 ], [ -71.633347042599269, -34.280432628474635 ], [ -71.632161950940471, -34.281129780003369 ], [ -71.631383941632464, -34.281980351668025 ], [ -71.630590148924909, -34.282330916912088 ], [ -71.628381670443318, -34.282459501719785 ], [ -71.627191406285121, -34.282989889333692 ], [ -71.626392397959037, -34.283173783790865 ], [ -71.626007314451229, -34.283321768828522 ], [ -71.625389963441904, -34.28327644219894 ], [ -71.623967129948213, -34.282806597922225 ], [ -71.622858957433948, -34.282744745581418 ], [ -71.621044624664719, -34.282616763175078 ], [ -71.61967406683236, -34.283818034703806 ], [ -71.619705029065258, -34.284818054937212 ], [ -71.618919075955205, -34.285420802849799 ], [ -71.617836637478874, -34.286192208385501 ], [ -71.616648763737643, -34.286803606587405 ], [ -71.615264909042452, -34.28758586236318 ], [ -71.614166915338657, -34.287857300903198 ], [ -71.61347122315172, -34.288124574815328 ], [ -71.612798508073112, -34.289139615510187 ], [ -71.611520306933443, -34.290086406062144 ], [ -71.610948031588421, -34.291099221023892 ], [ -71.610881246338622, -34.292186997394161 ], [ -71.610388888714553, -34.292531007583548 ], [ -71.609280589537818, -34.292469037716721 ], [ -71.607870893905172, -34.292417907847955 ], [ -71.606881086107677, -34.292939328185916 ], [ -71.605999633099756, -34.293710859144149 ], [ -71.6048088308507, -34.294236541775291 ], [ -71.603001998115786, -34.294356130619072 ], [ -71.600870463033218, -34.293734254007404 ], [ -71.599643575459211, -34.29309320879743 ], [ -71.598933474295094, -34.293473405700382 ], [ -71.597862560305543, -34.29405053562153 ], [ -71.597279918402151, -34.294729998004044 ], [ -71.596591648994405, -34.295244940706276 ], [ -71.595601734297375, -34.295766274479938 ], [ -71.594601729723124, -34.295954300630108 ], [ -71.594039972751759, -34.295763407615731 ], [ -71.592970097214689, -34.295236096638526 ], [ -71.591985507730669, -34.295928551598088 ], [ -71.592222521031857, -34.297090980133035 ], [ -71.592145067389751, -34.297845389460022 ], [ -71.591748056949939, -34.298020625071672 ], [ -71.591034208014477, -34.297702146153867 ], [ -71.59041616081079, -34.297318567250997 ], [ -71.59019650385919, -34.296633513845094 ], [ -71.589583162030991, -34.29631297471218 ], [ -71.588590737441052, -34.296748637618592 ], [ -71.588020857004594, -34.297846970166589 ], [ -71.587310930113645, -34.298438904089906 ], [ -71.585118338337864, -34.29832747241138 ], [ -71.58383203529263, -34.299021802420057 ], [ -71.582867339898911, -34.300376364586512 ], [ -71.581849451663942, -34.299983155831519 ], [ -71.580844257522273, -34.300004350115557 ], [ -71.579658294497662, -34.30069644815395 ], [ -71.579175952190695, -34.301373713640636 ], [ -71.578889583651147, -34.301880092826096 ], [ -71.578296627291664, -34.302226096612884 ], [ -71.577703577507393, -34.302572174665805 ], [ -71.576828255501283, -34.303122556531051 ], [ -71.575811418295217, -34.303198014539134 ], [ -71.575323941218073, -34.303708616200218 ], [ -71.574645729348248, -34.304556817732674 ], [ -71.574045170546512, -34.304655040720753 ], [ -71.573233035139182, -34.304419687070798 ], [ -71.572606908487828, -34.303680074189415 ], [ -71.572082613958784, -34.303722624882369 ], [ -71.571794923997459, -34.303449212502478 ], [ -71.56976919698063, -34.302991476594741 ], [ -71.569201198514691, -34.302110822283993 ], [ -71.568308233596397, -34.30126866556499 ], [ -71.568008576278871, -34.299801010182847 ], [ -71.566816889189269, -34.29854577387318 ], [ -71.565889212470083, -34.297812444708619 ], [ -71.565443990347276, -34.296401892144871 ], [ -71.564805392384841, -34.295247815009546 ], [ -71.56446069084403, -34.29383515249063 ], [ -71.564506545347712, -34.293122035683488 ], [ -71.564015518128571, -34.292424593258353 ], [ -71.562467198972854, -34.291122789541184 ], [ -71.562725626313792, -34.289697422657959 ], [ -71.56217738808914, -34.288207921048318 ], [ -71.561526092440161, -34.286634829340549 ], [ -71.56067695722291, -34.285751072513257 ], [ -71.559480191957007, -34.285505718600952 ], [ -71.55887451006322, -34.285310999420361 ], [ -71.558261362271097, -34.285116432687602 ], [ -71.557828998633255, -34.284120258565622 ], [ -71.557688193102379, -34.282788981392088 ], [ -71.556956579083831, -34.281884648107301 ], [ -71.555222765008466, -34.281086967723631 ], [ -71.552350339005429, -34.279226699741848 ], [ -71.550674197669608, -34.277007710603527 ], [ -71.54946918137783, -34.275806846512779 ], [ -71.548691032830945, -34.275786929579787 ], [ -71.547078360164903, -34.274495190114926 ], [ -71.545344876669574, -34.273697356467373 ], [ -71.543844843757, -34.273976446482884 ], [ -71.543251921533496, -34.274322280133021 ], [ -71.542923112986685, -34.274865574568885 ], [ -71.542282340202945, -34.275023111527496 ], [ -71.540962891120373, -34.275122647314916 ], [ -71.539674004520393, -34.275735330070418 ], [ -71.538477980364576, -34.276093720047122 ], [ -71.536759206782023, -34.275795738579035 ], [ -71.536256691907028, -34.275806145771753 ], [ -71.534359543451743, -34.276260177227833 ], [ -71.532530483701763, -34.275630824487614 ], [ -71.531002942578567, -34.274995286500051 ], [ -71.528085722982198, -34.274974372442017 ], [ -71.527002439191179, -34.275745009805853 ], [ -71.526725897322549, -34.276584665455708 ], [ -71.526248719430129, -34.277432890692793 ], [ -71.525461903039101, -34.278030638052655 ], [ -71.523895241183581, -34.278427991303673 ], [ -71.523182548379879, -34.279163927307614 ], [ -71.523016578342933, -34.280334892299756 ], [ -71.522747520338939, -34.281426668512232 ], [ -71.522765301591662, -34.282021411769627 ], [ -71.522789945973173, -34.282845696600333 ], [ -71.523224410770439, -34.283923126125785 ], [ -71.523658797414285, -34.285000555941195 ], [ -71.525088512003038, -34.285719363273593 ], [ -71.526116105636319, -34.286450955074201 ], [ -71.526965328888494, -34.287934424026744 ], [ -71.527304384517748, -34.289180564496164 ], [ -71.528347025830342, -34.290412105590121 ], [ -71.528779305026546, -34.291403887908203 ], [ -71.529030301503454, -34.293071104368309 ], [ -71.528462077560377, -34.29425023439817 ], [ -71.52799968593753, -34.295594083600889 ], [ -71.527124868784639, -34.296612777344805 ], [ -71.52644841671443, -34.2975463541243 ], [ -71.524404665001427, -34.299842356189622 ], [ -71.5217705297039, -34.301127179421563 ], [ -71.520307851435788, -34.300760633769187 ], [ -71.518764988647135, -34.299624912996812 ], [ -71.51742540203081, -34.298566158136474 ], [ -71.5165006843622, -34.297917978739612 ], [ -71.515681803505373, -34.297434450758018 ], [ -71.515251973116648, -34.296523808928505 ], [ -71.515214755016117, -34.29527586191093 ], [ -71.514787713896354, -34.294446252399226 ], [ -71.512970951184286, -34.294235625965101 ], [ -71.511965770517335, -34.294256251730054 ], [ -71.509486431112947, -34.294293575802236 ], [ -71.507278346991754, -34.293757288920496 ], [ -71.504884113977383, -34.293229274403373 ], [ -71.503599983058521, -34.292827407550234 ], [ -71.502199978451159, -34.293108382953243 ], [ -71.501317518431804, -34.293879276335751 ], [ -71.500133337664721, -34.29465167142331 ], [ -71.498098676004062, -34.295612750536819 ], [ -71.497235983412537, -34.296401232392618 ], [ -71.496375098231354, -34.296815381386523 ], [ -71.495085271095277, -34.297427701181888 ], [ -71.493182672561176, -34.297718889054408 ], [ -71.491475907657332, -34.297834796498996 ], [ -71.489772020057345, -34.29803621911617 ], [ -71.487873944540709, -34.298493994646037 ], [ -71.486511531733029, -34.298823658569248 ], [ -71.483315747261997, -34.300840402469952 ], [ -71.481910793835723, -34.301734311061445 ], [ -71.481437546072698, -34.30196479974407 ], [ -71.479534298056663, -34.302251287898898 ], [ -71.477633992921469, -34.302623282028527 ], [ -71.476618894853786, -34.302310296343755 ], [ -71.475694430510046, -34.301661869785967 ], [ -71.475128537695156, -34.301186465454393 ], [ -71.47432916016146, -34.300972715403546 ], [ -71.473387682624576, -34.300680665370201 ], [ -71.472457572369294, -34.300776112281028 ], [ -71.47135609589715, -34.301379877394979 ], [ -71.470438514445135, -34.301903262048164 ], [ -71.4695513831863, -34.301880613024238 ], [ -71.468582739696899, -34.302247262131985 ], [ -71.468384574938483, -34.30225118326608 ], [ -71.467417334617551, -34.302270754056131 ], [ -71.466360918538399, -34.302436277060529 ], [ -71.465844315384786, -34.302415294881676 ], [ -71.464950994733641, -34.30237899996682 ], [ -71.464169104703615, -34.301986694792852 ], [ -71.464095945008566, -34.301949910662373 ], [ -71.463588546891685, -34.301790035419508 ], [ -71.463531241563075, -34.301771986525708 ], [ -71.463320304557953, -34.301762124267732 ], [ -71.463118369570296, -34.301752745845576 ], [ -71.46292374237747, -34.301743662770726 ], [ -71.462497553758922, -34.301829117843504 ], [ -71.462427661236546, -34.301843226277981 ], [ -71.46202767198325, -34.301978668464166 ], [ -71.461673483334707, -34.302164887106763 ], [ -71.461496342747196, -34.302257959911451 ], [ -71.460965098851105, -34.302537247461693 ], [ -71.460574012800592, -34.302694367449604 ], [ -71.460215376593069, -34.302731411721517 ], [ -71.459891021893441, -34.302708091345046 ], [ -71.459670984056174, -34.302563252709632 ], [ -71.45956685853497, -34.302480854990009 ], [ -71.459198547471829, -34.302393646313725 ], [ -71.458875065036338, -34.302400217392673 ], [ -71.458481364888357, -34.302467797440741 ], [ -71.457979954941152, -34.302537539096882 ], [ -71.457475848251477, -34.302517822180342 ], [ -71.456983693646663, -34.302486857632864 ], [ -71.456676704279786, -34.302372266371599 ], [ -71.455954836083777, -34.302160310714079 ], [ -71.455513067084922, -34.301869987178513 ], [ -71.454902484881259, -34.301631790969211 ], [ -71.454714439644519, -34.301558383413301 ], [ -71.454089517633975, -34.301093367715481 ], [ -71.453918115484498, -34.301429739524082 ], [ -71.453878477322576, -34.302428455587574 ], [ -71.453948543219795, -34.303068476741302 ], [ -71.454075590153806, -34.303892730228533 ], [ -71.454217408086009, -34.304631164336584 ], [ -71.454462464003939, -34.305381782336184 ], [ -71.45476849037685, -34.30586035371276 ], [ -71.455123111115029, -34.306238023315309 ], [ -71.45565734460439, -34.306762679224981 ], [ -71.455831848636535, -34.306932958727785 ], [ -71.456529785713386, -34.307614146746907 ], [ -71.456915992115285, -34.30799095587367 ], [ -71.457060076496973, -34.308076173077495 ], [ -71.457794359410215, -34.308510615188375 ], [ -71.458463122799884, -34.309243337467954 ], [ -71.458801515472445, -34.309743993561952 ], [ -71.45899598546012, -34.310247392835464 ], [ -71.459083611624507, -34.310782922953322 ], [ -71.458952829495544, -34.311233254292084 ], [ -71.45857475194866, -34.311837811612662 ], [ -71.457854808842299, -34.312610603976637 ], [ -71.457667959263205, -34.312811103743712 ], [ -71.456980250404172, -34.31389941362518 ], [ -71.456893950153159, -34.314380016937619 ], [ -71.456946051541308, -34.315376447326102 ], [ -71.457214922695741, -34.316328126909205 ], [ -71.457289294218128, -34.316573971745093 ], [ -71.457551127072307, -34.317439678551011 ], [ -71.45763962190756, -34.318004953815297 ], [ -71.457688613328216, -34.318451748937996 ], [ -71.4578436832075, -34.318836665463643 ], [ -71.457962031754604, -34.319192407655116 ], [ -71.458127963164003, -34.319635302843956 ], [ -71.458420380060332, -34.320108522382768 ], [ -71.458625089045597, -34.320681285616814 ], [ -71.458625290268216, -34.320682093561132 ], [ -71.458703812905526, -34.321149268794038 ], [ -71.458769405192612, -34.321539303973175 ], [ -71.458801090569324, -34.32262506282008 ], [ -71.458530872840299, -34.32371230623184 ], [ -71.458145838739838, -34.32430607203257 ], [ -71.457863607840508, -34.324978864231326 ], [ -71.457179151781133, -34.325659732225553 ], [ -71.456396468538699, -34.326428236969107 ], [ -71.45563311883781, -34.327863475419591 ], [ -71.455549744399661, -34.328451180644954 ], [ -71.455782515856072, -34.329528325627678 ], [ -71.456707287423626, -34.330181395949417 ], [ -71.458424026322078, -34.330394851314274 ], [ -71.459245879704156, -34.330964372305729 ], [ -71.459983909490447, -34.33211702460045 ], [ -71.460010752947767, -34.333036041114518 ], [ -71.459937142298443, -34.333957077116132 ], [ -71.459551856669719, -34.334546347859337 ], [ -71.458958061283752, -34.334891804578177 ], [ -71.458309831584856, -34.336825106648568 ], [ -71.457431380746613, -34.337762379035361 ], [ -71.456869323737962, -34.339193582063224 ], [ -71.457227067020071, -34.34110667733291 ], [ -71.457781334736893, -34.342848987892438 ], [ -71.458436008949661, -34.344589350143607 ], [ -71.458774209382767, -34.34583112975119 ], [ -71.45899998026816, -34.346665056147188 ], [ -71.459137036231084, -34.347915454406383 ], [ -71.459362772082187, -34.348744801793892 ], [ -71.459384622703155, -34.349492649732845 ], [ -71.460010158263046, -34.350232867553977 ], [ -71.460628416570827, -34.350720794941346 ], [ -71.460966813734984, -34.351967141221124 ], [ -71.460505125493029, -34.353396338971734 ], [ -71.460232573940871, -34.354402466146318 ], [ -71.459653355517034, -34.355248068450564 ], [ -71.459584608346674, -34.356335765601941 ], [ -71.459623499110251, -34.357669300604194 ], [ -71.459549613576456, -34.358590339704485 ], [ -71.459073612477084, -34.359519461441572 ], [ -71.458904018636275, -34.360609259619054 ], [ -71.458726959795442, -34.36144677495372 ], [ -71.458629968694211, -34.362071236968262 ], [ -71.458557801637568, -34.362536489485635 ], [ -71.458792879967646, -34.363699244272446 ], [ -71.459651471749879, -34.36551658442044 ], [ -71.460976595490109, -34.366075962503608 ], [ -71.461540724912112, -34.365978941477898 ], [ -71.462078640595834, -34.365887024923076 ], [ -71.463281170350925, -34.365695981011633 ], [ -71.464176894893754, -34.36534441799629 ], [ -71.465309383006144, -34.365222414318886 ], [ -71.467494756818638, -34.365191868139057 ], [ -71.469109451592388, -34.365326049087962 ], [ -71.470128172565623, -34.365724748853445 ], [ -71.470729314373969, -34.365626939189106 ], [ -71.471936716591131, -34.36560262041354 ], [ -71.473617654032267, -34.36646559078774 ], [ -71.474295013400891, -34.367060443495426 ], [ -71.474955751241822, -34.367371588258969 ], [ -71.475826318465124, -34.367782246799756 ], [ -71.476646139858033, -34.368265934492875 ], [ -71.47759853821384, -34.369833385713605 ], [ -71.478433039875114, -34.370817192302667 ], [ -71.479152053225164, -34.371302903729585 ], [ -71.480175805662299, -34.371868174868354 ], [ -71.481393034550365, -34.372177082590923 ], [ -71.482315133629953, -34.37257763749701 ], [ -71.48283596156034, -34.37331527286625 ], [ -71.48557753536582, -34.374093540897803 ], [ -71.489151427028148, -34.375774279900952 ], [ -71.489887887457627, -34.376845667832988 ], [ -71.490106591296694, -34.377427164438927 ], [ -71.490339629552764, -34.378170697981311 ], [ -71.490664133372746, -34.379250393736065 ], [ -71.491206618786293, -34.3805736450674 ], [ -71.491626714132281, -34.381151035979521 ], [ -71.492554745685993, -34.381884908996469 ], [ -71.493376850596363, -34.382449668345131 ], [ -71.494096318493931, -34.382935350865488 ], [ -71.494715149926861, -34.383427587146464 ], [ -71.495346069090246, -34.384329751486341 ], [ -71.495878899411139, -34.385324088332126 ], [ -71.496105027826019, -34.386153344982809 ], [ -71.496240191936934, -34.387318050047433 ], [ -71.496564438838746, -34.388064212695248 ], [ -71.497092489223988, -34.388887301188987 ], [ -71.497947410489999, -34.390537731175513 ], [ -71.498786906784261, -34.392075694711906 ], [ -71.498321240802213, -34.392950688589487 ], [ -71.498863986727216, -34.394278251771681 ], [ -71.498672857574107, -34.394615822886415 ], [ -71.498093781982391, -34.395461524833976 ], [ -71.498518518025151, -34.39620562613031 ], [ -71.498241366200418, -34.397045158994722 ], [ -71.49746086227087, -34.397895047325704 ], [ -71.496476788419827, -34.398667922795902 ], [ -71.494989337311125, -34.399451064395357 ], [ -71.493504175109791, -34.400315231408761 ], [ -71.492920064460918, -34.40099425269355 ], [ -71.492726729045472, -34.401913303369149 ], [ -71.492655189911176, -34.402252858987843 ], [ -71.49298936409518, -34.403332344967382 ], [ -71.49403059325617, -34.404478571478982 ], [ -71.494767654658588, -34.405549832222114 ], [ -71.49613567564856, -34.407523313784466 ], [ -71.49629571141476, -34.409525881784923 ], [ -71.496227398130642, -34.410609141816849 ], [ -71.495663014485416, -34.411959389510962 ], [ -71.494983254818365, -34.412807132795081 ], [ -71.493903040570672, -34.413748785908098 ], [ -71.492742047117687, -34.415359186959634 ], [ -71.492788993972752, -34.416940372503824 ], [ -71.493037573981539, -34.417169711604124 ], [ -71.493224213354864, -34.417341821858479 ], [ -71.493410399078954, -34.417513645710621 ], [ -71.494329051322808, -34.41791409040912 ], [ -71.495952065394391, -34.418295717192329 ], [ -71.497860168804564, -34.418089982941922 ], [ -71.498845494008776, -34.417957072233385 ], [ -71.500067589070767, -34.417796934979805 ], [ -71.501489517062609, -34.418182525438404 ], [ -71.502327086470601, -34.419251677302157 ], [ -71.502369477968855, -34.420670767876352 ], [ -71.50281471356638, -34.422081462363096 ], [ -71.503770503960695, -34.423729766737829 ], [ -71.504824648200525, -34.425294809410339 ], [ -71.507042090970344, -34.425334941307341 ], [ -71.509831535997321, -34.424272568066094 ], [ -71.512056881246707, -34.423347865389793 ], [ -71.514664743517116, -34.422960652970673 ], [ -71.516381413245284, -34.423092081121077 ], [ -71.517007977376167, -34.423827521862172 ], [ -71.517337565660654, -34.424740264796405 ], [ -71.517563767737414, -34.42556946873453 ], [ -71.517485775106138, -34.426323847850526 ], [ -71.517810381334044, -34.427069933867223 ], [ -71.517935944251178, -34.427901209405015 ], [ -71.517553255651933, -34.428576270841369 ], [ -71.517168215263297, -34.429170142062929 ], [ -71.517394432611397, -34.429999418388576 ], [ -71.517721484951849, -34.430826543691374 ], [ -71.51840909858943, -34.431262429501388 ], [ -71.519438319071696, -34.430957921687636 ], [ -71.520327108620549, -34.430358161556896 ], [ -71.521407124340556, -34.429416282035838 ], [ -71.522489514307864, -34.428560086816603 ], [ -71.523574588441235, -34.427784990472041 ], [ -71.524762772999551, -34.427093275229304 ], [ -71.526769046998908, -34.426799389659024 ], [ -71.527763316728411, -34.426364153383467 ], [ -71.528445365302829, -34.425597276433855 ], [ -71.529615826998892, -34.42431994147266 ], [ -71.530680587528749, -34.422878028245158 ], [ -71.531345057869686, -34.421530064300931 ], [ -71.531939031122064, -34.421184174848442 ], [ -71.532744607929516, -34.421167485495928 ], [ -71.534257298104436, -34.421217294926066 ], [ -71.535573519540193, -34.421442348822168 ], [ -71.536477152850793, -34.421338006919839 ], [ -71.537660098434372, -34.420479595535106 ], [ -71.539235758714071, -34.419279428560529 ], [ -71.540423689049163, -34.418587571802341 ], [ -71.5417247855505, -34.418308099395333 ], [ -71.543224867870407, -34.417943385724982 ], [ -71.545235940669997, -34.417820364152064 ], [ -71.546756130879231, -34.418122214242317 ], [ -71.547868370965105, -34.418265866212188 ], [ -71.549167236051261, -34.41790519999158 ], [ -71.549949655188996, -34.417136187527532 ], [ -71.55072717132191, -34.416200443299715 ], [ -71.552007833845465, -34.415254116398664 ], [ -71.553206089416435, -34.414895509248595 ], [ -71.554610139137523, -34.414699492591616 ], [ -71.555720315793195, -34.414761881283781 ], [ -71.556442659197998, -34.415332786864404 ], [ -71.556870923823183, -34.416157683634289 ], [ -71.557588160305585, -34.416557353001949 ], [ -71.558494880227499, -34.417016196448948 ], [ -71.559423214513473, -34.41727171029185 ], [ -71.560439995125691, -34.41758400236403 ], [ -71.561345973039181, -34.417564947581873 ], [ -71.562438229203238, -34.417041788997274 ], [ -71.564013186102088, -34.415841325162724 ], [ -71.56439579834452, -34.415166203138327 ], [ -71.564256652900283, -34.413916016463631 ], [ -71.564220884680623, -34.412744824165642 ], [ -71.564905455724343, -34.412063365152193 ], [ -71.56530287310099, -34.411888197344979 ], [ -71.566224159205234, -34.412369201661363 ], [ -71.567741829640099, -34.412589755693311 ], [ -71.56873818256274, -34.412235311756042 ], [ -71.569453221765954, -34.412553796005653 ], [ -71.569981867734242, -34.413376533959728 ], [ -71.570807760840182, -34.414026337830798 ], [ -71.571930536367717, -34.41450298636002 ], [ -71.572952566734415, -34.414986323377903 ], [ -71.573758059998553, -34.4149694408488 ], [ -71.574568215519008, -34.415119135057097 ], [ -71.575758265878164, -34.414508132444212 ], [ -71.576837524318378, -34.413565796441929 ], [ -71.577415982767519, -34.412719751295221 ], [ -71.57728013863192, -34.414828840915256 ], [ -71.577946531367573, -34.415911990026508 ], [ -71.578455085616213, -34.417475614661946 ], [ -71.579001433785493, -34.419346321586374 ], [ -71.579441743920313, -34.420250785717379 ], [ -71.579950377220712, -34.421896225838069 ], [ -71.580515378906867, -34.422858315170906 ], [ -71.581231899431984, -34.424072503083515 ], [ -71.581866516061083, -34.424964433358241 ], [ -71.582693642553878, -34.426186171650343 ], [ -71.583728128062035, -34.427521827139699 ], [ -71.584362449145402, -34.4282200407781 ], [ -71.584515219337561, -34.428391096869184 ], [ -71.585399035812998, -34.429006040688492 ], [ -71.586652506332911, -34.429405192215455 ], [ -71.586726721548416, -34.429491060299924 ], [ -71.58686461474116, -34.429650539421395 ], [ -71.587233825916186, -34.429941226673925 ], [ -71.587384196708229, -34.430146892492182 ], [ -71.587608466508811, -34.430410738859457 ], [ -71.587797675063825, -34.430705236345396 ], [ -71.588203709978998, -34.431024976525954 ], [ -71.588575239705776, -34.431555107961017 ], [ -71.588519273765257, -34.431913581422322 ], [ -71.588455496973339, -34.432183525968405 ], [ -71.588430554351163, -34.432542228643456 ], [ -71.588476663078069, -34.432869590317324 ], [ -71.58852561946442, -34.433286399454907 ], [ -71.588644613900229, -34.433641905539304 ], [ -71.588737753923823, -34.434326445723521 ], [ -71.588724775962902, -34.435072830760447 ], [ -71.588671253439983, -34.435253421542299 ], [ -71.588099483846477, -34.435646821293041 ], [ -71.587866497692701, -34.435892654725485 ], [ -71.587694012175007, -34.436004940838501 ], [ -71.587514615917812, -34.436153264520549 ], [ -71.587370404873667, -34.436338433149885 ], [ -71.587226630410768, -34.436514656622819 ], [ -71.586876086227335, -34.437009563471747 ], [ -71.586665653177079, -34.437553421001262 ], [ -71.586553222731069, -34.437991813670351 ], [ -71.586411499121965, -34.438402393200789 ], [ -71.586328128277074, -34.43889578046339 ], [ -71.586273614912358, -34.439466541988878 ], [ -71.586304045342615, -34.439589079782841 ], [ -71.586299620241519, -34.439697068384568 ], [ -71.586292335802881, -34.439877123163235 ], [ -71.586338083407043, -34.440054134112977 ], [ -71.586328195650694, -34.440297163038032 ], [ -71.586731751215694, -34.44098886975808 ], [ -71.586928168750887, -34.441192674792639 ], [ -71.587190846919739, -34.441452310145692 ], [ -71.587453398426149, -34.441716451976859 ], [ -71.587743137444605, -34.44214810117613 ], [ -71.587935959922035, -34.442437424788913 ], [ -71.588327177126587, -34.442898973946789 ], [ -71.588686983838926, -34.44327847532039 ], [ -71.589051020717918, -34.443572514820453 ], [ -71.589245195159833, -34.443830273679787 ], [ -71.589533696299853, -34.444293478282496 ], [ -71.589691497955926, -34.44460879787664 ], [ -71.590010201354119, -34.445180955326535 ], [ -71.591438554995207, -34.446153630147244 ], [ -71.590881374940238, -34.446363290468526 ], [ -71.590161551309819, -34.446609111632071 ], [ -71.589822231575852, -34.446775377867695 ], [ -71.589640056829495, -34.446892008202212 ], [ -71.58941245787247, -34.447038845783318 ], [ -71.589228022964861, -34.447209359615194 ], [ -71.589067111341265, -34.447353602383636 ], [ -71.588871472645451, -34.447519332286348 ], [ -71.58868591214879, -34.447716972840077 ], [ -71.588465268847003, -34.447976652365128 ], [ -71.588246858757046, -34.448164279384997 ], [ -71.588070704519723, -34.448398201976694 ], [ -71.587868753362372, -34.448735027223286 ], [ -71.587791310500052, -34.44899868822705 ], [ -71.587761893369432, -34.449169166945573 ], [ -71.587742468199721, -34.449380347174731 ], [ -71.587732020792998, -34.449636902137144 ], [ -71.587757024500604, -34.449840420878324 ], [ -71.587804162696827, -34.450053514296663 ], [ -71.587838029183033, -34.450171621588687 ], [ -71.587898763381077, -34.450299499420908 ], [ -71.588051751863858, -34.450502006144823 ], [ -71.588270116139753, -34.45101728548417 ], [ -71.588452646618947, -34.451558655486494 ], [ -71.58867110431963, -34.45207393275119 ], [ -71.588788404532806, -34.452532271603928 ], [ -71.588809287668212, -34.452870801666585 ], [ -71.588758548126023, -34.453265941424803 ], [ -71.588395806617669, -34.453791981409992 ], [ -71.588177427968731, -34.454128416019742 ], [ -71.588058781180933, -34.454521671339279 ], [ -71.588042788473956, -34.454913268545127 ], [ -71.588087220046219, -34.455509258448487 ], [ -71.588109644690647, -34.455793770747633 ], [ -71.588233468469411, -34.456108112145621 ], [ -71.588524393264066, -34.456512776945686 ], [ -71.58873965116571, -34.456987429950907 ], [ -71.588723599169896, -34.457180740157959 ], [ -71.5887693431808, -34.457709276827053 ], [ -71.588722591260151, -34.457973764264715 ], [ -71.588563637963887, -34.458352365346947 ], [ -71.588478949290476, -34.458678952602241 ], [ -71.588356132523131, -34.459058559304673 ], [ -71.588235607358087, -34.459379555324347 ], [ -71.588113195730969, -34.459763657745782 ], [ -71.588034031696552, -34.459937184611171 ], [ -71.587945827915433, -34.460349290954035 ], [ -71.587904466784821, -34.46049683295923 ], [ -71.587825174291311, -34.460674866784771 ], [ -71.58770464643132, -34.460995935842121 ], [ -71.587589600989531, -34.461200057210675 ], [ -71.587434146631281, -34.461493063345273 ], [ -71.587319641076959, -34.461665565979231 ], [ -71.587128936826986, -34.46195762020966 ], [ -71.586975451575853, -34.462219198206995 ], [ -71.586887656528191, -34.462604339297386 ], [ -71.586731873386569, -34.462924381794195 ], [ -71.586686151833547, -34.463161892237267 ], [ -71.586677744500804, -34.463368998315381 ], [ -71.586766843003943, -34.463817597145834 ], [ -71.586898239580549, -34.464114128445274 ], [ -71.58703397951156, -34.465172332701655 ], [ -71.58699086307287, -34.46534686743562 ], [ -71.586912186823653, -34.465524887955659 ], [ -71.586761622893832, -34.465696454249517 ], [ -71.586395887300625, -34.465893476316189 ], [ -71.586069717105815, -34.466006061309344 ], [ -71.585669270610026, -34.466170584007209 ], [ -71.585301144599853, -34.466426141609169 ], [ -71.58496098314447, -34.466862779303455 ], [ -71.584843859899422, -34.467098255174754 ], [ -71.584797718833158, -34.467362802482668 ], [ -71.584643593981554, -34.467624390945652 ], [ -71.584560140491675, -34.467919490454008 ], [ -71.584404666370489, -34.46821256780165 ], [ -71.584322556760256, -34.468476102873794 ], [ -71.584309278762049, -34.468800142846938 ], [ -71.584612346982723, -34.469724685403726 ], [ -71.584693443293304, -34.470486210203248 ], [ -71.584533891719062, -34.470918950445011 ], [ -71.584343974393263, -34.471468721393663 ], [ -71.584578165187835, -34.471862704485304 ], [ -71.584882129028841, -34.472312886923909 ], [ -71.585126177935351, -34.472468420006301 ], [ -71.585787281390594, -34.472932975034823 ], [ -71.586100258927161, -34.473149006579526 ], [ -71.586547982858022, -34.473576054402024 ], [ -71.587001826112598, -34.473854605111178 ], [ -71.587307025137122, -34.474277652555607 ], [ -71.587469929224, -34.474669742870077 ], [ -71.587460305572364, -34.474903828922791 ], [ -71.587453026523619, -34.475083881853173 ], [ -71.587375599830949, -34.47523041585189 ], [ -71.587292366428301, -34.475520932649076 ], [ -71.587241876617753, -34.475875522143106 ], [ -71.587232213440259, -34.476114113944362 ], [ -71.587225060155646, -34.476289585531418 ], [ -71.587314180218357, -34.476738182306846 ], [ -71.587155826098382, -34.478869671804873 ], [ -71.587109063397946, -34.479134233634163 ], [ -71.587095886909367, -34.479458270728976 ], [ -71.587081365642803, -34.479813870569842 ], [ -71.58706922760669, -34.480110930032325 ], [ -71.587056050219786, -34.480434967776667 ], [ -71.587115230332373, -34.480734061392177 ], [ -71.587248912223075, -34.480976560216064 ], [ -71.587450944228792, -34.48127506468024 ], [ -71.587618632742874, -34.481550147894893 ], [ -71.587992801719963, -34.482033764272927 ], [ -71.588301589514046, -34.482366855823813 ], [ -71.588504213509523, -34.482669851501953 ], [ -71.589618231361356, -34.483426532469991 ], [ -71.589929411369027, -34.483701080635171 ], [ -71.59024171966071, -34.483948574174498 ], [ -71.590662044077092, -34.484167633100689 ], [ -71.591155441051953, -34.484361656367518 ], [ -71.591540957547707, -34.484548070192332 ], [ -71.591993215275807, -34.484885197573632 ], [ -71.592406190574849, -34.485284304209287 ], [ -71.592770755663238, -34.486006421725342 ], [ -71.592993043780282, -34.486693010229857 ], [ -71.594831375940657, -34.489024317439942 ], [ -71.595071770500581, -34.489269855282835 ], [ -71.595489757500602, -34.489547435477178 ], [ -71.595805734511899, -34.489704887429454 ], [ -71.59640243774443, -34.489987378823265 ], [ -71.597144796512069, -34.490215370509915 ], [ -71.597533319669068, -34.490347863435808 ], [ -71.597851988931282, -34.490442407184794 ], [ -71.598200947588239, -34.490659338152582 ], [ -71.598512055730694, -34.490938368619226 ], [ -71.598966033732566, -34.491216868763971 ], [ -71.599560386074003, -34.491557956985233 ], [ -71.599983681219015, -34.491718429670357 ], [ -71.600301512353084, -34.491817341693555 ], [ -71.600581532498481, -34.491973847576027 ], [ -71.600894122861177, -34.492216874942706 ], [ -71.601207123753923, -34.492432937997116 ], [ -71.601525583708678, -34.492531832884197 ], [ -71.601665867318388, -34.492594421853248 ], [ -71.602130608934004, -34.492607339452455 ], [ -71.602507570773298, -34.492573901176293 ], [ -71.602843145430825, -34.492537579062166 ], [ -71.60311946092402, -34.492531689248231 ], [ -71.603563357133453, -34.492608555174115 ], [ -71.603774390258323, -34.492967099746515 ], [ -71.604133578031423, -34.493408813819293 ], [ -71.604547051895452, -34.494012725570528 ], [ -71.605148897982986, -34.494326743115529 ], [ -71.605648352297791, -34.494520354793345 ], [ -71.606047949885621, -34.494675181620671 ], [ -71.606323075111064, -34.494891522607695 ], [ -71.606452545699696, -34.494993330154543 ], [ -71.607104970531012, -34.495347097993616 ], [ -71.607800421969444, -34.495495676084872 ], [ -71.6088345607279, -34.495432673207951 ], [ -71.609421161506731, -34.495256784341031 ], [ -71.609792962524736, -34.495074775954407 ], [ -71.610005299105083, -34.494999194621997 ], [ -71.610543786117304, -34.494865166893952 ], [ -71.610959426717798, -34.494856280223416 ], [ -71.611981343896815, -34.495079457306744 ], [ -71.613674386136367, -34.495574279875377 ], [ -71.615372548773053, -34.496232396863661 ], [ -71.616222189741833, -34.496581890555852 ], [ -71.616912557614086, -34.496567096770846 ], [ -71.617549715577141, -34.496430924528312 ], [ -71.61823114341567, -34.496130370202579 ], [ -71.619013613757375, -34.49590924969489 ], [ -71.6201387518541, -34.495599167963078 ], [ -71.620781097587908, -34.495626294904056 ], [ -71.621375338538257, -34.495695216099698 ], [ -71.622020064807558, -34.49580396282277 ], [ -71.622917912967736, -34.49611138812287 ], [ -71.624363200750267, -34.496570617161815 ], [ -71.625009394866723, -34.496720154793039 ], [ -71.625951255085923, -34.496863257008009 ], [ -71.626548071506178, -34.497013847634804 ], [ -71.627194182977647, -34.497163375586865 ], [ -71.627935055033504, -34.497433227666946 ], [ -71.628451218012614, -34.497912474243812 ], [ -71.62906352049005, -34.498552855008789 ], [ -71.63041790146076, -34.499259071543129 ], [ -71.631014828373793, -34.499409563820564 ], [ -71.631806280970039, -34.499474258307345 ], [ -71.632448654551609, -34.499501248507222 ], [ -71.63313894876201, -34.499486364179688 ], [ -71.633787747094487, -34.499717474066372 ], [ -71.634043211791621, -34.499997905270448 ], [ -71.634551753463867, -34.500477141546462 ], [ -71.63495391125025, -34.500713567877391 ], [ -71.635549570640435, -34.500823226789315 ], [ -71.636238589243135, -34.500767512670961 ], [ -71.6368693071839, -34.500427112865033 ], [ -71.637443007256948, -34.499842837356468 ], [ -71.637828530939217, -34.499548567399259 ], [ -71.638043357649522, -34.499430789090297 ], [ -71.638216446835102, -34.499335920162366 ], [ -71.638709652468805, -34.499325262355931 ], [ -71.639059857987377, -34.499481121164479 ], [ -71.639359570102144, -34.499597157408857 ], [ -71.639811119059473, -34.499832499435897 ], [ -71.64010963641492, -34.499907721030453 ], [ -71.640454786215074, -34.499900331836585 ], [ -71.641043824123287, -34.499805841750039 ], [ -71.641674512419641, -34.499465343995503 ], [ -71.642597270862638, -34.498996080126204 ], [ -71.643230612782347, -34.498737194525582 ], [ -71.64366660381728, -34.498482652428194 ], [ -71.644155843389001, -34.498349543138723 ], [ -71.644648863969778, -34.498338939250964 ], [ -71.645093968413263, -34.498370135687914 ], [ -71.645636365791916, -34.498358310982589 ], [ -71.646176184107389, -34.498264937062551 ], [ -71.646565451069463, -34.498093073487667 ], [ -71.646906716554312, -34.497963160378376 ], [ -71.647441365963658, -34.497706465954423 ], [ -71.648075885574698, -34.497488441317671 ], [ -71.649150335333218, -34.49713835470299 ], [ -71.650261863055078, -34.497024359887476 ], [ -71.650944801859922, -34.496955478288825 ], [ -71.651555949103908, -34.496906760139261 ], [ -71.652023318291725, -34.496866701870445 ], [ -71.652741818703745, -34.496791424226657 ], [ -71.653459460326346, -34.496686326518585 ], [ -71.654208292353914, -34.496431299889238 ], [ -71.65471261463928, -34.496420335944038 ], [ -71.654865064132878, -34.496403876326951 ], [ -71.655470777467713, -34.496338715993737 ], [ -71.655754430400123, -34.496308102198725 ], [ -71.656111783813415, -34.496210825032136 ], [ -71.656322164761377, -34.496027166243607 ], [ -71.656462595694819, -34.495904697952426 ], [ -71.656602850558428, -34.495782308700164 ], [ -71.65688723382118, -34.495656781606826 ], [ -71.657136551346824, -34.495561778820665 ], [ -71.65735269947892, -34.495557074544116 ], [ -71.657606753821028, -34.495611288465 ], [ -71.657931875681939, -34.495633972478259 ], [ -71.658077254535939, -34.495630882199194 ], [ -71.658220046241922, -34.495627773410931 ], [ -71.659874188734747, -34.495502173529175 ], [ -71.660555797134663, -34.495397745707976 ], [ -71.661271518159197, -34.495232974866568 ], [ -71.661807958809206, -34.495101943045924 ], [ -71.662308474034376, -34.494971618072512 ], [ -71.662698975281643, -34.494784021480143 ], [ -71.663192844770336, -34.494444921773656 ], [ -71.66396728507172, -34.493861095953385 ], [ -71.664214600252592, -34.493706452709738 ], [ -71.664640244492091, -34.493463214232769 ], [ -71.665139791333388, -34.493328099372711 ], [ -71.665462057449986, -34.493261321856167 ], [ -71.665750304366782, -34.493255030064319 ], [ -71.665967397526543, -34.493280197969312 ], [ -71.666326272685907, -34.493256706296023 ], [ -71.666650789980622, -34.493235440954479 ], [ -71.667117088376614, -34.493165513762463 ], [ -71.66750956052762, -34.493037601645213 ], [ -71.66772094669038, -34.492883736503302 ], [ -71.668037509403248, -34.492638143405784 ], [ -71.66857020407852, -34.492387677800878 ], [ -71.66888410957479, -34.492249072461767 ], [ -71.669209970749137, -34.492105108651991 ], [ -71.66989348806905, -34.491916401678829 ], [ -71.670031853775626, -34.491878224583175 ], [ -71.670323509798919, -34.491853163612689 ], [ -71.670966421471348, -34.491798042482039 ], [ -71.67216809513198, -34.491714518884393 ], [ -71.672792866225564, -34.491663995541096 ], [ -71.673987294075104, -34.491582754462115 ], [ -71.674778778112369, -34.491535585052453 ], [ -71.675717148376691, -34.491574696689696 ], [ -71.676440427826009, -34.491648348683924 ], [ -71.677846125955654, -34.491647437992775 ], [ -71.679252774502856, -34.491676251367664 ], [ -71.679456764835891, -34.491629238975605 ], [ -71.679648358417992, -34.491585083019729 ], [ -71.679895354696939, -34.491625005371247 ], [ -71.680708538438211, -34.491550957242296 ], [ -71.681327434549843, -34.491375716183263 ], [ -71.681867219627662, -34.491170011597667 ], [ -71.682312861263696, -34.490965560010942 ], [ -71.682828813138713, -34.490728767671165 ], [ -71.683593318971361, -34.490227231909842 ], [ -71.68428190368779, -34.489792050702704 ], [ -71.684743936882825, -34.489618025414984 ], [ -71.685291739424557, -34.489640614804422 ], [ -71.686188692862672, -34.489620887127934 ], [ -71.686786374360551, -34.489477470392906 ], [ -71.687661028918413, -34.488457585685431 ], [ -71.687917147589076, -34.487912343356633 ], [ -71.688095379629644, -34.487532978951783 ], [ -71.688677336118474, -34.486933742068729 ], [ -71.689012385261563, -34.486588806838263 ], [ -71.689682116136794, -34.485307569327546 ], [ -71.689663438365415, -34.485253627859919 ], [ -71.690038295452013, -34.485312573326361 ], [ -71.690344937170877, -34.485360686633705 ], [ -71.691166886672676, -34.485439537663275 ], [ -71.691762341246985, -34.485749571280827 ], [ -71.692628608235026, -34.485988940453687 ], [ -71.693138642907257, -34.486074654849965 ], [ -71.693354373322734, -34.486124396704106 ], [ -71.693649806761798, -34.486192688227554 ], [ -71.694089222174611, -34.486506077704071 ], [ -71.694690751156841, -34.487009812738101 ], [ -71.695326218490521, -34.487351364649676 ], [ -71.695837299700045, -34.487469242209755 ], [ -71.696387511523369, -34.487586401381002 ], [ -71.696741684002234, -34.487675542347816 ], [ -71.697057860439529, -34.487797792450067 ], [ -71.697615267768271, -34.488140981928666 ], [ -71.698052731141942, -34.488332108280979 ], [ -71.698248580043568, -34.488417800277702 ], [ -71.698840868056479, -34.488630906287675 ], [ -71.699625989326591, -34.488775130060702 ], [ -71.7003722557657, -34.488920208033079 ], [ -71.701080440823333, -34.489098468509738 ], [ -71.701437748422535, -34.489284413427995 ], [ -71.702263999057934, -34.489492326150021 ], [ -71.702664796794977, -34.489530719059154 ], [ -71.702812057619496, -34.489544886958505 ], [ -71.703402364847207, -34.489693323602765 ], [ -71.703914371321503, -34.490131792017451 ], [ -71.703926986363044, -34.490279355412383 ], [ -71.703938529714435, -34.490415864962308 ], [ -71.703986183543634, -34.490772895204508 ], [ -71.704145535691879, -34.491246936530082 ], [ -71.704598379121549, -34.491742023211593 ], [ -71.704824274872763, -34.492056040422845 ], [ -71.705076409515158, -34.492406398629342 ], [ -71.705354984271281, -34.492793759280836 ], [ -71.705765694019163, -34.493364507027017 ], [ -71.705834522037932, -34.493460239373036 ], [ -71.705996802694003, -34.493464249288465 ], [ -71.707306529310259, -34.493556547626589 ], [ -71.708975601803104, -34.493687088781869 ], [ -71.70933567531506, -34.493714841966835 ], [ -71.710870645505651, -34.49383275051315 ], [ -71.710244923096198, -34.497384731901079 ], [ -71.710446883236685, -34.497649791005024 ], [ -71.711009803526323, -34.497991390401651 ], [ -71.711310225310157, -34.498093569516875 ], [ -71.712123952532181, -34.498453815493363 ], [ -71.71292599716395, -34.498896507355802 ], [ -71.714168630408253, -34.499631730013007 ], [ -71.714729462114846, -34.499740370176774 ], [ -71.71517746452345, -34.499612695426762 ], [ -71.715329658895527, -34.499569434314353 ], [ -71.715981500720204, -34.499516756929815 ], [ -71.716374942153394, -34.49957417019867 ], [ -71.716993133087527, -34.499660920417227 ], [ -71.717656876691379, -34.500029709633658 ], [ -71.718433472051132, -34.500401519951758 ], [ -71.718572163846176, -34.500464303640527 ], [ -71.719957184554602, -34.501016994394433 ], [ -71.722066447706325, -34.501970388770467 ], [ -71.723296056277348, -34.502575687280306 ], [ -71.724171430385738, -34.503158009238554 ], [ -71.724714740452725, -34.503798542925793 ], [ -71.724909216728577, -34.503955187702118 ], [ -71.725050755284741, -34.503954391890368 ], [ -71.725162712318607, -34.504042281297586 ], [ -71.725583604470245, -34.504221415558057 ], [ -71.72582011022331, -34.504227803500058 ], [ -71.726641451565683, -34.504388245137854 ], [ -71.727399909939834, -34.504502233585569 ], [ -71.728265973908634, -34.504759291291208 ], [ -71.729230158160959, -34.505393424080928 ], [ -71.72989338792847, -34.506107018686059 ], [ -71.730281550861065, -34.506840644660741 ], [ -71.730486034369193, -34.507582143482402 ], [ -71.730864747024981, -34.508140666870375 ], [ -71.731457777944641, -34.508634798988702 ], [ -71.732118767313835, -34.509007924092003 ], [ -71.732335347535567, -34.509010239578785 ], [ -71.733020432415671, -34.509017573927196 ], [ -71.734023317887065, -34.508816113769271 ], [ -71.734746774304497, -34.508889411499808 ], [ -71.735181949669141, -34.508969237391092 ], [ -71.735404944760333, -34.509173153307394 ], [ -71.735629890992328, -34.509436692225002 ], [ -71.735782722269931, -34.509701846250927 ], [ -71.735905390815219, -34.51014668057757 ], [ -71.73599701358431, -34.510853258569277 ], [ -71.736160583322828, -34.511334762660063 ], [ -71.736674718804338, -34.511621651707827 ], [ -71.73708950780194, -34.512179418169261 ], [ -71.737263909426147, -34.513100655295851 ], [ -71.737374978026196, -34.514291892177916 ], [ -71.737292309663843, -34.515069722875488 ], [ -71.737137515567355, -34.515849098478206 ], [ -71.737105497813985, -34.517073376646671 ], [ -71.737002427813238, -34.518329229920035 ], [ -71.736853731480892, -34.519349649963509 ], [ -71.736747731175669, -34.520077272227226 ], [ -71.73632522654809, -34.521160765357223 ], [ -71.735953341986772, -34.521558419393202 ], [ -71.735709748526133, -34.521953198345706 ], [ -71.735469533629271, -34.522454017003348 ], [ -71.73531250632098, -34.522882300736441 ], [ -71.73520521154343, -34.523521703643162 ], [ -71.735177455397789, -34.523982387701587 ], [ -71.735363413848134, -34.52443835768414 ], [ -71.735600181010923, -34.525140867512988 ], [ -71.735783826299411, -34.525525994885903 ], [ -71.736054137453237, -34.525944626050851 ], [ -71.736234066411384, -34.526447769015284 ], [ -71.736431242124667, -34.52664088718933 ], [ -71.73699142075607, -34.526804966865903 ], [ -71.737151963172053, -34.526849292146544 ], [ -71.737791964302986, -34.527025830005442 ], [ -71.738299277079904, -34.527103950388245 ], [ -71.738450468932115, -34.527116139576975 ], [ -71.738877745410491, -34.527150637857766 ], [ -71.739418238360727, -34.527138507140712 ], [ -71.739847738169431, -34.527039364680071 ], [ -71.740387604095616, -34.527027169559432 ], [ -71.740640466373378, -34.527021565635202 ], [ -71.74080161784714, -34.52703271649672 ], [ -71.740965721184921, -34.527044096043014 ], [ -71.741622100400093, -34.527268097240118 ], [ -71.74170931962766, -34.52732661853598 ], [ -71.741880203449199, -34.527441301624926 ], [ -71.742644742519531, -34.527662942380545 ], [ -71.742970978291382, -34.527715278559484 ], [ -71.74363116905829, -34.527818592775461 ], [ -71.743804626553128, -34.527845781757435 ], [ -71.744310077122464, -34.5278641778688 ], [ -71.744740551603257, -34.527794829606819 ], [ -71.745096847699443, -34.527667480547336 ], [ -71.745275084231608, -34.527603804834456 ], [ -71.745416317360579, -34.527511052045114 ], [ -71.745666596083566, -34.527445753954346 ], [ -71.746060956493309, -34.527377214253534 ], [ -71.746315150972606, -34.527431161769378 ], [ -71.746614501964629, -34.527542356715152 ], [ -71.746999112958576, -34.527185295982349 ], [ -71.747197632551533, -34.526720692373011 ], [ -71.747395078657718, -34.526220814864146 ], [ -71.747630489364454, -34.525578444902614 ], [ -71.74778629676058, -34.525114877353396 ], [ -71.747761886839371, -34.524372166093428 ], [ -71.74770290974601, -34.523878060692724 ], [ -71.747391093731125, -34.523495762566121 ], [ -71.747082589804677, -34.523219580998919 ], [ -71.746901307983705, -34.522905089086244 ], [ -71.746888529448796, -34.522516134249344 ], [ -71.746878071262259, -34.522197797676498 ], [ -71.74703960002843, -34.521911110094329 ], [ -71.747346725040913, -34.521366154652839 ], [ -71.747464301935196, -34.520521219243101 ], [ -71.7476986292737, -34.519843575724927 ], [ -71.748026490996196, -34.51941143201482 ], [ -71.748482466851257, -34.518976550444286 ], [ -71.748905118802554, -34.518825469544019 ], [ -71.749412015659487, -34.518637117641106 ], [ -71.749918904431595, -34.518448615059569 ], [ -71.750503148929468, -34.518010763361303 ], [ -71.750891930801274, -34.51767102389428 ], [ -71.751084971569313, -34.517502218005255 ], [ -71.75128470298958, -34.517073027284773 ], [ -71.75194851666204, -34.516456439750712 ], [ -71.752449572673015, -34.516091271650438 ], [ -71.752762263647, -34.515199397628585 ], [ -71.752538101644262, -34.514885880619275 ], [ -71.752189331633517, -34.514681437599926 ], [ -71.751886841029574, -34.514582066395548 ], [ -71.751581938449107, -34.514412004795084 ], [ -71.751448653613778, -34.514292645699712 ], [ -71.751273545015437, -34.514135830861775 ], [ -71.75130470128444, -34.51378118345577 ], [ -71.751335769518533, -34.513426613002096 ], [ -71.751413116261133, -34.513177116608382 ], [ -71.751533073690908, -34.512926658674587 ], [ -71.752592611415693, -34.511345578819444 ], [ -71.752756605159021, -34.511129573662245 ], [ -71.753258698724153, -34.510799678573981 ], [ -71.753720510933604, -34.510541582447871 ], [ -71.754055295073698, -34.510321649008354 ], [ -71.754516023914945, -34.510028127411339 ], [ -71.755022764465039, -34.509839757100984 ], [ -71.755619632089264, -34.509730801433996 ], [ -71.75607920569702, -34.509462039565108 ], [ -71.756286959072796, -34.509280340523361 ], [ -71.756330997182971, -34.508905833119897 ], [ -71.756353711084927, -34.508712582780326 ], [ -71.756242680214129, -34.507936456767418 ], [ -71.756305936881489, -34.507262586896971 ], [ -71.756246930143732, -34.506768485136504 ], [ -71.756229453419877, -34.506238000638149 ], [ -71.756085052831224, -34.505745827880098 ], [ -71.755773095780825, -34.505363553888458 ], [ -71.755590661421323, -34.505013727610731 ], [ -71.755579012967047, -34.504660046687817 ], [ -71.755865160521012, -34.504264271540038 ], [ -71.756159552812676, -34.504116136222123 ], [ -71.756412320767311, -34.504004238564498 ], [ -71.756653083636508, -34.503750014588398 ], [ -71.756679581242437, -34.503598549258101 ], [ -71.756876207186764, -34.502475858198771 ], [ -71.758926009053226, -34.500224807222956 ], [ -71.759310701793851, -34.499802353329727 ], [ -71.759253144936977, -34.498489564229303 ], [ -71.759200670747973, -34.497287576667539 ], [ -71.75919436906625, -34.497145121506861 ], [ -71.75921334058674, -34.496898121704447 ], [ -71.759247463092805, -34.496804968995498 ], [ -71.759418806851798, -34.496331656683083 ], [ -71.759601956270231, -34.495721389421711 ], [ -71.760086532687296, -34.494861132613664 ], [ -71.760149842355275, -34.494187185173097 ], [ -71.759839171692349, -34.493840337185802 ], [ -71.759447693976369, -34.493636804296194 ], [ -71.75923065741047, -34.493535591841429 ], [ -71.759076694255612, -34.493432141824982 ], [ -71.758924744225297, -34.493330196881658 ], [ -71.75844555859824, -34.493057823832231 ], [ -71.757965215042788, -34.492750176262703 ], [ -71.757828988224887, -34.492505499376804 ], [ -71.757657372276384, -34.492261325981154 ], [ -71.757559858355663, -34.492122334686215 ], [ -71.757462739693651, -34.49177058333759 ], [ -71.757804450742896, -34.490699481588784 ], [ -71.758017633536241, -34.490448537039107 ], [ -71.758089120568229, -34.49002230710866 ], [ -71.75805352123183, -34.489791751574742 ], [ -71.758034691645179, -34.489669591764368 ], [ -71.75784986866536, -34.489249076861817 ], [ -71.757752752698295, -34.488897325981164 ], [ -71.757744596893829, -34.488649756053185 ], [ -71.757727214493073, -34.488119342105584 ], [ -71.757750097278333, -34.48751712695924 ], [ -71.7577846312128, -34.487268666629788 ], [ -71.757947313415798, -34.4870172393559 ], [ -71.758363963722672, -34.486689329486133 ], [ -71.758614345751923, -34.486506664136478 ], [ -71.758991608526841, -34.48642067621924 ], [ -71.759336968532764, -34.486384146321619 ], [ -71.759628870694456, -34.486165242786925 ], [ -71.759786971489518, -34.485772352014038 ], [ -71.759819167109299, -34.485453126481886 ], [ -71.759850761756141, -34.48535648529117 ], [ -71.759935567210547, -34.485096551061318 ], [ -71.760263242981793, -34.484664455241962 ], [ -71.760802460324356, -34.484348979622887 ], [ -71.761116956013737, -34.484196243950777 ], [ -71.76152352991808, -34.483998890418164 ], [ -71.761850028896276, -34.483531520268961 ], [ -71.762010446446482, -34.483209319080864 ], [ -71.762341516052857, -34.48288333281026 ], [ -71.762881603862922, -34.482411052943704 ], [ -71.763383579748748, -34.482081122696563 ], [ -71.76354560618158, -34.481986256244397 ], [ -71.763886719851158, -34.481786610119421 ], [ -71.764252376392619, -34.481212081420189 ], [ -71.764365249708064, -34.480749391883599 ], [ -71.764735661032333, -34.480316391610877 ], [ -71.76506446059598, -34.479919631557991 ], [ -71.765986502183381, -34.479367871743079 ], [ -71.76653463620346, -34.479143147897865 ], [ -71.76691194658909, -34.47892221857289 ], [ -71.767370037976647, -34.478557968672874 ], [ -71.767405796314861, -34.478344776946088 ], [ -71.767310902779812, -34.478063727901535 ], [ -71.767173509050366, -34.477783715382174 ], [ -71.767201004684594, -34.477323104743625 ], [ -71.76741211865783, -34.476970874804387 ], [ -71.76760821998603, -34.476712180014424 ], [ -71.767641552872973, -34.476428298850763 ], [ -71.767676142502964, -34.476179761060578 ], [ -71.767794836003148, -34.475893945278294 ], [ -71.768079756458448, -34.475462799304495 ], [ -71.76840852188613, -34.47506603098158 ], [ -71.768430291658717, -34.474850570919216 ], [ -71.768472845752044, -34.474427576736893 ], [ -71.768716245176591, -34.47403274226636 ], [ -71.769255417603389, -34.473637996275855 ], [ -71.769550409969654, -34.473412131345079 ], [ -71.770011968854206, -34.473153984647382 ], [ -71.770479368584731, -34.473072564097023 ], [ -71.770990619575869, -34.473025593799633 ], [ -71.771546888739138, -34.47304834394145 ], [ -71.772319074269163, -34.473137008709131 ], [ -71.772960791182271, -34.473157812619874 ], [ -71.773686696407182, -34.473141329157201 ], [ -71.774744840844946, -34.472834168735908 ], [ -71.775297684732053, -34.472750862389844 ], [ -71.776320170544622, -34.472656805137326 ], [ -71.777304575874012, -34.472705167909119 ], [ -71.777952244125871, -34.472902819204826 ], [ -71.77847278190039, -34.473138731260086 ], [ -71.779029139098583, -34.473161445824047 ], [ -71.779498878940416, -34.473150829106338 ], [ -71.780050453508039, -34.473032085588777 ], [ -71.780149664346311, -34.472988104188765 ], [ -71.78064000884585, -34.47277091101865 ], [ -71.781360034597199, -34.472577508052623 ], [ -71.781908168617292, -34.472352717041176 ], [ -71.78245738510725, -34.472163270724231 ], [ -71.783848947347579, -34.471600682737929 ], [ -71.784317411581725, -34.471554632890722 ], [ -71.784788401878458, -34.471579265981447 ], [ -71.784903565897864, -34.471661267860334 ], [ -71.78526988449768, -34.471922155598065 ], [ -71.785578132404297, -34.472198323483362 ], [ -71.785925617824176, -34.472367332940934 ], [ -71.786226486070717, -34.472233897590236 ], [ -71.786259077847546, -34.472111973489312 ], [ -71.786461973134223, -34.471788847655112 ], [ -71.786627977307148, -34.471643425143498 ], [ -71.786804663347127, -34.47181640150589 ], [ -71.786901785602382, -34.472168127397005 ], [ -71.786996731239725, -34.472449011157039 ], [ -71.787134179766397, -34.472728998625918 ], [ -71.787267011850815, -34.472867529760471 ], [ -71.787524436671902, -34.472897026499716 ], [ -71.787821013666331, -34.472819512927309 ], [ -71.787947872852442, -34.472781244888182 ], [ -71.788191421397329, -34.47275810957872 ], [ -71.788705935967869, -34.472445367553895 ], [ -71.789005953509843, -34.472473963169236 ], [ -71.789441248350428, -34.472711774511119 ], [ -71.789705653979595, -34.47295348647318 ], [ -71.789934535730822, -34.473408316714327 ], [ -71.790069730384459, -34.473617607938593 ], [ -71.790243981091677, -34.47371981765717 ], [ -71.79046579938985, -34.473962426475317 ], [ -71.791071824440095, -34.474196330854802 ], [ -71.791285398000568, -34.474191449861749 ], [ -71.791707742728022, -34.474040233727244 ], [ -71.792124103777383, -34.47371222026765 ], [ -71.792713708522527, -34.473450913784681 ], [ -71.793265175292305, -34.473332186986475 ], [ -71.793819172616239, -34.473284068963615 ], [ -71.794969760883262, -34.473186998960493 ], [ -71.798636838383288, -34.473397296422142 ], [ -71.799379779259212, -34.473439936450617 ], [ -71.800318060590342, -34.473383054686266 ], [ -71.800881271934131, -34.473181316619026 ], [ -71.800989661757995, -34.473108160788684 ], [ -71.801238506769792, -34.472795625953268 ], [ -71.801440251314631, -34.472437132417745 ], [ -71.801854196794181, -34.472038323499646 ], [ -71.802318004161876, -34.47185074864273 ], [ -71.802871898179546, -34.471802666053868 ], [ -71.803042784696032, -34.471798670649143 ], [ -71.803418689218248, -34.471542365961348 ], [ -71.803873108292933, -34.471071804478107 ], [ -71.804246727501067, -34.470744731742819 ], [ -71.804704602394636, -34.470380351349711 ], [ -71.805168304659475, -34.470192768322768 ], [ -71.805763765521959, -34.470108272913997 ], [ -71.80631408693975, -34.469953993698596 ], [ -71.806616558679067, -34.470053307009401 ], [ -71.807092191469195, -34.470219310314683 ], [ -71.8072764215609, -34.470195875096749 ], [ -71.807432595469692, -34.470176039879782 ], [ -71.807886808830162, -34.469705542530264 ], [ -71.80804930687853, -34.469454130458921 ], [ -71.808752717390405, -34.468765447112091 ], [ -71.809125124771228, -34.46840309104001 ], [ -71.809197519101659, -34.468012039240634 ], [ -71.809128669523332, -34.467235072983094 ], [ -71.809115715816944, -34.466846059821087 ], [ -71.809099118543756, -34.466351012760555 ], [ -71.809136718428277, -34.466182742113595 ], [ -71.809210630911551, -34.465852946925736 ], [ -71.809401561536973, -34.465176121786619 ], [ -71.809771574907558, -34.464742926643147 ], [ -71.810390686614852, -34.464091620280563 ], [ -71.811102253829503, -34.463650561976991 ], [ -71.81169164118235, -34.463389319535146 ], [ -71.812028542651575, -34.463239928791232 ], [ -71.812449514753268, -34.463053302934938 ], [ -71.812785141513089, -34.462868641618499 ], [ -71.813247683154572, -34.462645610921854 ], [ -71.813527572145944, -34.462072919852027 ], [ -71.813554809065366, -34.461612237311876 ], [ -71.813583323389111, -34.46118689699324 ], [ -71.813827567230035, -34.460827331467137 ], [ -71.814161994738967, -34.460607322455019 ], [ -71.814362975715781, -34.460496723339219 ], [ -71.814497603532473, -34.46042258240125 ], [ -71.814745408295167, -34.460169196606856 ], [ -71.814867531563095, -34.459836885267784 ], [ -71.814893612350744, -34.459493272721268 ], [ -71.814967165507881, -34.459137712207301 ], [ -71.815209115949884, -34.458707527009764 ], [ -71.815416616899043, -34.458525737377798 ], [ -71.815829724250435, -34.458241289939423 ], [ -71.816084162173212, -34.458050294645282 ], [ -71.816494581765255, -34.457545330756012 ], [ -71.816474288823002, -34.456944108955142 ], [ -71.816435482501035, -34.456558646210112 ], [ -71.816410231756706, -34.456308597452747 ], [ -71.816227584496517, -34.455958943179894 ], [ -71.815863481142173, -34.455294902686745 ], [ -71.815671334197859, -34.454662268951651 ], [ -71.815697373663014, -34.454166241504737 ], [ -71.815724598006014, -34.453705485709158 ], [ -71.815883479437048, -34.453347956849619 ], [ -71.815952272421498, -34.452850870480759 ], [ -71.815890598585682, -34.452286046386504 ], [ -71.815872783196951, -34.451755657582673 ], [ -71.815898819068835, -34.451259556573824 ], [ -71.816095701033021, -34.45075959102509 ], [ -71.816307831899152, -34.449445203428645 ], [ -71.816633891601214, -34.448977631616245 ], [ -71.816965886472332, -34.448686780941578 ], [ -71.81738448881832, -34.448429451165005 ], [ -71.817521768461717, -34.448363220709943 ], [ -71.817846850796741, -34.448206408567899 ], [ -71.818101829505295, -34.448165080914549 ], [ -71.818477761875286, -34.447908732555675 ], [ -71.818678097861749, -34.447514798645969 ], [ -71.818968515108281, -34.447260347685159 ], [ -71.819301685874109, -34.447004909209653 ], [ -71.819722563652718, -34.446818336703068 ], [ -71.820100860388536, -34.446632598659917 ], [ -71.820393741713872, -34.446448904072078 ], [ -71.820469642168845, -34.446164030279938 ], [ -71.820287003891806, -34.445814380204531 ], [ -71.81985058346217, -34.445541257915934 ], [ -71.819747505376583, -34.445426222880677 ], [ -71.819539869680113, -34.445194563294244 ], [ -71.819533922832932, -34.445017692877691 ], [ -71.819605068505112, -34.444591367198633 ], [ -71.819808871090274, -34.444303541573944 ], [ -71.819875547643903, -34.44420556148215 ], [ -71.820053225423948, -34.443944035216241 ], [ -71.82021207002407, -34.443586429752045 ], [ -71.820242750185969, -34.443231780886961 ], [ -71.820271230373734, -34.442806440291406 ], [ -71.820344659563375, -34.442450805766875 ], [ -71.820392997010501, -34.442353542854569 ], [ -71.820504782466145, -34.442128614898174 ], [ -71.820622063814696, -34.441807413292103 ], [ -71.820610171018629, -34.441453821468841 ], [ -71.82046901424647, -34.44106776863665 ], [ -71.820205824037899, -34.440861538495582 ], [ -71.820025574381191, -34.440582502829542 ], [ -71.819968644548382, -34.440159132759113 ], [ -71.820088304635803, -34.439908694108212 ], [ -71.82045549999134, -34.43965616029373 ], [ -71.820632458220842, -34.439577639403169 ], [ -71.819928218563959, -34.438956831616061 ], [ -71.819621008211513, -34.438716171054843 ], [ -71.818494673558831, -34.438246730717815 ], [ -71.818297054976114, -34.43817456371805 ], [ -71.817672995348232, -34.43794711294251 ], [ -71.816722159162708, -34.437615168819853 ], [ -71.816328544354661, -34.437341119555796 ], [ -71.816136444122748, -34.436708483195268 ], [ -71.815816281860535, -34.436078798205699 ], [ -71.81535312487307, -34.435649721160587 ], [ -71.814866056529411, -34.435328638382408 ], [ -71.81454523490379, -34.435117151461931 ], [ -71.813404652072364, -34.434223229783782 ], [ -71.813096383504515, -34.433947277849519 ], [ -71.812578378979097, -34.433782195253983 ], [ -71.81239698846197, -34.433467874304704 ], [ -71.81173893299048, -34.432836206642584 ], [ -71.811028857877517, -34.432154555722683 ], [ -71.809656028205822, -34.430699617797366 ], [ -71.809332495464673, -34.430217239255839 ], [ -71.80907162740111, -34.429828310758644 ], [ -71.808969652446692, -34.429335224135862 ], [ -71.808983983270409, -34.428485524079875 ], [ -71.808923479939395, -34.427956038561838 ], [ -71.808889149024182, -34.426930522054079 ], [ -71.808985146588711, -34.42597267946892 ], [ -71.808948674089848, -34.425774946725618 ], [ -71.80888090159155, -34.425408901468032 ], [ -71.80851983005131, -34.424102305307734 ], [ -71.807874372553357, -34.42176648162652 ], [ -71.807724866838953, -34.421591432698719 ], [ -71.80732828579383, -34.421126896609152 ], [ -71.806707240912047, -34.420433275921695 ], [ -71.805977083062601, -34.419034419215166 ], [ -71.805442638469145, -34.418374249184737 ], [ -71.804930584384152, -34.417111866667895 ], [ -71.804349882841777, -34.416346710091887 ], [ -71.803714726325197, -34.415228708572556 ], [ -71.803326032488272, -34.413822000406164 ], [ -71.803059567920499, -34.412235477763261 ], [ -71.803115901271966, -34.411640982296646 ], [ -71.803217401017605, -34.410568554475361 ], [ -71.803234158190918, -34.40978946565145 ], [ -71.803054042383181, -34.409510544146208 ], [ -71.802922473330042, -34.409407370938567 ], [ -71.802823408917135, -34.409338382201405 ], [ -71.802529039981678, -34.409133266994161 ], [ -71.802390391305792, -34.408817948443925 ], [ -71.80219965471646, -34.408220624957778 ], [ -71.802090673801146, -34.407515310154707 ], [ -71.802067162195215, -34.406808036470018 ], [ -71.802047099221653, -34.406206798663753 ], [ -71.801861097652179, -34.405751076978596 ], [ -71.80139854702756, -34.405231242000283 ], [ -71.801151302813565, -34.404953265850651 ], [ -71.800750732350295, -34.404467011412343 ], [ -71.800604253060072, -34.404092719205721 ], [ -71.800517379683882, -34.403870734532013 ], [ -71.800541154496202, -34.403303939141416 ], [ -71.800607661268259, -34.402736163766711 ], [ -71.800633703428332, -34.402240060822692 ], [ -71.800401626369649, -34.401679126149773 ], [ -71.799999985114539, -34.401157446962067 ], [ -71.799803304372958, -34.400383319606213 ], [ -71.799744161989608, -34.399889241047866 ], [ -71.799636483631446, -34.399219264786531 ], [ -71.799532254803964, -34.398655400559001 ], [ -71.7995110392919, -34.398018816455917 ], [ -71.799410438759864, -34.397561058477827 ], [ -71.799532694978467, -34.397104843476484 ], [ -71.799639259425675, -34.396741813366695 ], [ -71.799580118838946, -34.396247660679521 ], [ -71.799311144378251, -34.395864576817822 ], [ -71.798876327441377, -34.395626778709662 ], [ -71.798381329668686, -34.395435623252069 ], [ -71.798270780294885, -34.395392959712574 ], [ -71.798004166606773, -34.395080489910768 ], [ -71.797992478626611, -34.394726887244467 ], [ -71.798020983967206, -34.394301545950185 ], [ -71.798337531408706, -34.393551039467397 ], [ -71.798669389735906, -34.393260317635367 ], [ -71.798998887290551, -34.392898829750443 ], [ -71.79941374815337, -34.392535460422891 ], [ -71.799706405798219, -34.392351749991164 ], [ -71.800045326680177, -34.392273244716357 ], [ -71.800599878264634, -34.392260542873998 ], [ -71.800855880154302, -34.392254678602846 ], [ -71.80132043941191, -34.392102472046417 ], [ -71.801486360939833, -34.391957107999652 ], [ -71.801516028700405, -34.391567184661618 ], [ -71.801497855782202, -34.391281300264644 ], [ -71.801327704087612, -34.391040546207613 ], [ -71.801108538514484, -34.390868633138055 ], [ -71.800886925032216, -34.390625956457242 ], [ -71.800839573935278, -34.390485477954478 ], [ -71.800787506683093, -34.390203545433742 ], [ -71.800741333277472, -34.390098412143558 ], [ -71.800901359162197, -34.389776247835925 ], [ -71.801318552949809, -34.389483564001694 ], [ -71.80165863984503, -34.389440399270953 ], [ -71.801914543818327, -34.389434535543529 ], [ -71.802209546066052, -34.389321658340023 ], [ -71.80237790741829, -34.389246980558283 ], [ -71.802588813880689, -34.389171327889947 ], [ -71.802798545346704, -34.389060403680652 ], [ -71.802921822051459, -34.388916014363197 ], [ -71.803002373982977, -34.388772605551786 ], [ -71.803168371867713, -34.388627162332469 ], [ -71.803459920093175, -34.388408170834403 ], [ -71.803749015917901, -34.388118416350856 ], [ -71.804034655923743, -34.387722475622667 ], [ -71.804071390730655, -34.38754469780968 ], [ -71.803765691344523, -34.387339400186946 ], [ -71.803627295095225, -34.387129307163974 ], [ -71.803114109132977, -34.387000470527106 ], [ -71.802938676242832, -34.386862929014178 ], [ -71.802758610740753, -34.386583856950409 ], [ -71.802617734242958, -34.386197769452735 ], [ -71.802607120647863, -34.385879514772689 ], [ -71.802592968588883, -34.385455150088738 ], [ -71.802579907084649, -34.38506613278269 ], [ -71.802610837876514, -34.384711552972561 ], [ -71.802670247957835, -34.383931558398224 ], [ -71.802656098593772, -34.383507267614441 ], [ -71.802849065699974, -34.382797908689476 ], [ -71.802875422270404, -34.382405033562094 ], [ -71.802604122071457, -34.381951191377773 ], [ -71.802172911870457, -34.381819584416711 ], [ -71.802037138701792, -34.381794633502366 ], [ -71.801829316155747, -34.381756565457991 ], [ -71.801656346446094, -34.381689857373843 ], [ -71.801430129097994, -34.381305649683377 ], [ -71.801331812083404, -34.380918585171699 ], [ -71.801277396635072, -34.380565960620835 ], [ -71.801356767282002, -34.38038720751743 ], [ -71.801518038231706, -34.380100312982016 ], [ -71.801506164300264, -34.379746713762692 ], [ -71.801658450300508, -34.379486904598352 ], [ -71.80179523497219, -34.379253739655319 ], [ -71.802035584616334, -34.378843628899709 ], [ -71.80223094663107, -34.378393269061597 ], [ -71.802420789396692, -34.377988450703839 ], [ -71.802660390744222, -34.377801888772986 ], [ -71.803482005174416, -34.377606416157207 ], [ -71.804253581646677, -34.377192688131032 ], [ -71.80461955080186, -34.376744244877393 ], [ -71.804847591729995, -34.37609928583975 ], [ -71.804928553293308, -34.375498758654615 ], [ -71.804778104347832, -34.374868092300751 ], [ -71.804531323664563, -34.374475942910074 ], [ -71.804229272336784, -34.374010032303779 ], [ -71.804626955614751, -34.373490118069299 ], [ -71.804807621191429, -34.37332609875299 ], [ -71.805425771701366, -34.373125310616246 ], [ -71.805807894361976, -34.373014783327676 ], [ -71.806259148671913, -34.37261673736981 ], [ -71.806842087917659, -34.371812319838682 ], [ -71.806999996473252, -34.371479046247451 ], [ -71.807510239554631, -34.371058373761954 ], [ -71.808381698805022, -34.370309798817452 ], [ -71.809154250847669, -34.369871946329262 ], [ -71.810070267434469, -34.36871463298008 ], [ -71.810498947081314, -34.367375921590501 ], [ -71.810507517907439, -34.366449252377222 ], [ -71.807324912619947, -34.347604115770046 ], [ -71.807940980835056, -34.347584142436396 ], [ -71.808446528422436, -34.34765399049094 ], [ -71.809023481295142, -34.347934578445546 ], [ -71.809323141307615, -34.347963069807058 ], [ -71.809749463775148, -34.34795327898523 ], [ -71.810284611749466, -34.347632309090251 ], [ -71.810708871685108, -34.347294241534513 ], [ -71.811163628526344, -34.346859028586238 ], [ -71.811321268485671, -34.346466162915007 ], [ -71.811519070324692, -34.346001554722029 ], [ -71.811799816308877, -34.345464147383062 ], [ -71.811913569973285, -34.345036916738088 ], [ -71.812187227351572, -34.344287438839402 ], [ -71.812555464752819, -34.343818837078388 ], [ -71.813056532441891, -34.34348881804317 ], [ -71.813350177335224, -34.343340502158725 ], [ -71.813726858001843, -34.343119458609465 ], [ -71.813761197001895, -34.342870988726922 ], [ -71.814090444824885, -34.342509470271168 ], [ -71.814423237399993, -34.342254061244439 ], [ -71.814971630134863, -34.342064509217131 ], [ -71.815309148746664, -34.341950552013742 ], [ -71.815518748160343, -34.341839611258663 ], [ -71.81585389881306, -34.341654889172382 ], [ -71.816236393376201, -34.341610712553312 ], [ -71.816447854997449, -34.341611383076192 ], [ -71.816589366604148, -34.341607534986672 ], [ -71.81666992662052, -34.341072437431293 ], [ -71.817200159013609, -34.341641472044572 ], [ -71.81800025789444, -34.341921162604017 ], [ -71.818730476829344, -34.342262051828072 ], [ -71.819181527221716, -34.342847966546842 ], [ -71.819704282936684, -34.343432152689687 ], [ -71.820225051578234, -34.343956788229661 ], [ -71.821025181900126, -34.344236456974549 ], [ -71.821825230475312, -34.34451619673186 ], [ -71.822625374271922, -34.344795928880615 ], [ -71.823425518966843, -34.345075581476202 ], [ -71.824221670650331, -34.345236060345599 ], [ -71.825019826475227, -34.345456153396114 ], [ -71.825677317804704, -34.34589637781535 ], [ -71.825702501175385, -34.343976022944545 ], [ -71.825629995453852, -34.341818810267974 ], [ -71.825736152964225, -34.339910393845749 ], [ -71.825745139710349, -34.339748463573194 ], [ -71.813541487948015, -34.333745095866831 ], [ -71.81362333435186, -34.333637022439483 ], [ -71.813905129568298, -34.333135106850719 ], [ -71.814222524121107, -34.332419990804539 ], [ -71.814695186182576, -34.3314926117 ], [ -71.815463633822716, -34.329984787782877 ], [ -71.815784550669747, -34.329375703914003 ], [ -71.815865774541109, -34.329211963989344 ], [ -71.815923900929889, -34.329094835021763 ], [ -71.816104282638918, -34.328731347683096 ], [ -71.816650081039271, -34.327985196670234 ], [ -71.817458208163799, -34.3263190079361 ], [ -71.818125476756848, -34.325564810655067 ], [ -71.818210656808716, -34.325152411094827 ], [ -71.818185958528289, -34.324414221281572 ], [ -71.818158518589627, -34.32359405230342 ], [ -71.818131077752653, -34.322773808538756 ], [ -71.817905840466508, -34.321958118716552 ], [ -71.817875751396059, -34.321055966163968 ], [ -71.818045929141803, -34.32023109844318 ], [ -71.818614434257569, -34.319479320766042 ], [ -71.81898788098917, -34.318814003200906 ], [ -71.818861631759134, -34.317996034982812 ], [ -71.818441454666456, -34.317267027587228 ], [ -71.817812702239536, -34.316214352136654 ], [ -71.817477718673445, -34.315072866078943 ], [ -71.81744755144959, -34.314170640261182 ], [ -71.817326811587193, -34.313516703358687 ], [ -71.816807871017232, -34.312789888206368 ], [ -71.816305473821544, -34.312555170979472 ], [ -71.815907274012275, -34.312482290136785 ], [ -71.815303253103451, -34.312167789698876 ], [ -71.814894094746052, -34.311766762127327 ], [ -71.81478433858463, -34.311440964352371 ], [ -71.814655318950287, -34.310541010843053 ], [ -71.815208639842794, -34.310763486223323 ], [ -71.816407754203169, -34.310289719082959 ], [ -71.817600019807813, -34.309843051921604 ], [ -71.818702890465275, -34.308871170092139 ], [ -71.820169083841094, -34.308449776821703 ], [ -71.821375412571498, -34.308421976218611 ], [ -71.822281103922435, -34.308680530524839 ], [ -71.823234961142248, -34.309879951316226 ], [ -71.825508312360412, -34.311125635653369 ], [ -71.826532727754213, -34.312224223894603 ], [ -71.82733928911523, -34.312385926820852 ], [ -71.828048876442992, -34.312527267857661 ], [ -71.828079712911759, -34.313355922664016 ], [ -71.828585112277111, -34.313429830387889 ], [ -71.829272100687291, -34.312913643577069 ], [ -71.829513667548639, -34.313232613875179 ], [ -71.830836017291276, -34.314545221511295 ], [ -71.831670984279882, -34.31544536358868 ], [ -71.831802441043592, -34.316361779638854 ], [ -71.832539849195726, -34.317345328624619 ], [ -71.832972800331731, -34.318254764578342 ], [ -71.83330239041284, -34.319081004257576 ], [ -71.833256380500615, -34.319790399519285 ], [ -71.833348397630132, -34.320208158337614 ], [ -71.833810914118772, -34.320455836212197 ], [ -71.835045765257789, -34.320837006533452 ], [ -71.835426941094084, -34.321484000770631 ], [ -71.836019427634668, -34.322006910672954 ], [ -71.836815378993848, -34.322167390649462 ], [ -71.837266340452999, -34.322753167520929 ], [ -71.837503821776465, -34.32340356042134 ], [ -71.837885031748741, -34.324050619446879 ], [ -71.838591069832816, -34.323676461204357 ], [ -71.838928022506011, -34.323012745273786 ], [ -71.839711936440366, -34.322815702622634 ], [ -71.840509907212308, -34.323035705385728 ], [ -71.841305872944531, -34.323196081013862 ], [ -71.842165570552893, -34.323116449286459 ], [ -71.842949474605803, -34.32291938684768 ], [ -71.843815292436219, -34.323018529815961 ], [ -71.844635910634778, -34.323692646961788 ], [ -71.845388745555269, -34.323532327182384 ], [ -71.845925557209483, -34.323385149679936 ], [ -71.846465415949154, -34.323230735510826 ], [ -71.847025264898832, -34.323085823219749 ], [ -71.847584070904475, -34.322923284017641 ], [ -71.848114473977461, -34.322726326474466 ], [ -71.848615574904201, -34.322484117153778 ], [ -71.849108613451264, -34.322219422363055 ], [ -71.849609329899039, -34.321976553511909 ], [ -71.850130705801732, -34.32176561923734 ], [ -71.850643576455326, -34.321532284796746 ], [ -71.851106967903064, -34.321243977979812 ], [ -71.851534778879028, -34.320938036417452 ], [ -71.851954838292414, -34.32063190603548 ], [ -71.852383063391713, -34.320338358933675 ], [ -71.852847324408643, -34.320089237679618 ], [ -71.853353011234901, -34.319872969442514 ], [ -71.853849448108676, -34.319722564095414 ], [ -71.854700214666508, -34.319590993695059 ], [ -71.854954887947855, -34.319602627798069 ], [ -71.855212771808056, -34.319614407316415 ], [ -71.855721150885216, -34.319695738401997 ], [ -71.855979986061286, -34.319596431252869 ], [ -71.85618707288711, -34.319414664982027 ], [ -71.85643205065162, -34.319090451227524 ], [ -71.856847505300834, -34.318762184535977 ], [ -71.857394352933412, -34.31853718552312 ], [ -71.857861994310753, -34.318490820639276 ], [ -71.858327239881248, -34.318373839932136 ], [ -71.858921473645054, -34.318289140664234 ], [ -71.859158848068986, -34.318255312868594 ], [ -71.859586678807901, -34.318210830862128 ], [ -71.860028431637062, -34.31822783083512 ], [ -71.860499585427164, -34.318287636761774 ], [ -71.860885931966251, -34.318316266548912 ], [ -71.861226592884933, -34.318341458943209 ], [ -71.861693032316424, -34.318259809738905 ], [ -71.861988896946826, -34.318181999232408 ], [ -71.862366534319222, -34.317996233080173 ], [ -71.862621095311169, -34.317954907882871 ], [ -71.863131240476193, -34.317907601899385 ], [ -71.863555078203646, -34.317826942019927 ], [ -71.864109106070288, -34.317813903179754 ], [ -71.864984263684704, -34.317793492427192 ], [ -71.862747774834219, -34.315855105675659 ], [ -71.861673255007119, -34.314687706735498 ], [ -71.861132054184438, -34.313984946106551 ], [ -71.860308479630277, -34.313431672719361 ], [ -71.8596701089416, -34.313255847485131 ], [ -71.858923405022907, -34.313273292165363 ], [ -71.85772521772391, -34.313539796656357 ], [ -71.856636975232533, -34.31366053627309 ], [ -71.854786531985525, -34.314192718362229 ], [ -71.85418634598463, -34.314290162139123 ], [ -71.853103719760398, -34.31408574532319 ], [ -71.85273099617261, -34.313751716171275 ], [ -71.852679438265199, -34.313369659656573 ], [ -71.852654097689339, -34.313181057393606 ], [ -71.852354014570381, -34.312518789182924 ], [ -71.851903539998105, -34.311385934228817 ], [ -71.851863021487219, -34.311295753456953 ], [ -71.850971007884809, -34.30930874458484 ], [ -71.850793249256384, -34.30745263794676 ], [ -71.851129836315252, -34.307206203196401 ], [ -71.851274514483322, -34.307060974588474 ], [ -71.851908130389205, -34.306424876603984 ], [ -71.853305260387657, -34.305247486169755 ], [ -71.853745418707206, -34.304664773521331 ], [ -71.853957518132319, -34.304135154220916 ], [ -71.853944610239978, -34.303753895446455 ], [ -71.853583837838727, -34.303285263935955 ], [ -71.853218142669718, -34.30267370591082 ], [ -71.853029783022635, -34.3022010529927 ], [ -71.852895460633135, -34.301631731602605 ], [ -71.852939996409972, -34.301249133129907 ], [ -71.852923954295633, -34.300772463425091 ], [ -71.853027537234425, -34.300436119409902 ], [ -71.853124751117832, -34.300169264615903 ], [ -71.853237841825603, -34.299858838929289 ], [ -71.853505754477609, -34.299280142258816 ], [ -71.853570707164224, -34.298173231815369 ], [ -71.854459128403803, -34.298261367319178 ], [ -71.855080599985357, -34.298367538259654 ], [ -71.855740478138557, -34.298533141683109 ], [ -71.856117457045841, -34.298403535095247 ], [ -71.85708639248773, -34.29834939215592 ], [ -71.859230146454792, -34.297330263810018 ], [ -71.861915638437097, -34.297344161495928 ], [ -71.863761974586623, -34.295272741960773 ], [ -71.864395234759655, -34.295019109812422 ], [ -71.864822549865565, -34.294517816745071 ], [ -71.864952116573946, -34.292747957048526 ], [ -71.865524463784183, -34.292396497906587 ], [ -71.866494583205593, -34.290863867240581 ], [ -71.867258617422721, -34.289674122412869 ], [ -71.869125655247984, -34.288381950649487 ], [ -71.869602428898517, -34.287618070403283 ], [ -71.869654705458146, -34.286197018704769 ], [ -71.869907886637833, -34.284771331493197 ], [ -71.870390549643375, -34.284178632516287 ], [ -71.870250168117281, -34.283009995317485 ], [ -71.870006680657823, -34.281762767235257 ], [ -71.87057843318334, -34.280834418771541 ], [ -71.872295064283961, -34.281042060010328 ], [ -71.873380713339117, -34.280435128438477 ], [ -71.874081004002008, -34.280333106397109 ], [ -71.875241355159559, -34.278971699379731 ], [ -71.876031068617408, -34.278534006931025 ], [ -71.876932641192738, -34.278431670821561 ], [ -71.87740069220186, -34.277415564016501 ], [ -71.878153422917777, -34.275896966659943 ], [ -71.878727902728485, -34.275049675349031 ], [ -71.878992276916605, -34.273957194241035 ], [ -71.878969630388298, -34.273290755889086 ], [ -71.878547648580209, -34.272714713447471 ], [ -71.878527832643343, -34.272133720829025 ], [ -71.877784596221673, -34.270979337121197 ], [ -71.875793157899253, -34.268605761189747 ], [ -71.874137516118211, -34.267224876326424 ], [ -71.873509223628716, -34.266491417853715 ], [ -71.872892222064024, -34.266086746067906 ], [ -71.871692221964778, -34.266281707257512 ], [ -71.871419188915624, -34.267121899876344 ], [ -71.871028537649721, -34.267464545712095 ], [ -71.870417449694543, -34.267231044070577 ], [ -71.869987136012199, -34.266407265377005 ], [ -71.869539864832234, -34.265079146509365 ], [ -71.868908810023242, -34.264260065510271 ], [ -71.867783701570914, -34.263700525277265 ], [ -71.866541450110589, -34.26264791574323 ], [ -71.864931217268875, -34.262599858456802 ], [ -71.864782566750591, -34.261183576441923 ], [ -71.864065285352424, -34.260785708108344 ], [ -71.862427017887299, -34.260513042497784 ], [ -71.861763197028324, -34.260474425674978 ], [ -71.860699129099558, -34.259358955879669 ], [ -71.860246644995996, -34.257868679092084 ], [ -71.858756206988986, -34.256407060945378 ], [ -71.857750859235395, -34.255420898442999 ], [ -71.856727811077434, -34.254110587272294 ], [ -71.854202945952764, -34.252835343905559 ], [ -71.849505579873622, -34.25051088541008 ], [ -71.847441767882003, -34.249436487238853 ], [ -71.84531416203049, -34.247818326786351 ], [ -71.845001476446384, -34.246302138523809 ], [ -71.844511135540117, -34.246043099715564 ], [ -71.843463619070477, -34.24503969774765 ], [ -71.842181344070994, -34.243757941008504 ], [ -71.839445600331686, -34.24279365806003 ], [ -71.838291638890752, -34.241977587463808 ], [ -71.837686027963855, -34.241112694551802 ], [ -71.837000377145159, -34.240416471513385 ], [ -71.835899929243993, -34.239950647473925 ], [ -71.835046185669327, -34.239244641773617 ], [ -71.834558374418904, -34.238133754843567 ], [ -71.834057859193749, -34.236648903026811 ], [ -71.832451008509054, -34.235753007826006 ], [ -71.832063291140869, -34.234265613427603 ], [ -71.831115962876524, -34.232881166678339 ], [ -71.830181250552045, -34.231875182910692 ], [ -71.829399214096611, -34.230667238172273 ], [ -71.82875887250421, -34.229758050055665 ], [ -71.827942956986163, -34.228933995079444 ], [ -71.826905104592328, -34.228209725359285 ], [ -71.826876943306473, -34.227367559169636 ], [ -71.826848781122322, -34.226525319939867 ], [ -71.827308888329384, -34.225771064669814 ], [ -71.827817828853597, -34.225195868923024 ], [ -71.828593020146556, -34.22480386834475 ], [ -71.828461723282956, -34.224243519816874 ], [ -71.827867866811559, -34.223324169547098 ], [ -71.827286464583253, -34.222774205616638 ], [ -71.826708144474694, -34.222318840397698 ], [ -71.825826733687606, -34.222902548706351 ], [ -71.825170264640917, -34.223476559051221 ], [ -71.824270028758718, -34.223497310617496 ], [ -71.823463694671474, -34.222957017285722 ], [ -71.822657219548745, -34.222412142725894 ], [ -71.822863498789118, -34.221848516711781 ], [ -71.823069716045737, -34.221280385610001 ], [ -71.822019615123011, -34.220182243620783 ], [ -71.821988503769774, -34.219249973911836 ], [ -71.821243383580935, -34.218496386654905 ], [ -71.820597655690108, -34.218065066422696 ], [ -71.819913249936377, -34.217801304782981 ], [ -71.817772101083648, -34.217755881935538 ], [ -71.816743862459973, -34.217310736882951 ], [ -71.816031435557605, -34.216204851080462 ], [ -71.81622538991229, -34.215267406532234 ], [ -71.817219155686914, -34.214681111461388 ], [ -71.818450862722415, -34.214468026236339 ], [ -71.820807453631446, -34.214224464160274 ], [ -71.82180787412571, -34.214259994847282 ], [ -71.821907245762432, -34.213004740743735 ], [ -71.820851262671226, -34.212163634163836 ], [ -71.819941835227041, -34.211905123999834 ], [ -71.818047906333746, -34.212512067112854 ], [ -71.817375856906764, -34.212617685166691 ], [ -71.816697630663867, -34.212543180682694 ], [ -71.817119555878094, -34.211690589832543 ], [ -71.817091595814887, -34.210848337981417 ], [ -71.816819972222433, -34.209452810848248 ], [ -71.814797951654455, -34.209593936417789 ], [ -71.813419797668061, -34.208782757769292 ], [ -71.812829217352501, -34.207953416847495 ], [ -71.812553671715506, -34.207247555227411 ], [ -71.812719030898066, -34.206256640876845 ], [ -71.811719478176371, -34.206797984811296 ], [ -71.809766724005016, -34.207460204047202 ], [ -71.807556375230988, -34.207970629304903 ], [ -71.807067116794656, -34.207932209020939 ], [ -71.806198264455219, -34.207943095611817 ], [ -71.804593851798217, -34.207781537240635 ], [ -71.804200097751306, -34.207073854035002 ], [ -71.803676209260772, -34.206161855610603 ], [ -71.803046065343466, -34.205766117949025 ], [ -71.801826335545627, -34.206204229059693 ], [ -71.80071281536047, -34.207284298321561 ] ] ] } },
{ "type": "Feature", "properties": { "capa": "colegios", "popup": "<strong>ESCUELA MUNICIPAL LA QUEBRADA</strong><br><br><strong>Dirección:</strong> LA QUEBRADA 0", "etiqueta": "" }, "geometry": { "type": "Point", "coordinates": [ -71.703621, -34.47723 ] } },
{ "type": "Feature", "properties": { "capa": "colegios", "popup": "<strong>ESCUELA MUNICIPAL LO MARCHANT</strong><br><br><strong>Dirección:</strong> LO MARCHANT 0", "etiqueta": "" }, "geometry": { "type": "Point", "coordinates": [ -71.672653, -34.457581 ] } },
{ "type": "Feature", "properties": { "capa": "colegios", "popup": "<strong>ESCUELA MUNICIPAL AMERICA</strong><br><br><strong>Dirección:</strong> LAUREANO CORNEJO 220", "etiqueta": "" }, "geometry": { "type": "Point", "coordinates": [ -71.61779, -34.40033 ] } },
{ "type": "Feature", "properties": { "capa": "colegios", "popup": "<strong>ESCUELA MUNICIPAL EL SAUCE</strong><br><br><strong>Dirección:</strong> CARRETERA 90 12", "etiqueta": "" }, "geometry": { "type": "Point", "coordinates": [ -71.725906, -34.398159 ] } },
{ "type": "Feature", "properties": { "capa": "colegios", "popup": "<strong>LICEO MUNICIPAL INSTITUTO CARDENAL CARO</strong><br><br><strong>Dirección:</strong> LIBERTAD 1385", "etiqueta": "" }, "geometry": { "type": "Point", "coordinates": [ -71.619331, -34.397259 ] } },
{ "type": "Feature", "properties": { "capa": "colegios", "popup": "<strong>ESCUELA ESPECIAL DE LENGUAJE REMOLINOS</strong><br><br><strong>Dirección:</strong> CAUPOLICAN 1541", "etiqueta": "" }, "geometry": { "type": "Point", "coordinates": [ -71.62181, -34.39591 ] } },
{ "type": "Feature", "properties": { "capa": "colegios", "popup": "<strong>ESCUELA TRINIDAD</strong><br><br><strong>Dirección:</strong> TRINIDAD 0", "etiqueta": "" }, "geometry": { "type": "Point", "coordinates": [ -71.559799, -34.377621 ] } },
{ "type": "Feature", "properties": { "capa": "colegios", "popup": "<strong>ESCUELA MUNICIPAL EL PARQUE</strong><br><br><strong>Dirección:</strong> LOS MAITENES 0", "etiqueta": "" }, "geometry": { "type": "Point", "coordinates": [ -71.59494, -34.364342 ] } },
{ "type": "Feature", "properties": { "capa": "colegios", "popup": "<strong>ESCUELA MUNICIPAL NOBELES DE CHILE</strong><br><br><strong>Dirección:</strong> RUTA 90 90", "etiqueta": "" }, "geometry": { "type": "Point", "coordinates": [ -71.735237, -34.35622 ] } },
{ "type": "Feature", "properties": { "capa": "colegios", "popup": "<strong>ESCUELA MUNICIPAL SAN MIGUEL VILUCO</strong><br><br><strong>Dirección:</strong> SAN MIGUEL DE VILUCO 0", "etiqueta": "" }, "geometry": { "type": "Point", "coordinates": [ -71.622658, -34.29657 ] } },
{ "type": "Feature", "properties": { "capa": "colegios", "popup": "<strong>ESCUELA MUNICIPAL PAILIMO</strong><br><br><strong>Dirección:</strong> PAILIMO 0", "etiqueta": "" }, "geometry": { "type": "Point", "coordinates": [ -71.788033, -34.292789 ] } },
{ "type": "Feature", "properties": { "capa": "jardines", "popup": "<strong>MANITOS PEQUEÑAS</strong><br><br><strong>Dirección:</strong> RUTA H20 CON H76 S/N, MARCHIGUE ", "etiqueta": "" }, "geometry": { "type": "MultiPoint", "coordinates": [ [ -71.596393, -34.363403 ] ] } },
{ "type": "Feature", "properties": { "capa": "jardines", "popup": "<strong>FRUTILLITAS</strong><br><br><strong>Dirección:</strong> RINCONADA DE ALCONES ", "etiqueta": "" }, "geometry": { "type": "MultiPoint", "coordinates": [ [ -71.735025, -34.355539 ] ] } },
{ "type": "Feature", "properties": { "capa": "jardines", "popup": "<strong>NA</strong><br><br><strong>Dirección:</strong> NA ", "etiqueta": "" }, "geometry": { "type": "MultiPoint", "coordinates": [ [ -71.617146000348924, -34.402278999837996 ] ] } },
{ "type": "Feature", "properties": { "capa": "bomberos", "popup": "<strong>Cuerpo de Bomberos</strong><br><br><strong>Dirección:</strong> Carlos Ortiz 430", "etiqueta": "" }, "geometry": { "type": "Point", "coordinates": [ -71.617570766228695, -34.399605591005013 ] } },
{ "type": "Feature", "properties": { "capa": "comisarias", "popup": "<strong>TCIA. MARCHIGUE</strong><br><br><strong>Dirección:</strong> ARTURO PRAT 1273", "etiqueta": "" }, "geometry": { "type": "Point", "coordinates": [ -71.618817498999931, -34.398520860999938 ] } },
{ "type": "Feature", "properties": { "capa": "salud", "popup": "<strong>Hospital de Marchigüe</strong><br><br><strong>Tipo de atención:</strong> Hospital<br><strong>Dirección:</strong>  410", "etiqueta": "" }, "geometry": { "type": "Point", "coordinates": [ -71.61712, -34.39882 ] } },
{ "type": "Feature", "properties": { "capa": "salud", "popup": "<strong>Posta de Salud Rural Rinconada de Alcones</strong><br><br><strong>Tipo de atención:</strong> Posta de Salud Rural (PSR)<br><strong>Dirección:</strong>  NA", "etiqueta": "" }, "geometry": { "type": "Point", "coordinates": [ -71.73477, -34.35571 ] } },
{ "type": "Feature", "properties": { "capa": "salud", "popup": "<strong>Posta de Salud Rural Pailimo</strong><br><br><strong>Tipo de atención:</strong> Posta de Salud Rural (PSR)<br><strong>Dirección:</strong>  NA", "etiqueta": "" }, "geometry": { "type": "Point", "coordinates": [ -71.78725, -34.29367 ] } },
{ "type": "Feature", "properties": { "capa": "municipios", "popup": "<strong>Municipalidad de Marchihue</strong><br><br><strong>Dirección:</strong> Libertad Nº 490<br><strong>Región:</strong> Libertador General Bernardo O'Higgins", "etiqueta": "" }, "geometry": { "type": "Point", "coordinates": [ -71.618861, -34.396663000999972 ] } }
]
}
