{
"type": "FeatureCollection",
"name": "6303",
"crs": { "type": "name", "properties": { "name": "urn:ogc:def:crs:OGC:1.3:CRS84" } },
"features": [
{ "type": "Feature", "properties": { "capa": "comuna", "popup": "", "etiqueta": "" }, "geometry": { "type": "Polygon", "coordinates": [ [ [ -70.99911162886464, -34.612767804104209 ], [ -70.998644501323639, -34.612775534457725 ], [ -70.998177369291056, -34.612783115467465 ], [ -70.99771023905511, -34.61279076819072 ], [ -70.997241862855859, -34.612750136517541 ], [ -70.996774822451428, -34.612757857261542 ], [ -70.996306536982033, -34.612717220396988 ], [ -70.995837093584228, -34.612628295349332 ], [ -70.995369964246592, -34.612635939214996 ], [ -70.994964701882566, -34.612787408711114 ], [ -70.994500949312098, -34.612939980258098 ], [ -70.994095773186345, -34.61309144476354 ], [ -70.993810775475936, -34.613385856016407 ], [ -70.993703117779035, -34.613773974981932 ], [ -70.993477674778688, -34.614115715950796 ], [ -70.993192672576711, -34.614410125049631 ], [ -70.992788552869726, -34.614609946363295 ], [ -70.992384429569498, -34.614809692526237 ], [ -70.991919593630797, -34.614913894417342 ], [ -70.991515470330555, -34.615113711561122 ], [ -70.991050540068727, -34.615217836922611 ], [ -70.990613173713101, -34.615249129287719 ], [ -70.990143723128753, -34.615160257224773 ], [ -70.989676664758036, -34.615167804748175 ], [ -70.989383024356286, -34.615112251440834 ], [ -70.989207215970339, -34.615078928162355 ], [ -70.988794929679116, -34.61494073998999 ], [ -70.988270532742121, -34.614997595323707 ], [ -70.987866395967146, -34.615197326507115 ], [ -70.98746225829386, -34.615397131139815 ], [ -70.987057056116967, -34.615548572679494 ], [ -70.986652915748763, -34.615748373509547 ], [ -70.986247532112174, -34.615899816626268 ], [ -70.985724276933894, -34.616004946440768 ], [ -70.985318980433902, -34.616156457843573 ], [ -70.984854127427198, -34.616260632908151 ], [ -70.984386974733368, -34.616268235778321 ], [ -70.983917521454089, -34.616179265741337 ], [ -70.983505326791033, -34.616041057961311 ], [ -70.983038174995514, -34.616048654937231 ], [ -70.982572170348618, -34.616104536603082 ], [ -70.982107313748656, -34.616208701382718 ], [ -70.981642455352059, -34.616312864553059 ], [ -70.981237148072282, -34.616464288896928 ], [ -70.980892451921335, -34.616711410786458 ], [ -70.980607397617064, -34.617005866125368 ], [ -70.980262783212822, -34.617252835588921 ], [ -70.979918169706906, -34.617499953652164 ], [ -70.979514001490898, -34.617699658114518 ], [ -70.979169295458505, -34.617946774847496 ], [ -70.9790021872561, -34.618287542756875 ], [ -70.978834990120475, -34.618628312224217 ], [ -70.978549919646525, -34.618922689792996 ], [ -70.978207586064784, -34.619266299863568 ], [ -70.977922511997591, -34.619560749834925 ], [ -70.977860069203857, -34.619625060410819 ], [ -70.977637346302217, -34.619855127053484 ], [ -70.97729262410013, -34.620102164182299 ], [ -70.976887380600758, -34.620253647406784 ], [ -70.976483189926853, -34.620453343025588 ], [ -70.976078999252977, -34.620653111349839 ], [ -70.975614017787194, -34.620757179493154 ], [ -70.975208678168059, -34.620908658565028 ], [ -70.9747427292167, -34.6209645103458 ], [ -70.974274314389902, -34.620923790267454 ], [ -70.973918231194446, -34.620688033609746 ], [ -70.973506030243172, -34.620549866603845 ], [ -70.97303770524789, -34.620509140408018 ], [ -70.972571668261637, -34.620564984325874 ], [ -70.972105629478762, -34.620620826727624 ], [ -70.971640733352899, -34.620724953312305 ], [ -70.971236527407669, -34.620924631533555 ], [ -70.970832320564114, -34.621124382459897 ], [ -70.970426968368585, -34.621275772891209 ], [ -70.970021614376392, -34.621427160828617 ], [ -70.96961740393958, -34.621626907588428 ], [ -70.969272739229694, -34.621873996364819 ], [ -70.969164955768633, -34.622262023894031 ], [ -70.969115673293828, -34.622649254932043 ], [ -70.969008067699193, -34.623037353498582 ], [ -70.968722947817923, -34.623331710253687 ], [ -70.968702206616314, -34.623694252842959 ], [ -70.96853513614316, -34.62403500750235 ], [ -70.968309385020675, -34.624376782363029 ], [ -70.968142220224408, -34.624717463254946 ], [ -70.967797540243126, -34.624964548003589 ], [ -70.967392163793093, -34.625115928472468 ], [ -70.967047390387052, -34.625363013513002 ], [ -70.96658254905843, -34.625467119363215 ], [ -70.966058064086553, -34.625523807817039 ], [ -70.965590764967317, -34.625531341831461 ], [ -70.965120228319819, -34.625394086943047 ], [ -70.964651879070018, -34.625353329120877 ], [ -70.96418457995081, -34.625360857976311 ], [ -70.963717458698014, -34.625368381656578 ], [ -70.963251297744264, -34.625424192736148 ], [ -70.962845909616092, -34.62557555832143 ], [ -70.962441657856772, -34.625775209347893 ], [ -70.962156506534456, -34.626069624397758 ], [ -70.961751115711337, -34.6262210605083 ], [ -70.961346857663813, -34.626420707763977 ], [ -70.961002149834783, -34.626667774135186 ], [ -70.960597888193988, -34.626867418837591 ], [ -70.960254220614061, -34.627162697086604 ], [ -70.959910642865665, -34.627458046725565 ], [ -70.959625473577049, -34.627752382624443 ], [ -70.959340303390093, -34.628046718218371 ], [ -70.958995492254815, -34.628293707307733 ], [ -70.958769869591421, -34.628635463148484 ], [ -70.958486872429148, -34.629026296023028 ], [ -70.958202830526204, -34.629368989815156 ], [ -70.958036659266625, -34.629757946175062 ], [ -70.957928996179831, -34.630146110541347 ], [ -70.957761688551415, -34.63048678031064 ], [ -70.957476503093119, -34.630781185294119 ], [ -70.957192358782237, -34.631123730658011 ], [ -70.956910571650639, -34.631562919162342 ], [ -70.956684842087739, -34.631904673362541 ], [ -70.956341230203336, -34.632199939597051 ], [ -70.956057167639145, -34.632542554495572 ], [ -70.955831430889717, -34.63288423296305 ], [ -70.955605783073509, -34.633225983198038 ], [ -70.955261026735442, -34.633472887389132 ], [ -70.954918449710277, -34.633816511862221 ], [ -70.954514137763837, -34.634016138622862 ], [ -70.954049142823308, -34.634120200354353 ], [ -70.95370438199366, -34.634367247492371 ], [ -70.953298931881776, -34.634518582718414 ], [ -70.952894615443739, -34.634718278006495 ], [ -70.952490294514135, -34.63491789742308 ], [ -70.952084841707276, -34.635069303339478 ], [ -70.951679388002105, -34.635220708240332 ], [ -70.951214290653652, -34.635324687157301 ], [ -70.950749371171625, -34.635428736160343 ], [ -70.950283142844214, -34.635484499820699 ], [ -70.94987768285084, -34.635635898789872 ], [ -70.949473350243139, -34.635835507867817 ], [ -70.949069015838802, -34.636035116465351 ], [ -70.94866355135386, -34.636186511473056 ], [ -70.948198622888654, -34.636290477353469 ], [ -70.947853745278053, -34.636537509897344 ], [ -70.947508954804007, -34.636784540227275 ], [ -70.947105648072366, -34.637032356969478 ], [ -70.946879953543757, -34.637374093070463 ], [ -70.94665425542189, -34.637715754592506 ], [ -70.946486888504666, -34.638056484183934 ], [ -70.946141999215953, -34.638303512946059 ], [ -70.945974718537002, -34.638644240861922 ], [ -70.945809692629425, -34.639081541089432 ], [ -70.94564231942401, -34.639422270243372 ], [ -70.945237958070209, -34.639621867252465 ], [ -70.94501215754039, -34.639963526905461 ], [ -70.944606665207672, -34.640114834921839 ], [ -70.944202301158924, -34.640314575862249 ], [ -70.943857481040496, -34.640561450083489 ], [ -70.943512571988833, -34.640808471384283 ], [ -70.943047612980934, -34.640912491335705 ], [ -70.942580309370143, -34.6409199382203 ], [ -70.942054582028192, -34.640928314856076 ], [ -70.941589440662298, -34.641032333179027 ], [ -70.941183935753145, -34.641183630376474 ], [ -70.940779556433071, -34.641383286706173 ], [ -70.940374047930661, -34.641534581046088 ], [ -70.93996853942825, -34.641685948277448 ], [ -70.939503570538875, -34.641789955303167 ], [ -70.939158641724291, -34.642036891647813 ], [ -70.938932899584955, -34.642378539873022 ], [ -70.938647605430518, -34.642672830960862 ], [ -70.93842177166303, -34.64301447952225 ], [ -70.938195936098921, -34.64335620205906 ], [ -70.937910634757941, -34.643650417250548 ], [ -70.937684885432091, -34.643992137166606 ], [ -70.937576930392822, -34.644380216445931 ], [ -70.93740960300147, -34.644720933436489 ], [ -70.937064747848751, -34.64496793643454 ], [ -70.936779348591401, -34.645262150341388 ], [ -70.93637493783028, -34.64546179315591 ], [ -70.935908729265819, -34.645517502033243 ], [ -70.93544148853708, -34.645524921899188 ], [ -70.934917973745698, -34.645629841245395 ], [ -70.934450641388821, -34.645637258145172 ], [ -70.933983219200385, -34.645644600402299 ], [ -70.933934045421722, -34.6456630332709 ], [ -70.933577678358631, -34.645795946828635 ], [ -70.933232895071129, -34.646042939233936 ], [ -70.932887930323915, -34.646289857740094 ], [ -70.932662152251979, -34.646631495832388 ], [ -70.932494710774606, -34.646972208745041 ], [ -70.932386816820767, -34.647360281466469 ], [ -70.932041933820273, -34.647607197527442 ], [ -70.931636380402082, -34.6477585381542 ], [ -70.931172396066259, -34.647910803005189 ], [ -70.930707289734656, -34.648014779313698 ], [ -70.930241061407244, -34.64807039409969 ], [ -70.929773713778999, -34.648077793044934 ], [ -70.92930636704908, -34.648085190511551 ], [ -70.928839019420835, -34.648092586499466 ], [ -70.928370554288364, -34.648051693506424 ], [ -70.927958283268495, -34.647913374757046 ], [ -70.927568040736034, -34.647896501698412 ], [ -70.927103609039193, -34.647968029638811 ], [ -70.926640572425995, -34.648103791331231 ], [ -70.926098413100874, -34.648176617527767 ], [ -70.925716068556397, -34.648439396845838 ], [ -70.925332239096747, -34.648638086825393 ], [ -70.92510656433106, -34.648962648042904 ], [ -70.924801853990076, -34.649224272033472 ], [ -70.924497143649063, -34.649485969836931 ], [ -70.924034093561147, -34.649621648493302 ], [ -70.923565200830595, -34.649500679533745 ], [ -70.923097699590443, -34.649443797590948 ], [ -70.922633255317194, -34.649515381838007 ], [ -70.922167328823718, -34.649522729663694 ], [ -70.921702792922304, -34.649594239204127 ], [ -70.921236863733895, -34.649601583327886 ], [ -70.920769363392054, -34.649544691847396 ], [ -70.920300475153084, -34.649423710212609 ], [ -70.919832889471294, -34.649366891031676 ], [ -70.919368442503099, -34.649438462782228 ], [ -70.918902514212988, -34.649445798051779 ], [ -70.918439453345286, -34.649581382182632 ], [ -70.917976392477556, -34.649717112412361 ], [ -70.917671656085417, -34.649978719981171 ], [ -70.917368397421924, -34.650304561049985 ], [ -70.917063657436515, -34.650566166764989 ], [ -70.916681184432932, -34.650828993932571 ], [ -70.916216724888329, -34.650900480915752 ], [ -70.915753651444206, -34.651036128436807 ], [ -70.915289190102953, -34.651107612285436 ], [ -70.914826115760533, -34.651243331148528 ], [ -70.914363038723124, -34.651379046833554 ], [ -70.913979168839305, -34.651577703903477 ], [ -70.913517653073868, -34.651777577588689 ], [ -70.913133778698466, -34.651976231486657 ], [ -70.91266617954193, -34.651919310598934 ], [ -70.912197285913081, -34.651798223061398 ], [ -70.911728306944283, -34.651677209983553 ], [ -70.911335584163311, -34.651490741104936 ], [ -70.910868170059729, -34.651433883435956 ], [ -70.910399191989228, -34.651312792233455 ], [ -70.909547808288821, -34.651454574810892 ], [ -70.909081774895839, -34.651461802011347 ], [ -70.908614360792242, -34.651404936193764 ], [ -70.908146949383621, -34.651348142018072 ], [ -70.907680829752366, -34.651355437952809 ], [ -70.907214887089225, -34.651362729453012 ], [ -70.906751794780476, -34.651498343702649 ], [ -70.906288790506636, -34.651633954774553 ], [ -70.905904898164891, -34.651832586847455 ], [ -70.905441800466264, -34.651968196633518 ], [ -70.90505790453129, -34.652166824949653 ], [ -70.904594805036012, -34.652302505130073 ], [ -70.90413032572846, -34.652373946504397 ], [ -70.90366722353825, -34.652509623389946 ], [ -70.903205587398574, -34.652709460835638 ], [ -70.902742571446623, -34.652845133477179 ], [ -70.902280929917069, -34.653044892522914 ], [ -70.901897018710727, -34.653243437712192 ], [ -70.901513018571166, -34.653442057799843 ], [ -70.901051460584924, -34.653641884869039 ], [ -70.900667455953808, -34.653840502524027 ], [ -70.900202963171523, -34.653911929271622 ], [ -70.89973984660827, -34.654047591077521 ], [ -70.899275261299508, -34.654119015429799 ], [ -70.898809301568377, -34.654126274911917 ], [ -70.898346180513542, -34.654261932672227 ], [ -70.897883145696966, -34.654397512620676 ], [ -70.897418649321452, -34.654469003915892 ], [ -70.896955521978398, -34.654604582047682 ], [ -70.896490932178068, -34.654676069469595 ], [ -70.896026430412633, -34.654747480718171 ], [ -70.895563300374661, -34.654883053221852 ], [ -70.895100168540026, -34.655018698659397 ], [ -70.894716233079166, -34.655217296758394 ], [ -70.894332294025062, -34.655415892903676 ], [ -70.893949812038343, -34.655678576118795 ], [ -70.893567241118404, -34.655941333873038 ], [ -70.893104189233838, -34.656076970189261 ], [ -70.892721702755523, -34.656339722985813 ], [ -70.892416771428955, -34.656601271968547 ], [ -70.89211338610302, -34.656926980599245 ], [ -70.891887737388473, -34.657251482022808 ], [ -70.891661908112567, -34.657576059023832 ], [ -70.891358607228256, -34.657901838454571 ], [ -70.891134321258008, -34.658290502129141 ], [ -70.890908577322037, -34.658615077277709 ], [ -70.890685743927619, -34.659067903073421 ], [ -70.890616844043635, -34.659454228552327 ], [ -70.890703244007653, -34.659838145623731 ], [ -70.890556600325723, -34.660225604678132 ], [ -70.89072074229108, -34.660608315992199 ], [ -70.89057418754237, -34.660995772923357 ], [ -70.890349891690647, -34.661384508537623 ], [ -70.890280897483564, -34.661770762628194 ], [ -70.889976029937387, -34.662032377964579 ], [ -70.889672705696867, -34.662358079288751 ], [ -70.889446853963079, -34.662682579395693 ], [ -70.889142069061904, -34.66294411796575 ], [ -70.888757991667248, -34.663142699289487 ], [ -70.888533679645846, -34.663531358333628 ], [ -70.888387111422418, -34.663918887305655 ], [ -70.888083684773946, -34.664244586386545 ], [ -70.887857913888539, -34.664569156685758 ], [ -70.887552937646191, -34.664830694472968 ], [ -70.887248138371973, -34.665092227740324 ], [ -70.886864047502584, -34.665290803915788 ], [ -70.886562154278309, -34.665680660904705 ], [ -70.886257169951151, -34.665942194444476 ], [ -70.886031474524216, -34.666266687164388 ], [ -70.885726575537007, -34.666528218854218 ], [ -70.885421676549797, -34.666789822863727 ], [ -70.88511668503611, -34.667051354379844 ], [ -70.884811781557318, -34.667312884331565 ], [ -70.884506875383579, -34.667574413457665 ], [ -70.88412285458277, -34.667772979250827 ], [ -70.883741738933608, -34.668099869689087 ], [ -70.883436737538432, -34.668361397069617 ], [ -70.883131824178179, -34.668622922885753 ], [ -70.882826998852806, -34.668884520280805 ], [ -70.882680303966907, -34.669271970280441 ], [ -70.882533698014228, -34.669659419206809 ], [ -70.882387002230018, -34.670046941679814 ], [ -70.882240305547498, -34.670434465295195 ], [ -70.882093696001562, -34.670821913956019 ], [ -70.881946994827445, -34.671209363021035 ], [ -70.88172127245106, -34.671533994690598 ], [ -70.881495365021735, -34.671858481022767 ], [ -70.881269635458807, -34.672182964606215 ], [ -70.881122928894811, -34.67257041321534 ], [ -70.880976222330816, -34.672957935368302 ], [ -70.880985019532403, -34.673342983003515 ], [ -70.880838312968407, -34.673730578374986 ], [ -70.88076935559225, -34.674116825883665 ], [ -70.880622733469906, -34.674504272834497 ], [ -70.880396816159092, -34.674828831011546 ], [ -70.880327945021207, -34.67521507783124 ], [ -70.880257447034339, -34.675537237414993 ], [ -70.879735365055822, -34.676508362060133 ], [ -70.878896712279612, -34.677227551635667 ], [ -70.878124206051041, -34.677432016076793 ], [ -70.877675411328369, -34.678209446482725 ], [ -70.877383483115537, -34.679048570685254 ], [ -70.877754805331492, -34.680153566031564 ], [ -70.877994181201871, -34.681164204956907 ], [ -70.878113824221302, -34.68136651224598 ], [ -70.878630888210637, -34.681869066041585 ], [ -70.879033511324351, -34.682280613838238 ], [ -70.879267654508212, -34.682694758332374 ], [ -70.879336460967394, -34.683250679897512 ], [ -70.879400984259306, -34.683621056558273 ], [ -70.879504334534417, -34.684213818280107 ], [ -70.880158627861505, -34.684259488971534 ], [ -70.880566714528783, -34.684385918509882 ], [ -70.880979633233949, -34.684512493375664 ], [ -70.881392017441556, -34.684639075434745 ], [ -70.881796962700264, -34.684760896504294 ], [ -70.88218880603057, -34.684900349671494 ], [ -70.882560909780821, -34.68505251525221 ], [ -70.882908626067746, -34.685217464089313 ], [ -70.88302639789643, -34.6852889878854 ], [ -70.883440276900643, -34.685658910008407 ], [ -70.884050235673513, -34.686485876374235 ], [ -70.884327232988014, -34.687017745341606 ], [ -70.884550519133342, -34.688205514581284 ], [ -70.885192870257029, -34.69012821027426 ], [ -70.885596645010935, -34.691182449520738 ], [ -70.88581548719057, -34.691581749763806 ], [ -70.886660439851866, -34.692042778638701 ], [ -70.886883287619341, -34.692086376888618 ], [ -70.887301403976764, -34.692136476402773 ], [ -70.887720455480377, -34.692168687385141 ], [ -70.888140387332996, -34.692196377297584 ], [ -70.888553802806541, -34.692259915821339 ], [ -70.888959894315533, -34.692359240091697 ], [ -70.889236120875523, -34.692481184228079 ], [ -70.890906269550072, -34.693943042595791 ], [ -70.892260623571346, -34.695078887942941 ], [ -70.892501001961591, -34.695483453963249 ], [ -70.893249938193719, -34.697445733258007 ], [ -70.893241395215384, -34.698499555810017 ], [ -70.893149169676747, -34.699000949466175 ], [ -70.892755328493237, -34.699766943304013 ], [ -70.892112689010347, -34.701357978291114 ], [ -70.891778771744512, -34.703283678472197 ], [ -70.89215553775108, -34.704873058796892 ], [ -70.892654165615838, -34.705529537848143 ], [ -70.892703117510607, -34.705711432708554 ], [ -70.893385806583822, -34.706383069950959 ], [ -70.894283300807786, -34.707841370678395 ], [ -70.894421346714125, -34.708066712191957 ], [ -70.894505966217238, -34.708231802735369 ], [ -70.895136486528656, -34.709861245272712 ], [ -70.895208748806724, -34.710386227123365 ], [ -70.895273199335122, -34.710600157084244 ], [ -70.895278227205765, -34.710938136805403 ], [ -70.895153961455875, -34.711258258831649 ], [ -70.894328041400499, -34.712626881940722 ], [ -70.89409247798018, -34.712934258791506 ], [ -70.894057936859184, -34.713027712109614 ], [ -70.893972461261583, -34.713362593078173 ], [ -70.893916926512404, -34.713712150309071 ], [ -70.893878740926297, -34.714057669864069 ], [ -70.893860878825208, -34.714403982511087 ], [ -70.893863510888991, -34.714750862285861 ], [ -70.893860597652505, -34.715097680056054 ], [ -70.893852399627235, -34.715444211346821 ], [ -70.893796236057355, -34.715793703660687 ], [ -70.893637851394658, -34.716112657941572 ], [ -70.893396748962303, -34.716397369260903 ], [ -70.893114399485356, -34.716658126780644 ], [ -70.892789689052861, -34.716881356095932 ], [ -70.89243218741754, -34.717063067239209 ], [ -70.892034927246087, -34.717180251479689 ], [ -70.891660000090894, -34.717343249695816 ], [ -70.891293718322004, -34.717524577339077 ], [ -70.890982978488822, -34.717752829032769 ], [ -70.89074794866778, -34.718037663183772 ], [ -70.890560992189151, -34.718355726444734 ], [ -70.890404574836936, -34.718679298257555 ], [ -70.8903376395685, -34.719023933899258 ], [ -70.890254663982333, -34.719363426822603 ], [ -70.890160857408773, -34.719702645155692 ], [ -70.890050832651099, -34.720036723072177 ], [ -70.889896543407787, -34.720355829333919 ], [ -70.889682325755246, -34.720659467936244 ], [ -70.889519261768243, -34.720978267591363 ], [ -70.889390882632668, -34.721311816860556 ], [ -70.889258637148131, -34.721640625306947 ], [ -70.889089648771829, -34.721954788041934 ], [ -70.888885462606055, -34.722263219281658 ], [ -70.88867938368999, -34.722567099700846 ], [ -70.888469526459843, -34.722866236642822 ], [ -70.888266310474577, -34.723170294261628 ], [ -70.888082269927366, -34.723483729092528 ], [ -70.887982092501844, -34.723728207657182 ], [ -70.887829236969722, -34.724362671500892 ], [ -70.88796075122562, -34.725205000905845 ], [ -70.888783262174499, -34.726539157876175 ], [ -70.889732247830523, -34.727949711312263 ], [ -70.890296505711632, -34.728811098493743 ], [ -70.890326654969201, -34.729510379128556 ], [ -70.889777617243951, -34.730527902099297 ], [ -70.888862230376176, -34.731947437789067 ], [ -70.88873676717202, -34.732150430792501 ], [ -70.888617668531666, -34.73294376142956 ], [ -70.888636561000396, -34.733840718982115 ], [ -70.888637961473933, -34.734570580568793 ], [ -70.888633828325297, -34.735615467099308 ], [ -70.888541237172333, -34.735887156900702 ], [ -70.888328461315822, -34.73602406930582 ], [ -70.887928817015592, -34.736091717808158 ], [ -70.887214668042802, -34.736103600971241 ], [ -70.886373155929064, -34.736129196606356 ], [ -70.88518568283645, -34.736431357676359 ], [ -70.884265629220778, -34.736828120037117 ], [ -70.883794050527527, -34.737105005825583 ], [ -70.883450638069135, -34.737305087204227 ], [ -70.883107851736497, -34.737505231584386 ], [ -70.882764345853317, -34.737705312732125 ], [ -70.882422641990615, -34.737909943697474 ], [ -70.882080312900456, -34.738114657573114 ], [ -70.881739575624962, -34.738314766773264 ], [ -70.881399928005933, -34.73851951138856 ], [ -70.881060735832747, -34.738728679521572 ], [ -70.880723145355731, -34.738933537531764 ], [ -70.880390040166901, -34.7391429792252 ], [ -70.880070964866192, -34.739375395907963 ], [ -70.879756709026978, -34.739603452181605 ], [ -70.879435023222044, -34.739831328445902 ], [ -70.879093723601216, -34.740026932761786 ], [ -70.878729631026673, -34.740203833209669 ], [ -70.878352309861256, -34.740357743274522 ], [ -70.877971035210251, -34.740506986999087 ], [ -70.877584808147105, -34.740647000232144 ], [ -70.877192914511156, -34.740777866434996 ], [ -70.876794141576752, -34.740881508375715 ], [ -70.876381053988297, -34.740957599881767 ], [ -70.875967338477452, -34.741033698699482 ], [ -70.875569277008765, -34.741137327032078 ], [ -70.87520127047452, -34.741295958944903 ], [ -70.874857471740555, -34.741500454051717 ], [ -70.874523919190736, -34.741718897889797 ], [ -70.874198346375564, -34.741942166567831 ], [ -70.873945885644758, -34.742217340386183 ], [ -70.873788643639102, -34.742540829869711 ], [ -70.873687135808623, -34.742879785526817 ], [ -70.873610621804318, -34.743223968170412 ], [ -70.87358246411172, -34.743569919476847 ], [ -70.873636319909622, -34.743914090387349 ], [ -70.873747729869478, -34.744251245968925 ], [ -70.873841332525458, -34.744592220081778 ], [ -70.873889543310142, -34.744868675348613 ], [ -70.872842695187046, -34.745945708791645 ], [ -70.870965522568738, -34.747530802155538 ], [ -70.869291840820182, -34.749027952213233 ], [ -70.86839023770213, -34.750281163719833 ], [ -70.868257814351139, -34.750925335522588 ], [ -70.867959164045033, -34.752302533053275 ], [ -70.867189332999388, -34.754605260443171 ], [ -70.866841012146281, -34.755530380730931 ], [ -70.866795430730434, -34.756443324796955 ], [ -70.866999201874549, -34.757909792175923 ], [ -70.867119684818775, -34.759035490912382 ], [ -70.867048684673662, -34.759447462919333 ], [ -70.866807279509047, -34.759732055219018 ], [ -70.86656675559172, -34.760012200774547 ], [ -70.866017306438096, -34.760412452818343 ], [ -70.864576127549668, -34.761291386927546 ], [ -70.863609660678208, -34.762199967770954 ], [ -70.863089932285746, -34.763533636620998 ], [ -70.862935448108018, -34.764142686821565 ], [ -70.862905190154308, -34.764528698932885 ], [ -70.8628574482902, -34.765275711181893 ], [ -70.862915973530974, -34.765701430457668 ], [ -70.862914757212067, -34.76581061491035 ], [ -70.862904991626621, -34.766730098645638 ], [ -70.863014562735088, -34.767487480453887 ], [ -70.863020893162897, -34.767657630445122 ], [ -70.86247348947316, -34.767964624052347 ], [ -70.86204409297072, -34.768150082276691 ], [ -70.861396470532938, -34.768279272589659 ], [ -70.861036600938533, -34.768344454327824 ], [ -70.860535824303625, -34.768508250429143 ], [ -70.859595684358197, -34.76854536769067 ], [ -70.859092646663711, -34.768672409267509 ], [ -70.858237661617324, -34.769222206686798 ], [ -70.857813595717772, -34.769646137545557 ], [ -70.857037567194965, -34.770492893237346 ], [ -70.855758464146746, -34.771466600774687 ], [ -70.855081292526009, -34.771556988320363 ], [ -70.854950962249646, -34.771624710289522 ], [ -70.854391108808386, -34.771725936731521 ], [ -70.854174565417566, -34.771937003510267 ], [ -70.853884695245071, -34.772219353811515 ], [ -70.853249800138229, -34.77239941877307 ], [ -70.852679669071804, -34.772765876438704 ], [ -70.852325101334216, -34.773069446412173 ], [ -70.851396571215503, -34.773560711896309 ], [ -70.850544146367668, -34.774229700761744 ], [ -70.850340733651379, -34.774829139415885 ], [ -70.849999381029932, -34.77540460176921 ], [ -70.849913286493106, -34.775549716497075 ], [ -70.849736317483831, -34.775669991367543 ], [ -70.849399921766121, -34.775898456544056 ], [ -70.84928750299818, -34.775983110446127 ], [ -70.849039973119972, -34.77607033276923 ], [ -70.848063260064364, -34.776414363057228 ], [ -70.847455780641695, -34.776689777655577 ], [ -70.847214203000547, -34.776799212462514 ], [ -70.847035413106184, -34.776818027112334 ], [ -70.846203228200011, -34.777277581663093 ], [ -70.845955939070294, -34.777416053896722 ], [ -70.84559645305653, -34.777617382719924 ], [ -70.84523661041159, -34.777818864524505 ], [ -70.844995507080881, -34.777953843614696 ], [ -70.844561305490004, -34.7781969988838 ], [ -70.843272648858729, -34.778753265691428 ], [ -70.84097108335412, -34.779265240870089 ], [ -70.840394317331018, -34.779333569654575 ], [ -70.839674440699994, -34.779463737798757 ], [ -70.839096347865194, -34.779472402189967 ], [ -70.838591886340978, -34.779539703738088 ], [ -70.837943359299729, -34.77985180910774 ], [ -70.837378117763379, -34.780214060521942 ], [ -70.83697313567373, -34.780367526365794 ], [ -70.836996393056438, -34.780859231671897 ], [ -70.837187967773943, -34.781271137546966 ], [ -70.837379705086491, -34.781557037266637 ], [ -70.837486728572813, -34.782128205856459 ], [ -70.837563059320814, -34.783527221174936 ], [ -70.83747687944404, -34.784263060979974 ], [ -70.837418044284505, -34.784427697551465 ], [ -70.837381901467367, -34.785147197743861 ], [ -70.837219106974928, -34.785682187362049 ], [ -70.836889463893229, -34.7862790048666 ], [ -70.836145921146041, -34.786992267318944 ], [ -70.835037313847167, -34.788458790988841 ], [ -70.834296819083747, -34.789109067057247 ], [ -70.833703278819314, -34.789539163617611 ], [ -70.833470056408629, -34.78984653911651 ], [ -70.83344506258247, -34.790084450151717 ], [ -70.833477147709473, -34.790288189231646 ], [ -70.833608210112814, -34.79063956191947 ], [ -70.83371363729286, -34.790985484225224 ], [ -70.833763188363946, -34.79134310692767 ], [ -70.833796170009592, -34.791704524412673 ], [ -70.833823061975934, -34.792065811950089 ], [ -70.833855331257567, -34.792427314056191 ], [ -70.833894462769663, -34.792694393591084 ], [ -70.833926102332285, -34.793488282373509 ], [ -70.834042022733186, -34.794505804223455 ], [ -70.834352219983941, -34.795300219983311 ], [ -70.834405821558633, -34.795860600616393 ], [ -70.8343093586668, -34.79615010942171 ], [ -70.834087582589433, -34.796651490486909 ], [ -70.833676959978121, -34.797362674458199 ], [ -70.833200754062858, -34.798157198422864 ], [ -70.832982313430179, -34.79871274122717 ], [ -70.832422101561107, -34.799927757410281 ], [ -70.83206895046672, -34.80094717372134 ], [ -70.83190742259886, -34.802270445636594 ], [ -70.83135776683271, -34.803774090361017 ], [ -70.830618569236535, -34.805275784723207 ], [ -70.830076903984846, -34.806203122137141 ], [ -70.829957437035219, -34.806554941841206 ], [ -70.829876311080227, -34.80690345195638 ], [ -70.829852282044683, -34.807258488971144 ], [ -70.829885000483969, -34.807624490098505 ], [ -70.829947449565893, -34.807982436708436 ], [ -70.830012511846959, -34.808345070535765 ], [ -70.829999823143581, -34.809083344132162 ], [ -70.830208376019939, -34.810577052120067 ], [ -70.830407959218178, -34.812264039102217 ], [ -70.830488874967386, -34.812420069468253 ], [ -70.831084830801615, -34.813503487562805 ], [ -70.831202007945592, -34.813764296208944 ], [ -70.831501149630157, -34.814400675428764 ], [ -70.83156970905263, -34.81475889720064 ], [ -70.831600826694071, -34.814926681081417 ], [ -70.83151457225712, -34.815702918067082 ], [ -70.830567465876655, -34.816611913732046 ], [ -70.829923688228305, -34.817274447654526 ], [ -70.829096770144645, -34.818804706511777 ], [ -70.829022711235993, -34.819716511654732 ], [ -70.829122944357081, -34.821098325795248 ], [ -70.82899077612764, -34.821472197556176 ], [ -70.828514648365797, -34.821897255855262 ], [ -70.827449283269772, -34.822752611335545 ], [ -70.826313647460623, -34.823862203109918 ], [ -70.825827469347402, -34.824498641490649 ], [ -70.825604369153325, -34.824982005103621 ], [ -70.825486626070713, -34.825446357326264 ], [ -70.825480314507516, -34.826288527831117 ], [ -70.825608641540796, -34.827504624066783 ], [ -70.825553404133998, -34.828597323733952 ], [ -70.825255675499363, -34.82979883802561 ], [ -70.824139119008564, -34.831246920188832 ], [ -70.823420069725898, -34.833069041544015 ], [ -70.823236572659454, -34.835008691860338 ], [ -70.823268766482585, -34.836626920133035 ], [ -70.823196267947594, -34.836926179086248 ], [ -70.822505406001937, -34.837677126819678 ], [ -70.821630007639016, -34.83870108829619 ], [ -70.820789910371843, -34.840145219788909 ], [ -70.820112956143404, -34.841175949044754 ], [ -70.818985526444365, -34.842682127705395 ], [ -70.817953182519858, -34.8440653008469 ], [ -70.817819855463725, -34.844154005274028 ], [ -70.81766823152185, -34.844270311682713 ], [ -70.817404187913766, -34.844472793968322 ], [ -70.817098031285155, -34.844707663181815 ], [ -70.816843622108493, -34.844879939302402 ], [ -70.816619117847623, -34.845051398929336 ], [ -70.816269803457814, -34.845185650122161 ], [ -70.815959005234134, -34.84528704797178 ], [ -70.815726394576146, -34.845387351625561 ], [ -70.81549307335078, -34.845455315958937 ], [ -70.815297472384174, -34.845458236182033 ], [ -70.8150271405691, -34.845623655114565 ], [ -70.814911231846295, -34.845689864617249 ], [ -70.814722003528331, -34.845983031253468 ], [ -70.814647358019798, -34.846145455945965 ], [ -70.814828612891318, -34.847271993207627 ], [ -70.815131449346637, -34.848590226775016 ], [ -70.815147034218498, -34.849299712864998 ], [ -70.815154828900219, -34.849654566408574 ], [ -70.815278624831194, -34.849943060530556 ], [ -70.815340833164626, -34.850103441254298 ], [ -70.81534079543539, -34.850103548885819 ], [ -70.814972947004634, -34.851134237468202 ], [ -70.814117901771127, -34.851896918375637 ], [ -70.813114012881556, -34.852786799051358 ], [ -70.811824040218383, -34.853595419892869 ], [ -70.811959609469497, -34.853996798198764 ], [ -70.811963373410535, -34.854089864792719 ], [ -70.811964649018236, -34.854121408143868 ], [ -70.811979750596478, -34.854494793811824 ], [ -70.812619531640138, -34.855193019785311 ], [ -70.813415077859148, -34.855528275010549 ], [ -70.813671518126654, -34.855641397798394 ], [ -70.813683904996111, -34.855741877541803 ], [ -70.81376714738191, -34.855966498433602 ], [ -70.814046633029733, -34.856220394529117 ], [ -70.814445677255378, -34.856569335076387 ], [ -70.814645553304402, -34.856759865291785 ], [ -70.814807086562155, -34.85698331651038 ], [ -70.815206138872611, -34.857332329009608 ], [ -70.815366165655647, -34.857491174617842 ], [ -70.815608027164416, -34.85781025662174 ], [ -70.816091045004484, -34.858416003202223 ], [ -70.816535635611643, -34.859054598859458 ], [ -70.817136012055386, -34.859658660810531 ], [ -70.817786898970894, -34.860778096050453 ], [ -70.818120468588717, -34.861708686431975 ], [ -70.818241832780217, -34.862058096814856 ], [ -70.818206559532271, -34.862755216348759 ], [ -70.817863474060658, -34.863459092707046 ], [ -70.817585256834008, -34.863637117127105 ], [ -70.816940000558688, -34.864050000124912 ], [ -70.816671327931928, -34.864400938834819 ], [ -70.816641272997472, -34.864440197606534 ], [ -70.816461782417178, -34.864674646446879 ], [ -70.816202821476978, -34.865012899751534 ], [ -70.815798434072036, -34.865541109477846 ], [ -70.815670961336593, -34.865822511165021 ], [ -70.815618535656611, -34.86614336443153 ], [ -70.815806789302499, -34.866393066220425 ], [ -70.816031917892488, -34.866691677407552 ], [ -70.816772097347254, -34.867192123507131 ], [ -70.817601749004325, -34.867594720876127 ], [ -70.817837630428244, -34.867791576658774 ], [ -70.818093064582655, -34.868350734489468 ], [ -70.818183742324067, -34.86878831028902 ], [ -70.818203718161044, -34.869169691766743 ], [ -70.818211280179085, -34.869513090939769 ], [ -70.818270000354275, -34.869790000128724 ], [ -70.818438853084956, -34.869906773685983 ], [ -70.818590084463054, -34.870011362599556 ], [ -70.818970962058685, -34.870220357983158 ], [ -70.819369725111613, -34.870584143131261 ], [ -70.819841513112308, -34.870977844333773 ], [ -70.820216716948607, -34.871191692704478 ], [ -70.821708795279335, -34.871317618699621 ], [ -70.822227313641108, -34.871017458154853 ], [ -70.822796046030632, -34.870688228537091 ], [ -70.823563310589535, -34.870174468769484 ], [ -70.823574239493283, -34.87016715087357 ], [ -70.824444027877249, -34.869459864209773 ], [ -70.824487691389947, -34.869419226641782 ], [ -70.82524158093257, -34.8687175917659 ], [ -70.825567593922216, -34.868474692522895 ], [ -70.825569446248323, -34.868473312051378 ], [ -70.825571314744138, -34.868471919050187 ], [ -70.825588071019126, -34.868459434368077 ], [ -70.825588145579303, -34.868459378353222 ], [ -70.825605538759817, -34.868446418279738 ], [ -70.825903111087584, -34.868496275930575 ], [ -70.826255444715045, -34.868515135242831 ], [ -70.826373428546148, -34.868521487029938 ], [ -70.826882091490944, -34.868513843216483 ], [ -70.827508198379363, -34.868504357545902 ], [ -70.827742379292474, -34.868468708514015 ], [ -70.82828947396176, -34.868428130156246 ], [ -70.828537523066203, -34.868383408148283 ], [ -70.828652504727629, -34.868323033620044 ], [ -70.828827193812728, -34.868231331912504 ], [ -70.82898673460717, -34.868095024390321 ], [ -70.829140291723533, -34.867963680621735 ], [ -70.829446956798591, -34.867668651669533 ], [ -70.829832541566304, -34.867404782547879 ], [ -70.830105684209911, -34.867368394517648 ], [ -70.830614427104777, -34.867360733644901 ], [ -70.830851372133992, -34.867453995177314 ], [ -70.831049167684824, -34.867547772536113 ], [ -70.831324544438544, -34.8676081771154 ], [ -70.831560774408814, -34.867669096844644 ], [ -70.831873780691481, -34.867664454198852 ], [ -70.832125199376549, -34.867695083568556 ], [ -70.832344808717437, -34.867721833862269 ], [ -70.832579607671448, -34.867718294574992 ], [ -70.8328506895798, -34.867585101694253 ], [ -70.833160832033315, -34.867451392665011 ], [ -70.833430482027097, -34.867253814497431 ], [ -70.833544972310065, -34.867123055339761 ], [ -70.83361263341726, -34.867006148845391 ], [ -70.83369574375071, -34.866862643452954 ], [ -70.833888527600578, -34.866730702176902 ], [ -70.834042163768686, -34.866599352543858 ], [ -70.834387863337795, -34.866303721680481 ], [ -70.834502529690539, -34.866172958800902 ], [ -70.834767165288412, -34.866004111105624 ], [ -70.834926431198397, -34.86587622007616 ], [ -70.835083372268414, -34.865684031948696 ], [ -70.835193205684959, -34.865549575393842 ], [ -70.835425129131721, -34.865416967915415 ], [ -70.835659203145312, -34.865381156864828 ], [ -70.83604906119885, -34.865310790677341 ], [ -70.836398334266136, -34.865176482399846 ], [ -70.836667252132969, -34.864946557647301 ], [ -70.836781731636137, -34.864815721850931 ], [ -70.837012216880169, -34.864618654775484 ], [ -70.837244138530323, -34.864486191736482 ], [ -70.83751511443748, -34.864353062905778 ], [ -70.837632552092884, -34.864351213585593 ], [ -70.837904334687153, -34.864250350023255 ], [ -70.838295528535497, -34.864244434992052 ], [ -70.838491259757802, -34.864241474896531 ], [ -70.838842679798645, -34.86420388329573 ], [ -70.838992703840987, -34.864132185677754 ], [ -70.839191225230564, -34.864037301756092 ], [ -70.839382293298229, -34.863804856692148 ], [ -70.839414520359057, -34.863517720973434 ], [ -70.83941021024232, -34.863324201320495 ], [ -70.839444327358493, -34.863097822669047 ], [ -70.839519746316498, -34.862967650258241 ], [ -70.839632065371404, -34.862740162780547 ], [ -70.839747346171819, -34.862641588854999 ], [ -70.839901683025829, -34.862542496636436 ], [ -70.840095166663303, -34.862442813150949 ], [ -70.840212511792245, -34.862440963050709 ], [ -70.840367657130017, -34.862374135339181 ], [ -70.840522710839636, -34.862307234601182 ], [ -70.840894546891917, -34.862349834875801 ], [ -70.841023833325934, -34.862369148909444 ], [ -70.841188541229897, -34.862329354756902 ], [ -70.841433885507044, -34.862285090115392 ], [ -70.841623986987472, -34.862254882559427 ], [ -70.842008076958564, -34.862220184617634 ], [ -70.842513909311876, -34.862083486790773 ], [ -70.842785678431426, -34.861982611602059 ], [ -70.843174789984943, -34.861879883228475 ], [ -70.843561742886848, -34.861680431238355 ], [ -70.843766973793294, -34.861440968948898 ], [ -70.844021942620373, -34.861254078330994 ], [ -70.844292897866254, -34.86112093616029 ], [ -70.844678402683911, -34.860857023916296 ], [ -70.845797291201208, -34.86013025343064 ], [ -70.846576211400929, -34.859957115856901 ], [ -70.847279003871876, -34.85988188596896 ], [ -70.847904408277742, -34.859840104825153 ], [ -70.848297022362544, -34.85989868923307 ], [ -70.848924590809929, -34.85995362562209 ], [ -70.849593292215857, -34.860104761867348 ], [ -70.849868324016498, -34.860126280394503 ], [ -70.850770690702561, -34.860248151531763 ], [ -70.851082309986396, -34.860178928635925 ], [ -70.851511993051417, -34.860140108623312 ], [ -70.852098974715958, -34.860131167450078 ], [ -70.852528655984329, -34.860092342992218 ], [ -70.852840181843391, -34.860023042568351 ], [ -70.853190850892631, -34.859953145023738 ], [ -70.853384312970547, -34.859853514420777 ], [ -70.853889382654216, -34.859684431879217 ], [ -70.854042974804855, -34.859553131435973 ], [ -70.854275573784733, -34.859452679935586 ], [ -70.854467492556978, -34.859288444608346 ], [ -70.854621170047594, -34.859157069083729 ], [ -70.855033786918838, -34.858953126572061 ], [ -70.856101975419818, -34.857981086332238 ], [ -70.856636269096299, -34.856111088755071 ], [ -70.85727715866102, -34.855213292328592 ], [ -70.85965753067056, -34.854595339088753 ], [ -70.861328269538262, -34.85373575575219 ], [ -70.863853821874102, -34.852840595352795 ], [ -70.868614423061061, -34.852537598519426 ], [ -70.870025904544491, -34.85242571435181 ], [ -70.873802213589784, -34.852678593009735 ], [ -70.87538917467576, -34.852352115595025 ], [ -70.877288954296503, -34.851322082887677 ], [ -70.87852500738137, -34.851266874608122 ], [ -70.881584232657843, -34.850232298951397 ], [ -70.883308671914889, -34.850147029064715 ], [ -70.888954429863688, -34.850523796606183 ], [ -70.891548351179182, -34.851263268265491 ], [ -70.894783056956527, -34.852403057076131 ], [ -70.896148638122213, -34.853256251980355 ], [ -70.896545479678764, -34.853854150286622 ], [ -70.897346818234681, -34.854130212857442 ], [ -70.897995012899301, -34.855134393693831 ], [ -70.899635487525074, -34.855875127197422 ], [ -70.903244008343293, -34.855998977982168 ], [ -70.904968353277241, -34.857067438219573 ], [ -70.906181681680351, -34.857535219961406 ], [ -70.907608207249851, -34.857278418440281 ], [ -70.908973830636342, -34.856693590981941 ], [ -70.910852046198698, -34.856934331289182 ], [ -70.913520070440299, -34.857602956806346 ], [ -70.917389439559145, -34.858607838276413 ], [ -70.918416892156927, -34.858591702584981 ], [ -70.918982909837666, -34.858692005500338 ], [ -70.921181904804826, -34.859149316780183 ], [ -70.922044927976373, -34.859190330194984 ], [ -70.922771480886595, -34.8590694570278 ], [ -70.923352821131132, -34.858930861032192 ], [ -70.923900567079002, -34.858904173482983 ], [ -70.924447876445612, -34.858866483616637 ], [ -70.925249943535249, -34.858921806947642 ], [ -70.925653176605039, -34.858941936307268 ], [ -70.926421143646493, -34.859175641586312 ], [ -70.927294368086407, -34.859653770041341 ], [ -70.929018003351302, -34.861047606117275 ], [ -70.930023187611511, -34.861496217575414 ], [ -70.932120237268634, -34.861845563996376 ], [ -70.933341568762629, -34.863028699466959 ], [ -70.934381223176914, -34.863531454285585 ], [ -70.935343722189756, -34.863570788654677 ], [ -70.936937295774541, -34.863654717145508 ], [ -70.938583380379256, -34.864280640872913 ], [ -70.939892041593595, -34.865220062224218 ], [ -70.941097387567098, -34.865720114843405 ], [ -70.941772634098172, -34.866228549191682 ], [ -70.942428851616597, -34.866468664576999 ], [ -70.943653273315164, -34.867237079070378 ], [ -70.944831934833161, -34.867701477430529 ], [ -70.945798464586673, -34.868213943666987 ], [ -70.946566662495158, -34.86844759017 ], [ -70.947151255539353, -34.868818371723464 ], [ -70.948308381745022, -34.869184923993679 ], [ -70.949401700616079, -34.869850724403911 ], [ -70.95082586631132, -34.870048856469595 ], [ -70.951160474381609, -34.870412404318927 ], [ -70.951529290297927, -34.87084682208711 ], [ -70.951907456778031, -34.871198958918228 ], [ -70.952331450812352, -34.871484254770479 ], [ -70.953059297296576, -34.871699673126685 ], [ -70.953860505596793, -34.871693887607876 ], [ -70.954410287127089, -34.871670719733174 ], [ -70.954971273343929, -34.871700620919945 ], [ -70.955545648051753, -34.871803866197475 ], [ -70.956123867548996, -34.871948333603939 ], [ -70.956689392054642, -34.87205622096851 ], [ -70.95748706548423, -34.872003272262049 ], [ -70.958210293729579, -34.871683268047484 ], [ -70.958652434630935, -34.871380123940675 ], [ -70.959061052202557, -34.871031431218356 ], [ -70.959438428165214, -34.870646607656909 ], [ -70.959809524904017, -34.870254055359212 ], [ -70.960215399919065, -34.869896022704317 ], [ -70.960674774999163, -34.869587202054241 ], [ -70.961166964638281, -34.86930185318657 ], [ -70.961662779877884, -34.869010831124051 ], [ -70.962147385939375, -34.868708318385046 ], [ -70.962619846778225, -34.86840400542269 ], [ -70.963091986020189, -34.868116388996548 ], [ -70.963583231529952, -34.86787875709809 ], [ -70.964101795705801, -34.867719784878794 ], [ -70.96463638762296, -34.867616829291066 ], [ -70.965164972505804, -34.867491294159116 ], [ -70.965665670088981, -34.867278465820952 ], [ -70.966122979942227, -34.866978446785929 ], [ -70.966528758837541, -34.866621946945187 ], [ -70.966888825162997, -34.866227484143202 ], [ -70.967229039618957, -34.865812292544874 ], [ -70.967582004762079, -34.865405903831139 ], [ -70.967952908363117, -34.865026698413089 ], [ -70.96829034522824, -34.864657118879805 ], [ -70.968536031763506, -34.864051129327343 ], [ -70.968352280473809, -34.863405859110053 ], [ -70.968057922318138, -34.863003523537934 ], [ -70.96771562287239, -34.862619762145115 ], [ -70.967408173568089, -34.862224284332719 ], [ -70.967201420915544, -34.861801547496349 ], [ -70.96713074596056, -34.861132878711224 ], [ -70.967226492895136, -34.860679765230138 ], [ -70.967415182223917, -34.860227733544022 ], [ -70.967690629944556, -34.859791800188432 ], [ -70.968060770875894, -34.85940411413128 ], [ -70.96853156174663, -34.85909293656966 ], [ -70.969075605737217, -34.858844089056603 ], [ -70.969629758469665, -34.858598473826184 ], [ -70.970141795486683, -34.858300286587813 ], [ -70.970611461666664, -34.857938823612812 ], [ -70.971066797921267, -34.857540219215494 ], [ -70.971510326719752, -34.857131390976576 ], [ -70.971915754373768, -34.856718008847864 ], [ -70.972268111357451, -34.85629618062579 ], [ -70.972588796439155, -34.855872649634328 ], [ -70.9729102010714, -34.855460628601577 ], [ -70.973235723580899, -34.855059839054853 ], [ -70.97353774256932, -34.854654260428958 ], [ -70.973797779691239, -34.854231637280954 ], [ -70.974038950395567, -34.853799422866047 ], [ -70.974301483935676, -34.853376536579155 ], [ -70.974592445561242, -34.852969805556846 ], [ -70.974887246586349, -34.852566409001533 ], [ -70.975173617820829, -34.852151553156602 ], [ -70.975465507406099, -34.851720284684049 ], [ -70.975775342635814, -34.851279048593518 ], [ -70.976095984598373, -34.850840220766763 ], [ -70.976415438988141, -34.850411900116612 ], [ -70.976734970633018, -34.84999435883514 ], [ -70.977065374587767, -34.849585799776129 ], [ -70.977416013094299, -34.849184296005063 ], [ -70.977839016286879, -34.848748230407402 ], [ -70.978279374032411, -34.848296297558981 ], [ -70.979591631202808, -34.846697124672794 ], [ -70.980125636520086, -34.843992709815204 ], [ -70.981750651139819, -34.839435825830542 ], [ -70.98200225577618, -34.839296491904115 ], [ -70.983306842232366, -34.839906331839771 ], [ -70.984138613913501, -34.840018909863787 ], [ -70.985275459753325, -34.839734394049366 ], [ -70.987602208628601, -34.837014255637712 ], [ -70.989166499830077, -34.836515325484335 ], [ -70.992141921273713, -34.834654454996901 ], [ -70.993202459721743, -34.834222293338534 ], [ -70.996407638773988, -34.833471510227085 ], [ -70.997011229389827, -34.833330114153881 ], [ -70.997464128515034, -34.833079959556713 ], [ -70.997761560705612, -34.832652019860376 ], [ -70.997845868493329, -34.831889240980232 ], [ -70.997830452504743, -34.83125491255467 ], [ -70.997872472998793, -34.831117205435703 ], [ -70.997973126531434, -34.830787341995787 ], [ -70.998169054484777, -34.830403389047419 ], [ -70.998723922276213, -34.830013537463309 ], [ -70.999179336684222, -34.829752278102674 ], [ -70.999180366153553, -34.829751284845671 ], [ -70.999580377864717, -34.829364950464822 ], [ -71.000181419960072, -34.82876280530796 ], [ -71.00037622052777, -34.828336548037157 ], [ -71.00067166564493, -34.827824067158801 ], [ -71.001123903610093, -34.827435966499735 ], [ -71.001581432652287, -34.827259230168572 ], [ -71.002140360828818, -34.827038576347562 ], [ -71.002804868000666, -34.826942994830169 ], [ -71.003366862127251, -34.826849171188577 ], [ -71.004483761774495, -34.82636546752439 ], [ -71.005606709778561, -34.826135427678636 ], [ -71.006424081465696, -34.825995058030401 ], [ -71.007036337230744, -34.825857995469214 ], [ -71.007595237559485, -34.825637243503998 ], [ -71.008100962114995, -34.825332800724425 ], [ -71.008400367005919, -34.824989443532225 ], [ -71.008698832259086, -34.824603780734577 ], [ -71.009256604303829, -34.824340794104415 ], [ -71.009615518989079, -34.824334789924578 ], [ -71.009924253782557, -34.824372081906567 ], [ -71.010185799175844, -34.824579286234027 ], [ -71.010393990929458, -34.824702731333829 ], [ -71.010656475960516, -34.824952165103447 ], [ -71.011026032986948, -34.825281483362829 ], [ -71.011075948774021, -34.825325962590128 ], [ -71.011193953266385, -34.825385168882789 ], [ -71.011647265616631, -34.825612606988429 ], [ -71.011906673917849, -34.825735275510489 ], [ -71.012731230330616, -34.825890764907477 ], [ -71.013346563723829, -34.825880653415609 ], [ -71.013421646711905, -34.825855997062511 ], [ -71.013867394349148, -34.825896529312693 ], [ -71.013909512759554, -34.825900358729918 ], [ -71.014105020301358, -34.825848374357285 ], [ -71.014110088596198, -34.825846026413494 ], [ -71.014259066101218, -34.825815025290183 ], [ -71.015028164121617, -34.825686550434412 ], [ -71.015562429950307, -34.825576808110149 ], [ -71.016068893819295, -34.82540681447685 ], [ -71.016682129646327, -34.824987627248966 ], [ -71.016963132548668, -34.824409098809376 ], [ -71.016852324460061, -34.82377665296395 ], [ -71.016608372571611, -34.82313452331266 ], [ -71.016601534595665, -34.82246837286921 ], [ -71.016747030230661, -34.822014915224884 ], [ -71.016927057105178, -34.821559925596503 ], [ -71.017094821077748, -34.821105211478127 ], [ -71.017258909144175, -34.820650485262519 ], [ -71.017438664727464, -34.820195573644135 ], [ -71.017639185766868, -34.819740241365665 ], [ -71.017869961166738, -34.819284408772511 ], [ -71.018144434215259, -34.818828366424547 ], [ -71.018460140833682, -34.818377621866929 ], [ -71.018813237130814, -34.817954543267263 ], [ -71.019219314266806, -34.81760717359203 ], [ -71.019941681027802, -34.817314153707215 ], [ -71.020715017299679, -34.817161126848148 ], [ -71.021468137884455, -34.816891959070766 ], [ -71.021954738205864, -34.816652107592759 ], [ -71.022409882220984, -34.816378434951162 ], [ -71.022802918513975, -34.816044416363539 ], [ -71.023108402304445, -34.815642207667899 ], [ -71.023306882371514, -34.81520026930604 ], [ -71.023383770973311, -34.814748389032111 ], [ -71.023349537076157, -34.814296953218786 ], [ -71.023253894346169, -34.813846539356952 ], [ -71.023157092789461, -34.813396218911969 ], [ -71.023089200815235, -34.8129452691011 ], [ -71.023042951951155, -34.812493147822778 ], [ -71.02301046527721, -34.812036143003141 ], [ -71.023010337716457, -34.811569443539746 ], [ -71.023075601220157, -34.81109626351784 ], [ -71.023231251411119, -34.810635392797167 ], [ -71.023486357680454, -34.810209942277375 ], [ -71.02382238329227, -34.809823545004875 ], [ -71.024191916064169, -34.809448997137203 ], [ -71.024553762850502, -34.80905685136549 ], [ -71.024909420244526, -34.808653432131138 ], [ -71.025290908694544, -34.808277501151863 ], [ -71.025724110460516, -34.807962081725805 ], [ -71.026211539926962, -34.807711122086133 ], [ -71.026736018610649, -34.807514270835952 ], [ -71.027276760394244, -34.807370914692342 ], [ -71.02782209975544, -34.80728006483195 ], [ -71.028367221724366, -34.807213294856012 ], [ -71.02890252780216, -34.807118693453589 ], [ -71.029629958366428, -34.80682553226859 ], [ -71.030018730356772, -34.806506777792308 ], [ -71.030334790013072, -34.806118702827995 ], [ -71.030631527805937, -34.805709604445006 ], [ -71.030964640181281, -34.805316072626034 ], [ -71.031360054314817, -34.804958354157826 ], [ -71.031812962423203, -34.804641255769397 ], [ -71.032292331306579, -34.804344394024213 ], [ -71.032757649640601, -34.804033363106107 ], [ -71.033183877785021, -34.803687679208515 ], [ -71.033556949919173, -34.803303222280526 ], [ -71.033851157157869, -34.802883302241064 ], [ -71.034046776090747, -34.802437776223648 ], [ -71.034170960093945, -34.801978451108305 ], [ -71.034296579604955, -34.801515630720871 ], [ -71.034495785510799, -34.801066868655326 ], [ -71.034801308827127, -34.800663447931889 ], [ -71.034961086776818, -34.800468525761403 ], [ -71.035430472682449, -34.800258674599647 ], [ -71.035814215903841, -34.800087109165986 ], [ -71.036092026193657, -34.800035265624977 ], [ -71.036420314615924, -34.799895277131618 ], [ -71.03712380687449, -34.800128334207137 ], [ -71.037537869135022, -34.80042842358921 ], [ -71.03825364226185, -34.800669023789858 ], [ -71.038948191791761, -34.800462255026638 ], [ -71.039310488634044, -34.800118213652141 ], [ -71.039715345857871, -34.799804624098755 ], [ -71.040190674119088, -34.799553148343016 ], [ -71.040686075235357, -34.799317064510142 ], [ -71.041181647929832, -34.79906620395024 ], [ -71.041665574864965, -34.798764429215574 ], [ -71.042104380321689, -34.798419390809059 ], [ -71.042491728482304, -34.798053722067039 ], [ -71.042905108921531, -34.797716345829116 ], [ -71.043380156010087, -34.797428967761959 ], [ -71.043875585872428, -34.797173150912194 ], [ -71.044382195268483, -34.796974974706266 ], [ -71.0449053938529, -34.79681056530648 ], [ -71.045390473326549, -34.796574635909813 ], [ -71.045791941206801, -34.796237820161011 ], [ -71.046089981556804, -34.795827925461069 ], [ -71.046242006147281, -34.795382374591618 ], [ -71.046215725933649, -34.794931256871955 ], [ -71.046080679502055, -34.79448425674007 ], [ -71.045803728001644, -34.793921250112291 ], [ -71.045697560609781, -34.793320364108801 ], [ -71.046863657391896, -34.792472151107418 ], [ -71.04715429023409, -34.792491264647033 ], [ -71.047197246772654, -34.792494160928115 ], [ -71.047414299508247, -34.792441320381073 ], [ -71.048047862413497, -34.792335307211651 ], [ -71.048148868984057, -34.792632800900691 ], [ -71.048161513669982, -34.792669886653627 ], [ -71.052352199386164, -34.805000835856511 ], [ -71.052653034395036, -34.805472800641979 ], [ -71.055263255641378, -34.808100413932415 ], [ -71.060833525461888, -34.813444882667795 ], [ -71.066111801492539, -34.818650906588289 ], [ -71.069707183551401, -34.821309159287786 ], [ -71.071937682435575, -34.82229726443088 ], [ -71.074270213766354, -34.82333055776953 ], [ -71.075731475391251, -34.823925868997406 ], [ -71.078468572891666, -34.824642349824103 ], [ -71.093737568355877, -34.82727350857688 ], [ -71.094284687279668, -34.82736770707465 ], [ -71.098719893517881, -34.828131501206038 ], [ -71.100464807176891, -34.825973373507779 ], [ -71.101760625177604, -34.824370548783868 ], [ -71.105525880453314, -34.820011750896967 ], [ -71.110740481201702, -34.813528575380694 ], [ -71.11731377663078, -34.805924197023543 ], [ -71.121510492737485, -34.800412431399572 ], [ -71.126654893739655, -34.795884484734785 ], [ -71.126754549244041, -34.79576981773991 ], [ -71.129462879095797, -34.792544884191841 ], [ -71.129999578460627, -34.792039771101585 ], [ -71.13189083037436, -34.790260112402592 ], [ -71.1333998248802, -34.788229962945138 ], [ -71.134896392092401, -34.786411609980526 ], [ -71.133377944614821, -34.786164387963268 ], [ -71.132092663852404, -34.785946961056474 ], [ -71.130623050590302, -34.785941020479008 ], [ -71.129578998922682, -34.785816166439972 ], [ -71.128595112819568, -34.785785598825392 ], [ -71.127662995727917, -34.785515638016442 ], [ -71.123933276008202, -34.784388180761177 ], [ -71.122826560561336, -34.784073592910119 ], [ -71.123370262293776, -34.782728204669482 ], [ -71.123456040623623, -34.78257892215462 ], [ -71.124034532310404, -34.781571626098604 ], [ -71.12423271503512, -34.780280049608116 ], [ -71.124500925927819, -34.779464432101143 ], [ -71.124882189799024, -34.778551342725194 ], [ -71.125037235423804, -34.777832974415574 ], [ -71.125029896187925, -34.777546838221056 ], [ -71.122969178892461, -34.776103920374574 ], [ -71.122246948675397, -34.775573456710099 ], [ -71.121319296210729, -34.774892210822209 ], [ -71.11965229702956, -34.773013045634912 ], [ -71.117693100140983, -34.771037536772852 ], [ -71.117885347696628, -34.770480494053764 ], [ -71.117818496869802, -34.769885418863588 ], [ -71.117751735874535, -34.769290342334365 ], [ -71.116590637318666, -34.768288375012538 ], [ -71.116160562588178, -34.76761445945823 ], [ -71.116047630882221, -34.767233036292041 ], [ -71.116194787502195, -34.766932395160488 ], [ -71.116280785919287, -34.766858373174728 ], [ -71.116750268842949, -34.766454266333952 ], [ -71.117824912637573, -34.766094873119869 ], [ -71.118649166318093, -34.766037912634168 ], [ -71.120667616981123, -34.76625829954348 ], [ -71.121440254363719, -34.766202292606089 ], [ -71.122877100677528, -34.765879007969112 ], [ -71.123235973141959, -34.765787665930347 ], [ -71.124016415986077, -34.766029514709849 ], [ -71.124435545643124, -34.766277813961764 ], [ -71.125806414292569, -34.768005885075013 ], [ -71.126315883924491, -34.768035167149996 ], [ -71.126870714884987, -34.768025472135868 ], [ -71.12738214194593, -34.768131009586767 ], [ -71.127662405534778, -34.768240586358729 ], [ -71.12784642991231, -34.768199185983647 ], [ -71.127924723479225, -34.768118274287438 ], [ -71.128071717504099, -34.767966294004722 ], [ -71.128439583901155, -34.767883493696509 ], [ -71.129077158682477, -34.767875665648283 ], [ -71.129457632036235, -34.767903868166222 ], [ -71.12978512814442, -34.768050797387652 ], [ -71.130110753960182, -34.768121391329238 ], [ -71.130526742208673, -34.76811410937627 ], [ -71.130802197115827, -34.768032994664054 ], [ -71.131120866378041, -34.767836570410239 ], [ -71.131351048889812, -34.767794356623767 ], [ -71.131767124274901, -34.76778706947637 ], [ -71.132369094329945, -34.767814706025568 ], [ -71.133063475874891, -34.76784072131457 ], [ -71.133530713908684, -34.768023373443349 ], [ -71.133812948401271, -34.768209195337754 ], [ -71.13450938798654, -34.768311532132664 ], [ -71.134971716727293, -34.768303422972025 ], [ -71.135431988326033, -34.768218979620464 ], [ -71.135801813948731, -34.768212490218517 ], [ -71.136449054602508, -34.768201129705268 ], [ -71.137279238960545, -34.768110186507961 ], [ -71.138248174402406, -34.768016873694904 ], [ -71.138799957379163, -34.767892700950242 ], [ -71.139392080102056, -34.767538790999353 ], [ -71.139805106605081, -34.767416979688818 ], [ -71.140217239284382, -34.767257147131616 ], [ -71.140722764413894, -34.767133779817669 ], [ -71.141231245000697, -34.767124834449717 ], [ -71.141787047938337, -34.767153164150734 ], [ -71.142200577497889, -34.766794776112945 ], [ -71.142589481540597, -34.766969171461568 ], [ -71.142872139139698, -34.767281477871308 ], [ -71.143209725125146, -34.767592817134876 ], [ -71.143546141504117, -34.767858828110263 ], [ -71.143882560578007, -34.76812483749039 ], [ -71.144271563435382, -34.768299225601083 ], [ -71.14471306473628, -34.768382140609894 ], [ -71.145155739236912, -34.768510306309231 ], [ -71.145544746585884, -34.768684689915858 ], [ -71.145827421252974, -34.768996989096401 ], [ -71.146217605394938, -34.769216696591862 ], [ -71.14660653099719, -34.769391152498422 ], [ -71.14699672052906, -34.769610857468699 ], [ -71.147438229016487, -34.769693687774655 ], [ -71.147882180023146, -34.769867242410058 ], [ -71.148324773675441, -34.769995323156195 ], [ -71.148766378282588, -34.770078221702704 ], [ -71.149206714468548, -34.770115719023948 ], [ -71.14964479139158, -34.770062634648255 ], [ -71.150024326005862, -34.769874689502487 ], [ -71.150461226135846, -34.76977634901349 ], [ -71.150900295697269, -34.76976851524141 ], [ -71.151222724408953, -34.76949095453547 ], [ -71.151268153111175, -34.76912752184883 ], [ -71.151258835785057, -34.768765130995192 ], [ -71.15152506319761, -34.768443142613627 ], [ -71.151736363122112, -34.768122197155364 ], [ -71.152114795503522, -34.767888918279667 ], [ -71.15255394411669, -34.767881077687001 ], [ -71.152944051901869, -34.768100764539057 ], [ -71.153333163455386, -34.768275195500834 ], [ -71.153772226728591, -34.768267425786597 ], [ -71.154215000942244, -34.768395556243256 ], [ -71.154603939120946, -34.768569985106168 ], [ -71.154992966232811, -34.76874441212459 ], [ -71.155275674137556, -34.769056613672717 ], [ -71.155558473670467, -34.76936888709443 ], [ -71.155947418137345, -34.769543312424439 ], [ -71.156336361705911, -34.769717662117799 ], [ -71.156564240038989, -34.770030906353419 ], [ -71.15695445652031, -34.770250578628129 ], [ -71.157290926798183, -34.770516549307118 ], [ -71.157679970079741, -34.770690967046178 ], [ -71.158123851916145, -34.770864335844394 ], [ -71.158566645892719, -34.770992450462856 ], [ -71.159008173244757, -34.771075312588067 ], [ -71.159446158539637, -34.771022194147818 ], [ -71.159884231869412, -34.770969071983828 ], [ -71.160325757424815, -34.771051855176204 ], [ -71.160764835969388, -34.771044133687525 ], [ -71.161201726217925, -34.770945681691664 ], [ -71.161637346248654, -34.770802050925376 ], [ -71.162074143970713, -34.770703597164896 ], [ -71.162512214605528, -34.770650466678795 ], [ -71.162951376693442, -34.770642661768314 ], [ -71.163391721862553, -34.770680180970501 ], [ -71.163780776822207, -34.770854578440144 ], [ -71.164171016659736, -34.771074227123052 ], [ -71.164559983584496, -34.77124854923126 ], [ -71.164896481710144, -34.771514498246368 ], [ -71.165392944635073, -34.771596285457811 ], [ -71.16583566315316, -34.771724373851249 ], [ -71.166278472401117, -34.771852459094262 ], [ -71.166718824756771, -34.771889966677904 ], [ -71.167163916623849, -34.772108627508082 ], [ -71.167605456552309, -34.772191458258682 ], [ -71.167985045963803, -34.772003455977305 ], [ -71.168140260471873, -34.771638061935995 ], [ -71.168406429493913, -34.771316039012646 ], [ -71.168617758164515, -34.7709950656171 ], [ -71.168772969079299, -34.770629670800524 ], [ -71.168984295054941, -34.770308697687135 ], [ -71.169306570154689, -34.770031019255001 ], [ -71.169686053565002, -34.769842939735682 ], [ -71.170120466260002, -34.76965395361912 ], [ -71.170558523420084, -34.769600793678286 ], [ -71.170997677423131, -34.769592960627477 ], [ -71.171436831426192, -34.769585125362163 ], [ -71.171874800551393, -34.769532036217619 ], [ -71.172317606206079, -34.769660100511793 ], [ -71.172760323825855, -34.769788163869357 ], [ -71.173199565863811, -34.769780246713282 ], [ -71.173639910134625, -34.769817729411507 ], [ -71.174078975204466, -34.769809886788323 ], [ -71.17454865485918, -34.769914788084215 ], [ -71.174985430123371, -34.76981628825208 ], [ -71.175307685460197, -34.769538669410863 ], [ -71.175573818549637, -34.769216630916432 ], [ -71.175953374723477, -34.769028604885776 ], [ -71.176388956126644, -34.768884849024765 ], [ -71.176768506910605, -34.768696746969304 ], [ -71.177261392744072, -34.768642656618411 ], [ -71.177700627595485, -34.768634723855918 ], [ -71.17808008675128, -34.76844669280991 ], [ -71.178346205467705, -34.768124649316711 ], [ -71.17861232328579, -34.767802604566917 ], [ -71.178990673022184, -34.767569244352352 ], [ -71.179256788145324, -34.767247271967783 ], [ -71.17946806022205, -34.766926134420885 ], [ -71.179679246060516, -34.766605145428279 ], [ -71.180001469956309, -34.766327439776752 ], [ -71.180267575197973, -34.766005392442388 ], [ -71.180589797297117, -34.765727759306692 ], [ -71.180690110368275, -34.765363334465434 ], [ -71.18073550044295, -34.764999967731491 ], [ -71.180725875892989, -34.764637586798052 ], [ -71.180606582318205, -34.764277170226869 ], [ -71.180487288743436, -34.763916680498617 ], [ -71.180477754923317, -34.763554297761473 ], [ -71.180523144997977, -34.763190931181981 ], [ -71.180623369135915, -34.762826580747202 ], [ -71.180613833519175, -34.762464124591915 ], [ -71.180494454604428, -34.762103709601085 ], [ -71.180375256251082, -34.761743291560734 ], [ -71.180255880031282, -34.761382875636876 ], [ -71.180136592744716, -34.761022385077588 ], [ -71.179907463956766, -34.760663935735678 ], [ -71.179733260860232, -34.760304501813621 ], [ -71.179944515868982, -34.759983436887666 ], [ -71.180323930108997, -34.759795327093492 ], [ -71.180702240319548, -34.759561961954176 ], [ -71.18108173989954, -34.759373922049079 ], [ -71.18146114695304, -34.759185734850526 ], [ -71.181952870366516, -34.759086374233732 ], [ -71.18238829815779, -34.758942600319507 ], [ -71.182825094981538, -34.758844073371563 ], [ -71.183264190594102, -34.7588362717728 ], [ -71.18370209144733, -34.758783069440078 ], [ -71.184136409819203, -34.758593962796432 ], [ -71.184513509100753, -34.758315260431125 ], [ -71.184724652718401, -34.757994190721611 ], [ -71.184824941535041, -34.75762983654068 ], [ -71.184673914972834, -34.757111353472496 ], [ -71.184719284386247, -34.756747985842374 ], [ -71.184764653799675, -34.756384617351216 ], [ -71.184810020518171, -34.756021175670732 ], [ -71.184910307538161, -34.755656821639995 ], [ -71.18484575011027, -34.755295427060936 ], [ -71.184836289952017, -34.754933043384078 ], [ -71.185046232522126, -34.754566720581906 ], [ -71.168667390083954, -34.754831654641428 ], [ -71.156823163249967, -34.755042107753162 ], [ -71.156280235865296, -34.755051726796566 ], [ -71.156129791411388, -34.755054391905361 ], [ -71.155966457929807, -34.755438969674032 ], [ -71.155840711756341, -34.755569040444328 ], [ -71.155684990598473, -34.755730218211689 ], [ -71.155279279076794, -34.755689618985869 ], [ -71.154675081199855, -34.755535175094352 ], [ -71.154261063855088, -34.754324184300749 ], [ -71.153830677409189, -34.753329951103666 ], [ -71.153282264911397, -34.75224230960383 ], [ -71.153210866812614, -34.751718829101776 ], [ -71.153136900430439, -34.751099899464677 ], [ -71.153000297218426, -34.750291307365529 ], [ -71.152990392394116, -34.749909798258258 ], [ -71.154499146151466, -34.745684859861413 ], [ -71.154551877258641, -34.745493158192026 ], [ -71.14905509591658, -34.74525634611625 ], [ -71.149159436135136, -34.744825180948546 ], [ -71.149549024694096, -34.744245773329268 ], [ -71.149711852424147, -34.744010474578964 ], [ -71.150166095429057, -34.743354073679974 ], [ -71.150265096061574, -34.743241837510723 ], [ -71.150494620108233, -34.742897751640726 ], [ -71.132792193642246, -34.73614610779282 ], [ -71.132834791753012, -34.73602128325264 ], [ -71.132881976661636, -34.735639876555894 ], [ -71.132879182901092, -34.735391990861984 ], [ -71.1328041583035, -34.735069741670287 ], [ -71.132599865238234, -34.734639785722678 ], [ -71.13231170905128, -34.734396381083023 ], [ -71.131977652546581, -34.734187458152455 ], [ -71.131719494700221, -34.733945003035501 ], [ -71.131602487337844, -34.7335449062058 ], [ -71.131441484086096, -34.732769355495314 ], [ -71.130873769487778, -34.731634005519027 ], [ -71.130352222905188, -34.730707375821972 ], [ -71.130015137281333, -34.730065997993286 ], [ -71.129626498241663, -34.729332758111013 ], [ -71.129344015814041, -34.728720113392022 ], [ -71.128901567688828, -34.727750954674924 ], [ -71.127451263713752, -34.725812614964454 ], [ -71.126065211739402, -34.725304467251682 ], [ -71.124394765722485, -34.724987088565726 ], [ -71.122543612806396, -34.724430882554906 ], [ -71.122394996424106, -34.724272097181363 ], [ -71.12203099637604, -34.723883014469628 ], [ -71.121616740977714, -34.722328984453554 ], [ -71.12151509929825, -34.721221950234572 ], [ -71.121439849223535, -34.720629455807249 ], [ -71.121202133439795, -34.719689269606377 ], [ -71.120774277548065, -34.718977360162327 ], [ -71.120262677112294, -34.718411443894148 ], [ -71.11992774295355, -34.71787361782976 ], [ -71.119785359981023, -34.71769906269521 ], [ -71.119652688695027, -34.71719360897508 ], [ -71.119386206160925, -34.716635460978658 ], [ -71.119010271994313, -34.716362160951682 ], [ -71.118554299732523, -34.71622607399847 ], [ -71.117497261120832, -34.715872368708489 ], [ -71.116192759106283, -34.71556497914861 ], [ -71.115673249902756, -34.715444830131645 ], [ -71.113972652831634, -34.715061577717343 ], [ -71.11297881249682, -34.714831626893023 ], [ -71.112109383438991, -34.714538061759356 ], [ -71.111169937891276, -34.714093559976455 ], [ -71.110034569780083, -34.713291433957949 ], [ -71.109380132722563, -34.712545148572275 ], [ -71.109268932070179, -34.712343378272685 ], [ -71.10853907515633, -34.711518113195304 ], [ -71.108188714229215, -34.710583392053685 ], [ -71.108066315178505, -34.710038823200883 ], [ -71.10805762936802, -34.709876340799717 ], [ -71.108162875986707, -34.709375174033212 ], [ -71.108740268135577, -34.707578067892449 ], [ -71.109196723690999, -34.70698905956327 ], [ -71.109680372148375, -34.706157476457037 ], [ -71.110168278620222, -34.705465776147946 ], [ -71.110917475363806, -34.704611270095675 ], [ -71.111761515336781, -34.703885842412852 ], [ -71.1121018375906, -34.703099350769072 ], [ -71.112786688010388, -34.701449848721126 ], [ -71.112969661359031, -34.700788906811653 ], [ -71.113039726357925, -34.700372173413484 ], [ -71.112935485852361, -34.699364212842319 ], [ -71.112986254140651, -34.698280149154805 ], [ -71.11306214740911, -34.69773746315623 ], [ -71.113085485640198, -34.697238081831323 ], [ -71.112856512260791, -34.696726238492786 ], [ -71.112630666815207, -34.696133318942415 ], [ -71.112455595047791, -34.695546608854045 ], [ -71.112479269248794, -34.695042716302893 ], [ -71.112237024159384, -34.694472680366069 ], [ -71.111762441499849, -34.694630025826939 ], [ -71.110675772856851, -34.694896722280156 ], [ -71.109821187560769, -34.694914924092679 ], [ -71.109421457920575, -34.69492487511436 ], [ -71.108269678487474, -34.694430253306464 ], [ -71.1072680820985, -34.694021502412276 ], [ -71.106680205711953, -34.693590154935784 ], [ -71.106008988124913, -34.693084392878127 ], [ -71.105632019997401, -34.692785363154819 ], [ -71.105300231738795, -34.692451872419127 ], [ -71.105030930291335, -34.692174097735823 ], [ -71.104398079750084, -34.69177719347249 ], [ -71.103997868612922, -34.691513272304292 ], [ -71.103682689305586, -34.691287912297057 ], [ -71.103260743430127, -34.691073036447804 ], [ -71.102726056291544, -34.69083034042098 ], [ -71.101959903846961, -34.690231804916891 ], [ -71.101332913016321, -34.689842685419066 ], [ -71.100707664917323, -34.68941261616957 ], [ -71.100435294824862, -34.68887084407941 ], [ -71.100355393273603, -34.688458253570325 ], [ -71.100281241838474, -34.687922885997963 ], [ -71.100304324948027, -34.687431560336513 ], [ -71.100182606820283, -34.686853659155126 ], [ -71.099553552559428, -34.686505408156002 ], [ -71.098619568768626, -34.6863114507549 ], [ -71.098024854406134, -34.686292446335479 ], [ -71.096985885406397, -34.68621816005107 ], [ -71.095807872472037, -34.685934286671774 ], [ -71.095379240435918, -34.685551546101721 ], [ -71.094651159491406, -34.685200171671212 ], [ -71.093719030721672, -34.684965227849332 ], [ -71.092689768916912, -34.68468622694742 ], [ -71.092118195156132, -34.68417579296154 ], [ -71.091502818643789, -34.683540994264838 ], [ -71.090447062826343, -34.682769061813531 ], [ -71.089307730449818, -34.681666343349022 ], [ -71.088492187732598, -34.681066127499527 ], [ -71.0875689055718, -34.680646931636971 ], [ -71.08677979039193, -34.68053954497924 ], [ -71.085489855458007, -34.68013761555207 ], [ -71.084781691959961, -34.67979617911206 ], [ -71.084294709854547, -34.679557605364906 ], [ -71.08401207022176, -34.679246108732912 ], [ -71.083681476722489, -34.678883288209718 ], [ -71.083119503257137, -34.678166951988594 ], [ -71.083057650656585, -34.678060473720386 ], [ -71.082706271039939, -34.677456343715441 ], [ -71.082465801919838, -34.677050397518414 ], [ -71.082384490911892, -34.676912934621832 ], [ -71.082266497199328, -34.676710144389546 ], [ -71.081971526392635, -34.676201801413619 ], [ -71.081487060468334, -34.675848324688175 ], [ -71.081027727609055, -34.67621319673809 ], [ -71.080568221374932, -34.676485601779802 ], [ -71.079811415900878, -34.676749490331432 ], [ -71.079411558699917, -34.676865476533429 ], [ -71.079056376514686, -34.676969767421745 ], [ -71.078649155823356, -34.677009508471372 ], [ -71.078108738331579, -34.677064074722452 ], [ -71.077415217372675, -34.677041704654521 ], [ -71.077005371804063, -34.676958437211397 ], [ -71.076677925103226, -34.676891860281906 ], [ -71.075789559559198, -34.676782030135222 ], [ -71.074895290287131, -34.676793791061911 ], [ -71.074441917749752, -34.676868572638782 ], [ -71.073845165109859, -34.676965809198876 ], [ -71.072780131492166, -34.677221384569194 ], [ -71.071435194510045, -34.677542640251055 ], [ -71.069086741439179, -34.677876792383628 ], [ -71.067244375843188, -34.6780019366551 ], [ -71.066403813248698, -34.677934212560288 ], [ -71.066158000949287, -34.677885794692692 ], [ -71.065414725001759, -34.677861761938281 ], [ -71.065092699633624, -34.677894474170628 ], [ -71.063868852856857, -34.678017207904489 ], [ -71.062671796536804, -34.678142430270128 ], [ -71.061706388779058, -34.678397625253261 ], [ -71.061189191839063, -34.67828258973713 ], [ -71.06148045619689, -34.678144940507238 ], [ -71.061898303958046, -34.677707500624848 ], [ -71.062072167491394, -34.67718001985277 ], [ -71.062154722665994, -34.676485688952802 ], [ -71.062130400779679, -34.675951886963318 ], [ -71.062211019186549, -34.675298431985141 ], [ -71.062337245060363, -34.674728477287978 ], [ -71.062065175005216, -34.674186681510598 ], [ -71.061727968108812, -34.673970740287004 ], [ -71.06010624761123, -34.673631242098111 ], [ -71.059321189223184, -34.673441846805915 ], [ -71.058399054210994, -34.673001945567826 ], [ -71.057877245320327, -34.672493014657441 ], [ -71.057262214659374, -34.671858102759394 ], [ -71.056454830441581, -34.67109385872417 ], [ -71.055790255896056, -34.670457338059613 ], [ -71.054883770434429, -34.669689880554323 ], [ -71.053640138263518, -34.668706523791329 ], [ -71.052532574807017, -34.667994136518303 ], [ -71.051864173438389, -34.667439418058962 ], [ -71.051588226254466, -34.666979423247014 ], [ -71.051468733253685, -34.666360583293539 ], [ -71.050956794153066, -34.665526922916257 ], [ -71.050406962317112, -34.664685993377461 ], [ -71.048947738969602, -34.664064573170378 ], [ -71.047980085423632, -34.663541156486914 ], [ -71.047413892571413, -34.662342276113883 ], [ -71.046240716166537, -34.661598653824832 ], [ -71.045077024174461, -34.661236488239425 ], [ -71.044252633950023, -34.660582418423211 ], [ -71.043437622137134, -34.660309811087096 ], [ -71.041856287199764, -34.659795598109504 ], [ -71.041287050855374, -34.659244032359872 ], [ -71.040963757066095, -34.658741522318138 ], [ -71.04093486006002, -34.657264469383492 ], [ -71.04014917913949, -34.656049875604779 ], [ -71.039345911900654, -34.655203680974438 ], [ -71.038479480520905, -34.654642522662243 ], [ -71.037698628943332, -34.654371076631968 ], [ -71.035932698299931, -34.653944585194459 ], [ -71.034374658474519, -34.653319833008929 ], [ -71.032666117601337, -34.65273117536038 ], [ -71.031207408988479, -34.6521095258393 ], [ -71.029183350143143, -34.650854553878204 ], [ -71.027052523831316, -34.649759971043494 ], [ -71.025325656428052, -34.6486590811502 ], [ -71.02367955116209, -34.64728664976581 ], [ -71.023458888097366, -34.6471026378481 ], [ -71.022925555618258, -34.646769524068702 ], [ -71.021776959814488, -34.646052134192686 ], [ -71.020488993987698, -34.645310083993806 ], [ -71.019592311840753, -34.644726539036562 ], [ -71.018201498795364, -34.643821240432331 ], [ -71.016619193677514, -34.642845531876461 ], [ -71.015851669505508, -34.642142606941441 ], [ -71.015144171659088, -34.641534035615408 ], [ -71.014786479580948, -34.641062893737782 ], [ -71.014662987280531, -34.640730944123405 ], [ -71.014519012493309, -34.640361221947231 ], [ -71.014156159593853, -34.640123408972883 ], [ -71.014025323565974, -34.640012271434827 ], [ -71.013256784297695, -34.639468658889783 ], [ -71.012101518502973, -34.638733853472651 ], [ -71.011138304431142, -34.638128223125207 ], [ -71.010278208869096, -34.637444072059921 ], [ -71.009873748700642, -34.636569749153658 ], [ -71.009780025670409, -34.635418722556309 ], [ -71.009874671270438, -34.634478708942083 ], [ -71.010086141874851, -34.633173676457915 ], [ -71.010186031839481, -34.632228997024853 ], [ -71.010177690083751, -34.631883325916093 ], [ -71.010226183837759, -34.63150082273895 ], [ -71.010333527124303, -34.631165062189119 ], [ -71.010499723536697, -34.630876117271946 ], [ -71.010496268616109, -34.630732961623131 ], [ -71.010774319654445, -34.630299033066237 ], [ -71.010941753945303, -34.630057779979467 ], [ -71.011166794500397, -34.629815502440024 ], [ -71.0111586431875, -34.629481572654356 ], [ -71.011182955192339, -34.628097642217945 ], [ -71.011286927101651, -34.627618797053394 ], [ -71.011336477274398, -34.627284061576077 ], [ -71.011502661110399, -34.626995042528023 ], [ -71.011952725152568, -34.626510560514696 ], [ -71.012291905647658, -34.626218685450773 ], [ -71.012576933900789, -34.626070841866429 ], [ -71.012977354345423, -34.625921093087065 ], [ -71.013435468190863, -34.625770389721836 ], [ -71.013607317701357, -34.625719912992501 ], [ -71.01377473043263, -34.625478509097412 ], [ -71.014116208818223, -34.625282091404465 ], [ -71.014165835347768, -34.62494728071011 ], [ -71.01415430636942, -34.624470340809616 ], [ -71.014086235630444, -34.624042122513174 ], [ -71.014077102458955, -34.623660568572014 ], [ -71.014071249036576, -34.623422100810814 ], [ -71.014120876464446, -34.623087363187693 ], [ -71.014172806274388, -34.622847940908599 ], [ -71.014169348658868, -34.622704858637292 ], [ -71.014222431007312, -34.622513129263645 ], [ -71.014274361715565, -34.622273706806233 ], [ -71.014272057536871, -34.622178392409374 ], [ -71.014317069420798, -34.621652806237101 ], [ -71.01431245747014, -34.621462029537163 ], [ -71.014303235365432, -34.621080477778605 ], [ -71.014628672534982, -34.620472631634492 ], [ -71.0146897930086, -34.620358470090792 ], [ -71.015029030097566, -34.620066586693937 ], [ -71.015197493857727, -34.619872950590072 ], [ -71.015365869583007, -34.619679389439035 ], [ -71.015476640840703, -34.619486706819643 ], [ -71.015638183081606, -34.61900698028812 ], [ -71.015628955587005, -34.618625428331526 ], [ -71.015507805194531, -34.618388865991626 ], [ -71.015214735222983, -34.618202856758835 ], [ -71.01474753132517, -34.617972012253382 ], [ -71.014397926779537, -34.617834648755824 ], [ -71.014166010519261, -34.617790765991096 ], [ -71.013876402654802, -34.617747836132388 ], [ -71.013234981287439, -34.617472222510038 ], [ -71.012536934616136, -34.617245179580586 ], [ -71.011901778099556, -34.616995601898104 ], [ -71.011615741936666, -34.616782139838286 ], [ -71.011346456658885, -34.616466772169879 ], [ -71.011200003419802, -34.616302782105642 ], [ -71.010997476442384, -34.615977078769141 ], [ -71.01083041315573, -34.615632695084365 ], [ -71.010696554296914, -34.615283332264774 ], [ -71.010618380205955, -34.614923965943909 ], [ -71.010602323718572, -34.614554564940988 ], [ -71.010775214376466, -34.614140760822309 ], [ -71.010914727231665, -34.613817320171847 ], [ -71.011030408680696, -34.613472558607995 ], [ -71.011195623234471, -34.613129563324186 ], [ -71.011284665143762, -34.612824902684451 ], [ -71.01142894266323, -34.612399161665664 ], [ -71.011592279738068, -34.612096968441193 ], [ -71.011707021549313, -34.611772753141224 ], [ -71.011809692698094, -34.611181513827766 ], [ -71.011706493339929, -34.610747593932061 ], [ -71.011254719803773, -34.610343279538867 ], [ -71.010871363756252, -34.610064282480486 ], [ -71.010679217710248, -34.609934947041026 ], [ -71.010461285524016, -34.609825387495938 ], [ -71.010239969384088, -34.60961994003943 ], [ -71.009953806558755, -34.609340666250425 ], [ -71.009622367744797, -34.609102688201958 ], [ -71.00925202379419, -34.608892382122427 ], [ -71.008902321332187, -34.608663712796059 ], [ -71.008602722405143, -34.608393742870497 ], [ -71.008329032687527, -34.608105249526929 ], [ -71.008071894429023, -34.607802893538896 ], [ -71.007819918788456, -34.607496019643314 ], [ -71.007699640660121, -34.607345923855561 ], [ -71.007661328411572, -34.607298102831798 ], [ -71.007568333915046, -34.607364777063701 ], [ -71.007163121856678, -34.607516358949169 ], [ -71.006818630521636, -34.607763474204361 ], [ -71.006474045761806, -34.608010590202788 ], [ -71.00624867462669, -34.608352426614552 ], [ -71.006023208270165, -34.608694190640549 ], [ -71.005679870371935, -34.608989587522522 ], [ -71.005278131200484, -34.609286018448117 ], [ -71.004993186490665, -34.609580453547252 ], [ -71.004708150152695, -34.609874815885497 ], [ -71.004302922822959, -34.610026462687131 ], [ -71.003898850726699, -34.610226245016435 ], [ -71.003554339628721, -34.610473425401167 ], [ -71.003328944239101, -34.610815108980511 ], [ -71.003161863884472, -34.611155982319296 ], [ -71.002876906598246, -34.611450413004839 ], [ -71.002410855238949, -34.611506370960214 ], [ -71.002005702469404, -34.611657861000602 ], [ -71.001539649313472, -34.611713815119465 ], [ -71.0011356526757, -34.611913660667355 ], [ -71.000791035576498, -34.612160762095357 ], [ -71.000386944615627, -34.612360533374087 ], [ -70.999981605894803, -34.612512093570281 ], [ -70.999577602070502, -34.612711934239229 ], [ -70.99911162886464, -34.612767804104209 ] ] ] } },
{ "type": "Feature", "properties": { "capa": "ds19", "popup": "<strong>LOS MAITENES</strong><br><br><strong>Programa:</strong> DS19<br><strong>Comuna:</strong> Chimbarongo<br><strong>Región:</strong> Libertador General Bernardo O'Higgins<br><strong>Año de inicio:</strong> 2023", "etiqueta": "LOS MAITENES" }, "geometry": { "type": "Polygon", "coordinates": [ [ [ -71.045715517932322, -34.706844511890623 ], [ -71.045812753375287, -34.706793791353959 ], [ -71.046222567502866, -34.70732443982314 ], [ -71.04965801620348, -34.705540051065157 ], [ -71.049595898599904, -34.70531927618142 ], [ -71.049546715838105, -34.705115277189691 ], [ -71.04935975935949, -34.704732664456614 ], [ -71.04916137451383, -34.704555425926905 ], [ -71.045507795997594, -34.706570575427762 ], [ -71.045715517932322, -34.706844511890623 ] ] ] } },
{ "type": "Feature", "properties": { "capa": "colegios", "popup": "<strong>ESCUELA MUNICIPAL G448 HUEMUL</strong><br><br><strong>Dirección:</strong> CAMINO PUBLICO HUEMUL 28", "etiqueta": "" }, "geometry": { "type": "Point", "coordinates": [ -70.969093, -34.85384 ] } },
{ "type": "Feature", "properties": { "capa": "colegios", "popup": "<strong>ESCUELA BAS. JOSE MIGUEL CARRERA VERDUGO</strong><br><br><strong>Dirección:</strong> I 85 J CAMINO CODEGUA/MORZA 0", "etiqueta": "" }, "geometry": { "type": "Point", "coordinates": [ -71.00322, -34.824928 ] } },
{ "type": "Feature", "properties": { "capa": "colegios", "popup": "<strong>ESCUELA MONTERILLA</strong><br><br><strong>Dirección:</strong> LONGITUDINAL SUR 165", "etiqueta": "" }, "geometry": { "type": "Point", "coordinates": [ -71.071831, -34.821079 ] } },
{ "type": "Feature", "properties": { "capa": "colegios", "popup": "<strong>ESCUELA ESPECIAL MASTER EDUCA</strong><br><br><strong>Dirección:</strong> EL PORVENIR 0", "etiqueta": "" }, "geometry": { "type": "Point", "coordinates": [ -71.04363, -34.78497 ] } },
{ "type": "Feature", "properties": { "capa": "colegios", "popup": "<strong>ESCUELA AGRICOLA DON GREGORIO</strong><br><br><strong>Dirección:</strong> EL PORVENIR 0", "etiqueta": "" }, "geometry": { "type": "Point", "coordinates": [ -71.043259, -34.78466 ] } },
{ "type": "Feature", "properties": { "capa": "colegios", "popup": "<strong>ESCUELA MUNICIPAL F449 PEOR ES NADA</strong><br><br><strong>Dirección:</strong> CAMINO PUBLICO DE PEOR ES NADA 0", "etiqueta": "" }, "geometry": { "type": "Point", "coordinates": [ -71.050003, -34.783298 ] } },
{ "type": "Feature", "properties": { "capa": "colegios", "popup": "<strong>ESCUELA MUNICIPAL F451 CODEGUA</strong><br><br><strong>Dirección:</strong> JOSE MIGUEL CARRERA 93", "etiqueta": "" }, "geometry": { "type": "Point", "coordinates": [ -70.946327, -34.77301 ] } },
{ "type": "Feature", "properties": { "capa": "colegios", "popup": "<strong>ESCUELA MUNICIPAL LAS MERCEDES G-507</strong><br><br><strong>Dirección:</strong> LONGITUDINAL SUR 156", "etiqueta": "" }, "geometry": { "type": "Point", "coordinates": [ -71.040497, -34.74202 ] } },
{ "type": "Feature", "properties": { "capa": "colegios", "popup": "<strong>ESCUELA MUNICIPAL</strong><br><br><strong>Dirección:</strong> EL PEREJIL 0", "etiqueta": "" }, "geometry": { "type": "Point", "coordinates": [ -70.974891659999983, -34.74187088 ] } },
{ "type": "Feature", "properties": { "capa": "colegios", "popup": "<strong>ESCUELA MUNICIPAL G453 SAN JOSE DE LO TORO</strong><br><br><strong>Dirección:</strong> SAN JOSE DE LO TORO 0", "etiqueta": "" }, "geometry": { "type": "Point", "coordinates": [ -71.131973, -34.736191 ] } },
{ "type": "Feature", "properties": { "capa": "colegios", "popup": "<strong>ESCUELA PARTICULAR MELECIA TOCORNAL</strong><br><br><strong>Dirección:</strong> CAMINO CODEGUA - SAN ENRIQUE 0", "etiqueta": "" }, "geometry": { "type": "Point", "coordinates": [ -70.977364, -34.735371 ] } },
{ "type": "Feature", "properties": { "capa": "colegios", "popup": "<strong>ESCUELA MUNICIPAL EL ROMERAL F-455</strong><br><br><strong>Dirección:</strong> CAMINO A CODEGUA 0", "etiqueta": "" }, "geometry": { "type": "Point", "coordinates": [ -71.007233, -34.72728 ] } },
{ "type": "Feature", "properties": { "capa": "colegios", "popup": "<strong>ESCUELA ESPECIAL DE LENGUAJE SAN ENRIQUE</strong><br><br><strong>Dirección:</strong> CAMINO CODEGUA 0", "etiqueta": "" }, "geometry": { "type": "Point", "coordinates": [ -71.04079, -34.720875 ] } },
{ "type": "Feature", "properties": { "capa": "colegios", "popup": "<strong>ESCUELA BAS. VILLA CONVENTO VIEJO</strong><br><br><strong>Dirección:</strong> LAS ROSAS 10", "etiqueta": "" }, "geometry": { "type": "Point", "coordinates": [ -71.053886, -34.720051 ] } },
{ "type": "Feature", "properties": { "capa": "colegios", "popup": "<strong>COLEGIO CHIMBARONGO</strong><br><br><strong>Dirección:</strong> CAMIRUAGA CORTINA 32", "etiqueta": "" }, "geometry": { "type": "Point", "coordinates": [ -71.043602, -34.714191 ] } },
{ "type": "Feature", "properties": { "capa": "colegios", "popup": "<strong>ESCUELA BAS.FERNANDO ARENAS ALMARZA</strong><br><br><strong>Dirección:</strong> JAVIERA CARRERA 115", "etiqueta": "" }, "geometry": { "type": "Point", "coordinates": [ -71.045174, -34.713612 ] } },
{ "type": "Feature", "properties": { "capa": "colegios", "popup": "<strong>COLEGIO ALERCE</strong><br><br><strong>Dirección:</strong> PISAGUA 473", "etiqueta": "" }, "geometry": { "type": "Point", "coordinates": [ -71.033188, -34.713329 ] } },
{ "type": "Feature", "properties": { "capa": "colegios", "popup": "<strong>ESCUELA MUNICIPAL F452 SANTA VALENTINA</strong><br><br><strong>Dirección:</strong> CAMINO A SANTA ISABEL 9", "etiqueta": "" }, "geometry": { "type": "Point", "coordinates": [ -70.930779, -34.711979 ] } },
{ "type": "Feature", "properties": { "capa": "colegios", "popup": "<strong>ESCUELA DE LENGUAJE KOALA</strong><br><br><strong>Dirección:</strong> MIRAFLORES 1003", "etiqueta": "" }, "geometry": { "type": "Point", "coordinates": [ -71.041664, -34.711845 ] } },
{ "type": "Feature", "properties": { "capa": "colegios", "popup": "<strong>CENTRO PARVULARIO DE CHIMBARONGO</strong><br><br><strong>Dirección:</strong> MIRAFLORES 361", "etiqueta": "" }, "geometry": { "type": "Point", "coordinates": [ -71.044006349999989, -34.70909119 ] } },
{ "type": "Feature", "properties": { "capa": "colegios", "popup": "<strong>ESCUELA ESPECIAL DE LENGUAJE RUCALHUE</strong><br><br><strong>Dirección:</strong> BLANCO ENCALADA 8", "etiqueta": "" }, "geometry": { "type": "Point", "coordinates": [ -71.03944, -34.709015 ] } },
{ "type": "Feature", "properties": { "capa": "colegios", "popup": "<strong>LICEO MUNICIPAL COMPLEJO EDUC. CHIMBARONGO</strong><br><br><strong>Dirección:</strong> BLANCO ENCALADA 151", "etiqueta": "" }, "geometry": { "type": "Point", "coordinates": [ -71.039803, -34.70829 ] } },
{ "type": "Feature", "properties": { "capa": "colegios", "popup": "<strong>ESC.ESP.DE LENGUAJE EL TREN DE CRISTOBAL</strong><br><br><strong>Dirección:</strong> BLANCO ENCALADA 26", "etiqueta": "" }, "geometry": { "type": "Point", "coordinates": [ -71.041435, -34.70755 ] } },
{ "type": "Feature", "properties": { "capa": "colegios", "popup": "<strong>COLEGIO SAN NICOLAS</strong><br><br><strong>Dirección:</strong> MIRAFLORES 710", "etiqueta": "" }, "geometry": { "type": "Point", "coordinates": [ -71.040398, -34.70459 ] } },
{ "type": "Feature", "properties": { "capa": "colegios", "popup": "<strong>ESCUELA MUNICIPAL SANTA ISABEL G-503</strong><br><br><strong>Dirección:</strong> CAMINO SANTA ISABEL 6", "etiqueta": "" }, "geometry": { "type": "Point", "coordinates": [ -70.955879, -34.704288 ] } },
{ "type": "Feature", "properties": { "capa": "colegios", "popup": "<strong>COLEGIO PARTIC, SAN JOSE DE LA MONTANA</strong><br><br><strong>Dirección:</strong> MIRAFLORES 1050", "etiqueta": "" }, "geometry": { "type": "Point", "coordinates": [ -71.035652, -34.69796 ] } },
{ "type": "Feature", "properties": { "capa": "colegios", "popup": "<strong>ESCUELA ESPECIAL AYUDANDO A CRECER</strong><br><br><strong>Dirección:</strong> AVENIDA CHILE 369", "etiqueta": "" }, "geometry": { "type": "Point", "coordinates": [ -71.03268, -34.6962 ] } },
{ "type": "Feature", "properties": { "capa": "colegios", "popup": "<strong>ESCUELA MUNICIPAL E-456</strong><br><br><strong>Dirección:</strong> CALLE MIRAFLORES 1116", "etiqueta": "" }, "geometry": { "type": "Point", "coordinates": [ -71.032883, -34.696041 ] } },
{ "type": "Feature", "properties": { "capa": "colegios", "popup": "<strong>COLEGIO UMBRALES</strong><br><br><strong>Dirección:</strong> MIRAFLORES 1166", "etiqueta": "" }, "geometry": { "type": "Point", "coordinates": [ -71.031464, -34.69331 ] } },
{ "type": "Feature", "properties": { "capa": "colegios", "popup": "<strong>ESCUELA SANTA EUGENIA</strong><br><br><strong>Dirección:</strong> CAMINO SAN JUAN DE LA SIERRA 0", "etiqueta": "" }, "geometry": { "type": "Point", "coordinates": [ -71.003181, -34.678329 ] } },
{ "type": "Feature", "properties": { "capa": "colegios", "popup": "<strong>ESCUELA BAS. PEDRO ETCHEVERRY</strong><br><br><strong>Dirección:</strong> FUNDO LA MACARENA 0", "etiqueta": "" }, "geometry": { "type": "Point", "coordinates": [ -70.953827, -34.677181 ] } },
{ "type": "Feature", "properties": { "capa": "colegios", "popup": "<strong>ESCUELA AGRICOLA LAS GARZAS</strong><br><br><strong>Dirección:</strong> LONGITUDINAL SUR 150", "etiqueta": "" }, "geometry": { "type": "Point", "coordinates": [ -70.997093, -34.67654 ] } },
{ "type": "Feature", "properties": { "capa": "colegios", "popup": "<strong>ESCUELA MUNICIPAL F415 LO GONZALEZ</strong><br><br><strong>Dirección:</strong> CUESTA LO GONZALEZ 0", "etiqueta": "" }, "geometry": { "type": "Point", "coordinates": [ -71.001694, -34.66267 ] } },
{ "type": "Feature", "properties": { "capa": "colegios", "popup": "<strong>ESCUELA MUNICIPAL TINGUIRIRICA ALTO F-411</strong><br><br><strong>Dirección:</strong> CALLE MANUEL RODRIGUEZ 0", "etiqueta": "" }, "geometry": { "type": "Point", "coordinates": [ -70.95858, -34.657291 ] } },
{ "type": "Feature", "properties": { "capa": "colegios", "popup": "<strong>ESCUELA MUNICIPAL LAS QUEZADAS F-413</strong><br><br><strong>Dirección:</strong> LAS QUEZADAS 0", "etiqueta": "" }, "geometry": { "type": "Point", "coordinates": [ -70.970757, -34.65118 ] } },
{ "type": "Feature", "properties": { "capa": "colegios", "popup": "<strong>ESCUELA MUNICIPAL G414 BARRIO ESTACION</strong><br><br><strong>Dirección:</strong> CALLE LA UNION 0", "etiqueta": "" }, "geometry": { "type": "Point", "coordinates": [ -70.992119, -34.639919 ] } },
{ "type": "Feature", "properties": { "capa": "jardines", "popup": "<strong>EL RINCONCITO DE LOS SUEÑOS</strong><br><br><strong>Dirección:</strong> CAMINO PUBLICO S/N EL RINCON ", "etiqueta": "" }, "geometry": { "type": "MultiPoint", "coordinates": [ [ -71.025544, -34.795509 ] ] } },
{ "type": "Feature", "properties": { "capa": "jardines", "popup": "<strong>LUZ DE ESPERANZA</strong><br><br><strong>Dirección:</strong> CALLE CODEGUA 093 ", "etiqueta": "" }, "geometry": { "type": "MultiPoint", "coordinates": [ [ -70.945777, -34.773061 ] ] } },
{ "type": "Feature", "properties": { "capa": "jardines", "popup": "<strong>NUESTRA SENORA DE LA MERCED</strong><br><br><strong>Dirección:</strong> PISAGUA S/N ", "etiqueta": "" }, "geometry": { "type": "MultiPoint", "coordinates": [ [ -71.044603, -34.70804 ] ] } },
{ "type": "Feature", "properties": { "capa": "jardines", "popup": "<strong>BAMBI</strong><br><br><strong>Dirección:</strong> TOMAS MENDOZA N 197 POB. PABLO NERUDA ", "etiqueta": "" }, "geometry": { "type": "MultiPoint", "coordinates": [ [ -71.033713, -34.697694 ] ] } },
{ "type": "Feature", "properties": { "capa": "jardines", "popup": "<strong>ARCOIRIS</strong><br><br><strong>Dirección:</strong> CALLEJON LAS QUEZADAS TINGUIRIRICA ", "etiqueta": "" }, "geometry": { "type": "MultiPoint", "coordinates": [ [ -70.971855, -34.652436 ] ] } },
{ "type": "Feature", "properties": { "capa": "jardines", "popup": "<strong>SAN JOSE</strong><br><br><strong>Dirección:</strong> VILLA SAN JOSE SECTOR,CHIMBARONGO URBANO ", "etiqueta": "" }, "geometry": { "type": "MultiPoint", "coordinates": [ [ -71.043105, -34.701075 ] ] } },
{ "type": "Feature", "properties": { "capa": "jardines", "popup": "<strong>NA</strong><br><br><strong>Dirección:</strong> NA ", "etiqueta": "" }, "geometry": { "type": "MultiPoint", "coordinates": [ [ -71.032664000430117, -34.698301000058045 ] ] } },
{ "type": "Feature", "properties": { "capa": "jardines", "popup": "<strong>NA</strong><br><br><strong>Dirección:</strong> NA ", "etiqueta": "" }, "geometry": { "type": "MultiPoint", "coordinates": [ [ -71.026517999596493, -34.689811000288891 ] ] } },
{ "type": "Feature", "properties": { "capa": "jardines", "popup": "<strong>NA</strong><br><br><strong>Dirección:</strong> NA ", "etiqueta": "" }, "geometry": { "type": "MultiPoint", "coordinates": [ [ -71.040743000095418, -34.707704000296516 ] ] } },
{ "type": "Feature", "properties": { "capa": "bomberos", "popup": "<strong>Cuerpo de Bomberos</strong><br><br><strong>Dirección:</strong> Carmen Larraín 13", "etiqueta": "" }, "geometry": { "type": "Point", "coordinates": [ -71.041740165653906, -34.708136487113769 ] } },
{ "type": "Feature", "properties": { "capa": "comisarias", "popup": "<strong>SCOM. CHIMBARONGO</strong><br><br><strong>Dirección:</strong> VALENTIN LETELIER 5", "etiqueta": "" }, "geometry": { "type": "Point", "coordinates": [ -71.04080045, -34.705445320000017 ] } },
{ "type": "Feature", "properties": { "capa": "comisarias", "popup": "<strong>TCIA. CARRET. COLCHAGUA</strong><br><br><strong>Dirección:</strong> RUTA 5 SUR KM 143", "etiqueta": "" }, "geometry": { "type": "Point", "coordinates": [ -70.990651141999933, -34.631504826999965 ] } },
{ "type": "Feature", "properties": { "capa": "salud", "popup": "<strong>Posta de Salud Rural Huemul (Chimbarongo)</strong><br><br><strong>Tipo de atención:</strong> Posta de Salud Rural (PSR)<br><strong>Dirección:</strong>  NA", "etiqueta": "" }, "geometry": { "type": "Point", "coordinates": [ -70.96929, -34.85294 ] } },
{ "type": "Feature", "properties": { "capa": "salud", "popup": "<strong>Posta de Salud Rural Peor Es Nada</strong><br><br><strong>Tipo de atención:</strong> Posta de Salud Rural (PSR)<br><strong>Dirección:</strong>  NA", "etiqueta": "" }, "geometry": { "type": "Point", "coordinates": [ -71.04498, -34.79151 ] } },
{ "type": "Feature", "properties": { "capa": "salud", "popup": "<strong>Posta de Salud Rural Codegua</strong><br><br><strong>Tipo de atención:</strong> Posta de Salud Rural (PSR)<br><strong>Dirección:</strong>  NA", "etiqueta": "" }, "geometry": { "type": "Point", "coordinates": [ -70.94791, -34.77133 ] } },
{ "type": "Feature", "properties": { "capa": "salud", "popup": "<strong>Hospital Mercedes de Chimbarongo</strong><br><br><strong>Tipo de atención:</strong> Hospital<br><strong>Dirección:</strong>  33", "etiqueta": "" }, "geometry": { "type": "Point", "coordinates": [ -71.03664, -34.70251 ] } },
{ "type": "Feature", "properties": { "capa": "salud", "popup": "<strong>Posta de Salud Rural San Juan de La Sierra</strong><br><br><strong>Tipo de atención:</strong> Posta de Salud Rural (PSR)<br><strong>Dirección:</strong>  NA", "etiqueta": "" }, "geometry": { "type": "Point", "coordinates": [ -70.92966, -34.69874 ] } },
{ "type": "Feature", "properties": { "capa": "salud", "popup": "<strong>Posta de Salud Rural Tinguiririca</strong><br><br><strong>Tipo de atención:</strong> Posta de Salud Rural (PSR)<br><strong>Dirección:</strong>  NA", "etiqueta": "" }, "geometry": { "type": "Point", "coordinates": [ -70.97634, -34.65204 ] } },
{ "type": "Feature", "properties": { "capa": "municipios", "popup": "<strong>Municipalidad de Chimbarongo</strong><br><br><strong>Dirección:</strong> Javiera Carrera Nº 511<br><strong>Región:</strong> Libertador General Bernardo O'Higgins", "etiqueta": "" }, "geometry": { "type": "Point", "coordinates": [ -71.041263, -34.708432000999956 ] } }
]
}
