{
"type": "FeatureCollection",
"name": "6304",
"crs": { "type": "name", "properties": { "name": "urn:ogc:def:crs:OGC:1.3:CRS84" } },
"features": [
{ "type": "Feature", "properties": { "capa": "comuna", "popup": "", "etiqueta": "" }, "geometry": { "type": "Polygon", "coordinates": [ [ [ -71.68004692923148, -34.882110537373634 ], [ -71.680330088090486, -34.882341153989316 ], [ -71.680690195738435, -34.882736588104173 ], [ -71.681485123018192, -34.883154406051261 ], [ -71.681781011004801, -34.883606148849019 ], [ -71.681902090430356, -34.883942202737039 ], [ -71.681997224713882, -34.884751539324697 ], [ -71.682002367568884, -34.884795291522309 ], [ -71.681805262822522, -34.885233565316064 ], [ -71.681674687306071, -34.885455530239547 ], [ -71.68161261461826, -34.885561047004572 ], [ -71.681590032768653, -34.88561634721755 ], [ -71.681531513816097, -34.885759640812473 ], [ -71.681463296651728, -34.88592668384161 ], [ -71.681455866686022, -34.886111338690711 ], [ -71.681446261899012, -34.88635000036038 ], [ -71.681435059009075, -34.886628373008293 ], [ -71.68148383663069, -34.886888516698619 ], [ -71.681544621134393, -34.887212691352701 ], [ -71.681692156843411, -34.887779370900986 ], [ -71.68201767935291, -34.888714478408119 ], [ -71.682355936379878, -34.889389437376849 ], [ -71.68247939364602, -34.889866954665955 ], [ -71.682630972672101, -34.890273960043004 ], [ -71.682762636946663, -34.890635811398695 ], [ -71.68309755044416, -34.891008371803871 ], [ -71.684093340123127, -34.891426663475698 ], [ -71.684157456478218, -34.891453596149567 ], [ -71.684817900570053, -34.891767401085637 ], [ -71.685595002579632, -34.892528045836919 ], [ -71.685883519889302, -34.893164438731603 ], [ -71.686258332958445, -34.893804721477068 ], [ -71.686345395879158, -34.893953448759419 ], [ -71.686969186910773, -34.89445036906536 ], [ -71.686976265635209, -34.894667614183405 ], [ -71.687132417984415, -34.895102940436267 ], [ -71.687666136739111, -34.895564914989357 ], [ -71.687951622234735, -34.896275103955944 ], [ -71.688416495902672, -34.896755582145126 ], [ -71.688669439927125, -34.897085973139575 ], [ -71.688650220471615, -34.897112061817566 ], [ -71.688579235597871, -34.897208408385147 ], [ -71.68835186481293, -34.89733255130173 ], [ -71.688331152357435, -34.897333009578183 ], [ -71.688062755513471, -34.89733894948936 ], [ -71.687686949805936, -34.897347265511648 ], [ -71.687223669749301, -34.897333664574589 ], [ -71.686961162260332, -34.897267991025878 ], [ -71.686579920847024, -34.897109536869472 ], [ -71.686260332608271, -34.897068976334488 ], [ -71.686235189661801, -34.897065405155686 ], [ -71.685969671918329, -34.897027700364568 ], [ -71.685507169802719, -34.897037926156131 ], [ -71.685045535459665, -34.897025827465633 ], [ -71.685015054723777, -34.897025028057563 ], [ -71.68460557926106, -34.896891117146538 ], [ -71.684167442150908, -34.89675776449949 ], [ -71.683597190710231, -34.896565890973513 ], [ -71.683436144339353, -34.896511702572631 ], [ -71.682938516299515, -34.896332030416652 ], [ -71.682498657118956, -34.896151079537901 ], [ -71.68208781621702, -34.895969413573184 ], [ -71.681926192229426, -34.895920291694516 ], [ -71.681795614916368, -34.895880605881146 ], [ -71.681505048549511, -34.895839318262155 ], [ -71.681299230144859, -34.895843861323257 ], [ -71.680919399984873, -34.895986757634304 ], [ -71.680622741243752, -34.896287826079885 ], [ -71.680257091888819, -34.896605744442894 ], [ -71.680020973309652, -34.896763859913712 ], [ -71.679781056653439, -34.896996544073978 ], [ -71.679531152527929, -34.897091860757165 ], [ -71.678784823206726, -34.897591622244875 ], [ -71.67833314489198, -34.897935210648157 ], [ -71.67806933843913, -34.898164511183005 ], [ -71.677911078642268, -34.898302069977717 ], [ -71.677747648142642, -34.898615522365432 ], [ -71.677359919994629, -34.899148436274096 ], [ -71.677223867449925, -34.899413581235365 ], [ -71.676692434907622, -34.899973511940999 ], [ -71.67641181828084, -34.900241842168136 ], [ -71.676385675509451, -34.90025705316495 ], [ -71.675900802648314, -34.900539172955803 ], [ -71.675557683040722, -34.90066591598265 ], [ -71.675191222507081, -34.900959986606019 ], [ -71.675153279466116, -34.901007791852756 ], [ -71.674940982411655, -34.901275272919221 ], [ -71.674102370059629, -34.902175659927892 ], [ -71.673456307995494, -34.902448860869519 ], [ -71.67338890470478, -34.902477363590769 ], [ -71.672725485392732, -34.902539667581642 ], [ -71.670181341523744, -34.902595552382373 ], [ -71.669575010147994, -34.902632806684842 ], [ -71.669058841779005, -34.902763248549917 ], [ -71.669058464486582, -34.90276334358812 ], [ -71.668745887598632, -34.902937025333301 ], [ -71.66820811474706, -34.903306320773709 ], [ -71.667926006916929, -34.903527034537817 ], [ -71.667702442293859, -34.903770314953832 ], [ -71.667626437634283, -34.904105611532415 ], [ -71.667524673783959, -34.904536882248962 ], [ -71.667481659753207, -34.90488878411449 ], [ -71.66742290095047, -34.905369495546097 ], [ -71.667358454015357, -34.905657647589678 ], [ -71.667362836895634, -34.905703085282681 ], [ -71.667441147530511, -34.906515009159847 ], [ -71.667346045586342, -34.906969393474704 ], [ -71.667366520886617, -34.907602083869982 ], [ -71.667381059221171, -34.908054059846876 ], [ -71.667400163692307, -34.908641587253051 ], [ -71.667416163585841, -34.909138724413815 ], [ -71.667998473112576, -34.910166102010834 ], [ -71.668457895803385, -34.910789221420451 ], [ -71.669249363670971, -34.911495352384286 ], [ -71.669762163357674, -34.912072100860776 ], [ -71.67056537490096, -34.913139875032513 ], [ -71.671085603655058, -34.91394241657779 ], [ -71.671103418145449, -34.914006793583788 ], [ -71.671237801620364, -34.914492435636596 ], [ -71.671334382191503, -34.914841459576458 ], [ -71.671781351537533, -34.916776382409658 ], [ -71.671813357612805, -34.917077921933398 ], [ -71.673251360058373, -34.920590558283585 ], [ -71.673499866405308, -34.921197553238393 ], [ -71.674910857408577, -34.923643108477847 ], [ -71.675097839040035, -34.923752996909414 ], [ -71.675448202662096, -34.923958904284412 ], [ -71.676135422837589, -34.92436277320364 ], [ -71.676729497599609, -34.924700025141931 ], [ -71.677245661477031, -34.924993047037646 ], [ -71.67801546736986, -34.925430061207315 ], [ -71.678679857760741, -34.925761991057378 ], [ -71.679291250244802, -34.926067439427506 ], [ -71.680374618477444, -34.926608686341751 ], [ -71.681048049513336, -34.926945116675086 ], [ -71.681290727590707, -34.927047122213395 ], [ -71.685041310682877, -34.928623489299753 ], [ -71.686460276030957, -34.929219887834009 ], [ -71.686590115827173, -34.929274455300543 ], [ -71.687587472168005, -34.92971251752077 ], [ -71.690145965725335, -34.930836287174635 ], [ -71.691178195563793, -34.931302231332729 ], [ -71.691900661139485, -34.93162835391886 ], [ -71.691905369209891, -34.931630478638034 ], [ -71.692621771157391, -34.931953851419912 ], [ -71.69266072929463, -34.931972571703255 ], [ -71.69286182884909, -34.932069209510033 ], [ -71.693156317260474, -34.932210725238093 ], [ -71.69502429652016, -34.933044545488805 ], [ -71.69703345141663, -34.933941383447191 ], [ -71.697051796811351, -34.93394957277485 ], [ -71.697169693505856, -34.934002178875375 ], [ -71.697250828444027, -34.934019943516056 ], [ -71.697748282210696, -34.934128871713298 ], [ -71.697826789576638, -34.934109668075159 ], [ -71.698299827133894, -34.933993957885619 ], [ -71.698564389968212, -34.933929243061939 ], [ -71.698578270735993, -34.933909501031685 ], [ -71.698664650038779, -34.933786655078997 ], [ -71.698809469242349, -34.933580697985725 ], [ -71.698918478903749, -34.933496455014499 ], [ -71.698927964214846, -34.933489125083909 ], [ -71.698936261054797, -34.93348271351141 ], [ -71.699201347606945, -34.933417340630015 ], [ -71.699227955705652, -34.933415481817399 ], [ -71.699576054674893, -34.933391166276131 ], [ -71.700353870845106, -34.933525859422524 ], [ -71.700854461528778, -34.933612544442795 ], [ -71.701766746513869, -34.933901536317443 ], [ -71.70225829565419, -34.934134459149249 ], [ -71.702561131211183, -34.934269982524306 ], [ -71.702676112872624, -34.934321438825663 ], [ -71.702787143743407, -34.934406815076763 ], [ -71.703245070739271, -34.934758932810176 ], [ -71.703771194238243, -34.935117862573392 ], [ -71.704739689505615, -34.935578068407963 ], [ -71.705353985344672, -34.935824472786138 ], [ -71.705610658275859, -34.93592742906506 ], [ -71.705729766797702, -34.935980575911152 ], [ -71.706144437217702, -34.93616560425729 ], [ -71.706547684660535, -34.93634553462622 ], [ -71.70661234719131, -34.936374387900806 ], [ -71.706702070921892, -34.936395946106586 ], [ -71.707637412965397, -34.936780340173968 ], [ -71.708876684713914, -34.937056558688653 ], [ -71.709646151043572, -34.937321321260505 ], [ -71.709858680761684, -34.937188189668198 ], [ -71.710068323294479, -34.937043739046537 ], [ -71.710207270211058, -34.936903387105318 ], [ -71.710308628022872, -34.936801005726309 ], [ -71.710334360264198, -34.936736725398937 ], [ -71.710492886860692, -34.936340738265415 ], [ -71.71054773080543, -34.93620373956017 ], [ -71.710569331694742, -34.936088256199703 ], [ -71.710655883474061, -34.935625548611377 ], [ -71.710702311102892, -34.93527789446906 ], [ -71.710734711538564, -34.935035276699203 ], [ -71.710817652988737, -34.934569972358304 ], [ -71.710834128091051, -34.933471155593878 ], [ -71.710834424535093, -34.933451425236619 ], [ -71.710692924606491, -34.932317457489958 ], [ -71.710382783051273, -34.93140330055175 ], [ -71.710314578463326, -34.931163506015345 ], [ -71.710137233059939, -34.930540001441976 ], [ -71.710107243702481, -34.93043456455856 ], [ -71.709818426355497, -34.929798215258366 ], [ -71.709771917878285, -34.929703779086218 ], [ -71.709735197444417, -34.929629218438613 ], [ -71.709486246431425, -34.929123718026666 ], [ -71.709518719630623, -34.928311219399397 ], [ -71.709629066883494, -34.927796603976368 ], [ -71.70977191877661, -34.927566556887605 ], [ -71.710012895444834, -34.927178486434769 ], [ -71.710435657888894, -34.92670930764956 ], [ -71.711173783794919, -34.926211705361986 ], [ -71.711389721721247, -34.925995593976886 ], [ -71.711524439369441, -34.925651838694222 ], [ -71.712357725610147, -34.924690988614039 ], [ -71.713254051125915, -34.923657540296496 ], [ -71.71424553787466, -34.922108971943118 ], [ -71.714572270414877, -34.921481533818671 ], [ -71.714781772810483, -34.920809087325907 ], [ -71.714908265483956, -34.919375254839871 ], [ -71.714820550386349, -34.91847093964244 ], [ -71.714666797437275, -34.917649180373182 ], [ -71.714749557427766, -34.916645649012494 ], [ -71.715082552123789, -34.916208954157916 ], [ -71.71559561232192, -34.915958968389603 ], [ -71.716455615357475, -34.91570122089427 ], [ -71.716968578537546, -34.915451231369801 ], [ -71.717423580618828, -34.91520253753265 ], [ -71.718158576794423, -34.914661359030298 ], [ -71.718615235369086, -34.914460399811773 ], [ -71.719361138888857, -34.914252888540148 ], [ -71.720213424497814, -34.913756848253307 ], [ -71.720723125895063, -34.913411512451347 ], [ -71.721400215769108, -34.912871611997033 ], [ -71.721685335650392, -34.912694054433928 ], [ -71.722194519618057, -34.912376857646976 ], [ -71.722763734402903, -34.91207788132688 ], [ -71.72356598564717, -34.911821378368238 ], [ -71.724202422263019, -34.911807103584493 ], [ -71.724668413435197, -34.911892054643907 ], [ -71.725256533265195, -34.912165072982717 ], [ -71.725854116846705, -34.912724090968339 ], [ -71.725955750441315, -34.912899549781322 ], [ -71.726099684804353, -34.913147827766011 ], [ -71.726459504093086, -34.913521368911361 ], [ -71.726694126977307, -34.913611507038752 ], [ -71.726925595876551, -34.913606309357235 ], [ -71.727197185333054, -34.913193631105528 ], [ -71.727133399557971, -34.912886105377581 ], [ -71.727283249327158, -34.912167276290369 ], [ -71.727491047618685, -34.911447071472345 ], [ -71.727764598995734, -34.910963976441799 ], [ -71.72809916664184, -34.910574841826993 ], [ -71.7285315329746, -34.909468339972669 ], [ -71.728445745661602, -34.908802211507918 ], [ -71.72843501259058, -34.908228914248596 ], [ -71.728240687231704, -34.907852841348287 ], [ -71.728073641911351, -34.907388281622005 ], [ -71.728049412551513, -34.907089541293772 ], [ -71.728011445256016, -34.90680639421668 ], [ -71.727960237691562, -34.906380436696573 ], [ -71.727903373435765, -34.906073345885481 ], [ -71.727819364787038, -34.905620434441481 ], [ -71.727581608579101, -34.905434965179523 ], [ -71.727106102451444, -34.905064096122942 ], [ -71.727098617688497, -34.904837861890179 ], [ -71.727091909069955, -34.904635092095504 ], [ -71.727237192702532, -34.903773183745884 ], [ -71.727743652079937, -34.903332560714702 ], [ -71.728422103799957, -34.90284029649245 ], [ -71.728934948402383, -34.902590261911989 ], [ -71.729391513552287, -34.902389265779028 ], [ -71.730187154992691, -34.901942060676852 ], [ -71.730298135557845, -34.901796458370235 ], [ -71.730578046108789, -34.901503950423709 ], [ -71.731309588262107, -34.900867443107636 ], [ -71.731457159903727, -34.900679295343259 ], [ -71.731587822556733, -34.900527268546355 ], [ -71.731984838386452, -34.900279826186505 ], [ -71.732270969770752, -34.900178059243565 ], [ -71.732552357152031, -34.89993321584204 ], [ -71.732538137719388, -34.899504213007795 ], [ -71.732458165201223, -34.89883825126438 ], [ -71.73243920805379, -34.898266248202958 ], [ -71.732706457749131, -34.897781659542233 ], [ -71.733217501229433, -34.897294759693253 ], [ -71.733899124900702, -34.896897874181775 ], [ -71.735156035069835, -34.896392550886546 ], [ -71.735612547219134, -34.89619146074957 ], [ -71.736233041433636, -34.895700533739429 ], [ -71.737025594466104, -34.895157949823094 ], [ -71.738560554775219, -34.89431248478337 ], [ -71.739234206796681, -34.893677163264542 ], [ -71.739507636002855, -34.893194045477941 ], [ -71.740342068493874, -34.892173546751962 ], [ -71.74123908122084, -34.891294662888633 ], [ -71.741796990707797, -34.890662014124629 ], [ -71.742038028461465, -34.890372571575639 ], [ -71.742218592528531, -34.890196812628268 ], [ -71.743719724979002, -34.889122767196362 ], [ -71.744288192365531, -34.888803110369899 ], [ -71.744453917162403, -34.888741767872489 ], [ -71.744685946610389, -34.888599971613729 ], [ -71.745392840788924, -34.888270922944884 ], [ -71.746154613048191, -34.888072789850021 ], [ -71.747026169316626, -34.887872243048648 ], [ -71.747639631519093, -34.887756535464703 ], [ -71.747663011970999, -34.887762952082937 ], [ -71.747697630347091, -34.887745596706338 ], [ -71.747844238096405, -34.887717943636652 ], [ -71.748610518101756, -34.887655415449046 ], [ -71.749320484518577, -34.887548891866047 ], [ -71.750074705539532, -34.887124798967037 ], [ -71.750563769939774, -34.8869780776147 ], [ -71.751215910005129, -34.886782395191261 ], [ -71.751869466713671, -34.88663194316706 ], [ -71.752734868624103, -34.886250580802667 ], [ -71.753752773927047, -34.885503853696854 ], [ -71.754231256173242, -34.885040720182893 ], [ -71.754816407969528, -34.884484783350608 ], [ -71.755183681478499, -34.883979050625449 ], [ -71.755598289016419, -34.883245990157384 ], [ -71.75595498216795, -34.882423858468506 ], [ -71.756313178200983, -34.88164688363095 ], [ -71.757343507204311, -34.879633667683962 ], [ -71.757703234864891, -34.878913955784007 ], [ -71.757960143154676, -34.878576497349172 ], [ -71.758180354366814, -34.878237582052442 ], [ -71.758534477438332, -34.877611592856574 ], [ -71.758563020508163, -34.8775611364292 ], [ -71.758833008268482, -34.876982578088807 ], [ -71.759046747118987, -34.876453073315282 ], [ -71.759093518802572, -34.876118094996336 ], [ -71.759075986383166, -34.875593767791472 ], [ -71.759180510756366, -34.875257552271684 ], [ -71.759288215165682, -34.875016521429608 ], [ -71.759339681444928, -34.874824617030875 ], [ -71.759558192146216, -34.874438036565905 ], [ -71.759716747488824, -34.874120751729521 ], [ -71.760132193154888, -34.873894808143881 ], [ -71.760803433199811, -34.87359888144465 ], [ -71.761145673356751, -34.873447996992077 ], [ -71.761659739667977, -34.873245504949033 ], [ -71.76194103901436, -34.873000598973277 ], [ -71.762220653121275, -34.872708102736972 ], [ -71.762443932978414, -34.872464515130744 ], [ -71.762784569642548, -34.872265960687066 ], [ -71.76324406869017, -34.872160106993512 ], [ -71.763533250753184, -34.872153529964081 ], [ -71.763762912242086, -34.872100677130959 ], [ -71.763873793992545, -34.871954974769388 ], [ -71.763940353765207, -34.871882423085125 ], [ -71.76409706845979, -34.871711457895621 ], [ -71.764315729179714, -34.871324865002897 ], [ -71.76453749268066, -34.871033606148792 ], [ -71.764643584614035, -34.870745052590458 ], [ -71.76497773184856, -34.870355831359767 ], [ -71.765258921600491, -34.87011092046135 ], [ -71.765593155073304, -34.869721769931488 ], [ -71.765757075154767, -34.869431825417664 ], [ -71.766092898645638, -34.869090264800398 ], [ -71.766708498838497, -34.868312348764832 ], [ -71.768091621406725, -34.866564380039435 ], [ -71.771854287737796, -34.861422542166707 ], [ -71.772082009764006, -34.86080068983977 ], [ -71.772435891188707, -34.859787473320523 ], [ -71.772591857586647, -34.859259265708772 ], [ -71.772904385965575, -34.858228751888966 ], [ -71.772892308116596, -34.857869119637293 ], [ -71.773054582484463, -34.85753157556249 ], [ -71.77361924281081, -34.856641589196222 ], [ -71.77415326878932, -34.855800001937517 ], [ -71.774882357643577, -34.854650983008831 ], [ -71.775138334380429, -34.854154012264786 ], [ -71.77511528630518, -34.853718720495038 ], [ -71.775066188883343, -34.853577177857474 ], [ -71.774934141926465, -34.853195696060098 ], [ -71.774804085636262, -34.852769420072548 ], [ -71.774617896318887, -34.852392053164536 ], [ -71.774491044319305, -34.852061034292106 ], [ -71.774365794914189, -34.851777753612765 ], [ -71.774196359176884, -34.851424298092326 ], [ -71.774194115185296, -34.850112169728831 ], [ -71.774436883094182, -34.847006205255838 ], [ -71.774857802195314, -34.84575648471003 ], [ -71.77592100235151, -34.844682757377683 ], [ -71.77670320050369, -34.843854026491648 ], [ -71.77727806479335, -34.843745487258353 ], [ -71.777679659336059, -34.843640906231897 ], [ -71.778084190471432, -34.843631660251525 ], [ -71.778718559165512, -34.843569456105648 ], [ -71.779121664674534, -34.843512537339336 ], [ -71.779749526871001, -34.843259668113049 ], [ -71.780258636278489, -34.842914108994499 ], [ -71.780939583518375, -34.842516986709654 ], [ -71.781732850711492, -34.842021812407886 ], [ -71.78246669165361, -34.841480365688824 ], [ -71.783141193481299, -34.840892571173661 ], [ -71.783648578123461, -34.840499334229563 ], [ -71.784380873064976, -34.83991013553748 ], [ -71.784595971066494, -34.839428186687257 ], [ -71.784694016789857, -34.838901291271334 ], [ -71.785191833475906, -34.838222128789937 ], [ -71.785697585879191, -34.837781219949456 ], [ -71.786036329793035, -34.837535019087241 ], [ -71.786489172324394, -34.837238352543714 ], [ -71.786778225030005, -34.837231726270872 ], [ -71.787239106584835, -34.837173529773629 ], [ -71.787632435728611, -34.836830595774082 ], [ -71.788135038638501, -34.836294344024466 ], [ -71.788579738840141, -34.835759494134301 ], [ -71.788918643552421, -34.835513208331228 ], [ -71.789258977484323, -34.835314664967669 ], [ -71.789774430794367, -34.835159655674467 ], [ -71.790222422423199, -34.834720128428927 ], [ -71.79027209476682, -34.834480477071551 ], [ -71.790439172426517, -34.834285833979187 ], [ -71.790882237694319, -34.833703311015533 ], [ -71.791498805372726, -34.833116727743814 ], [ -71.791887271037567, -34.832630859877987 ], [ -71.792213182517571, -34.832003321655883 ], [ -71.792317520041195, -34.831666936064359 ], [ -71.792474837505324, -34.831186375356424 ], [ -71.792635371836496, -34.830801071185249 ], [ -71.792794297284985, -34.830368175518501 ], [ -71.792897024129289, -34.829984197756772 ], [ -71.793059075714979, -34.829646560684736 ], [ -71.793277412143112, -34.829260000908945 ], [ -71.793437940186067, -34.828874695835239 ], [ -71.793996564732012, -34.82828950724155 ], [ -71.794555269228027, -34.827704240011784 ], [ -71.795298846111194, -34.827157622073521 ], [ -71.795971251271027, -34.826813043962559 ], [ -71.796098583869281, -34.826810263186069 ], [ -71.796608887137808, -34.826798746301719 ], [ -71.796269087703493, -34.826402719503953 ], [ -71.796147036300766, -34.826214792876975 ], [ -71.795907761940015, -34.825981712234643 ], [ -71.795670107241705, -34.825796443046087 ], [ -71.795429226693216, -34.825515769460374 ], [ -71.79530233965933, -34.825184773020062 ], [ -71.795175546050231, -34.824853848254875 ], [ -71.79504544214933, -34.824427594349487 ], [ -71.794915243925303, -34.824001195175491 ], [ -71.794732264288456, -34.823719263301143 ], [ -71.794428759486564, -34.82329692081786 ], [ -71.794130091214157, -34.823017572751965 ], [ -71.793539293506313, -34.822649607590812 ], [ -71.793006208962197, -34.822280238153169 ], [ -71.792588730408625, -34.821908285229938 ], [ -71.79229211029508, -34.821532816639092 ], [ -71.792157684599317, -34.82090108174738 ], [ -71.792418920972167, -34.820337646404695 ], [ -71.79269451332155, -34.819902439807983 ], [ -71.792731874254216, -34.819701616145053 ], [ -71.792792403636369, -34.819375541126512 ], [ -71.792957747547561, -34.819133232959757 ], [ -71.793044797891866, -34.818958810727842 ], [ -71.793174447245235, -34.818698935217057 ], [ -71.793281994449373, -34.818458027757956 ], [ -71.79338631849825, -34.818121715899444 ], [ -71.793376567285847, -34.817835726874208 ], [ -71.793366909498232, -34.817549809868048 ], [ -71.793240134753759, -34.81721880796637 ], [ -71.793055475267323, -34.816889134446839 ], [ -71.792811411987785, -34.816513123776602 ], [ -71.792650102410519, -34.815965373981676 ], [ -71.792552226468743, -34.815721062294671 ], [ -71.792490243612463, -34.81556653090302 ], [ -71.792249497811255, -34.815285920548327 ], [ -71.792005442616556, -34.814909908461367 ], [ -71.791875371054999, -34.814483575810506 ], [ -71.791743691509069, -34.814009577644093 ], [ -71.791673028232196, -34.813629655991917 ], [ -71.791486777829377, -34.813252388441711 ], [ -71.791300527426586, -34.812875046885644 ], [ -71.791001907663215, -34.812595688554701 ], [ -71.790062832221395, -34.812187921134708 ], [ -71.789358063456802, -34.811870249463588 ], [ -71.788770581430668, -34.811597511636826 ], [ -71.788504595664932, -34.811194228748533 ], [ -71.78822473901289, -34.810846867448412 ], [ -71.787979110868122, -34.810423179308039 ], [ -71.787853976447352, -34.810139835002964 ], [ -71.78748955868268, -34.809623537597943 ], [ -71.787407842534549, -34.809419686246187 ], [ -71.787300122853878, -34.809150857537688 ], [ -71.787284060976603, -34.808674203671927 ], [ -71.78738198093582, -34.808147381436108 ], [ -71.787536077041352, -34.80757142100942 ], [ -71.787640413666651, -34.807235113394512 ], [ -71.787683749294274, -34.806804873113158 ], [ -71.78761310847527, -34.806424800965935 ], [ -71.787605080231586, -34.806186546892185 ], [ -71.787473441109867, -34.805712542304946 ], [ -71.78728874389418, -34.805382859628651 ], [ -71.78713330840057, -34.805084627133247 ], [ -71.787043229835447, -34.804959240023244 ], [ -71.786685351806028, -34.804633524885411 ], [ -71.786156109356398, -34.80441098118385 ], [ -71.786039964376684, -34.804362173422156 ], [ -71.78545896639028, -34.804280079395141 ], [ -71.784643607827704, -34.804107943304054 ], [ -71.783950241379017, -34.804123745209957 ], [ -71.783542522122701, -34.804037748225902 ], [ -71.783190985300877, -34.803902687165795 ], [ -71.782947008259612, -34.803526651903326 ], [ -71.782630909077426, -34.802723019104853 ], [ -71.782268072347648, -34.802254370452061 ], [ -71.782075569670468, -34.80168634711324 ], [ -71.782061145421949, -34.801257354721621 ], [ -71.78186695660699, -34.800641739038205 ], [ -71.78156521429969, -34.800267096332931 ], [ -71.781382245442614, -34.799985067013104 ], [ -71.78125385732389, -34.799606383403464 ], [ -71.781046864821178, -34.798609441132498 ], [ -71.781563716808108, -34.798502215059138 ], [ -71.781846138150271, -34.798304945688834 ], [ -71.782188033354146, -34.798154016863428 ], [ -71.782741830353771, -34.797425884285083 ], [ -71.782907165281799, -34.797183588291759 ], [ -71.783244244617435, -34.796889659993965 ], [ -71.783411090511791, -34.796695032087349 ], [ -71.783749772441894, -34.796448841932616 ], [ -71.784091655967686, -34.796297908233917 ], [ -71.784364530015011, -34.795814637482174 ], [ -71.784467264944169, -34.795430666859716 ], [ -71.784462291870753, -34.795285531777957 ], [ -71.784449626523553, -34.794906417898225 ], [ -71.784494489287169, -34.794523770906068 ], [ -71.784361380521617, -34.794002166013172 ], [ -71.783998665064416, -34.793533519423711 ], [ -71.783931264468634, -34.793248848194338 ], [ -71.783865468263954, -34.793011841134756 ], [ -71.784078951094614, -34.792482228337938 ], [ -71.783889582639446, -34.792009612278662 ], [ -71.783766012185609, -34.791774002596085 ], [ -71.783636543393598, -34.791647813988902 ], [ -71.783526878860329, -34.791540889444768 ], [ -71.783228455828024, -34.791261504542611 ], [ -71.782984522804185, -34.790885539984615 ], [ -71.782852940276314, -34.790411527091642 ], [ -71.783029571519052, -34.788785749696231 ], [ -71.783417981488341, -34.786582695546031 ], [ -71.784400868664889, -34.782613005129647 ], [ -71.78448691020111, -34.782265302787735 ], [ -71.784777440635352, -34.780589138901632 ], [ -71.785347105476148, -34.778620442408148 ], [ -71.785440126922126, -34.7780094773426 ], [ -71.785536594305555, -34.777375985522681 ], [ -71.785722818657206, -34.776870033559419 ], [ -71.786030770119751, -34.776601429274777 ], [ -71.786102989278717, -34.776351293552246 ], [ -71.786140685282973, -34.776208208621483 ], [ -71.78617009792201, -34.775728442339741 ], [ -71.786094997865959, -34.775073552376149 ], [ -71.785827056467824, -34.773982604570847 ], [ -71.785087468104521, -34.772616239416955 ], [ -71.784658533336142, -34.772046243911518 ], [ -71.784463412069911, -34.771786943642752 ], [ -71.784308661092552, -34.771581214485764 ], [ -71.783903410406623, -34.771318894714476 ], [ -71.783595273891123, -34.771219463104138 ], [ -71.782958347693437, -34.771186333227689 ], [ -71.782783540929032, -34.771142629840469 ], [ -71.782430645854504, -34.77097879469278 ], [ -71.782196197243451, -34.770869847305164 ], [ -71.781897858652769, -34.77059045437332 ], [ -71.781418229257937, -34.77007676652736 ], [ -71.780758824516894, -34.76937637481771 ], [ -71.780632098281458, -34.769045353633828 ], [ -71.780617699185768, -34.768616358954397 ], [ -71.780606269920398, -34.768275833814293 ], [ -71.780601700190545, -34.76813969878193 ], [ -71.780704428831498, -34.767755802994671 ], [ -71.78079906814331, -34.767133579834621 ], [ -71.780890684624183, -34.766416020542515 ], [ -71.780755964281042, -34.765846667776039 ], [ -71.780680604611845, -34.765323661689877 ], [ -71.780719171981943, -34.764750422638627 ], [ -71.780934126253015, -34.764268482838993 ], [ -71.781261487613904, -34.763688568112414 ], [ -71.782373381848416, -34.762375322616997 ], [ -71.783259097362347, -34.761210201304813 ], [ -71.78425132522122, -34.759660720519122 ], [ -71.784926719076012, -34.758711148670287 ], [ -71.78545962036381, -34.757725921323782 ], [ -71.785820862583947, -34.75725059388553 ], [ -71.786225294904639, -34.756657530417172 ], [ -71.786675708391471, -34.756024497607555 ], [ -71.78708274402986, -34.755509202424342 ], [ -71.787683761870696, -34.755289634100976 ], [ -71.787820151283654, -34.754189422670962 ], [ -71.78786517035411, -34.753806845140822 ], [ -71.788028718533056, -34.753516882173926 ], [ -71.788154899491133, -34.753358182209141 ], [ -71.788301423697106, -34.753173909306518 ], [ -71.788602535387085, -34.752805768945933 ], [ -71.788700529906492, -34.752620392127255 ], [ -71.788736111276577, -34.752212701601046 ], [ -71.788548428060906, -34.75178775344434 ], [ -71.788365644256785, -34.751505725916189 ], [ -71.788299879493152, -34.751268794532407 ], [ -71.788402464403646, -34.750884822505292 ], [ -71.788506742638461, -34.750548514759245 ], [ -71.788874904581235, -34.749961147776432 ], [ -71.788965623645154, -34.749833535639866 ], [ -71.789111528013592, -34.749628379155581 ], [ -71.789501342049675, -34.749190193809063 ], [ -71.790064396188285, -34.748747962037676 ], [ -71.790216701951465, -34.748124410205769 ], [ -71.790200659837112, -34.747647751292625 ], [ -71.790012979316373, -34.747222730931881 ], [ -71.789825303287216, -34.746797783673081 ], [ -71.789700273969345, -34.746514435569466 ], [ -71.789626400113633, -34.746039101910789 ], [ -71.789610455017353, -34.745562515111679 ], [ -71.789536582958277, -34.745087182618562 ], [ -71.789355328985067, -34.744852897522179 ], [ -71.78923709272739, -34.744183561334346 ], [ -71.789212670229759, -34.744045296869864 ], [ -71.788968951903271, -34.743669260379171 ], [ -71.788725056608698, -34.743293228820221 ], [ -71.788713837549111, -34.742959640551319 ], [ -71.788877451305069, -34.742669601855596 ], [ -71.78915495167611, -34.742329324018016 ], [ -71.78925272071838, -34.741802500993799 ], [ -71.78941472648998, -34.741464795813066 ], [ -71.789919992006375, -34.741023964344002 ], [ -71.790258434086297, -34.740777692224412 ], [ -71.790482991347744, -34.740581732405801 ], [ -71.790571075652934, -34.740514436001682 ], [ -71.790933711160093, -34.740237552779966 ], [ -71.791847879912368, -34.739930369710251 ], [ -71.792540791813494, -34.739914472092373 ], [ -71.7928310204138, -34.739955516079988 ], [ -71.793355428130582, -34.740086514775307 ], [ -71.793822190057256, -34.740218981513706 ], [ -71.794340269142864, -34.740159384831969 ], [ -71.794548245300817, -34.740007957659728 ], [ -71.794678694154797, -34.739913102015187 ], [ -71.79490323794154, -34.739717134240429 ], [ -71.795238446984754, -34.739375517709803 ], [ -71.796144555153973, -34.73883004890719 ], [ -71.79654062146443, -34.738582436320748 ], [ -71.79669815901579, -34.738503200845017 ], [ -71.797336140733933, -34.738182533207052 ], [ -71.797740328712877, -34.738173242914286 ], [ -71.798089902715802, -34.738260611488144 ], [ -71.79852937741741, -34.738358613032268 ], [ -71.798672139478995, -34.738390332090717 ], [ -71.799137198199901, -34.738475042173341 ], [ -71.799599127190348, -34.738464417245908 ], [ -71.79988130868233, -34.738267115055443 ], [ -71.800157229815127, -34.737879147212517 ], [ -71.800322407537976, -34.737636908148907 ], [ -71.800587595599765, -34.737405437391175 ], [ -71.800773888223375, -34.7372428315958 ], [ -71.800995891574487, -34.73704905367363 ], [ -71.801446540419917, -34.73670469028049 ], [ -71.801713856590595, -34.736517843706267 ], [ -71.801911187712435, -34.736213425472151 ], [ -71.802002919177653, -34.736071824191882 ], [ -71.802333252165511, -34.735587193018382 ], [ -71.802615508217684, -34.735389957780598 ], [ -71.802957020739242, -34.735238985475988 ], [ -71.803488412857362, -34.735225122255635 ], [ -71.803821491995024, -34.735171371710628 ], [ -71.804272121077517, -34.734827072839387 ], [ -71.804552755670585, -34.734582094094499 ], [ -71.804882980860611, -34.734097533175991 ], [ -71.805041688916816, -34.733664553490669 ], [ -71.80508169808293, -34.733138977489688 ], [ -71.804973999961845, -34.731662756393114 ], [ -71.805076492345862, -34.731278849009193 ], [ -71.80514915617087, -34.731044495226492 ], [ -71.80518068074916, -34.730942530105125 ], [ -71.805339381618808, -34.730509549394185 ], [ -71.805379388988314, -34.729983974739312 ], [ -71.805517915493326, -34.729832578384887 ], [ -71.805602270891768, -34.729740324567636 ], [ -71.805939009765922, -34.729446421076844 ], [ -71.806331863700919, -34.729103373372737 ], [ -71.806894607022429, -34.728661148513353 ], [ -71.807322521304656, -34.727649528139288 ], [ -71.807367444255377, -34.727266946560917 ], [ -71.807463469667681, -34.726692375757935 ], [ -71.807391313390795, -34.726264791240673 ], [ -71.807312616480331, -34.725646474192139 ], [ -71.807360749111552, -34.725358779428966 ], [ -71.807415499631503, -34.725031427711116 ], [ -71.807504749051617, -34.724497182765383 ], [ -71.8076100837052, -34.723922914623216 ], [ -71.807584734146189, -34.723445957347451 ], [ -71.807580170704554, -34.723311077419396 ], [ -71.807565474266511, -34.722874045330585 ], [ -71.807610213062603, -34.722491392920311 ], [ -71.80758602682188, -34.721776487750915 ], [ -71.807364470831786, -34.720350669654323 ], [ -71.807243671680581, -34.719915123754795 ], [ -71.807167191812255, -34.719639680744351 ], [ -71.807159131229199, -34.719401353275657 ], [ -71.807144623437367, -34.718972438891903 ], [ -71.807381923301136, -34.718386635792839 ], [ -71.808441620926047, -34.718036250656077 ], [ -71.808835936419996, -34.717740864224005 ], [ -71.809164554523988, -34.717208701687085 ], [ -71.809321686935149, -34.716727976782856 ], [ -71.809529914621393, -34.716055409714301 ], [ -71.809571420380777, -34.715577501029948 ], [ -71.809781344086261, -34.714952523334489 ], [ -71.809948066013121, -34.714757938496149 ], [ -71.810121555847303, -34.714623306532282 ], [ -71.810210607638055, -34.71455412818645 ], [ -71.810454671815904, -34.714364551088792 ], [ -71.810680727467258, -34.714216298372115 ], [ -71.811023753650076, -34.7141129737414 ], [ -71.811256614938031, -34.714107596577186 ], [ -71.811370096412929, -34.714104975929459 ], [ -71.81186482019946, -34.713931391985071 ], [ -71.812110815755176, -34.713801653670927 ], [ -71.812211733392516, -34.713370074064223 ], [ -71.812370369583476, -34.712937086974904 ], [ -71.812558743603603, -34.712727304179289 ], [ -71.812620412049554, -34.712552127498178 ], [ -71.812953324998901, -34.712287831743843 ], [ -71.812982495991108, -34.712264636024599 ], [ -71.813054297433467, -34.712206413352341 ], [ -71.813443065830555, -34.711891129552214 ], [ -71.813974020469118, -34.711599732381892 ], [ -71.814548203835784, -34.711586533486233 ], [ -71.815022000469469, -34.711603418679346 ], [ -71.815625140131004, -34.711449982317149 ], [ -71.815988150235626, -34.711190299058629 ], [ -71.816281721467121, -34.710876544402069 ], [ -71.816607171213079, -34.710506151615817 ], [ -71.816903484102809, -34.710275996127841 ], [ -71.817371597095686, -34.71012560121131 ], [ -71.817605270460646, -34.710036455714295 ], [ -71.818065718129205, -34.709662935487529 ], [ -71.81895490024182, -34.708972449725096 ], [ -71.81981313539292, -34.708366411872298 ], [ -71.820076605875855, -34.708164920859787 ], [ -71.820288065700467, -34.707953854308897 ], [ -71.82044486034512, -34.707797219487937 ], [ -71.820454151620098, -34.707741696491198 ], [ -71.820785802436461, -34.707304691410634 ], [ -71.821120907275102, -34.706880011521527 ], [ -71.821284217400503, -34.706673085331538 ], [ -71.821561378208372, -34.706332672589127 ], [ -71.821625812567078, -34.70621849487582 ], [ -71.821864989011473, -34.70591551367982 ], [ -71.822064730313201, -34.705844056448235 ], [ -71.822516660156239, -34.705547366597351 ], [ -71.82258142868821, -34.705287858294305 ], [ -71.821912042766058, -34.704750514055604 ], [ -71.821556027842547, -34.704472624090144 ], [ -71.82119357199845, -34.704231434771259 ], [ -71.821191915505054, -34.703956335365724 ], [ -71.821066766711255, -34.703673019840906 ], [ -71.820986385459634, -34.703007121773908 ], [ -71.820801995467775, -34.702677477087683 ], [ -71.820616443954265, -34.702316254028382 ], [ -71.820606095362209, -34.702014181699596 ], [ -71.820423240591168, -34.701732276761547 ], [ -71.820125044832608, -34.701452968278623 ], [ -71.819767430907888, -34.701127406665982 ], [ -71.819528209547727, -34.700994344060462 ], [ -71.819294390655685, -34.700804443423927 ], [ -71.819226969398656, -34.700519789211356 ], [ -71.819029965263596, -34.700234369628049 ], [ -71.818968612126326, -34.699714903075929 ], [ -71.818962140663004, -34.699524242490504 ], [ -71.818954142063731, -34.699285916140944 ], [ -71.819002061794237, -34.698998665120229 ], [ -71.819053303494684, -34.698806669792361 ], [ -71.819093311762487, -34.698281089341556 ], [ -71.819002766971735, -34.697955175510138 ], [ -71.81884134420676, -34.697666790603542 ], [ -71.818747875399751, -34.697557672666363 ], [ -71.818414809736822, -34.697008902011447 ], [ -71.81837875315793, -34.696879035233145 ], [ -71.818349009040574, -34.696771838763702 ], [ -71.818457873174907, -34.696578508834129 ], [ -71.818739963038738, -34.696381243315479 ], [ -71.818787968109206, -34.696093917216906 ], [ -71.818666166438149, -34.695905927122247 ], [ -71.818547510667216, -34.695813267640204 ], [ -71.818428854896283, -34.695720610270179 ], [ -71.818246022583125, -34.695438700139654 ], [ -71.818176992443441, -34.695106379678705 ], [ -71.818303814798611, -34.694493723641898 ], [ -71.818325869337158, -34.694387470222516 ], [ -71.818372258338442, -34.694052479203002 ], [ -71.81843490954131, -34.693941150306109 ], [ -71.818535686143136, -34.693762555487048 ], [ -71.818641401682385, -34.693473893027665 ], [ -71.818700783915943, -34.693081816619397 ], [ -71.818735705922606, -34.692851577943124 ], [ -71.81883980449436, -34.6925153243292 ], [ -71.819229206203715, -34.692076987611891 ], [ -71.819499954837099, -34.691546064823179 ], [ -71.819720989804324, -34.691254731899043 ], [ -71.820057527455845, -34.690960724864887 ], [ -71.820448622489522, -34.69057004733255 ], [ -71.820593916901885, -34.690220358340156 ], [ -71.820480353680296, -34.689806145866044 ], [ -71.820185439467465, -34.689622165584851 ], [ -71.820066790883061, -34.689529508670105 ], [ -71.820057083688098, -34.689243517883526 ], [ -71.820108321795274, -34.68905159520925 ], [ -71.820212318857401, -34.68871526928254 ], [ -71.820426965006334, -34.688233346901612 ], [ -71.820535902802533, -34.688040014015904 ], [ -71.820516487514283, -34.6874680329813 ], [ -71.820506780319334, -34.687182043197971 ], [ -71.820488983795244, -34.686657726644704 ], [ -71.82053051201251, -34.68617981359386 ], [ -71.820687444099363, -34.685699153617023 ], [ -71.820885498365016, -34.685310731544483 ], [ -71.820958164884971, -34.685168229071621 ], [ -71.82150598000311, -34.684296968363661 ], [ -71.821781545403041, -34.683908962980958 ], [ -71.822060347432924, -34.683616362178647 ], [ -71.822507394034091, -34.683176679713384 ], [ -71.822789337472514, -34.68297933497778 ], [ -71.822940814090671, -34.682912319670649 ], [ -71.823244472504484, -34.682777975685653 ], [ -71.823410799172606, -34.682445519443434 ], [ -71.823461521646806, -34.682343990071416 ], [ -71.823450902661833, -34.682057726257064 ], [ -71.823437948057119, -34.681676406030924 ], [ -71.82360133633594, -34.681386477381224 ], [ -71.823793673723088, -34.681169867189098 ], [ -71.82399066348512, -34.680948127535295 ], [ -71.824174962747136, -34.680663399120284 ], [ -71.824246771375982, -34.679988139494327 ], [ -71.824459664911814, -34.679458548667668 ], [ -71.824613327131047, -34.67888262852118 ], [ -71.824831162299262, -34.678495957041683 ], [ -71.825048997467434, -34.678109357630689 ], [ -71.825265207583271, -34.677674946409816 ], [ -71.825411326649075, -34.67700357409484 ], [ -71.825462886353137, -34.676621791036467 ], [ -71.825501855270161, -34.67614312414819 ], [ -71.825660274068824, -34.675710126206432 ], [ -71.825713202805346, -34.675565864469803 ], [ -71.825879810646171, -34.675371189959286 ], [ -71.826065135784219, -34.675209161795244 ], [ -71.826216264754351, -34.675077167889448 ], [ -71.826494930240329, -34.674784487120135 ], [ -71.826600598168895, -34.674495819804321 ], [ -71.826594118620747, -34.674305234108139 ], [ -71.826924003349276, -34.673894468934506 ], [ -71.826362362260582, -34.673627268940066 ], [ -71.825970736322589, -34.673515475217322 ], [ -71.825371884319907, -34.67319471071977 ], [ -71.825215925108466, -34.673037203356962 ], [ -71.824900626325217, -34.672646354071013 ], [ -71.824509469307799, -34.672340337655825 ], [ -71.824215621395211, -34.671833498644261 ], [ -71.824041793794464, -34.671536618902962 ], [ -71.823576468273927, -34.671191335525272 ], [ -71.823059968426591, -34.670675993951178 ], [ -71.822650538777964, -34.669973414357777 ], [ -71.822377035011613, -34.669056859977317 ], [ -71.82214104938312, -34.669161277431485 ], [ -71.821834103135359, -34.66916838857081 ], [ -71.821391053138925, -34.669178650774931 ], [ -71.820871913142966, -34.669190674323374 ], [ -71.820245472081268, -34.669443692997362 ], [ -71.8199090188714, -34.669737697385273 ], [ -71.819288945068436, -34.670181374288653 ], [ -71.818645173708262, -34.670790930689506 ], [ -71.817880632841323, -34.671215643571784 ], [ -71.817505856603105, -34.671286561824608 ], [ -71.816733304560444, -34.67143291590677 ], [ -71.815582744141167, -34.671554921895392 ], [ -71.814664569801067, -34.671719248956045 ], [ -71.813929064280728, -34.672165566773891 ], [ -71.813427642655441, -34.67270180530975 ], [ -71.813146901162838, -34.673071745248606 ], [ -71.812985433482098, -34.673284377590988 ], [ -71.812249994437082, -34.673730684020363 ], [ -71.812040401311634, -34.673823396293585 ], [ -71.810527268267279, -34.67400895867987 ], [ -71.808809361558957, -34.674430207948653 ], [ -71.807320608791414, -34.67479837377013 ], [ -71.80623611407141, -34.675295961555065 ], [ -71.805479238528761, -34.675805267524552 ], [ -71.805054821387955, -34.676090774302793 ], [ -71.804199002704976, -34.676396697075816 ], [ -71.803056294459608, -34.676756919221397 ], [ -71.802083543872726, -34.677017741097629 ], [ -71.801589965438183, -34.677081672465611 ], [ -71.799841509722, -34.67730788746001 ], [ -71.799038971016827, -34.677487532814887 ], [ -71.798179561767668, -34.677679925542648 ], [ -71.797472455586714, -34.677803020100846 ], [ -71.796916684988432, -34.677899743615761 ], [ -71.79491981994336, -34.678613348088646 ], [ -71.793265831062456, -34.679223725957264 ], [ -71.792123119223831, -34.679583847897597 ], [ -71.792005882791045, -34.679635641490236 ], [ -71.791099000274059, -34.680036647734333 ], [ -71.790709494360129, -34.680474825851654 ], [ -71.790656111076046, -34.680804431176121 ], [ -71.790273569800519, -34.681247913614435 ], [ -71.788925599207673, -34.682375956660401 ], [ -71.788257152024983, -34.683106807292639 ], [ -71.78792851595469, -34.683638915143149 ], [ -71.787713689244399, -34.684120862792213 ], [ -71.787149387345849, -34.684572557126792 ], [ -71.787038914328832, -34.684661039391564 ], [ -71.786652561501541, -34.68519454000041 ], [ -71.786319116749553, -34.68558379288681 ], [ -71.786009781881447, -34.68621492247113 ], [ -71.78594074904683, -34.686355696879218 ], [ -71.785504841555195, -34.687128768143012 ], [ -71.785277395311795, -34.687349520648667 ], [ -71.784996498410635, -34.687613289633759 ], [ -71.784909068977313, -34.687690682924128 ], [ -71.784272036778404, -34.688254129543175 ], [ -71.782912695310685, -34.689048373990261 ], [ -71.782003823025363, -34.689498467402359 ], [ -71.780702621421142, -34.690054469588709 ], [ -71.780182767264535, -34.690303228358772 ], [ -71.779121461655279, -34.691376772944835 ], [ -71.778169178283846, -34.692257157099348 ], [ -71.777588383316669, -34.692472738203293 ], [ -71.772269343535029, -34.693265846083413 ], [ -71.771500756656053, -34.693373651271912 ], [ -71.766176188642163, -34.694119952285533 ], [ -71.765144239078055, -34.694379468287714 ], [ -71.76452930184189, -34.694564673660956 ], [ -71.763275876237742, -34.694942257086119 ], [ -71.758969783058703, -34.696239122542032 ], [ -71.756897002287303, -34.696216283487551 ], [ -71.757091021320676, -34.695478321536839 ], [ -71.758032893217958, -34.694454115068027 ], [ -71.758681425649129, -34.693618942673162 ], [ -71.757861040114236, -34.693637597529339 ], [ -71.757283515913016, -34.693638564358473 ], [ -71.756674817476494, -34.693694214257128 ], [ -71.756056540304101, -34.693830421002346 ], [ -71.755435234910877, -34.694039798219173 ], [ -71.754813161458102, -34.694271934735347 ], [ -71.75419542417319, -34.694457005186514 ], [ -71.753588974219824, -34.694545745734239 ], [ -71.753002737258669, -34.694526803031344 ], [ -71.752445293099001, -34.694413499771038 ], [ -71.751918272183062, -34.694225366264604 ], [ -71.751406518135369, -34.693985266790641 ], [ -71.750881472614736, -34.693718957381435 ], [ -71.750319345537505, -34.693455844527627 ], [ -71.749715906736952, -34.693230288908943 ], [ -71.74908634492796, -34.693079755907767 ], [ -71.748451264768178, -34.693029919170023 ], [ -71.747822872565692, -34.693074155055882 ], [ -71.747200121783166, -34.693170023891206 ], [ -71.74657655263546, -34.693265540301091 ], [ -71.745951549776521, -34.69333125171589 ], [ -71.745330399791854, -34.693367483192247 ], [ -71.744717509816212, -34.693388534873669 ], [ -71.744108284068631, -34.69340957473208 ], [ -71.743489106784324, -34.693446048435945 ], [ -71.742841612805634, -34.693515795431217 ], [ -71.742156493789565, -34.693632022566227 ], [ -71.741447395145315, -34.693793830030494 ], [ -71.74074761113225, -34.693991460675214 ], [ -71.740089280776289, -34.694218060810314 ], [ -71.739488324919193, -34.694473866547881 ], [ -71.738940942789043, -34.694760215944548 ], [ -71.738434744821376, -34.695078203271422 ], [ -71.73796674771117, -34.695429593382826 ], [ -71.737551296655198, -34.695815615592132 ], [ -71.737210179392363, -34.696232677709069 ], [ -71.736951638863701, -34.696673138714068 ], [ -71.736753298933806, -34.69712539012621 ], [ -71.736567141057478, -34.697575670049375 ], [ -71.73635543150121, -34.698018474011455 ], [ -71.736121653931676, -34.698461847986742 ], [ -71.73589840551557, -34.698918202632044 ], [ -71.735699982042362, -34.699387216463229 ], [ -71.735481521646733, -34.699780030349437 ], [ -71.735120239002399, -34.699829868192211 ], [ -71.734943950017779, -34.699738494482652 ], [ -71.734985970511829, -34.69926051367775 ], [ -71.735066789243007, -34.698209365542951 ], [ -71.735054232591949, -34.697828017792318 ], [ -71.734693903060133, -34.697406850631893 ], [ -71.733927994058988, -34.696946937337216 ], [ -71.733748160322278, -34.696782977926524 ], [ -71.73357072149409, -34.696621106141755 ], [ -71.733381790518479, -34.696590861501662 ], [ -71.733048147238804, -34.696537427799974 ], [ -71.732637955818817, -34.696355818541896 ], [ -71.732280688643797, -34.696029908945306 ], [ -71.732085599716925, -34.695366580949816 ], [ -71.731898347692578, -34.69494144759183 ], [ -71.731653384301111, -34.694517609020117 ], [ -71.731182358970088, -34.694241951438286 ], [ -71.730832941274031, -34.694154380502042 ], [ -71.730315083173991, -34.69421369496829 ], [ -71.728223674936856, -34.69559619960512 ], [ -71.727432880805708, -34.696138655176021 ], [ -71.726751335287858, -34.696487770402513 ], [ -71.726233548154724, -34.696547066947794 ], [ -71.725773387048747, -34.696605071683152 ], [ -71.725544088479225, -34.696657907834471 ], [ -71.72508714154533, -34.696811246075029 ], [ -71.724917121004751, -34.696910457790494 ], [ -71.724636269019399, -34.697155261593117 ], [ -71.724182353899579, -34.697403862386935 ], [ -71.723776867855065, -34.697365301756825 ], [ -71.72324804042708, -34.697090831680086 ], [ -71.722664716702397, -34.696913059780087 ], [ -71.722117509743711, -34.696702281371707 ], [ -71.721163829491985, -34.696553604816756 ], [ -71.720229596867867, -34.696365273805185 ], [ -71.719893255049072, -34.696360232278444 ], [ -71.71953658435541, -34.696408812907741 ], [ -71.719177266326611, -34.696439359692107 ], [ -71.718823030965652, -34.696496818695451 ], [ -71.718477422126412, -34.696585689999466 ], [ -71.718126723432761, -34.696661086658573 ], [ -71.717772667734877, -34.696718612718165 ], [ -71.717413199687428, -34.69674465335067 ], [ -71.717051088796396, -34.696752733345591 ], [ -71.716689933712814, -34.696751781324309 ], [ -71.71632824682662, -34.696737326700145 ], [ -71.715962855288168, -34.696754485980605 ], [ -71.715602950659473, -34.696753502939217 ], [ -71.715265741966419, -34.696661848128727 ], [ -71.714938857610946, -34.696524917069304 ], [ -71.714584002412479, -34.696478698474181 ], [ -71.714221023748877, -34.696495798722204 ], [ -71.71386931445052, -34.696562270520502 ], [ -71.713519921008981, -34.696642203525791 ], [ -71.713172311621577, -34.696722021236383 ], [ -71.712823867699285, -34.696806435748833 ], [ -71.712473813097674, -34.696890810292281 ], [ -71.712116996876944, -34.69690776643359 ], [ -71.711755453721167, -34.696897725544517 ], [ -71.711393207184543, -34.696874334219615 ], [ -71.711032660260415, -34.696837241625481 ], [ -71.710677271462657, -34.696791097800698 ], [ -71.710321419134203, -34.696689653232639 ], [ -71.709676687475024, -34.696656740886922 ], [ -71.708856367517129, -34.696155341890154 ], [ -71.707993387464697, -34.695719056292049 ], [ -71.706964072659332, -34.695443311127356 ], [ -71.705894856485671, -34.695166596016861 ], [ -71.704773145461758, -34.695202295645423 ], [ -71.703349688537259, -34.695279465434368 ], [ -71.703223000031073, -34.695304283420533 ], [ -71.702601144868893, -34.695490514834283 ], [ -71.701471023817291, -34.695740745510697 ], [ -71.700658829121124, -34.695537001348853 ], [ -71.700439385968593, -34.695018819997379 ], [ -71.700064684290538, -34.69438083247212 ], [ -71.69997097024347, -34.693717340584683 ], [ -71.700036426884964, -34.69315097155981 ], [ -71.699958001265713, -34.692894619595258 ], [ -71.699961536136342, -34.692444895490617 ], [ -71.699614241159296, -34.692121545304495 ], [ -71.699241805032386, -34.691929679529068 ], [ -71.698830089171381, -34.691720221635109 ], [ -71.69846087889465, -34.691445869481583 ], [ -71.697777228624105, -34.691030790824371 ], [ -71.6976825551763, -34.690896051553217 ], [ -71.697360686115061, -34.690441129192166 ], [ -71.697059316608602, -34.689970391654356 ], [ -71.696878477657066, -34.689486276915332 ], [ -71.696754829948091, -34.689086703607273 ], [ -71.696565379746261, -34.688838494425845 ], [ -71.696409952337476, -34.688567008272152 ], [ -71.696256846175402, -34.688295396396427 ], [ -71.696111458338237, -34.688019182569597 ], [ -71.695947156472769, -34.68775239673819 ], [ -71.695761621128938, -34.68749516382622 ], [ -71.695575098536608, -34.687237805281661 ], [ -71.695408326304118, -34.68698015638202 ], [ -71.695281915377322, -34.68669901645368 ], [ -71.695181892462017, -34.686412789117973 ], [ -71.695107037646025, -34.686116995036805 ], [ -71.695017231270427, -34.685825962849862 ], [ -71.69488608981537, -34.68554492758696 ], [ -71.694673509791599, -34.685310814276157 ], [ -71.694389402311629, -34.685123254715492 ], [ -71.694123653701126, -34.684917342987106 ], [ -71.693857733512402, -34.684697847879498 ], [ -71.693649388146866, -34.684459060001984 ], [ -71.693570212434366, -34.684181378903141 ], [ -71.693584642072778, -34.683879104461909 ], [ -71.693599428342353, -34.683576822268904 ], [ -71.693582321724392, -34.68327517129417 ], [ -71.693565810689464, -34.682978086580782 ], [ -71.693560141421727, -34.682676256875617 ], [ -71.693557028759258, -34.68237887453256 ], [ -71.693555076720131, -34.682081392873734 ], [ -71.693554108336272, -34.681783963333054 ], [ -71.693554067912089, -34.681482009603968 ], [ -71.693554976108828, -34.681184538758465 ], [ -71.693556867960808, -34.680887045421606 ], [ -71.693562989979483, -34.680584954713844 ], [ -71.69358077931706, -34.68028703667472 ], [ -71.693622567147429, -34.679993166505071 ], [ -71.693653043391762, -34.679695041709813 ], [ -71.693673759440529, -34.679388123495315 ], [ -71.693604122938027, -34.679101222279435 ], [ -71.693421260082161, -34.678848356474461 ], [ -71.693198760861009, -34.678605374917154 ], [ -71.692994485762028, -34.678361991512389 ], [ -71.692791316489178, -34.678114077439687 ], [ -71.692590649024368, -34.677866109435399 ], [ -71.692386734149821, -34.677586826790588 ], [ -71.691810260977491, -34.677387999366317 ], [ -71.691272003035664, -34.677317554703194 ], [ -71.69102500316346, -34.677292144020413 ], [ -71.690466328311842, -34.677165285519024 ], [ -71.689958742447075, -34.676890712263237 ], [ -71.689274758003222, -34.676518197093834 ], [ -71.688886381271615, -34.67607926519274 ], [ -71.688386939533203, -34.675600025583122 ], [ -71.688103169819769, -34.675368873933131 ], [ -71.687550512782266, -34.675093069107469 ], [ -71.687406923372308, -34.67473527766596 ], [ -71.687418754184591, -34.674437639262962 ], [ -71.687511527695577, -34.673806867609052 ], [ -71.687532561747929, -34.673279586583561 ], [ -71.687241867820305, -34.67265409879171 ], [ -71.687006715828403, -34.672331040704982 ], [ -71.686464619385347, -34.67179483818623 ], [ -71.685874304072797, -34.671331842909964 ], [ -71.685113872099976, -34.67118075440812 ], [ -71.684345953567544, -34.671215697504294 ], [ -71.683523500110852, -34.67149131872079 ], [ -71.682709005727588, -34.671562205708049 ], [ -71.681700118611758, -34.671422991613269 ], [ -71.680061942774813, -34.671210550274921 ], [ -71.679700690673187, -34.671200479672116 ], [ -71.679339237348941, -34.671181402337211 ], [ -71.67897885391821, -34.671162226737259 ], [ -71.678619824248614, -34.67112957981567 ], [ -71.67826268193943, -34.671083376594126 ], [ -71.677906679592326, -34.671028138524811 ], [ -71.677550977282522, -34.670968314664961 ], [ -71.677195151903561, -34.670912995989276 ], [ -71.676838156019741, -34.670871290488549 ], [ -71.676479742594424, -34.670852137719763 ], [ -71.676120030205212, -34.670851030990448 ], [ -71.675759147311169, -34.670863462855039 ], [ -71.675397748784164, -34.670884914041487 ], [ -71.675035992727658, -34.670906372610432 ], [ -71.674674560962998, -34.670932326795707 ], [ -71.67431296121336, -34.670944769730156 ], [ -71.673992890579314, -34.670947807691313 ], [ -71.673575948319979, -34.671070978747451 ], [ -71.672861540632397, -34.671461203793719 ], [ -71.672125328137923, -34.671832260422391 ], [ -71.671481332198951, -34.672149819401604 ], [ -71.670643870588805, -34.672797500480122 ], [ -71.670261867404122, -34.673327156066541 ], [ -71.669621813272627, -34.674110515263088 ], [ -71.66899290453884, -34.674614858070761 ], [ -71.668579353419702, -34.674808313173351 ], [ -71.667764990190463, -34.674879245341842 ], [ -71.6670908324175, -34.674823484538997 ], [ -71.665762924798202, -34.67476851418219 ], [ -71.664306625466935, -34.67454235504718 ], [ -71.663473175732832, -34.674659313607357 ], [ -71.663354697828339, -34.674713892488441 ], [ -71.663035669240017, -34.674856006630307 ], [ -71.662701752872493, -34.674971490166875 ], [ -71.662355537670422, -34.675060215402823 ], [ -71.662002700986392, -34.675126486477922 ], [ -71.661644929856507, -34.675161405746522 ], [ -71.661283359751266, -34.67517824074865 ], [ -71.660921848934848, -34.675199725539663 ], [ -71.660562464430711, -34.675234604145309 ], [ -71.660200792815857, -34.675265025765555 ], [ -71.659840068923629, -34.675299930200488 ], [ -71.659483618317196, -34.675348328155671 ], [ -71.659134407233651, -34.675419017547128 ], [ -71.658794276321004, -34.675516534322817 ], [ -71.658460745330729, -34.675627568113569 ], [ -71.65813144630377, -34.675756379299131 ], [ -71.657802773402565, -34.675885250123905 ], [ -71.657370379222016, -34.676077527633886 ], [ -71.657112366004412, -34.676260905638671 ], [ -71.65684135685963, -34.67645165453191 ], [ -71.656589697426028, -34.676668935294579 ], [ -71.65631666797016, -34.676877671833807 ], [ -71.656040031778403, -34.677091065659297 ], [ -71.65575009333395, -34.677268637081859 ], [ -71.655437361037457, -34.677379135887463 ], [ -71.655093755441271, -34.677404644058072 ], [ -71.654728573210292, -34.67736748290087 ], [ -71.654327428723533, -34.677304298626844 ], [ -71.653728780638417, -34.677410610171954 ], [ -71.652247259308908, -34.677467614758058 ], [ -71.651701646859848, -34.677616923238048 ], [ -71.650982554458054, -34.678019456631148 ], [ -71.649782757378063, -34.678426316328213 ], [ -71.647519148389165, -34.678803932735782 ], [ -71.646905110366589, -34.678778507734393 ], [ -71.646155872300497, -34.678864128428827 ], [ -71.644138548124843, -34.679004084261784 ], [ -71.643437138161104, -34.67878920090719 ], [ -71.642395153516972, -34.678222879711527 ], [ -71.641309699396231, -34.677264257048463 ], [ -71.641099595129376, -34.676652486224498 ], [ -71.640602525841643, -34.6760482646851 ], [ -71.640354338396619, -34.675357268683378 ], [ -71.640441206382917, -34.674726283140934 ], [ -71.640528071674268, -34.674095224085157 ], [ -71.640327936012113, -34.673734979281043 ], [ -71.639498160387546, -34.673306925242869 ], [ -71.638754967084992, -34.673136784145058 ], [ -71.637340566076901, -34.673000001823283 ], [ -71.636042410659812, -34.672915260870909 ], [ -71.634748225796272, -34.67273286838936 ], [ -71.63353487583359, -34.672015095208387 ], [ -71.632213245641523, -34.671049823869161 ], [ -71.630813732412605, -34.670769157359594 ], [ -71.629815248686114, -34.67114850644689 ], [ -71.628484410762354, -34.672429455052992 ], [ -71.626868091834581, -34.672456121693692 ], [ -71.625699033306972, -34.672923596595382 ], [ -71.62401516196816, -34.673665121056793 ], [ -71.623454190124363, -34.674031227615849 ], [ -71.623061242764564, -34.674373995453081 ], [ -71.622721024715318, -34.674572069178687 ], [ -71.622552417224711, -34.674633742534439 ], [ -71.621750646579116, -34.674926968308696 ], [ -71.620898674482191, -34.675374576454836 ], [ -71.620108819090532, -34.675964032901341 ], [ -71.61971397448886, -34.676258683459466 ], [ -71.619085117857367, -34.676463026920608 ], [ -71.618278813414534, -34.676528065370263 ], [ -71.617440180401275, -34.676960445134299 ], [ -71.616981841977008, -34.676675420804621 ], [ -71.616725405302745, -34.676704560160211 ], [ -71.61610227722781, -34.67665096513231 ], [ -71.615852291355594, -34.67662945264513 ], [ -71.615557283717976, -34.676762362345606 ], [ -71.614703009238966, -34.677138492590963 ], [ -71.613550821970719, -34.677222887182204 ], [ -71.612393011248813, -34.677128385032709 ], [ -71.611959787923254, -34.677058952974001 ], [ -71.611735856787547, -34.675741293061868 ], [ -71.610520073288768, -34.675376920553859 ], [ -71.609678108424092, -34.675561708191452 ], [ -71.609214951436641, -34.676238621788329 ], [ -71.608379248727829, -34.676623393392056 ], [ -71.607842727229439, -34.677535305252164 ], [ -71.606377307303092, -34.678797560418701 ], [ -71.604051978664273, -34.67895031047135 ], [ -71.602117284223382, -34.677757805346388 ], [ -71.600810703507264, -34.677285390393429 ], [ -71.598967174592971, -34.676424310261822 ], [ -71.597788818502195, -34.675720197738499 ], [ -71.597372063990733, -34.674557857431218 ], [ -71.597130434247305, -34.673195271456621 ], [ -71.596866281943065, -34.67119992039936 ], [ -71.597504262762897, -34.669721840945677 ], [ -71.598228433340992, -34.667570053598979 ], [ -71.598201494662234, -34.665116956507759 ], [ -71.596747150065028, -34.663359807340733 ], [ -71.596228501447527, -34.663033448661501 ], [ -71.595967560620423, -34.662822708129603 ], [ -71.595709833965429, -34.662611824458267 ], [ -71.59545375571895, -34.662396473720555 ], [ -71.595245563067024, -34.662157505536072 ], [ -71.595090922582443, -34.661890368171875 ], [ -71.594965244680921, -34.661609099471725 ], [ -71.594855543316754, -34.661318479907841 ], [ -71.594768528905078, -34.661027377567002 ], [ -71.594774530549486, -34.660729790401135 ], [ -71.594840828014085, -34.660439854189192 ], [ -71.594894611946756, -34.660141248186825 ], [ -71.594901900876977, -34.659839128364524 ], [ -71.594948321319293, -34.65954518490782 ], [ -71.595013265022743, -34.659246267556988 ], [ -71.594960115300651, -34.658963454425823 ], [ -71.594807128614505, -34.658691848902485 ], [ -71.59463854986997, -34.658415924266798 ], [ -71.594473965933517, -34.658153501698536 ], [ -71.594304063072244, -34.657886687635354 ], [ -71.594101882844512, -34.657550552875477 ], [ -71.593695466145363, -34.656855210630923 ], [ -71.593402852517983, -34.655558684506843 ], [ -71.5931134961818, -34.654366360642832 ], [ -71.591825521371845, -34.653507879884813 ], [ -71.590038306046083, -34.652816408417443 ], [ -71.588076812165326, -34.652597547994098 ], [ -71.586688804558591, -34.65257488238305 ], [ -71.585630431948715, -34.653014218146225 ], [ -71.584436421815781, -34.65314382118995 ], [ -71.582731712257299, -34.653075691034033 ], [ -71.581419578156087, -34.653468231754147 ], [ -71.578217519851108, -34.652378670735573 ], [ -71.57800963262639, -34.652346144993395 ], [ -71.577663328491099, -34.652267806785289 ], [ -71.577326717177712, -34.652153224182946 ], [ -71.577037105720009, -34.652044219185555 ], [ -71.576120844791475, -34.651501383854772 ], [ -71.575188698055427, -34.650459218496948 ], [ -71.574222965107552, -34.649205882079507 ], [ -71.573978989862894, -34.648953894589823 ], [ -71.572426574389482, -34.648134831116501 ], [ -71.571455567432579, -34.647321646540306 ], [ -71.571465519867616, -34.645601796548995 ], [ -71.570111635665256, -34.644640267442519 ], [ -71.567903490458605, -34.642550369314321 ], [ -71.566664541205284, -34.641221563830108 ], [ -71.56708148436293, -34.640431165896899 ], [ -71.566747188906376, -34.639812929609292 ], [ -71.565970182118207, -34.639151875617351 ], [ -71.564982918349614, -34.639850072134195 ], [ -71.564281885678298, -34.639604210556477 ], [ -71.564372592165796, -34.638455945934929 ], [ -71.56347604027458, -34.638005791722378 ], [ -71.562778235250079, -34.637864128053337 ], [ -71.562119758468711, -34.637757746550527 ], [ -71.561619001596739, -34.637326581293387 ], [ -71.56096555717761, -34.637069878422686 ], [ -71.560466709225608, -34.636505813135884 ], [ -71.559705880197413, -34.636365456611408 ], [ -71.559323021816581, -34.636217157337342 ], [ -71.558755937835599, -34.636229063714126 ], [ -71.558196941387124, -34.636501337819752 ], [ -71.557645852808065, -34.63703405543535 ], [ -71.557010925361894, -34.636891039757344 ], [ -71.556364983671997, -34.636383435510609 ], [ -71.555773920961144, -34.635614212308987 ], [ -71.555249989351466, -34.634927175658319 ], [ -71.554731395531221, -34.634509943044591 ], [ -71.554015904475406, -34.633839765039269 ], [ -71.553564686098071, -34.633471924292515 ], [ -71.552973670997929, -34.63270268443825 ], [ -71.55208051923006, -34.632356573292931 ], [ -71.550700808463276, -34.632593855656438 ], [ -71.550237605661749, -34.634608480655231 ], [ -71.549753108296414, -34.635055877896903 ], [ -71.548859504675946, -34.635547794330996 ], [ -71.548234590750241, -34.635853820223446 ], [ -71.547928276916466, -34.636013461131725 ], [ -71.546953661427054, -34.636398868904983 ], [ -71.546276821284664, -34.636611369180535 ], [ -71.545386952859147, -34.636867160672452 ], [ -71.544210078090273, -34.637189935724543 ], [ -71.54284728709186, -34.637964179786195 ], [ -71.542354029355877, -34.63824660484422 ], [ -71.54221017584122, -34.638354914017157 ], [ -71.541938832523115, -34.638554428599427 ], [ -71.541665075431879, -34.638753918311743 ], [ -71.541388768921834, -34.638949029919885 ], [ -71.541107897173532, -34.63913507837993 ], [ -71.540821843044341, -34.639312372690789 ], [ -71.5405212568688, -34.639467371404706 ], [ -71.540159026501854, -34.639528979242534 ], [ -71.539794687788927, -34.639518552246486 ], [ -71.538205263522428, -34.639271479062856 ], [ -71.536340502028096, -34.637033963047102 ], [ -71.534413793610085, -34.635611156052832 ], [ -71.530505360352805, -34.635405752468607 ], [ -71.528187944075015, -34.636497633396012 ], [ -71.525089957392339, -34.636253753050674 ], [ -71.523435456471702, -34.63693988956755 ], [ -71.521155499941273, -34.636054053328998 ], [ -71.519753469632946, -34.635284507032971 ], [ -71.518806118012392, -34.634956845604265 ], [ -71.517576211200719, -34.634166656270736 ], [ -71.516524966722642, -34.633759075156497 ], [ -71.515886234911221, -34.633629139504428 ], [ -71.515365747442331, -34.633592175282111 ], [ -71.514615881453864, -34.633607572978171 ], [ -71.513974183405381, -34.633382274213631 ], [ -71.513669948273161, -34.632863919090973 ], [ -71.513248999527661, -34.632300039554693 ], [ -71.51254676221555, -34.631980715049451 ], [ -71.511388919154271, -34.631861380490001 ], [ -71.510117245173461, -34.631792159596237 ], [ -71.509086172365073, -34.632051924100779 ], [ -71.508182031506323, -34.632690724336811 ], [ -71.506545229193435, -34.633916999392717 ], [ -71.506111029399179, -34.634832290446603 ], [ -71.50562926740389, -34.636082433856018 ], [ -71.505616055881006, -34.637561553790839 ], [ -71.505464521770662, -34.638280275802309 ], [ -71.504902007519533, -34.638768836118842 ], [ -71.502799337103681, -34.639861589232886 ], [ -71.501259657944345, -34.640497069263311 ], [ -71.500460850840881, -34.641190888035048 ], [ -71.500032306839671, -34.641616488734755 ], [ -71.499105825778116, -34.642260927500672 ], [ -71.498305419673429, -34.642902626020287 ], [ -71.500131236505254, -34.642813048215487 ], [ -71.500667156132423, -34.643817049304488 ], [ -71.500576121759821, -34.644629865477469 ], [ -71.500140137013105, -34.645209893316867 ], [ -71.499971415436434, -34.645890855709325 ], [ -71.500131836579868, -34.647033939596184 ], [ -71.50022617585438, -34.648074250981054 ], [ -71.500315821431528, -34.648958244342992 ], [ -71.50046061278735, -34.649580635798401 ], [ -71.5008653487386, -34.650458163224272 ], [ -71.501689648233196, -34.650951621446545 ], [ -71.502285138740106, -34.651559513995281 ], [ -71.502537421604487, -34.65226986629559 ], [ -71.502394532880459, -34.653274650706912 ], [ -71.502352516877977, -34.653800216832884 ], [ -71.502313458129422, -34.65442121152595 ], [ -71.502104262957644, -34.655141039915307 ], [ -71.501954106862939, -34.65590736342746 ], [ -71.501816130126883, -34.656662726678519 ], [ -71.50026528760354, -34.659405517620385 ], [ -71.499818656922372, -34.659767536038274 ], [ -71.499717579384907, -34.6602466078905 ], [ -71.499850172517483, -34.660816372581323 ], [ -71.499874529438088, -34.661626893347737 ], [ -71.500118141763366, -34.662051184758475 ], [ -71.500771498147614, -34.662657968861026 ], [ -71.50113769188161, -34.663318277583393 ], [ -71.50127899148589, -34.664174029320819 ], [ -71.501294672477499, -34.664698486014842 ], [ -71.501317610958282, -34.665461253714419 ], [ -71.501509452475403, -34.666077432408152 ], [ -71.501702554328887, -34.666741366711207 ], [ -71.502086165497914, -34.667973798000489 ], [ -71.502801503840146, -34.668722344222928 ], [ -71.503221145536898, -34.669238425687574 ], [ -71.503584611985701, -34.66980344077286 ], [ -71.503940905386955, -34.67013006757044 ], [ -71.503984913852719, -34.671223544313371 ], [ -71.503271794349246, -34.671921752196468 ], [ -71.503199552732426, -34.671992507309966 ], [ -71.50260515906848, -34.67269765258159 ], [ -71.502144105037118, -34.673244674648174 ], [ -71.501811111239391, -34.672854865814173 ], [ -71.501464852918176, -34.672861975897654 ], [ -71.501103943973007, -34.672869385927868 ], [ -71.501000083454798, -34.672967744966087 ], [ -71.500023412620038, -34.673892229699938 ], [ -71.499114606810025, -34.673910875703285 ], [ -71.498895029808494, -34.673811547030454 ], [ -71.497885228207721, -34.673354594445755 ], [ -71.496485922489654, -34.672732289918493 ], [ -71.496451402928216, -34.672716897272139 ], [ -71.495883046932803, -34.672314170400959 ], [ -71.495418997019954, -34.671985370555248 ], [ -71.49492144803186, -34.673039577073546 ], [ -71.494684881193365, -34.673565506920021 ], [ -71.494191519252809, -34.673940353652654 ], [ -71.493955035059301, -34.674466354611752 ], [ -71.493776841646294, -34.674834673197793 ], [ -71.49398930758403, -34.675611952160367 ], [ -71.493439197270348, -34.676196509697732 ], [ -71.492948937212461, -34.676675490247355 ], [ -71.492487524753301, -34.677138887082691 ], [ -71.491858487560435, -34.677342584184878 ], [ -71.491697557970539, -34.677866887330801 ], [ -71.491834850190344, -34.678251053729987 ], [ -71.492274131754172, -34.679091784251121 ], [ -71.493245895990867, -34.679817119742481 ], [ -71.493968675078577, -34.680818573151079 ], [ -71.493798325754639, -34.681728937761022 ], [ -71.491115908705538, -34.683924214673752 ], [ -71.490952510545256, -34.684641094251624 ], [ -71.490935989628866, -34.685226398380792 ], [ -71.491155689699568, -34.686012172008255 ], [ -71.491394695464066, -34.686442629733961 ], [ -71.491854350818542, -34.687019152489654 ], [ -71.492363868061176, -34.68727259313264 ], [ -71.492830326357293, -34.687434675251822 ], [ -71.493086784591128, -34.687626900830111 ], [ -71.493292643419949, -34.688597062319083 ], [ -71.493970816662227, -34.689265329197511 ], [ -71.494556855095695, -34.689467049417303 ], [ -71.494801672960094, -34.689613722961504 ], [ -71.494403283606303, -34.691877697893567 ], [ -71.493353060512689, -34.692577365444016 ], [ -71.493351210881528, -34.693570534716223 ], [ -71.4930236644677, -34.694454502091304 ], [ -71.493623875621395, -34.69523454827273 ], [ -71.493623361785055, -34.696498423620675 ], [ -71.491120627555716, -34.697947100063992 ], [ -71.490759813831971, -34.698703981012436 ], [ -71.490158207594618, -34.700451753409013 ], [ -71.489336676707723, -34.700537007529228 ], [ -71.487680649549446, -34.701012246902017 ], [ -71.485980395634769, -34.702532160465516 ], [ -71.485459056563002, -34.70362846836769 ], [ -71.485055059026905, -34.704444851880169 ], [ -71.485105123934318, -34.706969789607228 ], [ -71.484846893324431, -34.707174085325939 ], [ -71.484374950813503, -34.707543436271884 ], [ -71.484039004253432, -34.708534042887273 ], [ -71.484325825543877, -34.709186563527361 ], [ -71.485508499836243, -34.711086142849929 ], [ -71.486507937573577, -34.712610970209958 ], [ -71.486704436855447, -34.71377009132113 ], [ -71.48659637850993, -34.714420328823834 ], [ -71.486671170443856, -34.714958644023689 ], [ -71.487545761221313, -34.71575888571013 ], [ -71.488429781614315, -34.716401702919654 ], [ -71.49171758321485, -34.718014987422549 ], [ -71.493565240786168, -34.718969404169847 ], [ -71.496223149997675, -34.720059756386213 ], [ -71.496500592876544, -34.720306559106263 ], [ -71.498965811662984, -34.722504183986523 ], [ -71.4993402231852, -34.723024151999851 ], [ -71.499571100094684, -34.723823853435952 ], [ -71.499768463555867, -34.725307349647558 ], [ -71.499728967327769, -34.725644175077406 ], [ -71.499621215307755, -34.727438858317512 ], [ -71.499470425002471, -34.728651089329858 ], [ -71.49957305662538, -34.729275815827016 ], [ -71.499172993710218, -34.730064395195853 ], [ -71.498909133358453, -34.7306887426139 ], [ -71.49865350247299, -34.731117220435813 ], [ -71.498141279504722, -34.731995904497694 ], [ -71.494493186101622, -34.733372677891062 ], [ -71.492178792654755, -34.733175195960655 ], [ -71.490957743231775, -34.73333614501346 ], [ -71.487729888905108, -34.734136436943125 ], [ -71.484204070585221, -34.73667508851976 ], [ -71.483927557462664, -34.736779690120379 ], [ -71.483183967104765, -34.737033321599498 ], [ -71.482161583700119, -34.737626654432589 ], [ -71.481492762818263, -34.7384512337118 ], [ -71.481219669582003, -34.738981575680214 ], [ -71.480891755757213, -34.739608374438383 ], [ -71.480569453708, -34.740425958844803 ], [ -71.479790867681572, -34.741443518675119 ], [ -71.479344478647221, -34.741977387603953 ], [ -71.479009327096193, -34.74236586842116 ], [ -71.47839401166928, -34.743046220875947 ], [ -71.478058850236778, -34.743434625065959 ], [ -71.47759022340756, -34.743638094010869 ], [ -71.47779284291147, -34.74420335039477 ], [ -71.477800982546256, -34.744245204954225 ], [ -71.477997462963529, -34.745248662074403 ], [ -71.478021682441906, -34.746059184303718 ], [ -71.478044473598956, -34.746821882027376 ], [ -71.478105815956468, -34.747000383680763 ], [ -71.47814942287529, -34.747127328502103 ], [ -71.479205576646422, -34.749220870933343 ], [ -71.48007465266636, -34.751025771021929 ], [ -71.480160510047952, -34.751203992712185 ], [ -71.480247175014981, -34.751382271588504 ], [ -71.480311804308116, -34.751514842736007 ], [ -71.480830382856993, -34.752737338486142 ], [ -71.480926495405868, -34.753880045555846 ], [ -71.481481171856174, -34.756486920832764 ], [ -71.482413775834672, -34.757635828604457 ], [ -71.482517374943129, -34.758922904090774 ], [ -71.483542852145604, -34.760069980916974 ], [ -71.48387778001613, -34.760651946881133 ], [ -71.484508448549562, -34.761729013608132 ], [ -71.485475387036544, -34.763419543078527 ], [ -71.485791030772873, -34.764377936332046 ], [ -71.486119579706582, -34.7655604184366 ], [ -71.486163165964172, -34.766163097689684 ], [ -71.487187282218983, -34.766839600530957 ], [ -71.488300179871644, -34.767506820427371 ], [ -71.488412817828504, -34.768575552065045 ], [ -71.488606777573068, -34.769935210017238 ], [ -71.48899749980589, -34.772681494470952 ], [ -71.489118256736276, -34.7746541910345 ], [ -71.490223080331177, -34.774224010958065 ], [ -71.492494446272545, -34.773818742594464 ], [ -71.49514898231017, -34.773611392199975 ], [ -71.498424720434755, -34.774431243966063 ], [ -71.501118385289516, -34.775878503156306 ], [ -71.503462773483719, -34.777712175135143 ], [ -71.507749046234338, -34.783317188927811 ], [ -71.51077431429475, -34.787903998009185 ], [ -71.510455050347844, -34.790972198416895 ], [ -71.509699564498945, -34.793255749483151 ], [ -71.51295025220351, -34.793783263700824 ], [ -71.514865153165431, -34.794266239474773 ], [ -71.517265334823605, -34.79450688864253 ], [ -71.518926850688274, -34.793601599584598 ], [ -71.520617345305695, -34.792573246477311 ], [ -71.521141727869647, -34.7928314818123 ], [ -71.523929396029004, -34.793788124448859 ], [ -71.52523087072106, -34.794922301239161 ], [ -71.526234985986079, -34.795540089344904 ], [ -71.527567325892988, -34.795589951325695 ], [ -71.52871290605232, -34.796160691517095 ], [ -71.530138827055623, -34.796673895326499 ], [ -71.531309431583836, -34.797037314371046 ], [ -71.532478375127084, -34.797349064362848 ], [ -71.533600289170238, -34.798030947292787 ], [ -71.534830045963275, -34.798506530395095 ], [ -71.535893556038275, -34.799224170574632 ], [ -71.536269409356521, -34.799216333697487 ], [ -71.537103422334269, -34.799055748367493 ], [ -71.538022752806157, -34.798845670835711 ], [ -71.539707666190722, -34.79805141759126 ], [ -71.543021829751567, -34.797801243639753 ], [ -71.544842218064119, -34.797892402704029 ], [ -71.546127904865045, -34.797917188403702 ], [ -71.547154741218563, -34.798697010574926 ], [ -71.54763796028125, -34.799126431592242 ], [ -71.548437585749951, -34.799652459497786 ], [ -71.549238903644621, -34.800230214637587 ], [ -71.550235989592551, -34.801062399286323 ], [ -71.551162593723291, -34.801637587159817 ], [ -71.551894063113053, -34.801984168502891 ], [ -71.552775822446492, -34.80212074411439 ], [ -71.55353471919851, -34.802337432791845 ], [ -71.554384285607114, -34.802448898193994 ], [ -71.555495625581074, -34.802916711487235 ], [ -71.555700268989312, -34.803455264336279 ], [ -71.555533920761633, -34.804156692207187 ], [ -71.555262368136084, -34.804498478078507 ], [ -71.555411652864947, -34.805270814011877 ], [ -71.555527941575107, -34.805992223434401 ], [ -71.55597414735314, -34.806759573273872 ], [ -71.556040608311108, -34.8072299871707 ], [ -71.55619896602434, -34.80765800215962 ], [ -71.556582380462345, -34.808452959424685 ], [ -71.557002132651888, -34.809082102064949 ], [ -71.557114349298857, -34.809306084686874 ], [ -71.557200990909692, -34.809421015341165 ], [ -71.557541487436694, -34.809284695961132 ], [ -71.558130206442954, -34.809065466918291 ], [ -71.558760626143055, -34.809181436404941 ], [ -71.559113752982924, -34.810466556534585 ], [ -71.559083973831264, -34.811527039719202 ], [ -71.558550901863569, -34.812856874004943 ], [ -71.558883273128799, -34.81368184499587 ], [ -71.559194496255614, -34.814506077581186 ], [ -71.559505731060526, -34.815330456799103 ], [ -71.559883612774684, -34.816161258823321 ], [ -71.560231217670491, -34.81700015758134 ], [ -71.560361030517257, -34.817427436690899 ], [ -71.560616702725227, -34.817844680017572 ], [ -71.561116399585174, -34.818557268934335 ], [ -71.561604173106346, -34.819260431874973 ], [ -71.562233818458665, -34.819918066854143 ], [ -71.562738920481678, -34.820518138022621 ], [ -71.562850791277256, -34.820651880548297 ], [ -71.563455561381048, -34.821399019496781 ], [ -71.564030253194176, -34.822131650398092 ], [ -71.564274541052541, -34.822480964823256 ], [ -71.564554686063772, -34.822871910301089 ], [ -71.5649572804314, -34.823572720113049 ], [ -71.565456245164398, -34.824380491589089 ], [ -71.565699624825996, -34.825234049986904 ], [ -71.565805206516288, -34.825840026767914 ], [ -71.566870175455293, -34.826604608613692 ], [ -71.568178670481274, -34.828222730694435 ], [ -71.568692168158933, -34.829392473468502 ], [ -71.569319232651452, -34.830023169149364 ], [ -71.570050982315578, -34.830797274440386 ], [ -71.571002886597967, -34.831427591414283 ], [ -71.571739736896291, -34.832062449411566 ], [ -71.571964227682429, -34.832757842548638 ], [ -71.571090340285821, -34.8339569174518 ], [ -71.570951449064808, -34.835068886596396 ], [ -71.571062559885675, -34.835853670389945 ], [ -71.572301171372459, -34.836614527944462 ], [ -71.571758605110517, -34.837305767669086 ], [ -71.571131512770251, -34.837318662603636 ], [ -71.571474002658846, -34.837919990185483 ], [ -71.570716695924858, -34.838771362225174 ], [ -71.56981732152704, -34.839064054352001 ], [ -71.568738755687889, -34.839265781179513 ], [ -71.568203921225617, -34.840207256945739 ], [ -71.568098308094292, -34.840996548170317 ], [ -71.568381854127196, -34.841741875372499 ], [ -71.568221625223231, -34.842174532080072 ], [ -71.568796577547772, -34.842520245444078 ], [ -71.56937366516776, -34.842937319620994 ], [ -71.569481436950738, -34.843614728330721 ], [ -71.569065622975373, -34.844195977223329 ], [ -71.568604166498758, -34.844706631768211 ], [ -71.568847650364958, -34.845560103319599 ], [ -71.568907743165866, -34.846095552308356 ], [ -71.569159296598258, -34.846842439026418 ], [ -71.569115297115644, -34.84724221584041 ], [ -71.569583788299255, -34.847674506722242 ], [ -71.569795876046257, -34.8479643760692 ], [ -71.569913003782887, -34.848170443211707 ], [ -71.569957173047101, -34.848424058894963 ], [ -71.570018003364879, -34.848948340383657 ], [ -71.569855382247312, -34.849223534025334 ], [ -71.568854500019, -34.849386920276991 ], [ -71.56830066708676, -34.850062064291592 ], [ -71.567959579468337, -34.851111839328873 ], [ -71.567944808470102, -34.852486512634151 ], [ -71.568318995413506, -34.854350547116773 ], [ -71.568961597167174, -34.855410919324868 ], [ -71.56844700264655, -34.855416108893962 ], [ -71.567823252039119, -34.855048239874947 ], [ -71.567324508291705, -34.854860054286114 ], [ -71.566886336147249, -34.854499263230565 ], [ -71.566558540001751, -34.854127130765484 ], [ -71.566398015552053, -34.85358545702632 ], [ -71.566297087134956, -34.853113640380194 ], [ -71.565913387032694, -34.852790094975163 ], [ -71.56553262891299, -34.852561158803894 ], [ -71.564536664062558, -34.852434410144028 ], [ -71.564026910563001, -34.852196743993417 ], [ -71.563615033903545, -34.851874081818067 ], [ -71.563105377422048, -34.851636409625726 ], [ -71.562593063723938, -34.851315934711515 ], [ -71.562303116296306, -34.852414021178475 ], [ -71.561652270703291, -34.853496082355811 ], [ -71.560210044379261, -34.854260952865069 ], [ -71.55898586971739, -34.854642232163776 ], [ -71.557679043761198, -34.855143615529947 ], [ -71.557847670116431, -34.855945737345486 ], [ -71.557714335873769, -34.856280263413559 ], [ -71.557672902877911, -34.856802420525248 ], [ -71.557804577932259, -34.857380307801733 ], [ -71.557430540109209, -34.858270945169352 ], [ -71.556390900067953, -34.859033059412496 ], [ -71.555786754293294, -34.859946255218681 ], [ -71.555703400516393, -34.860966874001463 ], [ -71.555875601268156, -34.861887446577917 ], [ -71.554433675879736, -34.862164559085208 ], [ -71.553537192260492, -34.862670863113401 ], [ -71.552483586111506, -34.864731616173692 ], [ -71.551714167392561, -34.866196348605015 ], [ -71.551467445099789, -34.866666017618485 ], [ -71.550981703567786, -34.86759067818123 ], [ -71.550334511423031, -34.868752878068577 ], [ -71.548456823171747, -34.870673005432828 ], [ -71.54852624857017, -34.872265609873338 ], [ -71.548550749221235, -34.872838517678751 ], [ -71.548504582103831, -34.873070551758325 ], [ -71.548379718075978, -34.873698116582354 ], [ -71.548287066735881, -34.874410569160439 ], [ -71.548667404444032, -34.874277084219344 ], [ -71.548880817206069, -34.873998001287795 ], [ -71.549794611360852, -34.873426881400938 ], [ -71.550479954057408, -34.872475013721917 ], [ -71.551469896602185, -34.87201811703595 ], [ -71.552916734876902, -34.871751594639122 ], [ -71.554719458717713, -34.872431244647899 ], [ -71.556230968506341, -34.873142543014268 ], [ -71.558098127604183, -34.873364824334217 ], [ -71.559253988083626, -34.873587105053169 ], [ -71.560385877918023, -34.874134296076186 ], [ -71.561343426315347, -34.874387316561076 ], [ -71.5624992876931, -34.87474296542149 ], [ -71.563387274148099, -34.875482914323712 ], [ -71.564559040197949, -34.876276964015616 ], [ -71.566280435064527, -34.876519563846493 ], [ -71.568306214183636, -34.876571871432468 ], [ -71.569906480217284, -34.875771738672718 ], [ -71.571192409563352, -34.87500018112943 ], [ -71.572461625753547, -34.87379595574135 ], [ -71.572930883200101, -34.872075344786154 ], [ -71.572653019909666, -34.870879747550561 ], [ -71.57244439426978, -34.869920072560596 ], [ -71.57286164554958, -34.868793499014096 ], [ -71.573404069877697, -34.867500025211044 ], [ -71.573876007897042, -34.867176231251918 ], [ -71.575266575702344, -34.867106483511208 ], [ -71.576941862740327, -34.867296856649872 ], [ -71.577781536901014, -34.86756507321406 ], [ -71.579004971351068, -34.867906496443425 ], [ -71.579765270373258, -34.868599111754335 ], [ -71.580393947341719, -34.869770736481584 ], [ -71.581273240799675, -34.871136830153503 ], [ -71.582339943487185, -34.872310203742181 ], [ -71.583159275298257, -34.873211467570258 ], [ -71.584611003103035, -34.874295704896312 ], [ -71.585863136929802, -34.87524559998031 ], [ -71.587035394358139, -34.875707851998584 ], [ -71.587477598141589, -34.876182732322597 ], [ -71.587530010346825, -34.876976479733131 ], [ -71.587935637426853, -34.877922579485151 ], [ -71.58865511340926, -34.878510713740724 ], [ -71.588928709702088, -34.879563307061332 ], [ -71.589980577610987, -34.880000585154981 ], [ -71.591140419423766, -34.880427894674895 ], [ -71.592103596664671, -34.880782749522751 ], [ -71.593375947975218, -34.88098815154158 ], [ -71.594933852155009, -34.88151263741068 ], [ -71.597446970010708, -34.882679441466841 ], [ -71.599365729236766, -34.8830768297045 ], [ -71.59988760280612, -34.883184916166599 ], [ -71.599899417448754, -34.883344281465078 ], [ -71.601007165059897, -34.88335932610277 ], [ -71.602340765303154, -34.883426177288449 ], [ -71.604245184722316, -34.883242330685974 ], [ -71.606387019887947, -34.883244030726395 ], [ -71.607846775038098, -34.882933126132137 ], [ -71.608604737542237, -34.882522444050331 ], [ -71.608911435854964, -34.882093017944918 ], [ -71.609094553832364, -34.88183638596265 ], [ -71.60930403197348, -34.881549058237695 ], [ -71.609561688559907, -34.8811247464592 ], [ -71.609540581743985, -34.880457413894327 ], [ -71.609289587063699, -34.879842722617248 ], [ -71.608743323336071, -34.879043553928405 ], [ -71.60861556942794, -34.878664661967221 ], [ -71.608130269867061, -34.877959516295896 ], [ -71.60768287292295, -34.877117974733267 ], [ -71.607421936587414, -34.876403356828227 ], [ -71.606525340678758, -34.874797988438871 ], [ -71.606480995344768, -34.874350031025315 ], [ -71.606440485817018, -34.873941203803305 ], [ -71.606691866772863, -34.873159544768804 ], [ -71.607416449677672, -34.872500358472593 ], [ -71.607902888302334, -34.872168173508612 ], [ -71.608858324760419, -34.871695062399894 ], [ -71.609374304483211, -34.871540870436831 ], [ -71.609716930915724, -34.871390399355811 ], [ -71.610330411982829, -34.870661730531566 ], [ -71.61055792200662, -34.870050273765827 ], [ -71.610902763684635, -34.869650006369717 ], [ -71.611597610556899, -34.869012998000585 ], [ -71.611936142468352, -34.868416432624251 ], [ -71.612635207829186, -34.867910404981018 ], [ -71.613135668257129, -34.867408495791807 ], [ -71.613805129637768, -34.86695862379527 ], [ -71.614095594495012, -34.866907262363732 ], [ -71.614790734218047, -34.866940010301214 ], [ -71.615199869219254, -34.867074170499613 ], [ -71.615384880845284, -34.867070188954351 ], [ -71.615662140467848, -34.867064221058335 ], [ -71.616180919341048, -34.867005349145245 ], [ -71.616632710843518, -34.866661986670806 ], [ -71.617136205780483, -34.866126767345527 ], [ -71.619189770689673, -34.865224435978597 ], [ -71.619915756762936, -34.864905502878621 ], [ -71.620440151004971, -34.864530136777816 ], [ -71.620894934795672, -34.864282029522649 ], [ -71.621180534377316, -34.864275869047638 ], [ -71.621256679174053, -34.864221722742471 ], [ -71.62148206019063, -34.864325539061781 ], [ -71.621649310326859, -34.864361018151463 ], [ -71.622236408772366, -34.864634428119295 ], [ -71.62232547942773, -34.864714035549575 ], [ -71.622653022248315, -34.865006775447668 ], [ -71.623066611096704, -34.865283852384501 ], [ -71.623411945949812, -34.865228693276222 ], [ -71.623637064658325, -34.865033163978175 ], [ -71.62362495626661, -34.864652160597217 ], [ -71.623614356146248, -34.8643186083468 ], [ -71.623535478674413, -34.864158113816174 ], [ -71.623428912430569, -34.863941273779481 ], [ -71.623343829396759, -34.86308509982937 ], [ -71.623420961441994, -34.862876272794082 ], [ -71.623556830730394, -34.862508419446705 ], [ -71.623894496665912, -34.862215125943351 ], [ -71.624580508607366, -34.861961939009703 ], [ -71.625095371724257, -34.861735697394359 ], [ -71.625150847184628, -34.861711320821222 ], [ -71.625204496370031, -34.861706125752463 ], [ -71.625477889643605, -34.8616796565478 ], [ -71.625785075741518, -34.8616499138788 ], [ -71.626591116079652, -34.861537161269709 ], [ -71.627296063608981, -34.861521922466459 ], [ -71.627690441086685, -34.861462884423659 ], [ -71.62825243790823, -34.861592293369917 ], [ -71.629440590127189, -34.861901996865257 ], [ -71.630766160330126, -34.861730195694356 ], [ -71.631922780784294, -34.861705225018333 ], [ -71.632797732684494, -34.861924792310234 ], [ -71.633902685636784, -34.862091591886234 ], [ -71.634943637218356, -34.862069099433533 ], [ -71.635806599304473, -34.861907199292617 ], [ -71.636555324432535, -34.861795548996987 ], [ -71.637183898993015, -34.861543462735888 ], [ -71.637920433084361, -34.861050437334534 ], [ -71.638536722285039, -34.860416980085823 ], [ -71.63916222999714, -34.860069469642525 ], [ -71.63939718795298, -34.86009648925149 ], [ -71.639510757462773, -34.860109603960282 ], [ -71.640212294987265, -34.860332884652436 ], [ -71.640504305845113, -34.860471424476749 ], [ -71.641269989369107, -34.86083457019263 ], [ -71.642486034277638, -34.860855837912872 ], [ -71.643462930589564, -34.860643776685158 ], [ -71.643897488811604, -34.860010331783975 ], [ -71.644554583984061, -34.859469444957213 ], [ -71.646057517556685, -34.85853618885325 ], [ -71.64680475417633, -34.858376804947994 ], [ -71.647723780119307, -34.858166044260621 ], [ -71.648822587696742, -34.858142025611969 ], [ -71.649688450442909, -34.858075520956575 ], [ -71.651021553019476, -34.858141780884722 ], [ -71.65292685548259, -34.858004870620064 ], [ -71.653905307676581, -34.857840395782425 ], [ -71.654638593459865, -34.857406564620277 ], [ -71.655328133085419, -34.856777111479104 ], [ -71.655701344458436, -34.856242368155179 ], [ -71.655812210039201, -34.855274571388108 ], [ -71.656229323876772, -34.855002197712139 ], [ -71.657041260756444, -34.854867405241905 ], [ -71.657928131503837, -34.85517662247053 ], [ -71.658737745340161, -34.855158913750216 ], [ -71.659221663292143, -34.855014076281506 ], [ -71.659499469090377, -34.855164622293721 ], [ -71.659930784394277, -34.855330786144265 ], [ -71.660539260048608, -34.855492996302473 ], [ -71.661791276196055, -34.855273731767497 ], [ -71.662656192117907, -34.856207161993801 ], [ -71.662371170152994, -34.857297372467272 ], [ -71.662344293458005, -34.858642158122315 ], [ -71.663046198393459, -34.860822551676407 ], [ -71.663170224293168, -34.861084714146386 ], [ -71.66431266484058, -34.861670663207896 ], [ -71.664429217655439, -34.862117527301812 ], [ -71.664687627928387, -34.863492534875014 ], [ -71.665043561105193, -34.864199840434154 ], [ -71.665670989415389, -34.864946677789568 ], [ -71.666913695423233, -34.866060383390412 ], [ -71.666838496552501, -34.867027330208899 ], [ -71.666654956366898, -34.867938243816369 ], [ -71.666669641126859, -34.868833729311326 ], [ -71.666820593128875, -34.86954028433297 ], [ -71.667393555685081, -34.871022985766096 ], [ -71.668204104667637, -34.871941390265313 ], [ -71.668941027729488, -34.872574594395616 ], [ -71.669640012241956, -34.873037381015301 ], [ -71.670370499773128, -34.873833838490022 ], [ -71.670833624421221, -34.874585955793378 ], [ -71.67152666837471, -34.875196476766753 ], [ -71.67203772532973, -34.875875904473666 ], [ -71.672279651517215, -34.876548032083129 ], [ -71.672753343946312, -34.877041674263822 ], [ -71.673101373745254, -34.877309974004682 ], [ -71.673453879849276, -34.877467481771752 ], [ -71.673825248777632, -34.877747965666671 ], [ -71.674580080652987, -34.878104193233689 ], [ -71.675042477665713, -34.878319208082253 ], [ -71.675461027011082, -34.878513831766313 ], [ -71.676447888334451, -34.878760921099804 ], [ -71.676685781984631, -34.878820483219393 ], [ -71.678027606304298, -34.879172319124265 ], [ -71.67920350729942, -34.879880582682127 ], [ -71.679363728118545, -34.880007338420832 ], [ -71.679628491277171, -34.880376422274665 ], [ -71.679758015764733, -34.880802525701704 ], [ -71.679715297279699, -34.881220863432212 ], [ -71.679714098028811, -34.881232602620848 ], [ -71.679723380320652, -34.881518396446282 ], [ -71.679792146355624, -34.881850508255368 ], [ -71.680031004796419, -34.882083607532643 ], [ -71.68004692923148, -34.882110537373634 ] ] ] } },
{ "type": "Feature", "properties": { "capa": "colegios", "popup": "<strong>ESCUELA BASICA HUGO URZUA URZUA</strong><br><br><strong>Dirección:</strong> RANGUIL 15", "etiqueta": "" }, "geometry": { "type": "Point", "coordinates": [ -71.690514, -34.856171 ] } },
{ "type": "Feature", "properties": { "capa": "colegios", "popup": "<strong>ESCUELA MUNICIPAL EDUVIGIS PANTOJA L</strong><br><br><strong>Dirección:</strong> LOS TRICAHUES 23", "etiqueta": "" }, "geometry": { "type": "Point", "coordinates": [ -71.596817, -34.837009 ] } },
{ "type": "Feature", "properties": { "capa": "colegios", "popup": "<strong>ESCUELA BASICA OLGA DE GOMEZ</strong><br><br><strong>Dirección:</strong> EL MEMBRILLO 16", "etiqueta": "" }, "geometry": { "type": "Point", "coordinates": [ -71.627472, -34.808041 ] } },
{ "type": "Feature", "properties": { "capa": "colegios", "popup": "<strong>ESCUELA MUNICIPAL RINCONADA DE QUIAHUE</strong><br><br><strong>Dirección:</strong> RINCONADA DE QUIAHUE 12", "etiqueta": "" }, "geometry": { "type": "Point", "coordinates": [ -71.674553, -34.77375 ] } },
{ "type": "Feature", "properties": { "capa": "colegios", "popup": "<strong>ESCUELA BASICA GALVARINO VALENZUELA MORAGA</strong><br><br><strong>Dirección:</strong> LOS ALERCES 15", "etiqueta": "" }, "geometry": { "type": "Point", "coordinates": [ -71.646072, -34.728439 ] } },
{ "type": "Feature", "properties": { "capa": "colegios", "popup": "<strong>ESCUELA ESPECIAL DE LENGUAJE SAN JOSE</strong><br><br><strong>Dirección:</strong> LAS ACACIAS 162", "etiqueta": "" }, "geometry": { "type": "Point", "coordinates": [ -71.638961, -34.724045 ] } },
{ "type": "Feature", "properties": { "capa": "colegios", "popup": "<strong>LICEO DE LOLOL</strong><br><br><strong>Dirección:</strong> LAS ACACIAS 220", "etiqueta": "" }, "geometry": { "type": "Point", "coordinates": [ -71.639313, -34.723949 ] } },
{ "type": "Feature", "properties": { "capa": "colegios", "popup": "<strong>ESCUELA OCTAVIO MUJICA VALENZUELA</strong><br><br><strong>Dirección:</strong> HACIENDA LOLOL 4", "etiqueta": "" }, "geometry": { "type": "Point", "coordinates": [ -71.601723, -34.710678 ] } },
{ "type": "Feature", "properties": { "capa": "colegios", "popup": "<strong>ESCUELA MUNICIPAL JUANA GONZALEZ</strong><br><br><strong>Dirección:</strong> NILAHUE ALTO 15", "etiqueta": "" }, "geometry": { "type": "Point", "coordinates": [ -71.770081, -34.703152 ] } },
{ "type": "Feature", "properties": { "capa": "colegios", "popup": "<strong>ESCUELA ESPECIAL DE NERQUIHUE</strong><br><br><strong>Dirección:</strong> NERQUIHUE 16", "etiqueta": "" }, "geometry": { "type": "Point", "coordinates": [ -71.53239, -34.660515 ] } },
{ "type": "Feature", "properties": { "capa": "jardines", "popup": "<strong>ANGELITOS</strong><br><br><strong>Dirección:</strong> LOS OLIVOS N 1-B ", "etiqueta": "" }, "geometry": { "type": "MultiPoint", "coordinates": [ [ -71.652097, -34.730394 ] ] } },
{ "type": "Feature", "properties": { "capa": "jardines", "popup": "<strong>CANGREJITOS</strong><br><br><strong>Dirección:</strong> CAMINO PUBLICO SECTOR HACIENDA LOLOL S/N ", "etiqueta": "" }, "geometry": { "type": "MultiPoint", "coordinates": [ [ -71.602033, -34.711058 ] ] } },
{ "type": "Feature", "properties": { "capa": "jardines", "popup": "<strong>CECI MI PRIMERA EXPERIENCIA</strong><br><br><strong>Dirección:</strong> RANGUIL S/N CECI ", "etiqueta": "" }, "geometry": { "type": "MultiPoint", "coordinates": [ [ -71.628951, -34.80559 ] ] } },
{ "type": "Feature", "properties": { "capa": "jardines", "popup": "<strong>PMI MANITOS PINTADAS (EL MEMBR</strong><br><br><strong>Dirección:</strong> EL MENBRILLO S/N ", "etiqueta": "" }, "geometry": { "type": "MultiPoint", "coordinates": [ [ -71.628951, -34.80559 ] ] } },
{ "type": "Feature", "properties": { "capa": "bomberos", "popup": "<strong>Cuerpo de Bomberos</strong><br><br><strong>Dirección:</strong> Los Alerces 135", "etiqueta": "" }, "geometry": { "type": "Point", "coordinates": [ -71.649282030782587, -34.728212976870253 ] } },
{ "type": "Feature", "properties": { "capa": "comisarias", "popup": "<strong>RETEN LOLOL</strong><br><br><strong>Dirección:</strong> LAS ACACIAS 190", "etiqueta": "" }, "geometry": { "type": "Point", "coordinates": [ -71.647503717999939, -34.728090232999939 ] } },
{ "type": "Feature", "properties": { "capa": "salud", "popup": "<strong>Posta de Salud Rural Ranguil</strong><br><br><strong>Tipo de atención:</strong> Posta de Salud Rural (PSR)<br><strong>Dirección:</strong>  NA", "etiqueta": "" }, "geometry": { "type": "Point", "coordinates": [ -71.698581, -34.832617 ] } },
{ "type": "Feature", "properties": { "capa": "salud", "popup": "<strong>Posta de Salud Rural El Membrillo</strong><br><br><strong>Tipo de atención:</strong> Posta de Salud Rural (PSR)<br><strong>Dirección:</strong>  NA", "etiqueta": "" }, "geometry": { "type": "Point", "coordinates": [ -71.62767, -34.8056 ] } },
{ "type": "Feature", "properties": { "capa": "salud", "popup": "<strong>Hospital de Lolol</strong><br><br><strong>Tipo de atención:</strong> Hospital<br><strong>Dirección:</strong>  35", "etiqueta": "" }, "geometry": { "type": "Point", "coordinates": [ -71.64667, -34.72822 ] } },
{ "type": "Feature", "properties": { "capa": "salud", "popup": "<strong>Posta de Salud Rural La Cabaña</strong><br><br><strong>Tipo de atención:</strong> Posta de Salud Rural (PSR)<br><strong>Dirección:</strong>  NA", "etiqueta": "" }, "geometry": { "type": "Point", "coordinates": [ -71.56817, -34.72209 ] } },
{ "type": "Feature", "properties": { "capa": "municipios", "popup": "<strong>Municipalidad de Lolol</strong><br><br><strong>Dirección:</strong> Los Aromos Nº 85<br><strong>Región:</strong> Libertador General Bernardo O'Higgins", "etiqueta": "" }, "geometry": { "type": "Point", "coordinates": [ -71.643957, -34.728742000999958 ] } }
]
}
