{
"type": "FeatureCollection",
"name": "6306",
"crs": { "type": "name", "properties": { "name": "urn:ogc:def:crs:OGC:1.3:CRS84" } },
"features": [
{ "type": "Feature", "properties": { "capa": "comuna", "popup": "", "etiqueta": "" }, "geometry": { "type": "Polygon", "coordinates": [ [ [ -71.386014155035753, -34.433680549378906 ], [ -71.384853658351119, -34.433933182752995 ], [ -71.383869251225121, -34.433343752345692 ], [ -71.382632400436293, -34.432367214133912 ], [ -71.380784160756662, -34.431150065145509 ], [ -71.379662042795928, -34.430671551725375 ], [ -71.379065031441243, -34.430935608344697 ], [ -71.378683571737312, -34.431691328279719 ], [ -71.378606264520599, -34.432526726295627 ], [ -71.378013873201425, -34.432957524973204 ], [ -71.376131406811155, -34.434080465428984 ], [ -71.375363686806409, -34.434861704753317 ], [ -71.374320952967338, -34.434196815640369 ], [ -71.373755351206569, -34.433026791333511 ], [ -71.373039753251248, -34.432499774446036 ], [ -71.37269845183377, -34.432001529679823 ], [ -71.372441101572861, -34.431159041585062 ], [ -71.371502843597938, -34.430744460957676 ], [ -71.370208005659194, -34.431274448207759 ], [ -71.368008778926708, -34.431898608722364 ], [ -71.366613192233928, -34.43242600579044 ], [ -71.366107301490089, -34.432354633963293 ], [ -71.365339072140586, -34.432203698440986 ], [ -71.364699620778609, -34.432463043127271 ], [ -71.3641589005546, -34.432870177867507 ], [ -71.36372007623325, -34.433695648455817 ], [ -71.363844471340542, -34.434494716105121 ], [ -71.364038423000267, -34.435187195459385 ], [ -71.363582919659038, -34.435743786763716 ], [ -71.362690599731124, -34.43626133313353 ], [ -71.3619857159822, -34.436274958112783 ], [ -71.360829480006956, -34.436451875932576 ], [ -71.360073274607529, -34.43689099896644 ], [ -71.359191751531014, -34.437248490098241 ], [ -71.358913165995105, -34.438087836991066 ], [ -71.358739760602546, -34.439091918940349 ], [ -71.356547500305084, -34.439968180569906 ], [ -71.355849400633161, -34.440234075512123 ], [ -71.355233302773655, -34.439826675859187 ], [ -71.354397412316942, -34.438756373558142 ], [ -71.353961522791622, -34.437597269929029 ], [ -71.353156126545557, -34.43761277948596 ], [ -71.351755315251069, -34.437973345867789 ], [ -71.350356977018563, -34.438419447325579 ], [ -71.349881614621324, -34.439429325503767 ], [ -71.349195105013237, -34.440109730233161 ], [ -71.346649374719462, -34.439157900406705 ], [ -71.346033328063896, -34.438750451054347 ], [ -71.345614284645123, -34.438177032309383 ], [ -71.345799169608696, -34.437587442911038 ], [ -71.345982052227498, -34.436916798064722 ], [ -71.345370775626108, -34.436676093101816 ], [ -71.343674876743933, -34.437294667035857 ], [ -71.342492081179017, -34.438236840801984 ], [ -71.34158089842677, -34.438087536936877 ], [ -71.340852608174771, -34.437263082508181 ], [ -71.339733176176736, -34.436869745932668 ], [ -71.33876550556279, -34.437468991839445 ], [ -71.33252589383757, -34.442931453491155 ], [ -71.318373586018211, -34.453839578821906 ], [ -71.318038732707862, -34.454227543716677 ], [ -71.317644409129059, -34.454476900938765 ], [ -71.31730231719412, -34.454670908056514 ], [ -71.317013816054114, -34.454768403288803 ], [ -71.316513594578041, -34.455306029070051 ], [ -71.316232255705785, -34.455549916560777 ], [ -71.316018924690425, -34.455734979978843 ], [ -71.315838589693783, -34.455891278742598 ], [ -71.315439565231074, -34.456041972961998 ], [ -71.315155676041741, -34.456190484766068 ], [ -71.314990516285164, -34.456228030808674 ], [ -71.314697853250451, -34.456294580199987 ], [ -71.314181833103476, -34.456493276982336 ], [ -71.313788696199168, -34.456741195648064 ], [ -71.313508747020649, -34.45703268713099 ], [ -71.313062669701708, -34.457565950414732 ], [ -71.312759386783696, -34.458020217137083 ], [ -71.312733128129622, -34.458144643896844 ], [ -71.312287040030867, -34.458677904523164 ], [ -71.311946880372133, -34.458875184619394 ], [ -71.311543977882366, -34.458882733733226 ], [ -71.311316326823061, -34.458982461670068 ], [ -71.310577115752167, -34.459330418961734 ], [ -71.310175527497663, -34.459385796341742 ], [ -71.309369539261823, -34.459400958916056 ], [ -71.308967860277477, -34.459456334767914 ], [ -71.308394869873496, -34.459562583743093 ], [ -71.307936928504589, -34.459666582387754 ], [ -71.30725657954271, -34.460061117443566 ], [ -71.306919115728135, -34.460353755014765 ], [ -71.306246715059856, -34.461034326310852 ], [ -71.306028145968071, -34.461467848076047 ], [ -71.305520577171308, -34.461859040151978 ], [ -71.305073111056913, -34.462344590454173 ], [ -71.304510584229376, -34.462832311014381 ], [ -71.304115435997133, -34.463125954306562 ], [ -71.303774016900348, -34.463275524492033 ], [ -71.303431197330056, -34.463377409880408 ], [ -71.302741625365158, -34.463438119475931 ], [ -71.302302694144288, -34.463446391051214 ], [ -71.301537905342315, -34.463651570739266 ], [ -71.301366495107999, -34.463702583581025 ], [ -71.300684858860308, -34.464049322838079 ], [ -71.300387797673935, -34.464197458965693 ], [ -71.300287075869335, -34.464247657507741 ], [ -71.299830407413197, -34.464399386874383 ], [ -71.299348784656772, -34.464532160768414 ], [ -71.299087262619665, -34.464604216860252 ], [ -71.297770981895113, -34.464915244809035 ], [ -71.297410558938495, -34.464922022374125 ], [ -71.296849782927438, -34.464932492011329 ], [ -71.296275431575808, -34.464991072628969 ], [ -71.295814920126872, -34.464999653636163 ], [ -71.295298053766899, -34.465057149175941 ], [ -71.294667339419405, -34.465164419023786 ], [ -71.294323281970634, -34.465218517162505 ], [ -71.29386790169859, -34.465417911861351 ], [ -71.293526364922528, -34.465567457202617 ], [ -71.293411002375422, -34.465653153325846 ], [ -71.293130525885829, -34.465860561324554 ], [ -71.292564629477667, -34.466205749636437 ], [ -71.292279356882773, -34.466306450152729 ], [ -71.291935207805864, -34.466360691972952 ], [ -71.291419718563205, -34.466465709392914 ], [ -71.290906747298322, -34.466666172791207 ], [ -71.289937070746333, -34.467018328467695 ], [ -71.289710760871756, -34.467165629095248 ], [ -71.289429392355089, -34.467409456762333 ], [ -71.288860224282658, -34.467658676115057 ], [ -71.288516066222584, -34.467712908169204 ], [ -71.287947684176018, -34.4679616659567 ], [ -71.287486144156091, -34.468057383761241 ], [ -71.287282341570929, -34.468098423841688 ], [ -71.286915705865823, -34.468172200989727 ], [ -71.286400200453514, -34.468277270935424 ], [ -71.285884603413038, -34.468382341489395 ], [ -71.285315419170914, -34.468631544606353 ], [ -71.284607608710786, -34.468941314820491 ], [ -71.283949144505826, -34.46922955321395 ], [ -71.283111716133362, -34.469619877228979 ], [ -71.282086499442315, -34.469768798127468 ], [ -71.281175478386828, -34.470008193156509 ], [ -71.280184720171746, -34.470601215902263 ], [ -71.279137615130495, -34.470769057729946 ], [ -71.276522052501491, -34.471688812125763 ], [ -71.275279454291464, -34.472898017376693 ], [ -71.274038906036935, -34.473365878102413 ], [ -71.272455979284899, -34.473580638466608 ], [ -71.270189389685882, -34.473344786164986 ], [ -71.268807022600797, -34.472703322414986 ], [ -71.268239354714879, -34.47239886642496 ], [ -71.267091820719799, -34.472119793936876 ], [ -71.266342558399188, -34.472081036058157 ], [ -71.265936420177781, -34.471998022227453 ], [ -71.265590934407697, -34.472004429671138 ], [ -71.265296433419905, -34.472009890661234 ], [ -71.264669730050144, -34.472021584317993 ], [ -71.264565825514509, -34.47208717392688 ], [ -71.264265417205394, -34.472276644855434 ], [ -71.264046734027588, -34.472414746469717 ], [ -71.263715418282786, -34.472945710537658 ], [ -71.263327803322525, -34.473525353445893 ], [ -71.262488627726825, -34.474447411683919 ], [ -71.262209725983936, -34.474786555667798 ], [ -71.261471442872732, -34.475181841266483 ], [ -71.261126032561151, -34.475188235135889 ], [ -71.260441553145583, -34.47543938481315 ], [ -71.259991176489692, -34.475829408006277 ], [ -71.259788541714428, -34.476063809977454 ], [ -71.259655963853206, -34.476217299593998 ], [ -71.259377045042328, -34.476556437124962 ], [ -71.25904053883184, -34.476896564847515 ], [ -71.258258867990747, -34.477817532070574 ], [ -71.257868622763326, -34.478301785456445 ], [ -71.257665784070497, -34.47860516911836 ], [ -71.25748094402266, -34.478881484463379 ], [ -71.257205862814686, -34.479363607896047 ], [ -71.257156074588394, -34.479650795057765 ], [ -71.257116386120813, -34.480319412109971 ], [ -71.257074308134577, -34.480892725140443 ], [ -71.257151097023396, -34.481511552120615 ], [ -71.257288190715528, -34.482415384759285 ], [ -71.257092635563012, -34.483082155863812 ], [ -71.257002596523776, -34.483255905263434 ], [ -71.256690693372306, -34.483762340424903 ], [ -71.256419990552999, -34.484272003159731 ], [ -71.256306834268244, -34.484484952417802 ], [ -71.256120065537516, -34.484716767336259 ], [ -71.255578305962715, -34.485389043098557 ], [ -71.255488022581702, -34.486169895761961 ], [ -71.25503637121642, -34.486512213771256 ], [ -71.254237792285039, -34.486813148550134 ], [ -71.253330530678994, -34.487354712907781 ], [ -71.252937649794546, -34.487743651194904 ], [ -71.252544855148344, -34.488132586187405 ], [ -71.252274756895247, -34.488805376409076 ], [ -71.252283824489723, -34.489139188004849 ], [ -71.252297933429588, -34.489663752096256 ], [ -71.252309477679304, -34.490092941069314 ], [ -71.252089853067062, -34.49112041935269 ], [ -71.252062334974951, -34.491291240005069 ], [ -71.252024255390069, -34.4915270267648 ], [ -71.252006235185462, -34.491672856637891 ], [ -71.251957617463972, -34.49200773181127 ], [ -71.251850120565493, -34.492295907550343 ], [ -71.251798939052179, -34.492535480792867 ], [ -71.251755449812663, -34.493061032668528 ], [ -71.251763142984743, -34.49334708430721 ], [ -71.251830999026367, -34.493727523210985 ], [ -71.251957736939914, -34.494154587118011 ], [ -71.252085668714471, -34.494629341448757 ], [ -71.252177624758531, -34.494890795563833 ], [ -71.252285538475277, -34.495198337507112 ], [ -71.252335298853822, -34.495340331784178 ], [ -71.252752594151062, -34.495857385136212 ], [ -71.253055984866933, -34.496424323506403 ], [ -71.253415694561198, -34.496942509538563 ], [ -71.25371395499846, -34.49731862172635 ], [ -71.254071104494173, -34.497741430985222 ], [ -71.254543365008701, -34.498162040766445 ], [ -71.255015720744666, -34.498582720238474 ], [ -71.255545680049906, -34.499002259694414 ], [ -71.25630981487835, -34.49956067844311 ], [ -71.257376106137457, -34.500638255210347 ], [ -71.257853637067754, -34.501249671724594 ], [ -71.257979129916308, -34.501628966325093 ], [ -71.258026549285219, -34.501974696620593 ], [ -71.258050881053009, -34.502152388026097 ], [ -71.258239037680852, -34.502721441566777 ], [ -71.258427284140211, -34.5032904201543 ], [ -71.258788344900665, -34.503856275272248 ], [ -71.25939003288471, -34.504799291726975 ], [ -71.260223529331185, -34.505785725684632 ], [ -71.260635776994846, -34.506112071775185 ], [ -71.260939169507338, -34.506678913758918 ], [ -71.261008370326948, -34.507107032080015 ], [ -71.261019966678944, -34.507536216394577 ], [ -71.261203090944548, -34.507914440850513 ], [ -71.261271005376642, -34.508294871019928 ], [ -71.261290333528308, -34.509010104113926 ], [ -71.261126623652615, -34.509347113351666 ], [ -71.260969263967667, -34.509922485291618 ], [ -71.260697887411908, -34.510547680474929 ], [ -71.260609933362446, -34.511548876756926 ], [ -71.260626566568249, -34.512171101831107 ], [ -71.260500527543996, -34.512717163341122 ], [ -71.260471777861639, -34.512841921572615 ], [ -71.260544848623468, -34.513413101282573 ], [ -71.260797191674982, -34.514219368265948 ], [ -71.261041719383527, -34.514739661298563 ], [ -71.261165033817534, -34.515046834676951 ], [ -71.261288916885107, -34.515355251920411 ], [ -71.261303095893552, -34.515879810942906 ], [ -71.260852606049923, -34.516269840420783 ], [ -71.260288084064129, -34.516709617586272 ], [ -71.260009043980688, -34.517048760692951 ], [ -71.259976624680391, -34.517272258067912 ], [ -71.259960536751976, -34.5173835613178 ], [ -71.260085980193196, -34.517762926826862 ], [ -71.260152611831074, -34.518095671365643 ], [ -71.260114414566885, -34.518811969062234 ], [ -71.260012072201505, -34.519290973551762 ], [ -71.259852113690442, -34.519770970048029 ], [ -71.259465562335478, -34.520398367278943 ], [ -71.258790928455412, -34.521031019207847 ], [ -71.258570480088082, -34.521402678844552 ], [ -71.258578585586875, -34.521702828224889 ], [ -71.258931918140945, -34.52198263035578 ], [ -71.259167532765247, -34.522169114752188 ], [ -71.259638763810472, -34.52254200753999 ], [ -71.25976034719092, -34.522778237313688 ], [ -71.260058827715426, -34.523154474194897 ], [ -71.260469786296653, -34.523433131669343 ], [ -71.260769467868684, -34.523856832767834 ], [ -71.261066576665769, -34.524185306952688 ], [ -71.261487686209705, -34.524456239433071 ], [ -71.261882228079131, -34.524662003977781 ], [ -71.261986642857863, -34.524688725503282 ], [ -71.262348767223614, -34.524553727869076 ], [ -71.263014180795594, -34.524434451393702 ], [ -71.263616390700832, -34.524403346124878 ], [ -71.264150175930851, -34.524442192183919 ], [ -71.265022563140931, -34.524531992402821 ], [ -71.265507531223477, -34.524659479475908 ], [ -71.26644057986806, -34.524778129500177 ], [ -71.267129652369661, -34.524952411473301 ], [ -71.267732372517969, -34.525259240053785 ], [ -71.268154916671435, -34.526006492022013 ], [ -71.268261211624065, -34.526345878514206 ], [ -71.268365752166929, -34.526679758847941 ], [ -71.269233245355338, -34.528021917122793 ], [ -71.26964672371092, -34.528503155472279 ], [ -71.270265887520509, -34.529220376082051 ], [ -71.270780010425611, -34.52959205690135 ], [ -71.271154291692113, -34.529792702340167 ], [ -71.27157964038588, -34.530003917553209 ], [ -71.272009912745716, -34.530107211168534 ], [ -71.272831611617562, -34.530204470972677 ], [ -71.273573218495315, -34.530254176134079 ], [ -71.273965435524786, -34.530874347729849 ], [ -71.274284584487347, -34.531623059745542 ], [ -71.274857893793239, -34.532591111132376 ], [ -71.27555855546035, -34.53366682956419 ], [ -71.276123571519548, -34.534319370875338 ], [ -71.276365066515694, -34.534840350159826 ], [ -71.276468988119348, -34.535654515800864 ], [ -71.2769818982988, -34.537138971217637 ], [ -71.277470770459573, -34.538127047625458 ], [ -71.277838948572025, -34.538723945897395 ], [ -71.278099756448469, -34.539376244078355 ], [ -71.278384835905555, -34.539713908181668 ], [ -71.278950072950323, -34.540028467590744 ], [ -71.279915531912053, -34.54032380517377 ], [ -71.280273600384291, -34.540460839526595 ], [ -71.280672028365629, -34.540883011802215 ], [ -71.281122423886131, -34.541482424663812 ], [ -71.281488294226634, -34.541777432988319 ], [ -71.281859550865576, -34.541968942470369 ], [ -71.282250377302972, -34.542197159710433 ], [ -71.282704341830112, -34.542472348962718 ], [ -71.28347108446782, -34.543058893138046 ], [ -71.283804261521865, -34.543600664738626 ], [ -71.284098400488602, -34.544163846468869 ], [ -71.28436432606722, -34.544644984860675 ], [ -71.284541163024159, -34.544965678856322 ], [ -71.285081654177787, -34.545531852467789 ], [ -71.285743900290072, -34.545898993587954 ], [ -71.2867115574293, -34.54637894696679 ], [ -71.288278391761324, -34.547007851439794 ], [ -71.288972503811706, -34.547898600536733 ], [ -71.289499168096484, -34.548437243433263 ], [ -71.289673905690606, -34.549253536443636 ], [ -71.290032670357192, -34.550661204130527 ], [ -71.290725796057373, -34.55194383557096 ], [ -71.291800561124546, -34.553080374400274 ], [ -71.292790553974996, -34.554024996175087 ], [ -71.292560641856113, -34.554585813114578 ], [ -71.292146010063689, -34.555217381851399 ], [ -71.291957091664486, -34.555684813864445 ], [ -71.291638040618281, -34.556107569577613 ], [ -71.291330534720117, -34.556287421214279 ], [ -71.290833787927582, -34.556330942144676 ], [ -71.290259722240208, -34.556426133835451 ], [ -71.289515146430446, -34.556706797321233 ], [ -71.288894294686443, -34.557150422527421 ], [ -71.28876297267, -34.557199045523134 ], [ -71.287809697558487, -34.557552370933415 ], [ -71.2875267291423, -34.55774859074662 ], [ -71.287017115779932, -34.558092042553355 ], [ -71.286330751698898, -34.558295672481201 ], [ -71.285424268033893, -34.558885178263864 ], [ -71.285320221564433, -34.558955295172574 ], [ -71.284909401323759, -34.559223180458659 ], [ -71.284005527264668, -34.559722819112196 ], [ -71.283206379699692, -34.560023963708019 ], [ -71.282178055736082, -34.560377174288881 ], [ -71.281086871262147, -34.560540709568912 ], [ -71.280346735824821, -34.560888442074287 ], [ -71.279438877737448, -34.561430219655513 ], [ -71.27909953374899, -34.561675111362305 ], [ -71.278147024002095, -34.562694744958449 ], [ -71.277423675382479, -34.563662383921361 ], [ -71.276971715895044, -34.564004718689759 ], [ -71.276527465749396, -34.564633244336811 ], [ -71.275506761296015, -34.565272446412827 ], [ -71.274877956766801, -34.565475087479157 ], [ -71.274021162513421, -34.565777247624403 ], [ -71.272880029014757, -34.566227831239296 ], [ -71.272367708130119, -34.566475926663912 ], [ -71.271867060852614, -34.567153122564839 ], [ -71.271770022140672, -34.567822877262373 ], [ -71.27171507668632, -34.569475230408003 ], [ -71.27170662892938, -34.569732404164455 ], [ -71.271506100703462, -34.570083626618008 ], [ -71.271376218686413, -34.570311007812123 ], [ -71.271276579351735, -34.570885388952476 ], [ -71.271125685740202, -34.571699202687604 ], [ -71.271033214063166, -34.572819388039974 ], [ -71.270995545008347, -34.573275924114043 ], [ -71.270953460733921, -34.573849159735666 ], [ -71.270584964617854, -34.574288809526301 ], [ -71.270506611762144, -34.574382291271391 ], [ -71.269999422054426, -34.574821123876895 ], [ -71.269490930687837, -34.575212268518875 ], [ -71.268821231253639, -34.57603572930639 ], [ -71.268656049039208, -34.576324990099735 ], [ -71.267941548825135, -34.577626384575332 ], [ -71.267327460496929, -34.578381374046252 ], [ -71.267161473391965, -34.578503292083106 ], [ -71.266759405437114, -34.57869798691128 ], [ -71.266309913621768, -34.579135658456856 ], [ -71.265921867470169, -34.579715393361923 ], [ -71.26586329102544, -34.580225196157919 ], [ -71.271357421439092, -34.581422506187174 ], [ -71.272180821720113, -34.581114261966427 ], [ -71.273629244622953, -34.581050421536588 ], [ -71.274725370729271, -34.581083975913479 ], [ -71.275787826182111, -34.581215562517109 ], [ -71.277237819340087, -34.581971735283574 ], [ -71.279374729042999, -34.582627170468385 ], [ -71.282871604542763, -34.583306015735154 ], [ -71.28561785318098, -34.58330865235412 ], [ -71.287444487479718, -34.583346274272195 ], [ -71.288374769313222, -34.583527790228395 ], [ -71.289382444601713, -34.583851347372267 ], [ -71.29054546914557, -34.583958834121674 ], [ -71.292883430792202, -34.583908337886932 ], [ -71.294999631632876, -34.584080800185205 ], [ -71.297606612655997, -34.584317690276499 ], [ -71.298285982454232, -34.58482940695604 ], [ -71.298605629083454, -34.58533024811733 ], [ -71.300331755376618, -34.585364547728204 ], [ -71.301938727333891, -34.585426920504119 ], [ -71.303106505762187, -34.585750664019336 ], [ -71.303638056882107, -34.586127180514175 ], [ -71.304213406262036, -34.586527683541782 ], [ -71.305470875183246, -34.58711994294395 ], [ -71.307228157745428, -34.587556209373005 ], [ -71.308105156906151, -34.588019744889792 ], [ -71.308794622869868, -34.588383058461119 ], [ -71.309921378832428, -34.588912826554441 ], [ -71.311224302507057, -34.589231568346442 ], [ -71.313551124145846, -34.589666918506396 ], [ -71.314735932835333, -34.589747836137754 ], [ -71.316581610519776, -34.589803635668147 ], [ -71.318123482466703, -34.590174558531139 ], [ -71.319970758254016, -34.590798066896589 ], [ -71.319948595917651, -34.592842919641306 ], [ -71.319647149156083, -34.594392721282986 ], [ -71.318620105291728, -34.596105356667202 ], [ -71.319016778863315, -34.597009470717019 ], [ -71.318813553894913, -34.598138649798798 ], [ -71.318749669305177, -34.599001815672132 ], [ -71.318905284461835, -34.600101351080873 ], [ -71.319268251447326, -34.601693758798426 ], [ -71.319893787905542, -34.603104880579203 ], [ -71.320282008330295, -34.603729094884827 ], [ -71.331519674718137, -34.60809916456256 ], [ -71.338682458111407, -34.610561650382202 ], [ -71.338792136119395, -34.610605705538589 ], [ -71.340318582196261, -34.611218205607408 ], [ -71.342626062208694, -34.611917380236008 ], [ -71.347077974416223, -34.613266445179718 ], [ -71.346998562446799, -34.613726457082663 ], [ -71.3472327604279, -34.61383664211337 ], [ -71.348309279006514, -34.614312652452028 ], [ -71.351623591687698, -34.615471565934989 ], [ -71.353920691667014, -34.616611847227425 ], [ -71.354535713344831, -34.616791030497723 ], [ -71.354665265680154, -34.61678860268097 ], [ -71.356268245524276, -34.61790398479274 ], [ -71.362461558079772, -34.621228793022816 ], [ -71.362839911409438, -34.621040226440762 ], [ -71.363218262044185, -34.620851584026695 ], [ -71.363595415224651, -34.620617692297657 ], [ -71.363973850301008, -34.620429045226906 ], [ -71.364352198240795, -34.620240473131389 ], [ -71.364673235462107, -34.619962247116135 ], [ -71.364994363413231, -34.619684091876437 ], [ -71.365148363399015, -34.619318559187654 ], [ -71.365302450521398, -34.618952951701459 ], [ -71.365512646416406, -34.618631675163812 ], [ -71.365777570373481, -34.618309335786591 ], [ -71.366042578772181, -34.617986847302319 ], [ -71.366196572469761, -34.617621314531306 ], [ -71.366406760279943, -34.617300035796148 ], [ -71.366616856461974, -34.616978685585323 ], [ -71.366771023534383, -34.616613149113668 ], [ -71.366981207751309, -34.616291869433297 ], [ -71.367025643815154, -34.615928388871218 ], [ -71.367070171507152, -34.615564979907859 ], [ -71.367114608469308, -34.615201573049966 ], [ -71.367104404505994, -34.614839152311021 ], [ -71.36709402357458, -34.614476809095578 ], [ -71.366919456660369, -34.614117653683046 ], [ -71.366854256937032, -34.613756300955558 ], [ -71.366734421678132, -34.613396082245586 ], [ -71.366778949370143, -34.613032673285659 ], [ -71.366933021221158, -34.61266713792007 ], [ -71.367197921822026, -34.612344722148492 ], [ -71.367518922212383, -34.612066563560688 ], [ -71.367897309678057, -34.611877906665818 ], [ -71.36833299977738, -34.611778828225056 ], [ -71.368653994777844, -34.611500665523195 ], [ -71.369031091364448, -34.611266759272986 ], [ -71.369409383608684, -34.611078099081887 ], [ -71.369842491051557, -34.610888447008421 ], [ -71.370220867737444, -34.610699783739612 ], [ -71.370485840203543, -34.610377433522501 ], [ -71.370639889596674, -34.610011820663715 ], [ -71.370793938091481, -34.609646281608612 ], [ -71.37091478126014, -34.609077405956256 ], [ -71.370927759221033, -34.608971441507741 ], [ -71.371294964458045, -34.60847308886315 ], [ -71.371841831853558, -34.608007691153936 ], [ -71.372702286741713, -34.60707877183183 ], [ -71.373325729226991, -34.606455329477996 ], [ -71.373575106041443, -34.605582507050663 ], [ -71.374364803329613, -34.6042109312232 ], [ -71.376143790985651, -34.604457381986066 ], [ -71.384022095977443, -34.605775922142058 ], [ -71.393322117857025, -34.607264453311409 ], [ -71.393692410603663, -34.605623934853398 ], [ -71.394770563217762, -34.602394620378604 ], [ -71.396534902944808, -34.601955919325647 ], [ -71.396957291689716, -34.60179255794219 ], [ -71.407826850931997, -34.599197234452923 ], [ -71.408710879409853, -34.598341404483264 ], [ -71.409995946373229, -34.597400910979466 ], [ -71.410894431438962, -34.597049635358132 ], [ -71.411884264389272, -34.596358376518374 ], [ -71.412475236370284, -34.59584641212772 ], [ -71.413270126819128, -34.595415930527096 ], [ -71.413833538487225, -34.594489159062007 ], [ -71.41409982069699, -34.59448499650064 ], [ -71.414614714356603, -34.594446297019061 ], [ -71.414839702809402, -34.594413187292183 ], [ -71.415212926758826, -34.594358087453692 ], [ -71.41562296816015, -34.594158837093175 ], [ -71.416123265993008, -34.593881507931876 ], [ -71.416322221268885, -34.593822251062058 ], [ -71.41667311310033, -34.593717739476062 ], [ -71.417135935016177, -34.593746822948184 ], [ -71.417500450697219, -34.593739598114468 ], [ -71.418024199948903, -34.592506369690753 ], [ -71.418192254975608, -34.591929795930149 ], [ -71.418229632976278, -34.591623454249991 ], [ -71.41831093500106, -34.59123965700222 ], [ -71.418377782234614, -34.591059608081522 ], [ -71.41848239823598, -34.590777707966438 ], [ -71.418660414680872, -34.590544866676034 ], [ -71.418838520058998, -34.590312096466754 ], [ -71.419012106012929, -34.589926541964452 ], [ -71.419003411219293, -34.589623625788583 ], [ -71.418998903473209, -34.589468181960875 ], [ -71.418987831737326, -34.589086363361616 ], [ -71.419205427055331, -34.588623425424871 ], [ -71.419383527941875, -34.588390655009363 ], [ -71.419703374895406, -34.588269690692854 ], [ -71.42011235808134, -34.588032265345475 ], [ -71.420338812584689, -34.587874971159955 ], [ -71.420379502673782, -34.587683108102944 ], [ -71.420605955380495, -34.587525740041308 ], [ -71.420829081625726, -34.58725381851032 ], [ -71.421140142157469, -34.586827277837976 ], [ -71.42150621102563, -34.586705391239938 ], [ -71.421917399575577, -34.586544427085784 ], [ -71.422375834119578, -34.586420631276624 ], [ -71.422880498663062, -34.586295988489184 ], [ -71.423243232086563, -34.586059470859034 ], [ -71.423467456971395, -34.585825779162249 ], [ -71.423547621729014, -34.585403819426659 ], [ -71.423584885643621, -34.585097330177341 ], [ -71.423563898303655, -34.584371780597522 ], [ -71.42397082075432, -34.580886286092245 ], [ -71.423848162988776, -34.58046311272355 ], [ -71.4238167902258, -34.580354435117194 ], [ -71.423609690823582, -34.580110406818399 ], [ -71.423529717407078, -34.580016208172495 ], [ -71.423285546329708, -34.579562510786964 ], [ -71.423137065593039, -34.579221530709169 ], [ -71.423123197401665, -34.578897667827249 ], [ -71.422973062866546, -34.578345871875563 ], [ -71.422451817219567, -34.577897674157207 ], [ -71.421794300737247, -34.577528692032523 ], [ -71.421275281115541, -34.57715680888397 ], [ -71.420907521618005, -34.576932728200987 ], [ -71.420613432058616, -34.576634957700421 ], [ -71.420515445624048, -34.576445846062988 ], [ -71.420414225254476, -34.576142178821421 ], [ -71.420222951472581, -34.575916661961031 ], [ -71.420068532871881, -34.575539533373558 ], [ -71.420021624644377, -34.575347487250177 ], [ -71.41991828155578, -34.574967425552579 ], [ -71.419701359075916, -34.574796402954135 ], [ -71.419492753198952, -34.574631935626321 ], [ -71.419345402542916, -34.573999504664535 ], [ -71.41900241408932, -34.573760673119125 ], [ -71.418579757646469, -34.573101870544619 ], [ -71.418442726836389, -34.571851458416198 ], [ -71.417995588607099, -34.570359269537796 ], [ -71.417774708150077, -34.569696538063447 ], [ -71.417851310189306, -34.568861150969134 ], [ -71.416414843862881, -34.56805123663122 ], [ -71.415881857235135, -34.567061089218193 ], [ -71.415860127886731, -34.566313245613003 ], [ -71.415428448765141, -34.56495145785204 ], [ -71.419313563554283, -34.567078682933548 ], [ -71.419781071980964, -34.567249906339306 ], [ -71.420245790240372, -34.567121564270352 ], [ -71.42093738161806, -34.567107843043878 ], [ -71.421570039919828, -34.567047652777489 ], [ -71.422104679447713, -34.567036965908578 ], [ -71.422549918638495, -34.567028200115608 ], [ -71.423690078363407, -34.566576176877732 ], [ -71.424547746677533, -34.566320591928594 ], [ -71.425172086579792, -34.565974296515172 ], [ -71.425370243253369, -34.565828634424406 ], [ -71.425906066760774, -34.565434983030521 ], [ -71.426412341085239, -34.564995463962212 ], [ -71.426806020571988, -34.564653747264948 ], [ -71.427665232191771, -34.563749096987046 ], [ -71.427749821152204, -34.56339454696149 ], [ -71.427848370830446, -34.562820155505456 ], [ -71.427951168641655, -34.562388805961682 ], [ -71.427941553074859, -34.562055037039364 ], [ -71.427931759641638, -34.561721271216278 ], [ -71.427923443038722, -34.561435258291482 ], [ -71.427798467619766, -34.561103784785431 ], [ -71.427901261837732, -34.560672361239078 ], [ -71.428063078963135, -34.560287546636594 ], [ -71.428340164312502, -34.559900436896129 ], [ -71.428489407718871, -34.559086419655223 ], [ -71.428477018154467, -34.558657287914976 ], [ -71.428579807880865, -34.558225938236852 ], [ -71.428744299290841, -34.55793641251099 ], [ -71.429890362743805, -34.557539236280149 ], [ -71.430232964023503, -34.557572811243276 ], [ -71.43058024013591, -34.557613676311888 ], [ -71.431159255540507, -34.557697484521903 ], [ -71.431849374579429, -34.557636023104671 ], [ -71.432190917643723, -34.557486089519102 ], [ -71.432645124715989, -34.557238492547192 ], [ -71.433144284383388, -34.5565606928619 ], [ -71.433249824751186, -34.5562246278092 ], [ -71.433469239157631, -34.555838583010477 ], [ -71.434032962541139, -34.555398035911679 ], [ -71.434432213379282, -34.555246944891039 ], [ -71.434887613414233, -34.555047024436398 ], [ -71.435285559000278, -34.554848248770185 ], [ -71.435793025389117, -34.554456524482269 ], [ -71.436193659632792, -34.554353110152178 ], [ -71.436558628064731, -34.554388878552572 ], [ -71.436598374922795, -34.554392737567376 ], [ -71.437087596528215, -34.554550759484719 ], [ -71.437542374030699, -34.554739747796269 ], [ -71.438246266937853, -34.555044136116734 ], [ -71.438797445348428, -34.555416192147618 ], [ -71.439362729105582, -34.555730063352755 ], [ -71.440118289514643, -34.555923368102363 ], [ -71.441016172709098, -34.556035241144627 ], [ -71.441953709336843, -34.55608058587994 ], [ -71.443005975199412, -34.556196887307799 ], [ -71.443619688031845, -34.556444557663113 ], [ -71.444215128233097, -34.556705220022415 ], [ -71.444811749718923, -34.556938973607245 ], [ -71.445427241215626, -34.557128107416318 ], [ -71.445927990901083, -34.557169694025035 ], [ -71.44652397817633, -34.557015874812343 ], [ -71.447067235242713, -34.556473024588421 ], [ -71.447491809588712, -34.555453549250828 ], [ -71.447855720703558, -34.554630552711245 ], [ -71.448416423951087, -34.554074644202636 ], [ -71.449045877962249, -34.553376591960919 ], [ -71.449318241766491, -34.553118698060686 ], [ -71.450041090024484, -34.5524007459383 ], [ -71.450755905547197, -34.551871864571844 ], [ -71.451529107970131, -34.55142577631208 ], [ -71.452112369711074, -34.550739861681024 ], [ -71.452877665162859, -34.550113281259762 ], [ -71.453586234699415, -34.549840998374073 ], [ -71.454129838515499, -34.549446774853386 ], [ -71.454602699104626, -34.548874733166087 ], [ -71.455304782804831, -34.54857975073822 ], [ -71.456222315747823, -34.548484774997867 ], [ -71.456602692981846, -34.548216494803988 ], [ -71.456959819121352, -34.547722177225459 ], [ -71.457608806100055, -34.547173313079277 ], [ -71.458130209850523, -34.546963115883322 ], [ -71.458509897178402, -34.546708285310437 ], [ -71.458588943533499, -34.546291571329533 ], [ -71.458433710160847, -34.545890505996041 ], [ -71.459203213321416, -34.546025511952791 ], [ -71.459720138071887, -34.546148692368334 ], [ -71.460502482649446, -34.546207437166302 ], [ -71.461260299626503, -34.546121257792066 ], [ -71.461435083034715, -34.546094839110843 ], [ -71.461835784652038, -34.545890235186292 ], [ -71.462028127429093, -34.545463184850419 ], [ -71.462266403761575, -34.544965489435363 ], [ -71.462496138014018, -34.544683761542501 ], [ -71.462962845143466, -34.544462979278919 ], [ -71.463649490397188, -34.544194552931835 ], [ -71.464149392073026, -34.543704348450433 ], [ -71.464736477043814, -34.543198719966277 ], [ -71.465223955917565, -34.542681141984396 ], [ -71.465530285921034, -34.542343136962131 ], [ -71.465921520193561, -34.541975943158313 ], [ -71.466144951865985, -34.541617457009849 ], [ -71.466824957671435, -34.540844074257748 ], [ -71.467258437915163, -34.540460217955449 ], [ -71.467984984537168, -34.540066741764377 ], [ -71.468785714933674, -34.539882607634901 ], [ -71.469018371405724, -34.539803680092355 ], [ -71.469867314383521, -34.539463327285794 ], [ -71.470518494149829, -34.539081183585019 ], [ -71.471094645725287, -34.538313794084516 ], [ -71.471387368048823, -34.537574298147192 ], [ -71.471961422956412, -34.537325016899324 ], [ -71.472491067851294, -34.537191620378437 ], [ -71.473395303931454, -34.537231346245392 ], [ -71.474109485243574, -34.537486282053543 ], [ -71.474542133647347, -34.537715091735883 ], [ -71.475041070532555, -34.537828602434438 ], [ -71.475786097296606, -34.537349998337248 ], [ -71.476495797812092, -34.536757710025086 ], [ -71.476888303200752, -34.53630944136173 ], [ -71.477136050471273, -34.536068826221943 ], [ -71.477565712875034, -34.53551345528389 ], [ -71.477949310569343, -34.535231678378615 ], [ -71.478356121628906, -34.53504063514567 ], [ -71.478810404159674, -34.534855495318062 ], [ -71.479435412408478, -34.534688745982386 ], [ -71.479807206239954, -34.534523814538083 ], [ -71.480543189664047, -34.534355838325091 ], [ -71.480927702741624, -34.534258735814205 ], [ -71.481071549968078, -34.534222357864429 ], [ -71.482261227526394, -34.533438383209941 ], [ -71.481653602576628, -34.533297423282384 ], [ -71.481113733955496, -34.533187207681081 ], [ -71.48068291991153, -34.533107194825476 ], [ -71.480402513490546, -34.533058539251641 ], [ -71.479932671240746, -34.53296846035424 ], [ -71.479390570306137, -34.53289417440336 ], [ -71.479048624796604, -34.532870767898991 ], [ -71.478675643392336, -34.532869036961515 ], [ -71.478474147680828, -34.532854223716861 ], [ -71.478041232477423, -34.53284167053156 ], [ -71.477438669534294, -34.532765723831126 ], [ -71.47681717279994, -34.532671178506462 ], [ -71.476044334194697, -34.532567810367944 ], [ -71.475664344134572, -34.532507205112779 ], [ -71.475194548597159, -34.532448567571585 ], [ -71.47488141565205, -34.532385497164952 ], [ -71.474693636316644, -34.532303414392246 ], [ -71.474571459149786, -34.532263869703449 ], [ -71.474372069089341, -34.532199525549672 ], [ -71.474016605731407, -34.532090119579017 ], [ -71.473717549386819, -34.53196886022652 ], [ -71.473451622909877, -34.531866499153388 ], [ -71.473274523644875, -34.531789368235174 ], [ -71.473042268719752, -34.531696959047693 ], [ -71.472677036183086, -34.531546759672253 ], [ -71.472509982777922, -34.531474371409821 ], [ -71.472329395354663, -34.531415033797757 ], [ -71.471050157559162, -34.531022124655919 ], [ -71.470736245774702, -34.530869032684336 ], [ -71.470019383889749, -34.530439544509228 ], [ -71.469224772816986, -34.530111693697798 ], [ -71.469034602166275, -34.530057050043624 ], [ -71.46847965711973, -34.529897454134804 ], [ -71.467965263821739, -34.529678620459059 ], [ -71.467590296242363, -34.529415681375923 ], [ -71.467302405956758, -34.529118855306024 ], [ -71.467019858850421, -34.528933437366696 ], [ -71.466831960937398, -34.528822617273136 ], [ -71.466223020854059, -34.528529248924634 ], [ -71.465050312471462, -34.527903334626281 ], [ -71.463506426501681, -34.527126562923144 ], [ -71.461910219056477, -34.526323573645328 ], [ -71.461949780861588, -34.525948862352671 ], [ -71.462237593892098, -34.525528969341302 ], [ -71.462596473543044, -34.525165023692743 ], [ -71.462983306070697, -34.5248231863428 ], [ -71.463373602502074, -34.524483936486469 ], [ -71.463763899831775, -34.524144833270483 ], [ -71.464157573928631, -34.523808393823209 ], [ -71.464579366192183, -34.5234966410843 ], [ -71.465072738912525, -34.52325825590254 ], [ -71.465637510629989, -34.523093162675508 ], [ -71.466226523385359, -34.522930163665031 ], [ -71.466793374702689, -34.522732824105667 ], [ -71.467300933617992, -34.522488751834992 ], [ -71.467691973854429, -34.522169635062362 ], [ -71.467947969455878, -34.521758421028743 ], [ -71.468217570940638, -34.52132160145289 ], [ -71.468546840323199, -34.52088098859101 ], [ -71.468885709102892, -34.520445276849671 ], [ -71.469250364022798, -34.520064062826073 ], [ -71.469624368608194, -34.519730662234885 ], [ -71.470014613835602, -34.519391393117502 ], [ -71.470438349155117, -34.518917329754267 ], [ -71.47083923492707, -34.518570014744171 ], [ -71.471121071466001, -34.518167577567553 ], [ -71.471247676428888, -34.51769339621498 ], [ -71.471321488300816, -34.517177818022681 ], [ -71.471457556116917, -34.516643476847662 ], [ -71.471660541235138, -34.516142418226458 ], [ -71.471895132678327, -34.515675428096898 ], [ -71.472129469898277, -34.51519382103583 ], [ -71.471913352308917, -34.51484880360681 ], [ -71.461546092345941, -34.513950049438321 ], [ -71.454650389764751, -34.513362844979895 ], [ -71.454373617029077, -34.5133684098519 ], [ -71.454195675144348, -34.513601224429387 ], [ -71.453795079528234, -34.514106081494454 ], [ -71.453029802042749, -34.514771065513344 ], [ -71.452165595789964, -34.515208795082181 ], [ -71.448781512757279, -34.516308437871388 ], [ -71.449803336511508, -34.513833378095903 ], [ -71.450088461782684, -34.51307111281745 ], [ -71.448490967051683, -34.512938986136632 ], [ -71.447497053055017, -34.512856039617589 ], [ -71.446079835828513, -34.512756085910112 ], [ -71.444041065273751, -34.512602166855388 ], [ -71.441975241055886, -34.512447277094985 ], [ -71.437910669822443, -34.512139450884263 ], [ -71.436144648449201, -34.511795025567885 ], [ -71.435437510827214, -34.511657218623775 ], [ -71.435262828030318, -34.511620600592671 ], [ -71.433796280718298, -34.511375702245289 ], [ -71.433354172156271, -34.51126708834979 ], [ -71.428055844830141, -34.510035169276911 ], [ -71.427918296590477, -34.51001441897813 ], [ -71.426844080393934, -34.509852620951769 ], [ -71.426711193512276, -34.509832662661992 ], [ -71.425876372050752, -34.509696303341237 ], [ -71.42415714751391, -34.509310152313418 ], [ -71.417979180878419, -34.507980555946908 ], [ -71.415471424168345, -34.50745701835077 ], [ -71.415512005561297, -34.507265083796106 ], [ -71.415601070826781, -34.507148701419389 ], [ -71.415921814298969, -34.50706599120258 ], [ -71.416239154952876, -34.506868580013688 ], [ -71.416554380972599, -34.50659491945369 ], [ -71.416917994745091, -34.506396664723603 ], [ -71.417098055755574, -34.506240223668165 ], [ -71.417090333837393, -34.505972880748203 ], [ -71.414672629641288, -34.505371103978497 ], [ -71.412814142879213, -34.504649000172748 ], [ -71.411848968683444, -34.504277459016592 ], [ -71.412230729322999, -34.503517130292366 ], [ -71.412400882814225, -34.50243196635293 ], [ -71.411204738284184, -34.500931998657386 ], [ -71.411485521099266, -34.500178245325451 ], [ -71.411948618797908, -34.498749121343536 ], [ -71.413191323907455, -34.496385117897383 ], [ -71.412776196244991, -34.495974129026607 ], [ -71.411950706482628, -34.495323318899963 ], [ -71.411329260952229, -34.494754069747032 ], [ -71.411408327070291, -34.49399972008402 ], [ -71.411794675405986, -34.493406138813022 ], [ -71.412274345224986, -34.492562712385315 ], [ -71.41235613862824, -34.491893978754788 ], [ -71.412629613648491, -34.490887863315834 ], [ -71.412794811134304, -34.48963145510352 ], [ -71.412967724250066, -34.488627399629578 ], [ -71.413548225468148, -34.487777471250297 ], [ -71.414330395772552, -34.48692813248627 ], [ -71.414910913160284, -34.486082702787492 ], [ -71.414514567473788, -34.485229555629275 ], [ -71.409504281350266, -34.484716773259926 ], [ -71.385728073957111, -34.484234856994576 ], [ -71.374274952038249, -34.483819340993151 ], [ -71.373097823046152, -34.483611348968012 ], [ -71.37347845540171, -34.483317694077996 ], [ -71.37389707122243, -34.482844425171301 ], [ -71.374183122656675, -34.482266346478887 ], [ -71.37425429348167, -34.48172833896686 ], [ -71.374276235730804, -34.480976445439516 ], [ -71.37420969212782, -34.48015485510237 ], [ -71.373886238438402, -34.479409822269687 ], [ -71.373825779124843, -34.478802733868704 ], [ -71.373633782199164, -34.478126635783887 ], [ -71.373485942859617, -34.477485425767213 ], [ -71.373597304310422, -34.476839251488379 ], [ -71.373794018289658, -34.476155526996138 ], [ -71.37425278880356, -34.475574165786895 ], [ -71.374750635134021, -34.474848840257565 ], [ -71.375034630324578, -34.474199310104396 ], [ -71.375449227981036, -34.473582984559641 ], [ -71.375551447277203, -34.472614982295994 ], [ -71.37565154565101, -34.471575382393219 ], [ -71.375853303670553, -34.471070505497337 ], [ -71.376225670627193, -34.470490818136341 ], [ -71.37664522698401, -34.4700533410766 ], [ -71.377108003085766, -34.469615021889084 ], [ -71.377525517571954, -34.469105868762725 ], [ -71.3778136216566, -34.468599382407355 ], [ -71.37796807618993, -34.467952292801726 ], [ -71.378078380323657, -34.467270316669115 ], [ -71.378102235984343, -34.466590096903431 ], [ -71.377821852021242, -34.465844160852228 ], [ -71.377189956389131, -34.464890369785174 ], [ -71.376530243525949, -34.464473888675776 ], [ -71.375904454641145, -34.463734592130962 ], [ -71.375674419453091, -34.463238184557049 ], [ -71.37557488791623, -34.462774985033633 ], [ -71.375517476586438, -34.462275221007772 ], [ -71.375461167489476, -34.461811106605836 ], [ -71.375527252951656, -34.461094246574227 ], [ -71.375638495824873, -34.460448072777027 ], [ -71.375794983245683, -34.459872510565461 ], [ -71.376088049623974, -34.459544805842199 ], [ -71.376332914200745, -34.459039163632326 ], [ -71.376667163843251, -34.458639017447794 ], [ -71.37717107290355, -34.458128334495754 ], [ -71.37785062865305, -34.457721540604496 ], [ -71.378178781429696, -34.457106888854248 ], [ -71.378120346918791, -34.456571327176611 ], [ -71.377975653479339, -34.456037442747103 ], [ -71.377783597264866, -34.455361349861441 ], [ -71.377976270621957, -34.454534640758574 ], [ -71.378028045023342, -34.453317176167367 ], [ -71.378130132267174, -34.45234909962555 ], [ -71.37837200994565, -34.451736126878345 ], [ -71.378704108123017, -34.451264527057965 ], [ -71.378990119133064, -34.450686439248834 ], [ -71.379492863976779, -34.450139950073826 ], [ -71.379909776591717, -34.449751554321217 ], [ -71.380407615735649, -34.449026355531473 ], [ -71.380738155336033, -34.448362463629287 ], [ -71.381192673225385, -34.447638031348966 ], [ -71.38165437853533, -34.447163825240075 ], [ -71.382110916735769, -34.44651098978845 ], [ -71.382254135141508, -34.445470543276137 ], [ -71.38261720902652, -34.444568939706066 ], [ -71.382682645006767, -34.443972765793298 ], [ -71.382958237356149, -34.443538002698268 ], [ -71.38352413196769, -34.443048464052687 ], [ -71.383983683117606, -34.442502873915984 ], [ -71.384444242177238, -34.441992933144093 ], [ -71.384914240733892, -34.441495436185853 ], [ -71.385067380133634, -34.441121994255106 ], [ -71.385573082231261, -34.440682808258323 ], [ -71.386268347718428, -34.440467907700771 ], [ -71.38667495845371, -34.439945719238452 ], [ -71.386793215372649, -34.439549765232343 ], [ -71.386994754203272, -34.439044948787505 ], [ -71.387500522776222, -34.438605753354629 ], [ -71.387909685625203, -34.437810545717831 ], [ -71.388581061315719, -34.437117670244106 ], [ -71.389469036990917, -34.436456228655551 ], [ -71.389889377576992, -34.436054439143831 ], [ -71.39030174381827, -34.435366544988824 ], [ -71.390664692837461, -34.434464922031445 ], [ -71.391031712123194, -34.433706421336929 ], [ -71.391531308371839, -34.433052489377907 ], [ -71.391990754418828, -34.432506872498315 ], [ -71.392145049052033, -34.43185976845335 ], [ -71.392253080448114, -34.43110633360746 ], [ -71.392408391075875, -34.430495029186694 ], [ -71.392356976000599, -34.42992647071808 ], [ -71.39213758764528, -34.42856815067293 ], [ -71.391686542642816, -34.427897220050262 ], [ -71.391090552672622, -34.428195066649877 ], [ -71.390870807686142, -34.428412656593814 ], [ -71.390324422685936, -34.429034710456932 ], [ -71.389514341725658, -34.429893377060054 ], [ -71.387948328453788, -34.431510671266864 ], [ -71.387072875293654, -34.432614097469802 ], [ -71.386800314758332, -34.433394818524022 ], [ -71.386014155035753, -34.433680549378906 ] ] ] } },
{ "type": "Feature", "properties": { "capa": "colegios", "popup": "<strong>ESCUELA DE LENGUAJE ALUN</strong><br><br><strong>Dirección:</strong> JUAN GUILLERMO DAY 18", "etiqueta": "" }, "geometry": { "type": "Point", "coordinates": [ -71.36346, -34.59793 ] } },
{ "type": "Feature", "properties": { "capa": "colegios", "popup": "<strong>ESCUELA ESPECIAL DE LENGUAJE ARBOL</strong><br><br><strong>Dirección:</strong> JOSE TORIBIO MEDINA 0", "etiqueta": "" }, "geometry": { "type": "Point", "coordinates": [ -71.36451, -34.596642 ] } },
{ "type": "Feature", "properties": { "capa": "colegios", "popup": "<strong>ESCUELA MARGOT LOYOLA PALACIOS</strong><br><br><strong>Dirección:</strong> PRESIDENTE ANIBAL PINTO 39", "etiqueta": "" }, "geometry": { "type": "Point", "coordinates": [ -71.360657, -34.59478 ] } },
{ "type": "Feature", "properties": { "capa": "colegios", "popup": "<strong>ESCUELA MUNICIPAL VALLE HERMOSO</strong><br><br><strong>Dirección:</strong> VALLE HERMOSO 0", "etiqueta": "" }, "geometry": { "type": "Point", "coordinates": [ -71.331741, -34.53492 ] } },
{ "type": "Feature", "properties": { "capa": "colegios", "popup": "<strong>LICEO SAN JOSE DEL CARMEN</strong><br><br><strong>Dirección:</strong> AVENIDA CENTRAL 0", "etiqueta": "" }, "geometry": { "type": "Point", "coordinates": [ -71.372673, -34.52359 ] } },
{ "type": "Feature", "properties": { "capa": "colegios", "popup": "<strong>ESCUELA MUNICIPAL LIHUEIMO</strong><br><br><strong>Dirección:</strong> LIHUEIMO 0", "etiqueta": "" }, "geometry": { "type": "Point", "coordinates": [ -71.422394, -34.51833 ] } },
{ "type": "Feature", "properties": { "capa": "colegios", "popup": "<strong>ESCUELA REBECA CADIZ VALENZUELA</strong><br><br><strong>Dirección:</strong> LAS GARZAS 0", "etiqueta": "" }, "geometry": { "type": "Point", "coordinates": [ -71.394653, -34.516029 ] } },
{ "type": "Feature", "properties": { "capa": "colegios", "popup": "<strong>ESCUELA JORGE ERRAZURIZ ECHEÑIQUE</strong><br><br><strong>Dirección:</strong> CAMINO A PICHIDEGUA 21", "etiqueta": "" }, "geometry": { "type": "Point", "coordinates": [ -71.359978, -34.478439 ] } },
{ "type": "Feature", "properties": { "capa": "colegios", "popup": "<strong>ESCUELA MUNICIPAL SANTA MATILDE</strong><br><br><strong>Dirección:</strong> SANTA MATILDE 0", "etiqueta": "" }, "geometry": { "type": "Point", "coordinates": [ -71.3228, -34.467781 ] } },
{ "type": "Feature", "properties": { "capa": "jardines", "popup": "<strong>MILAGRITOS</strong><br><br><strong>Dirección:</strong> ESCUELA G512 VALLE HERMOSO ", "etiqueta": "" }, "geometry": { "type": "MultiPoint", "coordinates": [ [ -71.331737, -34.534734 ] ] } },
{ "type": "Feature", "properties": { "capa": "jardines", "popup": "<strong>CORAZON DE NIÃ‘O</strong><br><br><strong>Dirección:</strong> FUNDO TALHUEN S/N PALMILLA ", "etiqueta": "" }, "geometry": { "type": "MultiPoint", "coordinates": [ [ -71.344209, -34.494978 ] ] } },
{ "type": "Feature", "properties": { "capa": "jardines", "popup": "<strong>GOTITAS DE LUNA</strong><br><br><strong>Dirección:</strong> ELENA ERRRAZURIZ S/N SECTOR SAN JOSE DEL CARMEN ", "etiqueta": "" }, "geometry": { "type": "MultiPoint", "coordinates": [ [ -71.373188, -34.523377 ] ] } },
{ "type": "Feature", "properties": { "capa": "jardines", "popup": "<strong>ORILLITA DE RIO</strong><br><br><strong>Dirección:</strong> PSJ LOS NARANJOS N 111 POBL JUAN PABLO II SEC LA C ", "etiqueta": "" }, "geometry": { "type": "MultiPoint", "coordinates": [ [ -71.356802, -34.587603 ] ] } },
{ "type": "Feature", "properties": { "capa": "jardines", "popup": "<strong>NA</strong><br><br><strong>Dirección:</strong> NA ", "etiqueta": "" }, "geometry": { "type": "MultiPoint", "coordinates": [ [ -71.361755000519736, -34.595586000079273 ] ] } },
{ "type": "Feature", "properties": { "capa": "jardines", "popup": "<strong>NA</strong><br><br><strong>Dirección:</strong> NA ", "etiqueta": "" }, "geometry": { "type": "MultiPoint", "coordinates": [ [ -71.358369000173838, -34.531687999867181 ] ] } },
{ "type": "Feature", "properties": { "capa": "comisarias", "popup": "<strong>RETEN HUIQUE</strong><br><br><strong>Dirección:</strong> EL NARANJAL 400", "etiqueta": "" }, "geometry": { "type": "Point", "coordinates": [ -71.375852345999931, -34.52268762399995 ] } },
{ "type": "Feature", "properties": { "capa": "salud", "popup": "<strong>Centro de Salud Familiar de Palmilla</strong><br><br><strong>Tipo de atención:</strong> Centro de Salud Familiar (CESFAM)<br><strong>Dirección:</strong>  NA", "etiqueta": "" }, "geometry": { "type": "Point", "coordinates": [ -71.36083, -34.59587 ] } },
{ "type": "Feature", "properties": { "capa": "salud", "popup": "<strong>Posta de Salud Rural Pupilla</strong><br><br><strong>Tipo de atención:</strong> Posta de Salud Rural (PSR)<br><strong>Dirección:</strong>  NA", "etiqueta": "" }, "geometry": { "type": "Point", "coordinates": [ -71.38892, -34.53217 ] } },
{ "type": "Feature", "properties": { "capa": "salud", "popup": "<strong>Posta de Salud Rural San José del Carmen</strong><br><br><strong>Tipo de atención:</strong> Posta de Salud Rural (PSR)<br><strong>Dirección:</strong>  NA", "etiqueta": "" }, "geometry": { "type": "Point", "coordinates": [ -71.37203, -34.52297 ] } },
{ "type": "Feature", "properties": { "capa": "salud", "popup": "<strong>Posta de Salud Rural Santa Irene</strong><br><br><strong>Tipo de atención:</strong> Posta de Salud Rural (PSR)<br><strong>Dirección:</strong>  NA", "etiqueta": "" }, "geometry": { "type": "Point", "coordinates": [ -71.31025, -34.4759 ] } },
{ "type": "Feature", "properties": { "capa": "municipios", "popup": "<strong>Municipalidad de Palmilla</strong><br><br><strong>Dirección:</strong> Juan Guillermo Day Nº 80<br><strong>Región:</strong> Libertador General Bernardo O'Higgins", "etiqueta": "" }, "geometry": { "type": "Point", "coordinates": [ -71.358048440999937, -34.607173510999928 ] } }
]
}
