{
"type": "FeatureCollection",
"name": "6307",
"crs": { "type": "name", "properties": { "name": "urn:ogc:def:crs:OGC:1.3:CRS84" } },
"features": [
{ "type": "Feature", "properties": { "capa": "comuna", "popup": "", "etiqueta": "" }, "geometry": { "type": "Polygon", "coordinates": [ [ [ -71.429541146270367, -34.360846725592829 ], [ -71.428508931703249, -34.360962566623236 ], [ -71.42804619422904, -34.360876330835907 ], [ -71.427241310022694, -34.360892303261757 ], [ -71.426321430680176, -34.360910624199207 ], [ -71.425342788941663, -34.360747239500633 ], [ -71.424768793322883, -34.36080211785842 ], [ -71.425283987918107, -34.361095595291978 ], [ -71.425650150211069, -34.361304139260831 ], [ -71.425876210353991, -34.361623360136832 ], [ -71.426059870913832, -34.361979314643612 ], [ -71.426071270534777, -34.362374653337177 ], [ -71.426039415376493, -34.362770923025067 ], [ -71.426093037612432, -34.363129456918976 ], [ -71.426363489801773, -34.363483764010361 ], [ -71.426632904436943, -34.363802050409014 ], [ -71.426729968301714, -34.364159795352869 ], [ -71.426999386530156, -34.364478079925121 ], [ -71.42731206582603, -34.364795506828415 ], [ -71.427365786876649, -34.365154111402155 ], [ -71.427290497276047, -34.365551169525517 ], [ -71.427259593433661, -34.365983313440147 ], [ -71.427443362689644, -34.3663393376656 ], [ -71.427497082841953, -34.366697868154709 ], [ -71.427723165442757, -34.367017085537292 ], [ -71.427734486910296, -34.367412424190142 ], [ -71.427874999590401, -34.367769306928849 ], [ -71.428015333505769, -34.36812611770538 ], [ -71.428113447501104, -34.368519807981336 ], [ -71.428210523043973, -34.368877477170109 ], [ -71.42826424858616, -34.369236007178287 ], [ -71.428231276821975, -34.369596332261253 ], [ -71.428242689917653, -34.369991669123706 ], [ -71.428339768155482, -34.3703493387018 ], [ -71.428480199987206, -34.370706220793053 ], [ -71.428663983616232, -34.371062169338252 ], [ -71.42876106724394, -34.371419911458105 ], [ -71.428858151769958, -34.371777654274553 ], [ -71.428825090174257, -34.372137906884099 ], [ -71.42887891273449, -34.372496508205614 ], [ -71.428932555631675, -34.372855039778322 ], [ -71.428986288360406, -34.373213568333526 ], [ -71.429041061338225, -34.373608118504279 ], [ -71.427862150088586, -34.373800429295606 ], [ -71.427391891020491, -34.373952891557771 ], [ -71.427017090527755, -34.374425463565935 ], [ -71.426863145339212, -34.37507260047677 ], [ -71.426843707593093, -34.375895944950074 ], [ -71.427041001883993, -34.376750659625692 ], [ -71.427281480885554, -34.377604664945885 ], [ -71.427305222460191, -34.378427077049992 ], [ -71.426850419804893, -34.379115930376067 ], [ -71.426262037666845, -34.379664302134543 ], [ -71.425655532017927, -34.380020123644698 ], [ -71.425334857715995, -34.380434085325334 ], [ -71.425303025913919, -34.380828284911587 ], [ -71.425668819897609, -34.381536604803607 ], [ -71.426258330319655, -34.382526817976107 ], [ -71.426590162595716, -34.383557811913519 ], [ -71.426188830361085, -34.384603425151191 ], [ -71.42526056434707, -34.385337410247516 ], [ -71.423892670019541, -34.385793917720889 ], [ -71.422900485279811, -34.38581357799913 ], [ -71.42132920608374, -34.385200687410638 ], [ -71.420343292483011, -34.385434824002033 ], [ -71.419445707529221, -34.385738843711685 ], [ -71.418556434686735, -34.386328952161648 ], [ -71.418053193074684, -34.386839783255269 ], [ -71.417820175479875, -34.387738913668564 ], [ -71.417633241459143, -34.388744368991865 ], [ -71.41726458544295, -34.38943155920132 ], [ -71.416943130505047, -34.390260871535375 ], [ -71.416873304458022, -34.390834696740285 ], [ -71.41695033768859, -34.39201388286849 ], [ -71.416985425883581, -34.393094489789306 ], [ -71.416827230765406, -34.393733723576396 ], [ -71.416762457741854, -34.394486397350491 ], [ -71.416812158831576, -34.395068272534417 ], [ -71.416803688616753, -34.395916803702129 ], [ -71.416706418139484, -34.396722925063273 ], [ -71.416587006885393, -34.397388127001555 ], [ -71.416653851424002, -34.398209764399262 ], [ -71.416673806599718, -34.39906149988353 ], [ -71.416730929570335, -34.399535770623125 ], [ -71.416805089988614, -34.400153202904519 ], [ -71.416602546841503, -34.400929942909229 ], [ -71.41632312048246, -34.401722677403072 ], [ -71.416125611494223, -34.40243927378431 ], [ -71.415679380563361, -34.402798380532367 ], [ -71.415051618978183, -34.403175177801664 ], [ -71.414058955436417, -34.403321884657416 ], [ -71.413215878457436, -34.403251010519753 ], [ -71.412478339151292, -34.40312250925426 ], [ -71.411783988149054, -34.402993077603576 ], [ -71.410869849041205, -34.402724771709003 ], [ -71.410344831368334, -34.402484682805472 ], [ -71.410153871996812, -34.401844437419967 ], [ -71.409744068649047, -34.401101120793676 ], [ -71.409472890620961, -34.400677074911172 ], [ -71.408770361356403, -34.400261527814763 ], [ -71.408119053131003, -34.400131300125189 ], [ -71.407214177450371, -34.400184862972793 ], [ -71.406184859950045, -34.400419890834058 ], [ -71.405285099276625, -34.400652214855917 ], [ -71.404600925288264, -34.400880365993999 ], [ -71.404030301046745, -34.40123131732588 ], [ -71.403372275219652, -34.401691663499349 ], [ -71.402866893820587, -34.402130912784614 ], [ -71.402235093409914, -34.402680026922894 ], [ -71.401899219613384, -34.403008704758335 ], [ -71.401955613151983, -34.403472732977157 ], [ -71.40222871806634, -34.403968248270779 ], [ -71.40285015820686, -34.404564302104681 ], [ -71.403646157176723, -34.40522856120382 ], [ -71.40404774093966, -34.405685800669765 ], [ -71.404622942995871, -34.40617536915056 ], [ -71.404942429724983, -34.406777423932269 ], [ -71.40525977846373, -34.407307807688618 ], [ -71.406417402336061, -34.408537377635213 ], [ -71.40669166248388, -34.409068604016952 ], [ -71.406790259772833, -34.409496052131701 ], [ -71.406896970645448, -34.410215951071272 ], [ -71.406753951665678, -34.410648229857458 ], [ -71.406479465142411, -34.410886790868908 ], [ -71.406111068739335, -34.411405778445932 ], [ -71.405435096369516, -34.411920033802559 ], [ -71.40479607440227, -34.412218790330272 ], [ -71.404197085855643, -34.412409519850144 ], [ -71.403639239250737, -34.412527799666037 ], [ -71.403208755786792, -34.412572081925987 ], [ -71.402565626722065, -34.412727778142184 ], [ -71.402268731724035, -34.412912562157175 ], [ -71.402114539498768, -34.413559601654661 ], [ -71.402092912558331, -34.414311347114918 ], [ -71.402153412296073, -34.414918422701064 ], [ -71.402172853635463, -34.415597944258153 ], [ -71.402239580494765, -34.416419517693249 ], [ -71.402347372938948, -34.417168794912946 ], [ -71.402363745633323, -34.417740990542171 ], [ -71.40247350089642, -34.418561792983098 ], [ -71.402758009024993, -34.419450650412294 ], [ -71.40295519461975, -34.420305552457847 ], [ -71.403195581993145, -34.421159531338347 ], [ -71.403260193319966, -34.421909653825239 ], [ -71.403363909209418, -34.422515878403857 ], [ -71.403392457669142, -34.423148765208509 ], [ -71.403276460013132, -34.423984490908282 ], [ -71.402943493164855, -34.424420425735121 ], [ -71.40242970353475, -34.424573654610661 ], [ -71.401955019365559, -34.424582982987772 ], [ -71.40148033519641, -34.42459230988181 ], [ -71.400791867260963, -34.424677398198213 ], [ -71.400100420512047, -34.424655231377471 ], [ -71.399184961779056, -34.424351124084787 ], [ -71.398148261025398, -34.42433572247527 ], [ -71.397200933659377, -34.424425794989681 ], [ -71.39589727426457, -34.424774837292716 ], [ -71.395039570017801, -34.42498248537575 ], [ -71.393863405816305, -34.425493111625677 ], [ -71.39309981806187, -34.425973124799036 ], [ -71.392465832948417, -34.42645074408123 ], [ -71.392126679402793, -34.426672003431634 ], [ -71.391625174234193, -34.427254409807936 ], [ -71.391686542642816, -34.427897220050262 ], [ -71.39213758764528, -34.42856815067293 ], [ -71.392356976000599, -34.42992647071808 ], [ -71.392408391075875, -34.430495029186694 ], [ -71.392253080448114, -34.43110633360746 ], [ -71.392145049052033, -34.43185976845335 ], [ -71.391990754418828, -34.432506872498315 ], [ -71.391531308371839, -34.433052489377907 ], [ -71.391031712123194, -34.433706421336929 ], [ -71.390664692837461, -34.434464922031445 ], [ -71.39030174381827, -34.435366544988824 ], [ -71.389889377576992, -34.436054439143831 ], [ -71.389469036990917, -34.436456228655551 ], [ -71.388581061315719, -34.437117670244106 ], [ -71.387909685625203, -34.437810545717831 ], [ -71.387500522776222, -34.438605753354629 ], [ -71.386994754203272, -34.439044948787505 ], [ -71.386793215372649, -34.439549765232343 ], [ -71.38667495845371, -34.439945719238452 ], [ -71.386268347718428, -34.440467907700771 ], [ -71.385573082231261, -34.440682808258323 ], [ -71.385067380133634, -34.441121994255106 ], [ -71.384914240733892, -34.441495436185853 ], [ -71.384444242177238, -34.441992933144093 ], [ -71.383983683117606, -34.442502873915984 ], [ -71.38352413196769, -34.443048464052687 ], [ -71.382958237356149, -34.443538002698268 ], [ -71.382682645006767, -34.443972765793298 ], [ -71.38261720902652, -34.444568939706066 ], [ -71.382254135141508, -34.445470543276137 ], [ -71.382110916735769, -34.44651098978845 ], [ -71.38165437853533, -34.447163825240075 ], [ -71.381192673225385, -34.447638031348966 ], [ -71.380738155336033, -34.448362463629287 ], [ -71.380407615735649, -34.449026355531473 ], [ -71.379909776591717, -34.449751554321217 ], [ -71.379492863976779, -34.450139950073826 ], [ -71.378990119133064, -34.450686439248834 ], [ -71.378704108123017, -34.451264527057965 ], [ -71.37837200994565, -34.451736126878345 ], [ -71.378130132267174, -34.45234909962555 ], [ -71.378028045023342, -34.453317176167367 ], [ -71.377976270621957, -34.454534640758574 ], [ -71.377783597264866, -34.455361349861441 ], [ -71.377975653479339, -34.456037442747103 ], [ -71.378120346918791, -34.456571327176611 ], [ -71.378178781429696, -34.457106888854248 ], [ -71.37785062865305, -34.457721540604496 ], [ -71.37717107290355, -34.458128334495754 ], [ -71.376667163843251, -34.458639017447794 ], [ -71.376332914200745, -34.459039163632326 ], [ -71.376088049623974, -34.459544805842199 ], [ -71.375794983245683, -34.459872510565461 ], [ -71.375638495824873, -34.460448072777027 ], [ -71.375527252951656, -34.461094246574227 ], [ -71.375461167489476, -34.461811106605836 ], [ -71.375517476586438, -34.462275221007772 ], [ -71.37557488791623, -34.462774985033633 ], [ -71.375674419453091, -34.463238184557049 ], [ -71.375904454641145, -34.463734592130962 ], [ -71.376530243525949, -34.464473888675776 ], [ -71.377189956389131, -34.464890369785174 ], [ -71.377821852021242, -34.465844160852228 ], [ -71.378102235984343, -34.466590096903431 ], [ -71.378078380323657, -34.467270316669115 ], [ -71.37796807618993, -34.467952292801726 ], [ -71.3778136216566, -34.468599382407355 ], [ -71.377525517571954, -34.469105868762725 ], [ -71.377108003085766, -34.469615021889084 ], [ -71.37664522698401, -34.4700533410766 ], [ -71.376225670627193, -34.470490818136341 ], [ -71.375853303670553, -34.471070505497337 ], [ -71.37565154565101, -34.471575382393219 ], [ -71.375551447277203, -34.472614982295994 ], [ -71.375449227981036, -34.473582984559641 ], [ -71.375034630324578, -34.474199310104396 ], [ -71.374750635134021, -34.474848840257565 ], [ -71.37425278880356, -34.475574165786895 ], [ -71.373794018289658, -34.476155526996138 ], [ -71.373597304310422, -34.476839251488379 ], [ -71.373485942859617, -34.477485425767213 ], [ -71.373633782199164, -34.478126635783887 ], [ -71.373825779124843, -34.478802733868704 ], [ -71.373886238438402, -34.479409822269687 ], [ -71.37420969212782, -34.48015485510237 ], [ -71.374276235730804, -34.480976445439516 ], [ -71.37425429348167, -34.48172833896686 ], [ -71.374183122656675, -34.482266346478887 ], [ -71.37389707122243, -34.482844425171301 ], [ -71.37347845540171, -34.483317694077996 ], [ -71.373097823046152, -34.483611348968012 ], [ -71.374274952038249, -34.483819340993151 ], [ -71.385728073957111, -34.484234856994576 ], [ -71.409504281350266, -34.484716773259926 ], [ -71.414514567473788, -34.485229555629275 ], [ -71.414910913160284, -34.486082702787492 ], [ -71.414330395772552, -34.48692813248627 ], [ -71.413548225468148, -34.487777471250297 ], [ -71.412967724250066, -34.488627399629578 ], [ -71.412794811134304, -34.48963145510352 ], [ -71.412629613648491, -34.490887863315834 ], [ -71.41235613862824, -34.491893978754788 ], [ -71.412274345224986, -34.492562712385315 ], [ -71.411794675405986, -34.493406138813022 ], [ -71.411408327070291, -34.49399972008402 ], [ -71.411329260952229, -34.494754069747032 ], [ -71.411950706482628, -34.495323318899963 ], [ -71.412776196244991, -34.495974129026607 ], [ -71.413191323907455, -34.496385117897383 ], [ -71.411948618797908, -34.498749121343536 ], [ -71.411485521099266, -34.500178245325451 ], [ -71.411204738284184, -34.500931998657386 ], [ -71.412400882814225, -34.50243196635293 ], [ -71.412230729322999, -34.503517130292366 ], [ -71.411848968683444, -34.504277459016592 ], [ -71.412814142879213, -34.504649000172748 ], [ -71.414672629641288, -34.505371103978497 ], [ -71.417090333837393, -34.505972880748203 ], [ -71.417098055755574, -34.506240223668165 ], [ -71.416917994745091, -34.506396664723603 ], [ -71.416554380972599, -34.50659491945369 ], [ -71.416239154952876, -34.506868580013688 ], [ -71.415921814298969, -34.50706599120258 ], [ -71.415601070826781, -34.507148701419389 ], [ -71.415512005561297, -34.507265083796106 ], [ -71.415471424168345, -34.50745701835077 ], [ -71.417979180878419, -34.507980555946908 ], [ -71.42415714751391, -34.509310152313418 ], [ -71.425876372050752, -34.509696303341237 ], [ -71.426711193512276, -34.509832662661992 ], [ -71.426844080393934, -34.509852620951769 ], [ -71.427918296590477, -34.51001441897813 ], [ -71.428055844830141, -34.510035169276911 ], [ -71.433354172156271, -34.51126708834979 ], [ -71.433796280718298, -34.511375702245289 ], [ -71.435262828030318, -34.511620600592671 ], [ -71.435437510827214, -34.511657218623775 ], [ -71.436144648449201, -34.511795025567885 ], [ -71.437910669822443, -34.512139450884263 ], [ -71.441975241055886, -34.512447277094985 ], [ -71.444041065273751, -34.512602166855388 ], [ -71.446079835828513, -34.512756085910112 ], [ -71.447497053055017, -34.512856039617589 ], [ -71.448490967051683, -34.512938986136632 ], [ -71.450088461782684, -34.51307111281745 ], [ -71.449803336511508, -34.513833378095903 ], [ -71.448781512757279, -34.516308437871388 ], [ -71.452165595789964, -34.515208795082181 ], [ -71.453029802042749, -34.514771065513344 ], [ -71.453795079528234, -34.514106081494454 ], [ -71.454195675144348, -34.513601224429387 ], [ -71.454373617029077, -34.5133684098519 ], [ -71.454650389764751, -34.513362844979895 ], [ -71.461546092345941, -34.513950049438321 ], [ -71.471913352308917, -34.51484880360681 ], [ -71.472129469898277, -34.51519382103583 ], [ -71.471895132678327, -34.515675428096898 ], [ -71.471660541235138, -34.516142418226458 ], [ -71.471457556116917, -34.516643476847662 ], [ -71.471321488300816, -34.517177818022681 ], [ -71.471247676428888, -34.51769339621498 ], [ -71.471121071466001, -34.518167577567553 ], [ -71.47083923492707, -34.518570014744171 ], [ -71.470438349155117, -34.518917329754267 ], [ -71.470014613835602, -34.519391393117502 ], [ -71.469624368608194, -34.519730662234885 ], [ -71.469250364022798, -34.520064062826073 ], [ -71.468885709102892, -34.520445276849671 ], [ -71.468546840323199, -34.52088098859101 ], [ -71.468217570940638, -34.52132160145289 ], [ -71.467947969455878, -34.521758421028743 ], [ -71.467691973854429, -34.522169635062362 ], [ -71.467300933617992, -34.522488751834992 ], [ -71.466793374702689, -34.522732824105667 ], [ -71.466226523385359, -34.522930163665031 ], [ -71.465637510629989, -34.523093162675508 ], [ -71.465072738912525, -34.52325825590254 ], [ -71.464579366192183, -34.5234966410843 ], [ -71.464157573928631, -34.523808393823209 ], [ -71.463763899831775, -34.524144833270483 ], [ -71.463373602502074, -34.524483936486469 ], [ -71.462983306070697, -34.5248231863428 ], [ -71.462596473543044, -34.525165023692743 ], [ -71.462237593892098, -34.525528969341302 ], [ -71.461949780861588, -34.525948862352671 ], [ -71.461910219056477, -34.526323573645328 ], [ -71.463506426501681, -34.527126562923144 ], [ -71.465050312471462, -34.527903334626281 ], [ -71.466223020854059, -34.528529248924634 ], [ -71.466831960937398, -34.528822617273136 ], [ -71.467019858850421, -34.528933437366696 ], [ -71.467302405956758, -34.529118855306024 ], [ -71.467590296242363, -34.529415681375923 ], [ -71.467965263821739, -34.529678620459059 ], [ -71.46847965711973, -34.529897454134804 ], [ -71.469034602166275, -34.530057050043624 ], [ -71.469224772816986, -34.530111693697798 ], [ -71.470019383889749, -34.530439544509228 ], [ -71.470736245774702, -34.530869032684336 ], [ -71.471050157559162, -34.531022124655919 ], [ -71.472329395354663, -34.531415033797757 ], [ -71.472509982777922, -34.531474371409821 ], [ -71.472677036183086, -34.531546759672253 ], [ -71.473042268719752, -34.531696959047693 ], [ -71.473274523644875, -34.531789368235174 ], [ -71.473451622909877, -34.531866499153388 ], [ -71.473717549386819, -34.53196886022652 ], [ -71.474016605731407, -34.532090119579017 ], [ -71.474372069089341, -34.532199525549672 ], [ -71.474571459149786, -34.532263869703449 ], [ -71.474693636316644, -34.532303414392246 ], [ -71.47488141565205, -34.532385497164952 ], [ -71.475194548597159, -34.532448567571585 ], [ -71.475664344134572, -34.532507205112779 ], [ -71.476044334194697, -34.532567810367944 ], [ -71.47681717279994, -34.532671178506462 ], [ -71.477438669534294, -34.532765723831126 ], [ -71.478041232477423, -34.53284167053156 ], [ -71.478474147680828, -34.532854223716861 ], [ -71.478675643392336, -34.532869036961515 ], [ -71.479048624796604, -34.532870767898991 ], [ -71.479390570306137, -34.53289417440336 ], [ -71.479932671240746, -34.53296846035424 ], [ -71.480402513490546, -34.533058539251641 ], [ -71.48068291991153, -34.533107194825476 ], [ -71.481113733955496, -34.533187207681081 ], [ -71.481653602576628, -34.533297423282384 ], [ -71.482261227526394, -34.533438383209941 ], [ -71.482723167296612, -34.533100052045711 ], [ -71.483091690362144, -34.53295762850145 ], [ -71.483287016444251, -34.532866879024859 ], [ -71.484298977594989, -34.53242208238764 ], [ -71.484663770855448, -34.532154404614168 ], [ -71.485147374397073, -34.531575753885946 ], [ -71.486155655150071, -34.530224932801154 ], [ -71.48753639089459, -34.52926169319224 ], [ -71.488964098647003, -34.52870233449547 ], [ -71.489702800373124, -34.528475168167063 ], [ -71.490057687012623, -34.528265501751889 ], [ -71.490954521873164, -34.527871225627649 ], [ -71.491431126640435, -34.527847540922281 ], [ -71.491422879207789, -34.527996002609967 ], [ -71.492540291793077, -34.52932585237982 ], [ -71.493580813979932, -34.530428175787705 ], [ -71.494440404688802, -34.530786293471017 ], [ -71.494712813408825, -34.530830131899016 ], [ -71.494850632041377, -34.530870223426248 ], [ -71.495103479946081, -34.530895481359742 ], [ -71.495583503701312, -34.530985809676416 ], [ -71.496133729897679, -34.53106022609844 ], [ -71.496570029054737, -34.531090813806948 ], [ -71.497117166843182, -34.531124522289396 ], [ -71.497692098506477, -34.531258171266792 ], [ -71.498259986479638, -34.531445726462408 ], [ -71.498854878708556, -34.531557397816876 ], [ -71.499566227632599, -34.531618381925966 ], [ -71.499808355042688, -34.53160729310212 ], [ -71.500053790948002, -34.531614377546404 ], [ -71.501922575098163, -34.531568773784684 ], [ -71.502756503634288, -34.53141697271839 ], [ -71.503083544296629, -34.53150294974327 ], [ -71.503473153516822, -34.531788959731571 ], [ -71.503558590486861, -34.532007727178041 ], [ -71.503733637999744, -34.532346141964823 ], [ -71.503771696025083, -34.532559086085257 ], [ -71.503814326475208, -34.532677407379964 ], [ -71.503876806099839, -34.532877443737547 ], [ -71.503963177317786, -34.533073666973259 ], [ -71.50402903191295, -34.533192692785562 ], [ -71.50435514910717, -34.533301209272345 ], [ -71.504698045932585, -34.533555680537788 ], [ -71.506211722457707, -34.533853245616967 ], [ -71.506789285286459, -34.533889091650735 ], [ -71.507372569485284, -34.534115649712106 ], [ -71.507666270074154, -34.534300447075402 ], [ -71.508138624013483, -34.534672403446152 ], [ -71.508969544990038, -34.535466283356406 ], [ -71.509382865242173, -34.535791740621811 ], [ -71.509679436846696, -34.536071815100847 ], [ -71.510095626317835, -34.536492626573661 ], [ -71.510568002715033, -34.536864497670891 ], [ -71.511149794812141, -34.537043359344771 ], [ -71.511445037808386, -34.537275896854183 ], [ -71.51202826631166, -34.537502359120332 ], [ -71.512265981197075, -34.537735929853497 ], [ -71.512444472850788, -34.537923087143405 ], [ -71.512510688568682, -34.538207970279167 ], [ -71.512752621942695, -34.538584650259224 ], [ -71.513219197918104, -34.538765873955761 ], [ -71.513681563489783, -34.53880405991228 ], [ -71.514200111495967, -34.53879337829477 ], [ -71.514601901871416, -34.538737392092813 ], [ -71.51516168434577, -34.538851403103855 ], [ -71.515698046842346, -34.538762510003323 ], [ -71.516392225368051, -34.538843613334421 ], [ -71.516978437176377, -34.539165405609467 ], [ -71.517046017435192, -34.539497964746083 ], [ -71.517054723008627, -34.53978403088685 ], [ -71.517066209766142, -34.540165381074956 ], [ -71.51707339000022, -34.540403771135665 ], [ -71.517080570234299, -34.540642161993595 ], [ -71.517094839972586, -34.541118869145222 ], [ -71.517104982850441, -34.541452613287966 ], [ -71.517289327028209, -34.541830472130798 ], [ -71.517536945839652, -34.542397782172209 ], [ -71.517616112569002, -34.543111762017212 ], [ -71.517703898633513, -34.544111737429446 ], [ -71.517716917916928, -34.544540836905078 ], [ -71.517682279777887, -34.54530472539826 ], [ -71.517697996702111, -34.545829258571956 ], [ -71.517947158819211, -34.546444242787487 ], [ -71.518504555368168, -34.547720770673443 ], [ -71.518746542641082, -34.548097362470308 ], [ -71.51905190426065, -34.548663476301954 ], [ -71.519413370161317, -34.549180796593411 ], [ -71.51971874435732, -34.549746982221848 ], [ -71.520077429073851, -34.550168869153502 ], [ -71.520496531781461, -34.550684995546639 ], [ -71.520796161251212, -34.551060392353968 ], [ -71.52104248738695, -34.551580085294134 ], [ -71.521353636851913, -34.552336903437514 ], [ -71.521491825590374, -34.553097368092587 ], [ -71.522032051741007, -34.553801741710878 ], [ -71.522157382892814, -34.554133103004396 ], [ -71.522284154942326, -34.554512142027356 ], [ -71.522412364296315, -34.554938784884179 ], [ -71.522537697244758, -34.555270072844436 ], [ -71.522561463972238, -34.555427473855474 ], [ -71.522609725062551, -34.555745658225618 ], [ -71.522860111583384, -34.556168370719654 ], [ -71.523228800837245, -34.556698305652972 ], [ -71.523569132972526, -34.5569661382821 ], [ -71.524038718304126, -34.557242669550902 ], [ -71.524446529188609, -34.557377281263115 ], [ -71.524913236318056, -34.557558454421162 ], [ -71.525607579235469, -34.557639571987281 ], [ -71.526127679530447, -34.557676438336166 ], [ -71.526417267631956, -34.557718224420064 ], [ -71.526937367926948, -34.557755087035034 ], [ -71.527456030917492, -34.55774441746734 ], [ -71.527857900344685, -34.557688385568753 ], [ -71.528605628342788, -34.557625109383409 ], [ -71.528709676608869, -34.557612171531957 ], [ -71.528941424884181, -34.557583292920384 ], [ -71.529308529509862, -34.558416027168711 ], [ -71.529350814108611, -34.558721630111513 ], [ -71.529467977777855, -34.559003155118518 ], [ -71.529690379980963, -34.559228440428164 ], [ -71.529943951927791, -34.559439490696647 ], [ -71.530214562220607, -34.559641250822935 ], [ -71.530487044602467, -34.559842898011269 ], [ -71.530747759952447, -34.560053871261957 ], [ -71.530989524443171, -34.560278678781046 ], [ -71.531196647201611, -34.560526802309859 ], [ -71.531318679739684, -34.560803720485893 ], [ -71.531359858512303, -34.561104913692908 ], [ -71.531346120576686, -34.561402668054249 ], [ -71.531509253733944, -34.561710193060797 ], [ -71.532757545466239, -34.562114832921296 ], [ -71.533222937462099, -34.5622482930616 ], [ -71.53397938181341, -34.562471046226726 ], [ -71.534584082746917, -34.562455974152577 ], [ -71.534990045796846, -34.562590071426278 ], [ -71.535517599413765, -34.562865424784903 ], [ -71.53586900418324, -34.56304887704114 ], [ -71.53632855084156, -34.563180600197171 ], [ -71.537591572249553, -34.563542713705836 ], [ -71.537730442809334, -34.563582659278786 ], [ -71.538202528152382, -34.563783089626313 ], [ -71.538373093072025, -34.563855458666964 ], [ -71.539253530085347, -34.564361841934556 ], [ -71.539547406744035, -34.564546554385515 ], [ -71.539786640680603, -34.564827816299704 ], [ -71.539855878331124, -34.565208033089952 ], [ -71.539871833308894, -34.565732479994793 ], [ -71.539719231999982, -34.566403408997616 ], [ -71.539962823663998, -34.566827702136415 ], [ -71.540376421495537, -34.567153040454976 ], [ -71.540954130749711, -34.567188716803251 ], [ -71.54170329425564, -34.567173110760635 ], [ -71.542297868480944, -34.566774633064249 ], [ -71.542438028123158, -34.566680802488513 ], [ -71.543177019106778, -34.566331449768477 ], [ -71.54392075589007, -34.566170311526434 ], [ -71.544087147236908, -34.566120021228535 ], [ -71.544721423404511, -34.565917588860692 ], [ -71.545469207996462, -34.565854281208878 ], [ -71.547301756803023, -34.565434374961292 ], [ -71.548046534733714, -34.565275700551119 ], [ -71.54850023605448, -34.565027762070969 ], [ -71.54906783117687, -34.564729661169089 ], [ -71.549626601249912, -34.564145574088023 ], [ -71.550015554699939, -34.563660374734972 ], [ -71.550235800946353, -34.563321895670292 ], [ -71.550512308679004, -34.562934459020056 ], [ -71.550738464941674, -34.562786609291948 ], [ -71.551421209710412, -34.562486090926633 ], [ -71.552155840271695, -34.561993655778323 ], [ -71.552607977625541, -34.561631267725858 ], [ -71.553270658522436, -34.561028374322873 ], [ -71.553391555590011, -34.560918392964638 ], [ -71.553610322311144, -34.560532157629439 ], [ -71.553659287680659, -34.560434463495618 ], [ -71.553827717304841, -34.560098243940729 ], [ -71.55407575293458, -34.559913227912773 ], [ -71.554222374158613, -34.559803814721164 ], [ -71.555015962050291, -34.559357761593425 ], [ -71.555765135437667, -34.559342070484206 ], [ -71.556054739708856, -34.559383783971072 ], [ -71.556573309274611, -34.559372919305716 ], [ -71.557375641367244, -34.559212983070957 ], [ -71.557603234934376, -34.55911279796144 ], [ -71.558000792448198, -34.55891363621614 ], [ -71.558229845777646, -34.558861126562938 ], [ -71.559038101361281, -34.5588918838274 ], [ -71.559617217377181, -34.558975149955067 ], [ -71.560020615736988, -34.558966685891015 ], [ -71.560884950448838, -34.558948547445446 ], [ -71.561505609055061, -34.558506155466283 ], [ -71.562183980825012, -34.558062623307912 ], [ -71.562516490430809, -34.557626277548195 ], [ -71.563069441217408, -34.556851426323078 ], [ -71.563849809501363, -34.556172081686789 ], [ -71.563967959520795, -34.55606923693643 ], [ -71.564527847098049, -34.555506477580366 ], [ -71.564695050521863, -34.555338426818047 ], [ -71.565302485028781, -34.554467006552009 ], [ -71.565457875606626, -34.553891256496222 ], [ -71.56572980193134, -34.553360836096317 ], [ -71.566227913264811, -34.552682538708467 ], [ -71.566618004880297, -34.552244971334105 ], [ -71.567051152747368, -34.551329428403641 ], [ -71.567745251323004, -34.550384096817439 ], [ -71.56804723437881, -34.549972823832064 ], [ -71.568320685144556, -34.549489998968646 ], [ -71.568764065721027, -34.548908257613881 ], [ -71.569730332268179, -34.548458550919342 ], [ -71.570248919800235, -34.54844770258471 ], [ -71.570883258849889, -34.548346606277882 ], [ -71.571566672863554, -34.548181330465709 ], [ -71.571866429894072, -34.548037800678927 ], [ -71.572191690993833, -34.547881989790582 ], [ -71.572868451186181, -34.547390727508628 ], [ -71.573545111665524, -34.546899390555438 ], [ -71.573882014033032, -34.546606043727948 ], [ -71.574047496284777, -34.546313800557463 ], [ -71.574264691852505, -34.545930075288645 ], [ -71.574626330229691, -34.545336153604502 ], [ -71.575116979258098, -34.544419518734507 ], [ -71.575442111000442, -34.543744762310013 ], [ -71.575886790540821, -34.543210601203164 ], [ -71.576445318068707, -34.542626402247208 ], [ -71.576893015948443, -34.542187587713819 ], [ -71.57745144017008, -34.541603386017243 ], [ -71.577671607364735, -34.541264788351342 ], [ -71.578348282217135, -34.54077349958829 ], [ -71.578803225009622, -34.540572985686147 ], [ -71.579373487230072, -34.540370180364853 ], [ -71.579940712246582, -34.540071948927206 ], [ -71.580338123334997, -34.539872720144544 ], [ -71.581861213305956, -34.538791031076634 ], [ -71.582310335015421, -34.538399874245165 ], [ -71.583205530450542, -34.537522281921355 ], [ -71.583367962921912, -34.53718489530619 ], [ -71.583929346194097, -34.536696017061082 ], [ -71.584325259790958, -34.536449173707695 ], [ -71.584988071841877, -34.536213293513697 ], [ -71.585180494568988, -34.536144746969306 ], [ -71.585574926843947, -34.535850224847195 ], [ -71.586028439518486, -34.535509770035844 ], [ -71.586419141090076, -34.535305346554431 ], [ -71.58670640345332, -34.535158353503569 ], [ -71.587043542077765, -34.535074552192917 ], [ -71.587964892860725, -34.534845507328484 ], [ -71.588651786947764, -34.534687819481157 ], [ -71.589168802428063, -34.534629145734769 ], [ -71.589566073379331, -34.534429816603947 ], [ -71.589719821836837, -34.534340223903264 ], [ -71.590075612181522, -34.534132837462657 ], [ -71.590644323909785, -34.533882307109728 ], [ -71.590987023105853, -34.533779544335211 ], [ -71.591789034499939, -34.533619469363742 ], [ -71.592644301617327, -34.533315064099696 ], [ -71.593099257884546, -34.533114572194393 ], [ -71.593667860916668, -34.532863955893838 ], [ -71.594062247377551, -34.53256940810526 ], [ -71.594452188974401, -34.532131760882791 ], [ -71.594728302346653, -34.531744237456842 ], [ -71.595066547695509, -34.531498512431668 ], [ -71.595398785111769, -34.531062161327114 ], [ -71.595679420603147, -34.530817660554227 ], [ -71.596019141884042, -34.530619609251197 ], [ -71.596302735527672, -34.530470456589583 ], [ -71.596469633524293, -34.530276079579806 ], [ -71.596461916097695, -34.530027593504656 ], [ -71.596261831639524, -34.529952165979182 ], [ -71.596058604874472, -34.529878947463615 ], [ -71.595715250806592, -34.529770233360935 ], [ -71.595546673858678, -34.529697900538856 ], [ -71.595390835021504, -34.529598933559619 ], [ -71.595241885364231, -34.529477590652526 ], [ -71.595048173554687, -34.52930550578052 ], [ -71.594796437764316, -34.529086649827335 ], [ -71.594466730902212, -34.528793609519646 ], [ -71.594175654292272, -34.528537630976359 ], [ -71.593894566948308, -34.528304480702978 ], [ -71.593496335697992, -34.527973975711774 ], [ -71.593106532441709, -34.527713741415468 ], [ -71.59305713677918, -34.524527229812662 ], [ -71.59273694666922, -34.523757578344032 ], [ -71.592471224109843, -34.523150198524625 ], [ -71.592452232826432, -34.522537651164676 ], [ -71.592669925162483, -34.521593145716736 ], [ -71.592602729382605, -34.519428642044268 ], [ -71.592719179789512, -34.51840460949915 ], [ -71.59314674283047, -34.517864180181647 ], [ -71.593927226098771, -34.517561578853005 ], [ -71.594965902247722, -34.517621181693634 ], [ -71.596602954292251, -34.517872537400869 ], [ -71.600879154233596, -34.518843898734346 ], [ -71.601420526634513, -34.518791523673819 ], [ -71.601509154420441, -34.518462704028387 ], [ -71.601638107579461, -34.517847006837357 ], [ -71.601769598479194, -34.517312932715164 ], [ -71.602157959041136, -34.517100313776474 ], [ -71.602600707203649, -34.517050036012257 ], [ -71.602995418854647, -34.51704162023681 ], [ -71.603344638921342, -34.517156763811215 ], [ -71.603896255709756, -34.517431016611361 ], [ -71.604030696676872, -34.517516545468681 ], [ -71.604752218123181, -34.51797496896593 ], [ -71.604953924938769, -34.518103224003028 ], [ -71.605759897004944, -34.518617219927997 ], [ -71.606617733304049, -34.519211926569035 ], [ -71.610059171072663, -34.520323520927725 ], [ -71.611653283646632, -34.520779782571225 ], [ -71.611906377689721, -34.52097870695389 ], [ -71.612020388272327, -34.521466625006738 ], [ -71.612521808100979, -34.522245710586972 ], [ -71.612826769970255, -34.522485321353777 ], [ -71.6135888117241, -34.522898365080451 ], [ -71.614005518624836, -34.523318725786226 ], [ -71.614530619841005, -34.523672810071403 ], [ -71.614887339043705, -34.523872315195035 ], [ -71.615642035273453, -34.524046970599549 ], [ -71.616508955336712, -34.524123802283043 ], [ -71.617545784549435, -34.524101572310428 ], [ -71.618872024895566, -34.524120831478008 ], [ -71.619564645742557, -34.524153600620984 ], [ -71.620201253038331, -34.524235423507207 ], [ -71.62112428097592, -34.524263238311484 ], [ -71.621472880306754, -34.524351164767765 ], [ -71.622923299266162, -34.524653949402996 ], [ -71.62344162538848, -34.524642810064655 ], [ -71.623954055867571, -34.524440970265545 ], [ -71.624289193943881, -34.524099894478653 ], [ -71.624513523931583, -34.523904245887977 ], [ -71.624680341079838, -34.523709834309187 ], [ -71.625245872771998, -34.523363728649663 ], [ -71.625758204436423, -34.523161956062268 ], [ -71.626273612830687, -34.523055381760614 ], [ -71.626901229787094, -34.522851124576313 ], [ -71.627525754742294, -34.5225514448722 ], [ -71.628267063379354, -34.522296954781943 ], [ -71.628897577402569, -34.522188037608394 ], [ -71.629522088883022, -34.521888274104249 ], [ -71.629748078059066, -34.521740287055721 ], [ -71.63018788154406, -34.521062998358801 ], [ -71.630175799203485, -34.520681682061998 ], [ -71.630160804524763, -34.520204943013425 ], [ -71.63020649912832, -34.519822382298983 ], [ -71.630308110265048, -34.51939083652249 ], [ -71.630528007066829, -34.519052228460701 ], [ -71.630811492912599, -34.518902926295532 ], [ -71.631149491224789, -34.518657184845921 ], [ -71.631716462916359, -34.518358725384154 ], [ -71.632397123593648, -34.518010178630824 ], [ -71.633080690320895, -34.517756904824907 ], [ -71.63381593263486, -34.517311687006753 ], [ -71.635606251639899, -34.51560340279454 ], [ -71.637451172942889, -34.513798501977625 ], [ -71.637904317308156, -34.51355025394254 ], [ -71.638249878536712, -34.513542786016025 ], [ -71.638931301883687, -34.513723830306574 ], [ -71.639293988594829, -34.513758673887189 ], [ -71.639583553340131, -34.513732399639252 ], [ -71.639983519237234, -34.513696131896126 ], [ -71.640377643390039, -34.513401370496787 ], [ -71.640600491157514, -34.513158020717277 ], [ -71.640880932612802, -34.512913496993534 ], [ -71.641103777685331, -34.512670145048979 ], [ -71.641382709072644, -34.512377873065084 ], [ -71.641546453084302, -34.512088093849776 ], [ -71.642160306952235, -34.511745666917399 ], [ -71.642038000428002, -34.51097748292635 ], [ -71.642165123718797, -34.510437927762958 ], [ -71.642212081353648, -34.510238406751178 ], [ -71.642341931031339, -34.509663712830957 ], [ -71.642220210208649, -34.508930964469656 ], [ -71.641755714731431, -34.508287456660746 ], [ -71.641484640907919, -34.507517100704369 ], [ -71.64127447016574, -34.507113117033697 ], [ -71.641189089789563, -34.505971197369412 ], [ -71.641172338006143, -34.505440515324459 ], [ -71.641153007159531, -34.504828137570996 ], [ -71.640936494311433, -34.504220100066853 ], [ -71.640623788066094, -34.503695745255939 ], [ -71.640164576479393, -34.503215468859182 ], [ -71.63995571278592, -34.502852366653961 ], [ -71.639697554041263, -34.502490255613409 ], [ -71.63933951970499, -34.502089465690766 ], [ -71.638973767043808, -34.501443811455928 ], [ -71.638609303465046, -34.500838892653661 ], [ -71.638530452942675, -34.500564549710333 ], [ -71.638387583083244, -34.5000675335639 ], [ -71.638043357649522, -34.499430789090297 ], [ -71.637828530939217, -34.499548567399259 ], [ -71.637443007256948, -34.499842837356468 ], [ -71.6368693071839, -34.500427112865033 ], [ -71.636238589243135, -34.500767512670961 ], [ -71.635549570640435, -34.500823226789315 ], [ -71.63495391125025, -34.500713567877391 ], [ -71.634551753463867, -34.500477141546462 ], [ -71.634043211791621, -34.499997905270448 ], [ -71.633787747094487, -34.499717474066372 ], [ -71.63313894876201, -34.499486364179688 ], [ -71.632448654551609, -34.499501248507222 ], [ -71.631806280970039, -34.499474258307345 ], [ -71.631014828373793, -34.499409563820564 ], [ -71.63041790146076, -34.499259071543129 ], [ -71.62906352049005, -34.498552855008789 ], [ -71.628451218012614, -34.497912474243812 ], [ -71.627935055033504, -34.497433227666946 ], [ -71.627194182977647, -34.497163375586865 ], [ -71.626548071506178, -34.497013847634804 ], [ -71.625951255085923, -34.496863257008009 ], [ -71.625009394866723, -34.496720154793039 ], [ -71.624363200750267, -34.496570617161815 ], [ -71.622917912967736, -34.49611138812287 ], [ -71.622020064807558, -34.49580396282277 ], [ -71.621375338538257, -34.495695216099698 ], [ -71.620781097587908, -34.495626294904056 ], [ -71.6201387518541, -34.495599167963078 ], [ -71.619013613757375, -34.49590924969489 ], [ -71.61823114341567, -34.496130370202579 ], [ -71.617549715577141, -34.496430924528312 ], [ -71.616912557614086, -34.496567096770846 ], [ -71.616222189741833, -34.496581890555852 ], [ -71.615372548773053, -34.496232396863661 ], [ -71.613674386136367, -34.495574279875377 ], [ -71.611981343896815, -34.495079457306744 ], [ -71.610959426717798, -34.494856280223416 ], [ -71.610543786117304, -34.494865166893952 ], [ -71.610005299105083, -34.494999194621997 ], [ -71.609792962524736, -34.495074775954407 ], [ -71.609421161506731, -34.495256784341031 ], [ -71.6088345607279, -34.495432673207951 ], [ -71.607800421969444, -34.495495676084872 ], [ -71.607104970531012, -34.495347097993616 ], [ -71.606452545699696, -34.494993330154543 ], [ -71.606323075111064, -34.494891522607695 ], [ -71.606047949885621, -34.494675181620671 ], [ -71.605648352297791, -34.494520354793345 ], [ -71.605148897982986, -34.494326743115529 ], [ -71.604547051895452, -34.494012725570528 ], [ -71.604133578031423, -34.493408813819293 ], [ -71.603774390258323, -34.492967099746515 ], [ -71.603563357133453, -34.492608555174115 ], [ -71.60311946092402, -34.492531689248231 ], [ -71.602843145430825, -34.492537579062166 ], [ -71.602507570773298, -34.492573901176293 ], [ -71.602130608934004, -34.492607339452455 ], [ -71.601665867318388, -34.492594421853248 ], [ -71.601525583708678, -34.492531832884197 ], [ -71.601207123753923, -34.492432937997116 ], [ -71.600894122861177, -34.492216874942706 ], [ -71.600581532498481, -34.491973847576027 ], [ -71.600301512353084, -34.491817341693555 ], [ -71.599983681219015, -34.491718429670357 ], [ -71.599560386074003, -34.491557956985233 ], [ -71.598966033732566, -34.491216868763971 ], [ -71.598512055730694, -34.490938368619226 ], [ -71.598200947588239, -34.490659338152582 ], [ -71.597851988931282, -34.490442407184794 ], [ -71.597533319669068, -34.490347863435808 ], [ -71.597144796512069, -34.490215370509915 ], [ -71.59640243774443, -34.489987378823265 ], [ -71.595805734511899, -34.489704887429454 ], [ -71.595489757500602, -34.489547435477178 ], [ -71.595071770500581, -34.489269855282835 ], [ -71.594831375940657, -34.489024317439942 ], [ -71.592993043780282, -34.486693010229857 ], [ -71.592770755663238, -34.486006421725342 ], [ -71.592406190574849, -34.485284304209287 ], [ -71.591993215275807, -34.484885197573632 ], [ -71.591540957547707, -34.484548070192332 ], [ -71.591155441051953, -34.484361656367518 ], [ -71.590662044077092, -34.484167633100689 ], [ -71.59024171966071, -34.483948574174498 ], [ -71.589929411369027, -34.483701080635171 ], [ -71.589618231361356, -34.483426532469991 ], [ -71.588504213509523, -34.482669851501953 ], [ -71.588301589514046, -34.482366855823813 ], [ -71.587992801719963, -34.482033764272927 ], [ -71.587618632742874, -34.481550147894893 ], [ -71.587450944228792, -34.48127506468024 ], [ -71.587248912223075, -34.480976560216064 ], [ -71.587115230332373, -34.480734061392177 ], [ -71.587056050219786, -34.480434967776667 ], [ -71.58706922760669, -34.480110930032325 ], [ -71.587081365642803, -34.479813870569842 ], [ -71.587095886909367, -34.479458270728976 ], [ -71.587109063397946, -34.479134233634163 ], [ -71.587155826098382, -34.478869671804873 ], [ -71.587314180218357, -34.476738182306846 ], [ -71.587225060155646, -34.476289585531418 ], [ -71.587232213440259, -34.476114113944362 ], [ -71.587241876617753, -34.475875522143106 ], [ -71.587292366428301, -34.475520932649076 ], [ -71.587375599830949, -34.47523041585189 ], [ -71.587453026523619, -34.475083881853173 ], [ -71.587460305572364, -34.474903828922791 ], [ -71.587469929224, -34.474669742870077 ], [ -71.587307025137122, -34.474277652555607 ], [ -71.587001826112598, -34.473854605111178 ], [ -71.586547982858022, -34.473576054402024 ], [ -71.586100258927161, -34.473149006579526 ], [ -71.585787281390594, -34.472932975034823 ], [ -71.585126177935351, -34.472468420006301 ], [ -71.584882129028841, -34.472312886923909 ], [ -71.584578165187835, -34.471862704485304 ], [ -71.584343974393263, -34.471468721393663 ], [ -71.584533891719062, -34.470918950445011 ], [ -71.584693443293304, -34.470486210203248 ], [ -71.584612346982723, -34.469724685403726 ], [ -71.584309278762049, -34.468800142846938 ], [ -71.584322556760256, -34.468476102873794 ], [ -71.584404666370489, -34.46821256780165 ], [ -71.584560140491675, -34.467919490454008 ], [ -71.584643593981554, -34.467624390945652 ], [ -71.584797718833158, -34.467362802482668 ], [ -71.584843859899422, -34.467098255174754 ], [ -71.58496098314447, -34.466862779303455 ], [ -71.585301144599853, -34.466426141609169 ], [ -71.585669270610026, -34.466170584007209 ], [ -71.586069717105815, -34.466006061309344 ], [ -71.586395887300625, -34.465893476316189 ], [ -71.586761622893832, -34.465696454249517 ], [ -71.586912186823653, -34.465524887955659 ], [ -71.58699086307287, -34.46534686743562 ], [ -71.58703397951156, -34.465172332701655 ], [ -71.586898239580549, -34.464114128445274 ], [ -71.586766843003943, -34.463817597145834 ], [ -71.586677744500804, -34.463368998315381 ], [ -71.586686151833547, -34.463161892237267 ], [ -71.586731873386569, -34.462924381794195 ], [ -71.586887656528191, -34.462604339297386 ], [ -71.586975451575853, -34.462219198206995 ], [ -71.587128936826986, -34.46195762020966 ], [ -71.587319641076959, -34.461665565979231 ], [ -71.587434146631281, -34.461493063345273 ], [ -71.587589600989531, -34.461200057210675 ], [ -71.58770464643132, -34.460995935842121 ], [ -71.587825174291311, -34.460674866784771 ], [ -71.587904466784821, -34.46049683295923 ], [ -71.587945827915433, -34.460349290954035 ], [ -71.588034031696552, -34.459937184611171 ], [ -71.588113195730969, -34.459763657745782 ], [ -71.588235607358087, -34.459379555324347 ], [ -71.588356132523131, -34.459058559304673 ], [ -71.588478949290476, -34.458678952602241 ], [ -71.588563637963887, -34.458352365346947 ], [ -71.588722591260151, -34.457973764264715 ], [ -71.5887693431808, -34.457709276827053 ], [ -71.588723599169896, -34.457180740157959 ], [ -71.58873965116571, -34.456987429950907 ], [ -71.588524393264066, -34.456512776945686 ], [ -71.588233468469411, -34.456108112145621 ], [ -71.588109644690647, -34.455793770747633 ], [ -71.588087220046219, -34.455509258448487 ], [ -71.588042788473956, -34.454913268545127 ], [ -71.588058781180933, -34.454521671339279 ], [ -71.588177427968731, -34.454128416019742 ], [ -71.588395806617669, -34.453791981409992 ], [ -71.588758548126023, -34.453265941424803 ], [ -71.588809287668212, -34.452870801666585 ], [ -71.588788404532806, -34.452532271603928 ], [ -71.58867110431963, -34.45207393275119 ], [ -71.588452646618947, -34.451558655486494 ], [ -71.588270116139753, -34.45101728548417 ], [ -71.588051751863858, -34.450502006144823 ], [ -71.587898763381077, -34.450299499420908 ], [ -71.587838029183033, -34.450171621588687 ], [ -71.587804162696827, -34.450053514296663 ], [ -71.587757024500604, -34.449840420878324 ], [ -71.587732020792998, -34.449636902137144 ], [ -71.587742468199721, -34.449380347174731 ], [ -71.587761893369432, -34.449169166945573 ], [ -71.587791310500052, -34.44899868822705 ], [ -71.587868753362372, -34.448735027223286 ], [ -71.588070704519723, -34.448398201976694 ], [ -71.588246858757046, -34.448164279384997 ], [ -71.588465268847003, -34.447976652365128 ], [ -71.58868591214879, -34.447716972840077 ], [ -71.588871472645451, -34.447519332286348 ], [ -71.589067111341265, -34.447353602383636 ], [ -71.589228022964861, -34.447209359615194 ], [ -71.58941245787247, -34.447038845783318 ], [ -71.589640056829495, -34.446892008202212 ], [ -71.589822231575852, -34.446775377867695 ], [ -71.590161551309819, -34.446609111632071 ], [ -71.590881374940238, -34.446363290468526 ], [ -71.591438554995207, -34.446153630147244 ], [ -71.590010201354119, -34.445180955326535 ], [ -71.589691497955926, -34.44460879787664 ], [ -71.589533696299853, -34.444293478282496 ], [ -71.589245195159833, -34.443830273679787 ], [ -71.589051020717918, -34.443572514820453 ], [ -71.588686983838926, -34.44327847532039 ], [ -71.588327177126587, -34.442898973946789 ], [ -71.587935959922035, -34.442437424788913 ], [ -71.587743137444605, -34.44214810117613 ], [ -71.587453398426149, -34.441716451976859 ], [ -71.587190846919739, -34.441452310145692 ], [ -71.586928168750887, -34.441192674792639 ], [ -71.586731751215694, -34.44098886975808 ], [ -71.586328195650694, -34.440297163038032 ], [ -71.586338083407043, -34.440054134112977 ], [ -71.586292335802881, -34.439877123163235 ], [ -71.586299620241519, -34.439697068384568 ], [ -71.586304045342615, -34.439589079782841 ], [ -71.586273614912358, -34.439466541988878 ], [ -71.586328128277074, -34.43889578046339 ], [ -71.586411499121965, -34.438402393200789 ], [ -71.586553222731069, -34.437991813670351 ], [ -71.586665653177079, -34.437553421001262 ], [ -71.586876086227335, -34.437009563471747 ], [ -71.587226630410768, -34.436514656622819 ], [ -71.587370404873667, -34.436338433149885 ], [ -71.587514615917812, -34.436153264520549 ], [ -71.587694012175007, -34.436004940838501 ], [ -71.587866497692701, -34.435892654725485 ], [ -71.588099483846477, -34.435646821293041 ], [ -71.588671253439983, -34.435253421542299 ], [ -71.588724775962902, -34.435072830760447 ], [ -71.588737753923823, -34.434326445723521 ], [ -71.588644613900229, -34.433641905539304 ], [ -71.58852561946442, -34.433286399454907 ], [ -71.588476663078069, -34.432869590317324 ], [ -71.588430554351163, -34.432542228643456 ], [ -71.588455496973339, -34.432183525968405 ], [ -71.588519273765257, -34.431913581422322 ], [ -71.588575239705776, -34.431555107961017 ], [ -71.588203709978998, -34.431024976525954 ], [ -71.587797675063825, -34.430705236345396 ], [ -71.587608466508811, -34.430410738859457 ], [ -71.587384196708229, -34.430146892492182 ], [ -71.587233825916186, -34.429941226673925 ], [ -71.58686461474116, -34.429650539421395 ], [ -71.586726721548416, -34.429491060299924 ], [ -71.586652506332911, -34.429405192215455 ], [ -71.585399035812998, -34.429006040688492 ], [ -71.584515219337561, -34.428391096869184 ], [ -71.584362449145402, -34.4282200407781 ], [ -71.583728128062035, -34.427521827139699 ], [ -71.582693642553878, -34.426186171650343 ], [ -71.581866516061083, -34.424964433358241 ], [ -71.581231899431984, -34.424072503083515 ], [ -71.580515378906867, -34.422858315170906 ], [ -71.579950377220712, -34.421896225838069 ], [ -71.579441743920313, -34.420250785717379 ], [ -71.579001433785493, -34.419346321586374 ], [ -71.578455085616213, -34.417475614661946 ], [ -71.577946531367573, -34.415911990026508 ], [ -71.57728013863192, -34.414828840915256 ], [ -71.577415982767519, -34.412719751295221 ], [ -71.576837524318378, -34.413565796441929 ], [ -71.575758265878164, -34.414508132444212 ], [ -71.574568215519008, -34.415119135057097 ], [ -71.573758059998553, -34.4149694408488 ], [ -71.572952566734415, -34.414986323377903 ], [ -71.571930536367717, -34.41450298636002 ], [ -71.570807760840182, -34.414026337830798 ], [ -71.569981867734242, -34.413376533959728 ], [ -71.569453221765954, -34.412553796005653 ], [ -71.56873818256274, -34.412235311756042 ], [ -71.567741829640099, -34.412589755693311 ], [ -71.566224159205234, -34.412369201661363 ], [ -71.56530287310099, -34.411888197344979 ], [ -71.564905455724343, -34.412063365152193 ], [ -71.564220884680623, -34.412744824165642 ], [ -71.564256652900283, -34.413916016463631 ], [ -71.56439579834452, -34.415166203138327 ], [ -71.564013186102088, -34.415841325162724 ], [ -71.562438229203238, -34.417041788997274 ], [ -71.561345973039181, -34.417564947581873 ], [ -71.560439995125691, -34.41758400236403 ], [ -71.559423214513473, -34.41727171029185 ], [ -71.558494880227499, -34.417016196448948 ], [ -71.557588160305585, -34.416557353001949 ], [ -71.556870923823183, -34.416157683634289 ], [ -71.556442659197998, -34.415332786864404 ], [ -71.555720315793195, -34.414761881283781 ], [ -71.554610139137523, -34.414699492591616 ], [ -71.553206089416435, -34.414895509248595 ], [ -71.552007833845465, -34.415254116398664 ], [ -71.55072717132191, -34.416200443299715 ], [ -71.549949655188996, -34.417136187527532 ], [ -71.549167236051261, -34.41790519999158 ], [ -71.547868370965105, -34.418265866212188 ], [ -71.546756130879231, -34.418122214242317 ], [ -71.545235940669997, -34.417820364152064 ], [ -71.543224867870407, -34.417943385724982 ], [ -71.5417247855505, -34.418308099395333 ], [ -71.540423689049163, -34.418587571802341 ], [ -71.539235758714071, -34.419279428560529 ], [ -71.537660098434372, -34.420479595535106 ], [ -71.536477152850793, -34.421338006919839 ], [ -71.535573519540193, -34.421442348822168 ], [ -71.534257298104436, -34.421217294926066 ], [ -71.532744607929516, -34.421167485495928 ], [ -71.531939031122064, -34.421184174848442 ], [ -71.531345057869686, -34.421530064300931 ], [ -71.530680587528749, -34.422878028245158 ], [ -71.529615826998892, -34.42431994147266 ], [ -71.528445365302829, -34.425597276433855 ], [ -71.527763316728411, -34.426364153383467 ], [ -71.526769046998908, -34.426799389659024 ], [ -71.524762772999551, -34.427093275229304 ], [ -71.523574588441235, -34.427784990472041 ], [ -71.522489514307864, -34.428560086816603 ], [ -71.521407124340556, -34.429416282035838 ], [ -71.520327108620549, -34.430358161556896 ], [ -71.519438319071696, -34.430957921687636 ], [ -71.51840909858943, -34.431262429501388 ], [ -71.517721484951849, -34.430826543691374 ], [ -71.517394432611397, -34.429999418388576 ], [ -71.517168215263297, -34.429170142062929 ], [ -71.517553255651933, -34.428576270841369 ], [ -71.517935944251178, -34.427901209405015 ], [ -71.517810381334044, -34.427069933867223 ], [ -71.517485775106138, -34.426323847850526 ], [ -71.517563767737414, -34.42556946873453 ], [ -71.517337565660654, -34.424740264796405 ], [ -71.517007977376167, -34.423827521862172 ], [ -71.516381413245284, -34.423092081121077 ], [ -71.514664743517116, -34.422960652970673 ], [ -71.512056881246707, -34.423347865389793 ], [ -71.509831535997321, -34.424272568066094 ], [ -71.507042090970344, -34.425334941307341 ], [ -71.504824648200525, -34.425294809410339 ], [ -71.503770503960695, -34.423729766737829 ], [ -71.50281471356638, -34.422081462363096 ], [ -71.502369477968855, -34.420670767876352 ], [ -71.502327086470601, -34.419251677302157 ], [ -71.501489517062609, -34.418182525438404 ], [ -71.500067589070767, -34.417796934979805 ], [ -71.498845494008776, -34.417957072233385 ], [ -71.497860168804564, -34.418089982941922 ], [ -71.495952065394391, -34.418295717192329 ], [ -71.494329051322808, -34.41791409040912 ], [ -71.493410399078954, -34.417513645710621 ], [ -71.493224213354864, -34.417341821858479 ], [ -71.493037573981539, -34.417169711604124 ], [ -71.492788993972752, -34.416940372503824 ], [ -71.492742047117687, -34.415359186959634 ], [ -71.493903040570672, -34.413748785908098 ], [ -71.494983254818365, -34.412807132795081 ], [ -71.495663014485416, -34.411959389510962 ], [ -71.496227398130642, -34.410609141816849 ], [ -71.49629571141476, -34.409525881784923 ], [ -71.49613567564856, -34.407523313784466 ], [ -71.494767654658588, -34.405549832222114 ], [ -71.49403059325617, -34.404478571478982 ], [ -71.49298936409518, -34.403332344967382 ], [ -71.492655189911176, -34.402252858987843 ], [ -71.492726729045472, -34.401913303369149 ], [ -71.492920064460918, -34.40099425269355 ], [ -71.493504175109791, -34.400315231408761 ], [ -71.494989337311125, -34.399451064395357 ], [ -71.496476788419827, -34.398667922795902 ], [ -71.49746086227087, -34.397895047325704 ], [ -71.498241366200418, -34.397045158994722 ], [ -71.498518518025151, -34.39620562613031 ], [ -71.498093781982391, -34.395461524833976 ], [ -71.498672857574107, -34.394615822886415 ], [ -71.498863986727216, -34.394278251771681 ], [ -71.498321240802213, -34.392950688589487 ], [ -71.498786906784261, -34.392075694711906 ], [ -71.497947410489999, -34.390537731175513 ], [ -71.497092489223988, -34.388887301188987 ], [ -71.496564438838746, -34.388064212695248 ], [ -71.496240191936934, -34.387318050047433 ], [ -71.496105027826019, -34.386153344982809 ], [ -71.495878899411139, -34.385324088332126 ], [ -71.495346069090246, -34.384329751486341 ], [ -71.494715149926861, -34.383427587146464 ], [ -71.494096318493931, -34.382935350865488 ], [ -71.493376850596363, -34.382449668345131 ], [ -71.492554745685993, -34.381884908996469 ], [ -71.491626714132281, -34.381151035979521 ], [ -71.491206618786293, -34.3805736450674 ], [ -71.490664133372746, -34.379250393736065 ], [ -71.490339629552764, -34.378170697981311 ], [ -71.490106591296694, -34.377427164438927 ], [ -71.489887887457627, -34.376845667832988 ], [ -71.489151427028148, -34.375774279900952 ], [ -71.48557753536582, -34.374093540897803 ], [ -71.48283596156034, -34.37331527286625 ], [ -71.482315133629953, -34.37257763749701 ], [ -71.481393034550365, -34.372177082590923 ], [ -71.480175805662299, -34.371868174868354 ], [ -71.479152053225164, -34.371302903729585 ], [ -71.478433039875114, -34.370817192302667 ], [ -71.47759853821384, -34.369833385713605 ], [ -71.476646139858033, -34.368265934492875 ], [ -71.475826318465124, -34.367782246799756 ], [ -71.474955751241822, -34.367371588258969 ], [ -71.474295013400891, -34.367060443495426 ], [ -71.473617654032267, -34.36646559078774 ], [ -71.471936716591131, -34.36560262041354 ], [ -71.470729314373969, -34.365626939189106 ], [ -71.470128172565623, -34.365724748853445 ], [ -71.469109451592388, -34.365326049087962 ], [ -71.467494756818638, -34.365191868139057 ], [ -71.465309383006144, -34.365222414318886 ], [ -71.464176894893754, -34.36534441799629 ], [ -71.463281170350925, -34.365695981011633 ], [ -71.462078640595834, -34.365887024923076 ], [ -71.461540724912112, -34.365978941477898 ], [ -71.460976595490109, -34.366075962503608 ], [ -71.459651471749879, -34.36551658442044 ], [ -71.458792879967646, -34.363699244272446 ], [ -71.458557801637568, -34.362536489485635 ], [ -71.458629968694211, -34.362071236968262 ], [ -71.447163950561162, -34.360945252732648 ], [ -71.446814170844036, -34.360906682076056 ], [ -71.445643692079969, -34.360777872580059 ], [ -71.440595472796943, -34.360125965990036 ], [ -71.434675498717795, -34.359361142674459 ], [ -71.43387063157941, -34.359377157658699 ], [ -71.433241014074866, -34.359485101509158 ], [ -71.432842671433491, -34.359636153403635 ], [ -71.432578303533575, -34.359800787585819 ], [ -71.432447083925084, -34.35988256840249 ], [ -71.432165198877144, -34.360078938885394 ], [ -71.431484877763012, -34.360426504724543 ], [ -71.430970241021569, -34.360532077192921 ], [ -71.430514390930639, -34.360684264012022 ], [ -71.429541146270367, -34.360846725592829 ] ] ] } },
{ "type": "Feature", "properties": { "capa": "colegios", "popup": "<strong>ESCUELA MUNICIPAL SARA RAVELLO PARRAGUEZ</strong><br><br><strong>Dirección:</strong> RINCONADA DE MOLINEROS 0", "etiqueta": "" }, "geometry": { "type": "Point", "coordinates": [ -71.579239, -34.520321 ] } },
{ "type": "Feature", "properties": { "capa": "colegios", "popup": "<strong>ESCUELA PABLO NERUDA</strong><br><br><strong>Dirección:</strong> RINCONADA DE PERALILLO 0", "etiqueta": "" }, "geometry": { "type": "Point", "coordinates": [ -71.451141, -34.512379 ] } },
{ "type": "Feature", "properties": { "capa": "colegios", "popup": "<strong>COLEGIO DE LENGUAJE PADRE PIO PERALILLO</strong><br><br><strong>Dirección:</strong> MANUEL RODRIGUEZ 600", "etiqueta": "" }, "geometry": { "type": "Point", "coordinates": [ -71.47978, -34.485287 ] } },
{ "type": "Feature", "properties": { "capa": "colegios", "popup": "<strong>LICEO BICENTENARIO VICTOR JARA MARTINEZ</strong><br><br><strong>Dirección:</strong> AVENIDA ERRAZURIZ 251", "etiqueta": "" }, "geometry": { "type": "Point", "coordinates": [ -71.477417, -34.480862 ] } },
{ "type": "Feature", "properties": { "capa": "colegios", "popup": "<strong>ESCUELA DE LENGUAJE HAKUNA MATATA</strong><br><br><strong>Dirección:</strong> CALLE NUEVA DOS 19", "etiqueta": "" }, "geometry": { "type": "Point", "coordinates": [ -71.48725, -34.47726 ] } },
{ "type": "Feature", "properties": { "capa": "colegios", "popup": "<strong>COLEGIO BASICO VIOLETA PARRA SANDOVAL</strong><br><br><strong>Dirección:</strong> CAUPOLICAN 551", "etiqueta": "" }, "geometry": { "type": "Point", "coordinates": [ -71.481377, -34.47599 ] } },
{ "type": "Feature", "properties": { "capa": "colegios", "popup": "<strong>ESCUELA GUSTAVO RIVERA BUSTOS</strong><br><br><strong>Dirección:</strong> CAMINO A SANTA VICTORIA 8", "etiqueta": "" }, "geometry": { "type": "Point", "coordinates": [ -71.398827, -34.46476 ] } },
{ "type": "Feature", "properties": { "capa": "colegios", "popup": "<strong>COLEGIO MANUEL RODRIGUEZ ERDOIZA</strong><br><br><strong>Dirección:</strong> CALLE RAQUEL VELASCO 0", "etiqueta": "" }, "geometry": { "type": "Point", "coordinates": [ -71.54657, -34.450089 ] } },
{ "type": "Feature", "properties": { "capa": "colegios", "popup": "<strong>ESCUELA MARTA VALDES ECHEÑIQUE</strong><br><br><strong>Dirección:</strong> CALLEUQUE 0", "etiqueta": "" }, "geometry": { "type": "Point", "coordinates": [ -71.432404, -34.402241 ] } },
{ "type": "Feature", "properties": { "capa": "jardines", "popup": "<strong>LA ESPERANZA</strong><br><br><strong>Dirección:</strong> CAMINO PUMANQUE KM 12 ESC G-306 RNCNADA.MOLINEROS ", "etiqueta": "" }, "geometry": { "type": "MultiPoint", "coordinates": [ [ -71.564489, -34.5287 ] ] } },
{ "type": "Feature", "properties": { "capa": "jardines", "popup": "<strong>GIRASOL</strong><br><br><strong>Dirección:</strong> CAUPOLICAN N 779(B) ", "etiqueta": "" }, "geometry": { "type": "MultiPoint", "coordinates": [ [ -71.480366, -34.475076 ] ] } },
{ "type": "Feature", "properties": { "capa": "jardines", "popup": "<strong>MI TESORO</strong><br><br><strong>Dirección:</strong> SANTISIMA TRINIDAD N 219 ", "etiqueta": "" }, "geometry": { "type": "MultiPoint", "coordinates": [ [ -71.546007, -34.450379 ] ] } },
{ "type": "Feature", "properties": { "capa": "jardines", "popup": "<strong>LOS GRILLITOS</strong><br><br><strong>Dirección:</strong> CALLE COLO COLO N 513 ", "etiqueta": "" }, "geometry": { "type": "MultiPoint", "coordinates": [ [ -71.481905, -34.480241 ] ] } },
{ "type": "Feature", "properties": { "capa": "jardines", "popup": "<strong>ORUGUITA</strong><br><br><strong>Dirección:</strong> PASAJE INTERIOR S/N SANTA VICTORIA ", "etiqueta": "" }, "geometry": { "type": "MultiPoint", "coordinates": [ [ -71.398779, -34.465435 ] ] } },
{ "type": "Feature", "properties": { "capa": "jardines", "popup": "<strong>NA</strong><br><br><strong>Dirección:</strong> NA ", "etiqueta": "" }, "geometry": { "type": "MultiPoint", "coordinates": [ [ -71.435274000280018, -34.511371999831731 ] ] } },
{ "type": "Feature", "properties": { "capa": "jardines", "popup": "<strong>NA</strong><br><br><strong>Dirección:</strong> NA ", "etiqueta": "" }, "geometry": { "type": "MultiPoint", "coordinates": [ [ -71.481478999640913, -34.47559799961018 ] ] } },
{ "type": "Feature", "properties": { "capa": "jardines", "popup": "<strong>NA</strong><br><br><strong>Dirección:</strong> NA ", "etiqueta": "" }, "geometry": { "type": "MultiPoint", "coordinates": [ [ -71.480884000202352, -34.480504999658109 ] ] } },
{ "type": "Feature", "properties": { "capa": "bomberos", "popup": "<strong>Cuerpo de Bomberos</strong><br><br><strong>Dirección:</strong> Errázuriz 311", "etiqueta": "" }, "geometry": { "type": "Point", "coordinates": [ -71.478864217838648, -34.47978348112202 ] } },
{ "type": "Feature", "properties": { "capa": "comisarias", "popup": "<strong>RETEN POBLACION</strong><br><br><strong>Dirección:</strong> PEDRO VALDIVIA S/N", "etiqueta": "" }, "geometry": { "type": "Point", "coordinates": [ -71.548591085999931, -34.452371577999941 ] } },
{ "type": "Feature", "properties": { "capa": "comisarias", "popup": "<strong>TCIA. PERALILLO</strong><br><br><strong>Dirección:</strong> CARDENAL CARO S/N", "etiqueta": "" }, "geometry": { "type": "Point", "coordinates": [ -71.476618083999938, -34.478403639999954 ] } },
{ "type": "Feature", "properties": { "capa": "salud", "popup": "<strong>Centro de Salud Familiar Peralillo</strong><br><br><strong>Tipo de atención:</strong> Centro de Salud Familiar (CESFAM)<br><strong>Dirección:</strong>  NA", "etiqueta": "" }, "geometry": { "type": "Point", "coordinates": [ -71.47711, -34.47798 ] } },
{ "type": "Feature", "properties": { "capa": "salud", "popup": "<strong>SUR Peralillo</strong><br><br><strong>Tipo de atención:</strong> Servicio de Urgencia Rural (SUR)<br><strong>Dirección:</strong>  NA", "etiqueta": "" }, "geometry": { "type": "Point", "coordinates": [ -71.477109, -34.477982 ] } },
{ "type": "Feature", "properties": { "capa": "salud", "popup": "<strong>Posta de Salud Rural Los Cardos</strong><br><br><strong>Tipo de atención:</strong> Posta de Salud Rural (PSR)<br><strong>Dirección:</strong>  NA", "etiqueta": "" }, "geometry": { "type": "Point", "coordinates": [ -71.39778, -34.46446 ] } },
{ "type": "Feature", "properties": { "capa": "salud", "popup": "<strong>Posta de Salud Rural Población</strong><br><br><strong>Tipo de atención:</strong> Posta de Salud Rural (PSR)<br><strong>Dirección:</strong>  NA", "etiqueta": "" }, "geometry": { "type": "Point", "coordinates": [ -71.55003, -34.44879 ] } },
{ "type": "Feature", "properties": { "capa": "salud", "popup": "<strong>Posta de Salud Rural Calleuque</strong><br><br><strong>Tipo de atención:</strong> Posta de Salud Rural (PSR)<br><strong>Dirección:</strong>  NA", "etiqueta": "" }, "geometry": { "type": "Point", "coordinates": [ -71.432661, -34.401827 ] } },
{ "type": "Feature", "properties": { "capa": "municipios", "popup": "<strong>Municipalidad de Peralillo</strong><br><br><strong>Dirección:</strong> Bernardo OHiggins Nº 237<br><strong>Región:</strong> Libertador General Bernardo O'Higgins", "etiqueta": "" }, "geometry": { "type": "Point", "coordinates": [ -71.478555804999985, -34.478426512999938 ] } }
]
}
