{
"type": "FeatureCollection",
"name": "6308",
"crs": { "type": "name", "properties": { "name": "urn:ogc:def:crs:OGC:1.3:CRS84" } },
"features": [
{ "type": "Feature", "properties": { "capa": "comuna", "popup": "", "etiqueta": "" }, "geometry": { "type": "Polygon", "coordinates": [ [ [ -71.031071362731964, -34.547976844135576 ], [ -71.031304066814741, -34.548288500040435 ], [ -71.031712186719673, -34.548831739577253 ], [ -71.031820600798071, -34.549186013544457 ], [ -71.031929038232647, -34.549544864411217 ], [ -71.032052693128122, -34.549894377162694 ], [ -71.032334861145387, -34.55020609395482 ], [ -71.032544747121619, -34.550570123992323 ], [ -71.032803728723096, -34.55086058539819 ], [ -71.03280409882899, -34.551330769786169 ], [ -71.032726738611672, -34.55163680272365 ], [ -71.032738242437205, -34.551761064654599 ], [ -71.032777214947487, -34.552852873590403 ], [ -71.032961772025971, -34.553272497844461 ], [ -71.033109165801164, -34.553437924831684 ], [ -71.033915666076723, -34.553992615370177 ], [ -71.034090317432586, -34.554327759457422 ], [ -71.034329366316214, -34.554623793535718 ], [ -71.034609515819042, -34.554943217986938 ], [ -71.034801803798842, -34.555203248052756 ], [ -71.034964566850249, -34.555603438410692 ], [ -71.035087321633824, -34.555889443274459 ], [ -71.035319534338115, -34.556263657294089 ], [ -71.035571311451008, -34.55670431522104 ], [ -71.035665206059448, -34.557121015525844 ], [ -71.035622847798876, -34.557533266722359 ], [ -71.035581373480511, -34.557926816431397 ], [ -71.035475429769164, -34.558243004119085 ], [ -71.035365958373688, -34.558634291108774 ], [ -71.035324570293596, -34.559027765327798 ], [ -71.03540018149107, -34.559349935273922 ], [ -71.035426786894845, -34.559745600337351 ], [ -71.035410738492303, -34.560083553168823 ], [ -71.035297649581167, -34.560549942111535 ], [ -71.035099160530947, -34.560900761696622 ], [ -71.034945177613153, -34.561271814283728 ], [ -71.034792075044336, -34.561624091884646 ], [ -71.034566301463968, -34.561888579665933 ], [ -71.034375917912541, -34.562249899106448 ], [ -71.034410635103342, -34.562476584884067 ], [ -71.034554333209442, -34.562800943018729 ], [ -71.035299576467466, -34.562900413510533 ], [ -71.036039530445095, -34.563112454623173 ], [ -71.036258551389452, -34.563288795736064 ], [ -71.036544599230439, -34.563486101301947 ], [ -71.036924166184065, -34.56363007122691 ], [ -71.037281038998671, -34.563773309281636 ], [ -71.037637821083422, -34.563916473853695 ], [ -71.038012985393848, -34.564154315033207 ], [ -71.038458884846392, -34.564338089198138 ], [ -71.038767061786075, -34.564563751386416 ], [ -71.039168835991831, -34.564728317043603 ], [ -71.039538718208377, -34.56492502813564 ], [ -71.03985362712281, -34.56518115294989 ], [ -71.04013548701792, -34.565469514253543 ], [ -71.040396614694615, -34.565771664802426 ], [ -71.04065111819439, -34.566069419470551 ], [ -71.040901114846378, -34.566376259980302 ], [ -71.041125184322638, -34.566692618234832 ], [ -71.041300964860795, -34.567027732606611 ], [ -71.041419780531868, -34.567377388648232 ], [ -71.041505168992884, -34.567736542004546 ], [ -71.041584871118133, -34.568100442071611 ], [ -71.041766211329616, -34.568403481077908 ], [ -71.041977950530281, -34.568730014527404 ], [ -71.042237903210562, -34.569001676367122 ], [ -71.042470581242213, -34.569366487396621 ], [ -71.042772321752864, -34.569714705232663 ], [ -71.042799849726435, -34.570091664961687 ], [ -71.04278031226734, -34.570504717316524 ], [ -71.042716170759405, -34.57089754140226 ], [ -71.042652025658214, -34.571290290402608 ], [ -71.042681490399559, -34.5716296239207 ], [ -71.042825633171731, -34.571944583414684 ], [ -71.042967529257368, -34.57230640800875 ], [ -71.043133099544022, -34.572650330788889 ], [ -71.043299546586383, -34.572975330483978 ], [ -71.043446817292377, -34.573224575941317 ], [ -71.04340009591445, -34.573730777891086 ], [ -71.043258534900403, -34.574148975036238 ], [ -71.043099389364656, -34.574531056056351 ], [ -71.042815014186758, -34.574820322085344 ], [ -71.042528189303056, -34.575159190004939 ], [ -71.042841991493049, -34.57551769287668 ], [ -71.04363966851588, -34.575817127896372 ], [ -71.043924627598727, -34.576149743204461 ], [ -71.044058183725284, -34.576502251418873 ], [ -71.044099393040639, -34.576901508676002 ], [ -71.044209186931297, -34.577238977591499 ], [ -71.044405355633131, -34.577573743987799 ], [ -71.044578744856025, -34.577904461026634 ], [ -71.044727224694398, -34.578253541753014 ], [ -71.044859462094109, -34.578602968637831 ], [ -71.044982886122554, -34.578957048503163 ], [ -71.045084013965678, -34.579315934390834 ], [ -71.0451779130657, -34.579674940026088 ], [ -71.045399084576843, -34.579991116768824 ], [ -71.045727098114639, -34.580265025733326 ], [ -71.045963431391172, -34.580554726668922 ], [ -71.046150850502158, -34.580918072137884 ], [ -71.046319964642606, -34.581186741655451 ], [ -71.04650993407067, -34.581493763047419 ], [ -71.046697357673239, -34.581857108109219 ], [ -71.046971890010582, -34.582298463206357 ], [ -71.047043174921654, -34.582714422885999 ], [ -71.047139712373664, -34.583074859733806 ], [ -71.04721627309037, -34.58337816957502 ], [ -71.047241280391248, -34.583811449994968 ], [ -71.047269713866626, -34.584169633031657 ], [ -71.04725283542075, -34.584526359783069 ], [ -71.047281360524281, -34.584884540478029 ], [ -71.047305308711429, -34.585336524818487 ], [ -71.047192262919452, -34.585802995467944 ], [ -71.046969308252471, -34.586190582183647 ], [ -71.046697252570354, -34.586651743212528 ], [ -71.046566860310236, -34.587004761550837 ], [ -71.046406555049458, -34.587507253582345 ], [ -71.04638791590564, -34.587901605090181 ], [ -71.046414677616269, -34.588297262233446 ], [ -71.046444870891278, -34.588617968379296 ], [ -71.046475150404547, -34.588938525380442 ], [ -71.04657002417666, -34.589336510806199 ], [ -71.04662028042523, -34.589714120344325 ], [ -71.04666693442951, -34.590166979894526 ], [ -71.046337501553566, -34.591435421647979 ], [ -71.04593839714083, -34.591451126667572 ], [ -71.045351238508204, -34.591548495947912 ], [ -71.044885424304141, -34.59160460930056 ], [ -71.044480270636257, -34.591756237700032 ], [ -71.04407647791605, -34.591956146068711 ], [ -71.043732074615903, -34.592203435558993 ], [ -71.043327095221215, -34.592355056949543 ], [ -71.042862458708484, -34.592459521442613 ], [ -71.042518048221822, -34.592706734005482 ], [ -71.042351161004959, -34.593047581106092 ], [ -71.042066405839662, -34.593342096704248 ], [ -71.041722080692949, -34.59358938059011 ], [ -71.041377750156343, -34.593836587572355 ], [ -71.041033329788206, -34.594083796776957 ], [ -71.040567498516154, -34.594139893627435 ], [ -71.040102844935447, -34.594244199844375 ], [ -71.039700211041946, -34.594492451988813 ], [ -71.039474920755211, -34.594834272316007 ], [ -71.039130580337144, -34.595081474114778 ], [ -71.038725400618134, -34.595233158284643 ], [ -71.038440623893294, -34.595527666873906 ], [ -71.03803670990051, -34.595727631241012 ], [ -71.037751929582399, -34.596022138077196 ], [ -71.037287174492064, -34.596126509222536 ], [ -71.036882165452965, -34.596278184828954 ], [ -71.036417493905944, -34.596382476529534 ], [ -71.035952824155558, -34.596486842045856 ], [ -71.035547720793332, -34.596638514036435 ], [ -71.035083045653067, -34.59674280158729 ], [ -71.034620638758881, -34.59694373098656 ], [ -71.034097660261708, -34.597048986849728 ], [ -71.033632985121443, -34.597153417340735 ], [ -71.033168303692946, -34.597257697589917 ], [ -71.032589195761886, -34.597460490658285 ], [ -71.032122160747363, -34.597468271980652 ], [ -71.031656303424171, -34.597524336967268 ], [ -71.031188093413249, -34.597483904132318 ], [ -71.030775922106386, -34.597345855271911 ], [ -71.030307712993775, -34.597305345446266 ], [ -71.029895544381844, -34.597167294070729 ], [ -71.029426160272862, -34.59707849656462 ], [ -71.028960302051345, -34.597134549982918 ], [ -71.028494442033221, -34.59719060262394 ], [ -71.028090494802782, -34.597390535627923 ], [ -71.027686546674019, -34.59759046667174 ], [ -71.027342156848604, -34.597837637345251 ], [ -71.026936941196979, -34.597989283206815 ], [ -71.026532982288444, -34.598189063440131 ], [ -71.0260098986884, -34.598294434558532 ], [ -71.025544029687097, -34.598350476064532 ], [ -71.025138984715369, -34.598502039650391 ], [ -71.024733760978918, -34.598653678383357 ], [ -71.02426671608292, -34.598661356810688 ], [ -71.023799673881868, -34.598669180169097 ], [ -71.023332717919075, -34.598676853418866 ], [ -71.022808364999548, -34.598733854469387 ], [ -71.022405565816044, -34.598982053266255 ], [ -71.02200042382627, -34.599133682249558 ], [ -71.021535715448323, -34.599237919343274 ], [ -71.021068669653999, -34.599245733034628 ], [ -71.020601620266433, -34.599253397357828 ], [ -71.02013574228198, -34.59930941751238 ], [ -71.019671121040616, -34.599413720195848 ], [ -71.019326610840977, -34.599660869915482 ], [ -71.018982190472826, -34.599908092103931 ], [ -71.018697238576507, -34.600202558237847 ], [ -71.018293249125236, -34.600402385647293 ], [ -71.017828529967503, -34.600506683261031 ], [ -71.017362732831444, -34.600562692218254 ], [ -71.01707777105365, -34.600857155291841 ], [ -71.016852370274123, -34.601198936857408 ], [ -71.016507932837996, -34.601446077567601 ], [ -71.016163496300194, -34.601693291484438 ], [ -71.015878617167402, -34.601987751288853 ], [ -71.01559373533965, -34.602282209309863 ], [ -71.015249200885478, -34.602529348275255 ], [ -71.014845194366231, -34.602729239590992 ], [ -71.014560308945235, -34.603023768923833 ], [ -71.014334889301082, -34.603365472808164 ], [ -71.01410956128511, -34.603707322427724 ], [ -71.013766182962712, -34.604002742226719 ], [ -71.013362163867043, -34.604202554577299 ], [ -71.012957069487982, -34.604354153326426 ], [ -71.012582737915835, -34.60457762474261 ], [ -71.012119152431993, -34.604730185497822 ], [ -71.01171512704812, -34.604930067079721 ], [ -71.011311099867626, -34.605129946701702 ], [ -71.010905815944042, -34.605281467600726 ], [ -71.010501783373641, -34.605481270959373 ], [ -71.010216870104884, -34.605775717332527 ], [ -71.009812924671067, -34.605975591222062 ], [ -71.009468357877537, -34.606222714759646 ], [ -71.009064230984038, -34.606422589051967 ], [ -71.008660189430515, -34.606622460645063 ], [ -71.008257397433511, -34.606870539747838 ], [ -71.007912821656817, -34.607117659143199 ], [ -71.007661328411572, -34.607298102831798 ], [ -71.007699640660121, -34.607345923855561 ], [ -71.007819918788456, -34.607496019643314 ], [ -71.008071894429023, -34.607802893538896 ], [ -71.008329032687527, -34.608105249526929 ], [ -71.008602722405143, -34.608393742870497 ], [ -71.008902321332187, -34.608663712796059 ], [ -71.00925202379419, -34.608892382122427 ], [ -71.009622367744797, -34.609102688201958 ], [ -71.009953806558755, -34.609340666250425 ], [ -71.010239969384088, -34.60961994003943 ], [ -71.010461285524016, -34.609825387495938 ], [ -71.010679217710248, -34.609934947041026 ], [ -71.010871363756252, -34.610064282480486 ], [ -71.011254719803773, -34.610343279538867 ], [ -71.011706493339929, -34.610747593932061 ], [ -71.011809692698094, -34.611181513827766 ], [ -71.011707021549313, -34.611772753141224 ], [ -71.011592279738068, -34.612096968441193 ], [ -71.01142894266323, -34.612399161665664 ], [ -71.011284665143762, -34.612824902684451 ], [ -71.011195623234471, -34.613129563324186 ], [ -71.011030408680696, -34.613472558607995 ], [ -71.010914727231665, -34.613817320171847 ], [ -71.010775214376466, -34.614140760822309 ], [ -71.010602323718572, -34.614554564940988 ], [ -71.010618380205955, -34.614923965943909 ], [ -71.010696554296914, -34.615283332264774 ], [ -71.01083041315573, -34.615632695084365 ], [ -71.010997476442384, -34.615977078769141 ], [ -71.011200003419802, -34.616302782105642 ], [ -71.011346456658885, -34.616466772169879 ], [ -71.011615741936666, -34.616782139838286 ], [ -71.011901778099556, -34.616995601898104 ], [ -71.012536934616136, -34.617245179580586 ], [ -71.013234981287439, -34.617472222510038 ], [ -71.013876402654802, -34.617747836132388 ], [ -71.014166010519261, -34.617790765991096 ], [ -71.014397926779537, -34.617834648755824 ], [ -71.01474753132517, -34.617972012253382 ], [ -71.015214735222983, -34.618202856758835 ], [ -71.015507805194531, -34.618388865991626 ], [ -71.015628955587005, -34.618625428331526 ], [ -71.015638183081606, -34.61900698028812 ], [ -71.015476640840703, -34.619486706819643 ], [ -71.015365869583007, -34.619679389439035 ], [ -71.015197493857727, -34.619872950590072 ], [ -71.015029030097566, -34.620066586693937 ], [ -71.0146897930086, -34.620358470090792 ], [ -71.014628672534982, -34.620472631634492 ], [ -71.014303235365432, -34.621080477778605 ], [ -71.01431245747014, -34.621462029537163 ], [ -71.014317069420798, -34.621652806237101 ], [ -71.014272057536871, -34.622178392409374 ], [ -71.014274361715565, -34.622273706806233 ], [ -71.014222431007312, -34.622513129263645 ], [ -71.014169348658868, -34.622704858637292 ], [ -71.014172806274388, -34.622847940908599 ], [ -71.014120876464446, -34.623087363187693 ], [ -71.014071249036576, -34.623422100810814 ], [ -71.014077102458955, -34.623660568572014 ], [ -71.014086235630444, -34.624042122513174 ], [ -71.01415430636942, -34.624470340809616 ], [ -71.014165835347768, -34.62494728071011 ], [ -71.014116208818223, -34.625282091404465 ], [ -71.01377473043263, -34.625478509097412 ], [ -71.013607317701357, -34.625719912992501 ], [ -71.013435468190863, -34.625770389721836 ], [ -71.012977354345423, -34.625921093087065 ], [ -71.012576933900789, -34.626070841866429 ], [ -71.012291905647658, -34.626218685450773 ], [ -71.011952725152568, -34.626510560514696 ], [ -71.011502661110399, -34.626995042528023 ], [ -71.011336477274398, -34.627284061576077 ], [ -71.011286927101651, -34.627618797053394 ], [ -71.011182955192339, -34.628097642217945 ], [ -71.0111586431875, -34.629481572654356 ], [ -71.011166794500397, -34.629815502440024 ], [ -71.010941753945303, -34.630057779979467 ], [ -71.010774319654445, -34.630299033066237 ], [ -71.010496268616109, -34.630732961623131 ], [ -71.010499723536697, -34.630876117271946 ], [ -71.010333527124303, -34.631165062189119 ], [ -71.010226183837759, -34.63150082273895 ], [ -71.010177690083751, -34.631883325916093 ], [ -71.010186031839481, -34.632228997024853 ], [ -71.010086141874851, -34.633173676457915 ], [ -71.009874671270438, -34.634478708942083 ], [ -71.009780025670409, -34.635418722556309 ], [ -71.009873748700642, -34.636569749153658 ], [ -71.010278208869096, -34.637444072059921 ], [ -71.011138304431142, -34.638128223125207 ], [ -71.012101518502973, -34.638733853472651 ], [ -71.013256784297695, -34.639468658889783 ], [ -71.014025323565974, -34.640012271434827 ], [ -71.014156159593853, -34.640123408972883 ], [ -71.014519012493309, -34.640361221947231 ], [ -71.014662987280531, -34.640730944123405 ], [ -71.014786479580948, -34.641062893737782 ], [ -71.015144171659088, -34.641534035615408 ], [ -71.015851669505508, -34.642142606941441 ], [ -71.016619193677514, -34.642845531876461 ], [ -71.018201498795364, -34.643821240432331 ], [ -71.019592311840753, -34.644726539036562 ], [ -71.020488993987698, -34.645310083993806 ], [ -71.021776959814488, -34.646052134192686 ], [ -71.022925555618258, -34.646769524068702 ], [ -71.023458888097366, -34.6471026378481 ], [ -71.02367955116209, -34.64728664976581 ], [ -71.025325656428052, -34.6486590811502 ], [ -71.027052523831316, -34.649759971043494 ], [ -71.029183350143143, -34.650854553878204 ], [ -71.031207408988479, -34.6521095258393 ], [ -71.032666117601337, -34.65273117536038 ], [ -71.034374658474519, -34.653319833008929 ], [ -71.035932698299931, -34.653944585194459 ], [ -71.037698628943332, -34.654371076631968 ], [ -71.038479480520905, -34.654642522662243 ], [ -71.039345911900654, -34.655203680974438 ], [ -71.04014917913949, -34.656049875604779 ], [ -71.04093486006002, -34.657264469383492 ], [ -71.040963757066095, -34.658741522318138 ], [ -71.041287050855374, -34.659244032359872 ], [ -71.041856287199764, -34.659795598109504 ], [ -71.043437622137134, -34.660309811087096 ], [ -71.044252633950023, -34.660582418423211 ], [ -71.045077024174461, -34.661236488239425 ], [ -71.046240716166537, -34.661598653824832 ], [ -71.047413892571413, -34.662342276113883 ], [ -71.047980085423632, -34.663541156486914 ], [ -71.048947738969602, -34.664064573170378 ], [ -71.050406962317112, -34.664685993377461 ], [ -71.050956794153066, -34.665526922916257 ], [ -71.051468733253685, -34.666360583293539 ], [ -71.051588226254466, -34.666979423247014 ], [ -71.051864173438389, -34.667439418058962 ], [ -71.052532574807017, -34.667994136518303 ], [ -71.053640138263518, -34.668706523791329 ], [ -71.054883770434429, -34.669689880554323 ], [ -71.055790255896056, -34.670457338059613 ], [ -71.056454830441581, -34.67109385872417 ], [ -71.057262214659374, -34.671858102759394 ], [ -71.057877245320327, -34.672493014657441 ], [ -71.058399054210994, -34.673001945567826 ], [ -71.059321189223184, -34.673441846805915 ], [ -71.06010624761123, -34.673631242098111 ], [ -71.061727968108812, -34.673970740287004 ], [ -71.062065175005216, -34.674186681510598 ], [ -71.062337245060363, -34.674728477287978 ], [ -71.062211019186549, -34.675298431985141 ], [ -71.062130400779679, -34.675951886963318 ], [ -71.062154722665994, -34.676485688952802 ], [ -71.062072167491394, -34.67718001985277 ], [ -71.061898303958046, -34.677707500624848 ], [ -71.06148045619689, -34.678144940507238 ], [ -71.061189191839063, -34.67828258973713 ], [ -71.061706388779058, -34.678397625253261 ], [ -71.062671796536804, -34.678142430270128 ], [ -71.063868852856857, -34.678017207904489 ], [ -71.065092699633624, -34.677894474170628 ], [ -71.065414725001759, -34.677861761938281 ], [ -71.066158000949287, -34.677885794692692 ], [ -71.066403813248698, -34.677934212560288 ], [ -71.067244375843188, -34.6780019366551 ], [ -71.069086741439179, -34.677876792383628 ], [ -71.071435194510045, -34.677542640251055 ], [ -71.072780131492166, -34.677221384569194 ], [ -71.073845165109859, -34.676965809198876 ], [ -71.074441917749752, -34.676868572638782 ], [ -71.074895290287131, -34.676793791061911 ], [ -71.075789559559198, -34.676782030135222 ], [ -71.076677925103226, -34.676891860281906 ], [ -71.077005371804063, -34.676958437211397 ], [ -71.077415217372675, -34.677041704654521 ], [ -71.078108738331579, -34.677064074722452 ], [ -71.078649155823356, -34.677009508471372 ], [ -71.079056376514686, -34.676969767421745 ], [ -71.079411558699917, -34.676865476533429 ], [ -71.079811415900878, -34.676749490331432 ], [ -71.080568221374932, -34.676485601779802 ], [ -71.081027727609055, -34.67621319673809 ], [ -71.081487060468334, -34.675848324688175 ], [ -71.081971526392635, -34.676201801413619 ], [ -71.082266497199328, -34.676710144389546 ], [ -71.082384490911892, -34.676912934621832 ], [ -71.082465801919838, -34.677050397518414 ], [ -71.082706271039939, -34.677456343715441 ], [ -71.083057650656585, -34.678060473720386 ], [ -71.083119503257137, -34.678166951988594 ], [ -71.083681476722489, -34.678883288209718 ], [ -71.08401207022176, -34.679246108732912 ], [ -71.084294709854547, -34.679557605364906 ], [ -71.084781691959961, -34.67979617911206 ], [ -71.085489855458007, -34.68013761555207 ], [ -71.08677979039193, -34.68053954497924 ], [ -71.0875689055718, -34.680646931636971 ], [ -71.088492187732598, -34.681066127499527 ], [ -71.089307730449818, -34.681666343349022 ], [ -71.090447062826343, -34.682769061813531 ], [ -71.091502818643789, -34.683540994264838 ], [ -71.092118195156132, -34.68417579296154 ], [ -71.092689768916912, -34.68468622694742 ], [ -71.093719030721672, -34.684965227849332 ], [ -71.094651159491406, -34.685200171671212 ], [ -71.095379240435918, -34.685551546101721 ], [ -71.095807872472037, -34.685934286671774 ], [ -71.096985885406397, -34.68621816005107 ], [ -71.098024854406134, -34.686292446335479 ], [ -71.098619568768626, -34.6863114507549 ], [ -71.099553552559428, -34.686505408156002 ], [ -71.100182606820283, -34.686853659155126 ], [ -71.100304324948027, -34.687431560336513 ], [ -71.100281241838474, -34.687922885997963 ], [ -71.100355393273603, -34.688458253570325 ], [ -71.100435294824862, -34.68887084407941 ], [ -71.100707664917323, -34.68941261616957 ], [ -71.101332913016321, -34.689842685419066 ], [ -71.101959903846961, -34.690231804916891 ], [ -71.102726056291544, -34.69083034042098 ], [ -71.103260743430127, -34.691073036447804 ], [ -71.103682689305586, -34.691287912297057 ], [ -71.103997868612922, -34.691513272304292 ], [ -71.104398079750084, -34.69177719347249 ], [ -71.105030930291335, -34.692174097735823 ], [ -71.105300231738795, -34.692451872419127 ], [ -71.105632019997401, -34.692785363154819 ], [ -71.106008988124913, -34.693084392878127 ], [ -71.106680205711953, -34.693590154935784 ], [ -71.1072680820985, -34.694021502412276 ], [ -71.108269678487474, -34.694430253306464 ], [ -71.109421457920575, -34.69492487511436 ], [ -71.109821187560769, -34.694914924092679 ], [ -71.110675772856851, -34.694896722280156 ], [ -71.111762441499849, -34.694630025826939 ], [ -71.112237024159384, -34.694472680366069 ], [ -71.113019938268849, -34.694168033461445 ], [ -71.113647676497834, -34.69395381579448 ], [ -71.114326191998231, -34.693763750542203 ], [ -71.115093560761693, -34.693319696992937 ], [ -71.115597629722117, -34.692993434203657 ], [ -71.116177208370388, -34.692714528310766 ], [ -71.116965802527389, -34.692356801930991 ], [ -71.117804898173048, -34.692054693245645 ], [ -71.118244878626157, -34.691933600105799 ], [ -71.118666040272387, -34.691775829983783 ], [ -71.118960533175354, -34.691528383735594 ], [ -71.119107011567266, -34.691150126622382 ], [ -71.119126812232764, -34.690727321918089 ], [ -71.11921973486406, -34.690387885041233 ], [ -71.119416988730791, -34.690033781944237 ], [ -71.119585744443413, -34.689719318475163 ], [ -71.119888333862036, -34.689386498627563 ], [ -71.120155702134994, -34.689106729665404 ], [ -71.120532025272141, -34.688902465417733 ], [ -71.120920285222752, -34.688721109011794 ], [ -71.121316676723353, -34.688553569335049 ], [ -71.121718600947773, -34.688399669195789 ], [ -71.122126454053074, -34.688250465103508 ], [ -71.122544572207119, -34.688128629225147 ], [ -71.122963023636146, -34.688002354609957 ], [ -71.123371103116895, -34.687862153242001 ], [ -71.123770883961043, -34.687694693817441 ], [ -71.124146168645709, -34.687499374166194 ], [ -71.124490526131765, -34.687262567325121 ], [ -71.12482761984046, -34.687007495689095 ], [ -71.125120197535239, -34.686728458088488 ], [ -71.125312576244909, -34.686419262046201 ], [ -71.125562572896897, -34.685985719514704 ], [ -71.125553341809038, -34.685701606008642 ], [ -71.125499451875143, -34.685321446033967 ], [ -71.125383091299767, -34.68492132742238 ], [ -71.125356034941731, -34.684524007223096 ], [ -71.125420070448428, -34.684129529058936 ], [ -71.125527753298172, -34.683795148048816 ], [ -71.125634871107593, -34.683456123007957 ], [ -71.125804284387016, -34.68276319802608 ], [ -71.125812600989931, -34.682584910766124 ], [ -71.125888426884757, -34.682284541520275 ], [ -71.12622131468126, -34.68175405455424 ], [ -71.126545637041545, -34.681567002555198 ], [ -71.126733575378765, -34.681458846616174 ], [ -71.12753927525543, -34.681349282552766 ], [ -71.128462879013099, -34.681333151319379 ], [ -71.129035304376771, -34.681132378255583 ], [ -71.129666675392727, -34.680978209464286 ], [ -71.130180050899511, -34.680730677753246 ], [ -71.130571941840515, -34.680246711392336 ], [ -71.130662771397198, -34.680085961891905 ], [ -71.130861751825918, -34.679732254272025 ], [ -71.131065755633671, -34.679236209753704 ], [ -71.13185684890378, -34.678554485631629 ], [ -71.132315184633114, -34.678312561085008 ], [ -71.132766962660853, -34.678013732868102 ], [ -71.133166166786594, -34.677815899338697 ], [ -71.133678379873402, -34.677520735721806 ], [ -71.134023182923841, -34.677432789543772 ], [ -71.134481585128484, -34.677315821602846 ], [ -71.135115364527749, -34.677257006242158 ], [ -71.135809232236369, -34.677292556241312 ], [ -71.136503189776477, -34.677328101792739 ], [ -71.137484381832081, -34.677310892682932 ], [ -71.137973506419456, -34.67723465838877 ], [ -71.138174659872817, -34.677203358381938 ], [ -71.138860030417163, -34.676905061017983 ], [ -71.139199034842449, -34.676612915655554 ], [ -71.139654627116883, -34.676366360089361 ], [ -71.14011153272827, -34.676167489842072 ], [ -71.140569574708493, -34.676016309689771 ], [ -71.140970329326422, -34.675935338757078 ], [ -71.1409220161338, -34.675472073336223 ], [ -71.140693783864521, -34.675027774656137 ], [ -71.140397724299703, -34.674518417362904 ], [ -71.140276659247164, -34.674073047513367 ], [ -71.140217458473316, -34.673044010522887 ], [ -71.140112667300471, -34.672247756705161 ], [ -71.139959429984373, -34.671715726372376 ], [ -71.139766888679617, -34.671268139825941 ], [ -71.139462756853675, -34.670934182671125 ], [ -71.138807946995286, -34.670503424898705 ], [ -71.138331381753915, -34.670051292542411 ], [ -71.137893191643158, -34.669537332111794 ], [ -71.137604080547064, -34.668879392854812 ], [ -71.13745753747645, -34.668203443129968 ], [ -71.137287415426272, -34.667288093418456 ], [ -71.137323008474453, -34.666523274515505 ], [ -71.137295037631446, -34.665351069277079 ], [ -71.137443124007717, -34.664657468219502 ], [ -71.137651464881671, -34.663898186481674 ], [ -71.138007102512773, -34.662449822319203 ], [ -71.138388965560267, -34.661674496121989 ], [ -71.138467463044734, -34.661515213474495 ], [ -71.138940523059873, -34.661436599460522 ], [ -71.139093568136502, -34.661482511029099 ], [ -71.139289363139213, -34.661425011470016 ], [ -71.139408331523853, -34.66139013000533 ], [ -71.139515413400673, -34.661324068868907 ], [ -71.139638878751626, -34.661151218768858 ], [ -71.139804453529862, -34.660919724592695 ], [ -71.139831994978152, -34.66082285859364 ], [ -71.140019164357497, -34.660704650976484 ], [ -71.1402323687104, -34.660570033044102 ], [ -71.140373600941061, -34.660465999333297 ], [ -71.140699351622644, -34.660422241827085 ], [ -71.140929701221069, -34.660439909606517 ], [ -71.141148189464474, -34.660357856479123 ], [ -71.141318969979764, -34.660259433701796 ], [ -71.141430632366195, -34.660114411329481 ], [ -71.141540016625086, -34.659873932158376 ], [ -71.141876398868064, -34.659486328850889 ], [ -71.142390923320093, -34.65928643976487 ], [ -71.142673357238678, -34.659042918315684 ], [ -71.14260950229334, -34.658805483308555 ], [ -71.142181821573075, -34.658667060582296 ], [ -71.141910790868707, -34.658579282071393 ], [ -71.141670496920113, -34.658452853039591 ], [ -71.141383997226541, -34.658302270853632 ], [ -71.141301484272745, -34.658204457458574 ], [ -71.141264996502542, -34.657984857564614 ], [ -71.140976109086935, -34.657619763352649 ], [ -71.140925675870264, -34.657500779730228 ], [ -71.140432537610209, -34.657221769806938 ], [ -71.139991552840613, -34.656947898192961 ], [ -71.139782970319843, -34.656660565304847 ], [ -71.139717811919027, -34.656375513986873 ], [ -71.139817519525664, -34.655758684557583 ], [ -71.139810032067771, -34.655467451845524 ], [ -71.139737604499672, -34.654896185787223 ], [ -71.139725345190996, -34.654419360453332 ], [ -71.14008993453389, -34.653881338717788 ], [ -71.140281524522749, -34.653598499889625 ], [ -71.140504644479762, -34.653089106169674 ], [ -71.140599583828873, -34.652495699011368 ], [ -71.140473125291393, -34.652068516592145 ], [ -71.140347982785784, -34.651689021768703 ], [ -71.140221440704977, -34.651261915002102 ], [ -71.140210404003369, -34.650832705844891 ], [ -71.140255852468542, -34.650354866892627 ], [ -71.140298845838046, -34.649781574014 ], [ -71.140362880446446, -34.649484358088529 ], [ -71.14129334643458, -34.64804656774735 ], [ -71.143146043554651, -34.643768054257791 ], [ -71.143800338678375, -34.642277492779371 ], [ -71.145500495574979, -34.634328062512679 ], [ -71.145719892015123, -34.634363862277468 ], [ -71.147876982370917, -34.634715619367554 ], [ -71.148065996889855, -34.634307849515942 ], [ -71.148693886035787, -34.632953107766028 ], [ -71.149857869980352, -34.630441987671837 ], [ -71.150776762972683, -34.628459196394083 ], [ -71.151052087624109, -34.628028184600893 ], [ -71.151800119252755, -34.626250324050041 ], [ -71.152193240885708, -34.625288637855256 ], [ -71.152182241913394, -34.624859428798857 ], [ -71.15259941593807, -34.623134597038288 ], [ -71.152816530657404, -34.622605937270563 ], [ -71.15285943689031, -34.622032715730555 ], [ -71.152927040505332, -34.621609799277017 ], [ -71.152958795052299, -34.621410711143618 ], [ -71.153117074612112, -34.62083545210529 ], [ -71.153339725648536, -34.620486755813829 ], [ -71.153394423167867, -34.620401150209702 ], [ -71.153672914380692, -34.620014613194343 ], [ -71.153786210802636, -34.619676415393066 ], [ -71.153833737969364, -34.619534656846724 ], [ -71.154047141748279, -34.618862999098035 ], [ -71.154205407833331, -34.618287665476188 ], [ -71.154124304336221, -34.617382726656125 ], [ -71.154168431379603, -34.616857120462974 ], [ -71.15438437828908, -34.61628076676174 ], [ -71.154661706183575, -34.615846462471808 ], [ -71.154764656708409, -34.61536760205896 ], [ -71.154528055733934, -34.614650569733143 ], [ -71.154451584848729, -34.614418976040525 ], [ -71.154207381432016, -34.613898463424349 ], [ -71.154168257106448, -34.613632456982266 ], [ -71.154120158611192, -34.613378648416742 ], [ -71.153952003871467, -34.612948816619337 ], [ -71.153884554766677, -34.61256838942046 ], [ -71.153986272802925, -34.612041764999212 ], [ -71.154086849978768, -34.611467523410383 ], [ -71.154140834235776, -34.611323435246568 ], [ -71.154242281879121, -34.611052582328391 ], [ -71.154453973469089, -34.610830521254044 ], [ -71.155091738693258, -34.610161630680899 ], [ -71.15529848415926, -34.609862475426205 ], [ -71.155425490669074, -34.609678615599805 ], [ -71.155465910365294, -34.609010013706502 ], [ -71.155453580089684, -34.60853311604474 ], [ -71.155613053510493, -34.608005469363015 ], [ -71.155833905221428, -34.607619945968118 ], [ -71.156000687335379, -34.607378513825324 ], [ -71.155987209012878, -34.606853850578013 ], [ -71.156012739133246, -34.605613045916435 ], [ -71.155888841692615, -34.6052812553961 ], [ -71.155822445413335, -34.604948520825353 ], [ -71.155686783635772, -34.604596922955714 ], [ -71.155449809860443, -34.604199625080163 ], [ -71.155276323619503, -34.603908517429979 ], [ -71.155379350501136, -34.603429654704442 ], [ -71.155659009523816, -34.603090731260068 ], [ -71.156108174352397, -34.602605748136007 ], [ -71.156213569193113, -34.602222192397726 ], [ -71.156265078591503, -34.601982723244383 ], [ -71.15636439812593, -34.601360790244478 ], [ -71.156355266751063, -34.601007693894211 ], [ -71.156352066053714, -34.600883892277231 ], [ -71.156278820120392, -34.600403565041951 ], [ -71.156035070352885, -34.59754990298493 ], [ -71.156015345145875, -34.596786864814725 ], [ -71.156285211633644, -34.596066566985577 ], [ -71.156907255442022, -34.595578452577087 ], [ -71.157247020740357, -34.595333884797242 ], [ -71.157529204028975, -34.59509033603981 ], [ -71.157807685360325, -34.594703789880761 ], [ -71.158084928813196, -34.594269479950633 ], [ -71.158135106908347, -34.593982396552605 ], [ -71.158002585641, -34.593316777861965 ], [ -71.157992626917761, -34.592935260916818 ], [ -71.158090781337279, -34.592265635333746 ], [ -71.158252680209344, -34.591833365533191 ], [ -71.158526212721796, -34.59125605942036 ], [ -71.158703460208827, -34.591102992490526 ], [ -71.158167782228489, -34.590785285068293 ], [ -71.157813235152133, -34.590457574411239 ], [ -71.157344503220045, -34.590179669377534 ], [ -71.156869697778305, -34.589663237875648 ], [ -71.156749434023027, -34.589474516772341 ], [ -71.156507674922167, -34.589049385957303 ], [ -71.156286260865897, -34.588903370123994 ], [ -71.156155519161132, -34.588817126275082 ], [ -71.15580098915278, -34.58848941081331 ], [ -71.155387386829673, -34.588115099242451 ], [ -71.154893058301866, -34.587581794728415 ], [ -71.154734685317266, -34.587411028084098 ], [ -71.15465608452655, -34.586601317392748 ], [ -71.154653463242539, -34.58649980967509 ], [ -71.154636382675733, -34.585838350978321 ], [ -71.154619141310476, -34.585170690916037 ], [ -71.154084259237493, -34.584559957870582 ], [ -71.153560280915414, -34.584378362815585 ], [ -71.152572723397711, -34.584109521679466 ], [ -71.152055080893334, -34.584166439538606 ], [ -71.151419649492283, -34.584129862274892 ], [ -71.150379353680862, -34.584052780540489 ], [ -71.150146248051172, -34.583961539500777 ], [ -71.14968362915458, -34.583921980903618 ], [ -71.148984488335245, -34.583648027782893 ], [ -71.14851459488149, -34.583322322094283 ], [ -71.148276579958761, -34.583040242634638 ], [ -71.147973700384284, -34.58276033882936 ], [ -71.14756999929223, -34.582480214422539 ], [ -71.147161458975759, -34.582296558752958 ], [ -71.146642505829377, -34.58230569125373 ], [ -71.146123641616214, -34.582314820795084 ], [ -71.145662348632982, -34.582322934873851 ], [ -71.145298962134248, -34.58236706639579 ], [ -71.14334264793942, -34.582411423469992 ], [ -71.143068889949845, -34.582416233040128 ], [ -71.142792967918751, -34.582451583335036 ], [ -71.142206589922111, -34.582526802044391 ], [ -71.141567324511414, -34.58234717726031 ], [ -71.141206621280432, -34.582238439252038 ], [ -71.140520939020689, -34.582031559000043 ], [ -71.139999627796698, -34.581945279914379 ], [ -71.139479542773074, -34.581906764668489 ], [ -71.138666168588941, -34.581682392815395 ], [ -71.137909241842351, -34.581409462576985 ], [ -71.137436676798927, -34.58119698220397 ], [ -71.137092392974694, -34.581042078056115 ], [ -71.136396756483308, -34.580961866406092 ], [ -71.135821497833248, -34.580968910407975 ], [ -71.13506360719434, -34.581066078225895 ], [ -71.134618284460231, -34.581188646134265 ], [ -71.134215526599206, -34.581331000440628 ], [ -71.133468457066215, -34.581439491130162 ], [ -71.132997413768891, -34.581066031630797 ], [ -71.132980351168399, -34.580398435294079 ], [ -71.133020947832705, -34.579729757453251 ], [ -71.133016440086621, -34.579553390558274 ], [ -71.132961768618429, -34.579314973624321 ], [ -71.132937558123189, -34.579209705649021 ], [ -71.132912716112315, -34.578939969120725 ], [ -71.132742164667434, -34.578726991323364 ], [ -71.132711413538644, -34.578613861855132 ], [ -71.13257598622134, -34.578115474992927 ], [ -71.13198843232999, -34.577696408760801 ], [ -71.131522195019429, -34.577502997814079 ], [ -71.131185827149494, -34.57726543963615 ], [ -71.130948799475249, -34.576963069760389 ], [ -71.130758475212659, -34.576632778709325 ], [ -71.13057542011731, -34.576293349487351 ], [ -71.130220995211857, -34.576030253682681 ], [ -71.130119185547443, -34.575697233306684 ], [ -71.129875960396063, -34.575379091239796 ], [ -71.129513889929214, -34.575096036581122 ], [ -71.129313935726756, -34.574856903446047 ], [ -71.129253431497432, -34.574137181799806 ], [ -71.129239941496806, -34.573923376582947 ], [ -71.129005712074672, -34.573411494380679 ], [ -71.128807456586415, -34.57313362924036 ], [ -71.128652645421923, -34.572934772532314 ], [ -71.128484141237564, -34.572647081377262 ], [ -71.128212960514531, -34.572300027507701 ], [ -71.127946428573097, -34.571981105386541 ], [ -71.127768875658873, -34.571762110896536 ], [ -71.127601429689932, -34.571330008867342 ], [ -71.127574280805405, -34.570902328708051 ], [ -71.12746543194244, -34.570618249120294 ], [ -71.127235704876512, -34.570306807794275 ], [ -71.126990563618634, -34.569999992143941 ], [ -71.126739892331869, -34.569693345493754 ], [ -71.126491030252055, -34.569391099717357 ], [ -71.12623610364578, -34.569089032592132 ], [ -71.125974894222409, -34.568796084300004 ], [ -71.125706902518658, -34.568503253330391 ], [ -71.125418865807632, -34.568331308321625 ], [ -71.125054969065815, -34.568086897799752 ], [ -71.124710924193479, -34.567920800907871 ], [ -71.124244385947293, -34.567867179221302 ], [ -71.12389584231201, -34.567797910890079 ], [ -71.123548143991385, -34.567709202573838 ], [ -71.122971897194518, -34.567617749786407 ], [ -71.122530375232373, -34.567652462075145 ], [ -71.122088608928465, -34.567691682964238 ], [ -71.121646144633587, -34.567717399447865 ], [ -71.121174890232183, -34.567808386840305 ], [ -71.1207968665842, -34.567840365776 ], [ -71.120394600999958, -34.568000611637601 ], [ -71.119959320532416, -34.568066744126234 ], [ -71.119516060330213, -34.568110561438786 ], [ -71.119097808327169, -34.568221522290159 ], [ -71.118692913374105, -34.568359282225465 ], [ -71.118243200573204, -34.568367015972228 ], [ -71.11745929831693, -34.568424272305847 ], [ -71.116788865857458, -34.568333167972206 ], [ -71.116419693309979, -34.568112162932081 ], [ -71.116252043423458, -34.567768012038592 ], [ -71.116072833117542, -34.567587731034806 ], [ -71.115920605507796, -34.567330611302829 ], [ -71.115672949865427, -34.567109343953405 ], [ -71.115305512863088, -34.566942442501698 ], [ -71.114839923237852, -34.566869417047151 ], [ -71.114350831888132, -34.566795614810445 ], [ -71.114025710027263, -34.566727020961991 ], [ -71.113580807704693, -34.566712865447641 ], [ -71.113162891671593, -34.566621947131154 ], [ -71.112698242582454, -34.566529546288642 ], [ -71.112419005767961, -34.566481792756832 ], [ -71.112099341172424, -34.566297068329995 ], [ -71.111604903948461, -34.565835074601239 ], [ -71.111241057512316, -34.565590696688574 ], [ -71.110948474427644, -34.565329130835387 ], [ -71.110654864568616, -34.56508700544412 ], [ -71.110296010070485, -34.564736034113828 ], [ -71.110028074062257, -34.564446269175875 ], [ -71.109850761896539, -34.564227169769417 ], [ -71.109516265217351, -34.56385760470382 ], [ -71.1092224262879, -34.563510602919528 ], [ -71.108935510674385, -34.563236081711153 ], [ -71.10870798987078, -34.562919986240317 ], [ -71.108549395002328, -34.562575667385119 ], [ -71.108385827958756, -34.562235864892379 ], [ -71.108205064465707, -34.561900938348202 ], [ -71.108018500550884, -34.561566038566866 ], [ -71.107818869741905, -34.561240448319822 ], [ -71.107592363136291, -34.560928764732203 ], [ -71.107336815794156, -34.560626666128599 ], [ -71.10710040705915, -34.560315151872061 ], [ -71.106931289325431, -34.559953064260057 ], [ -71.106726806715628, -34.559636492460626 ], [ -71.106361725994262, -34.559476021859751 ], [ -71.105897641945447, -34.559425388686812 ], [ -71.105450530665621, -34.559410576469375 ], [ -71.105006648829217, -34.559431750201249 ], [ -71.104564048888719, -34.559475500303158 ], [ -71.104126654685302, -34.559541612938439 ], [ -71.103712085774958, -34.559670404663528 ], [ -71.103360403426052, -34.559892871774586 ], [ -71.103035127054952, -34.560146493838495 ], [ -71.102732429838483, -34.560417600025183 ], [ -71.102447141073924, -34.560706501613403 ], [ -71.102036786160568, -34.560790235688017 ], [ -71.101581626874093, -34.560807085766761 ], [ -71.101134724901712, -34.560832802899704 ], [ -71.100691303901058, -34.560858458622675 ], [ -71.100258450681395, -34.560924552403932 ], [ -71.099840274136852, -34.561048887756861 ], [ -71.099415803995441, -34.561164393631408 ], [ -71.098985931385897, -34.561270981290754 ], [ -71.098552637991759, -34.561305464677417 ], [ -71.098109988643927, -34.561258938401238 ], [ -71.097679456670974, -34.561158136558703 ], [ -71.097280858009739, -34.561002794850012 ], [ -71.09691090752122, -34.560797252547403 ], [ -71.096720891380741, -34.56050434532554 ], [ -71.096367179737612, -34.560205755484517 ], [ -71.096112378895484, -34.559977922018653 ], [ -71.095754806293286, -34.559763743047895 ], [ -71.095401929185059, -34.559448297238504 ], [ -71.095067123485393, -34.559184166418497 ], [ -71.094740969460247, -34.558990790087279 ], [ -71.094413899153523, -34.558739450491238 ], [ -71.094093879723431, -34.55848798880767 ], [ -71.093804641066569, -34.558200028687629 ], [ -71.093523943591421, -34.557907268419996 ], [ -71.09319965357048, -34.557673972540769 ], [ -71.09278464987554, -34.557568382719516 ], [ -71.092331468679305, -34.55751750868572 ], [ -71.091904623392267, -34.557416697130385 ], [ -71.091481567199111, -34.557306734670874 ], [ -71.091054566503544, -34.557210354362439 ], [ -71.090617737340423, -34.557145679558808 ], [ -71.090175826407773, -34.557099110265881 ], [ -71.089737886926983, -34.557043535140259 ], [ -71.089309331247648, -34.55695625947974 ], [ -71.088888065396844, -34.556846257201087 ], [ -71.08847009815976, -34.556718175030795 ], [ -71.088052244110415, -34.556594595961172 ], [ -71.087630154504495, -34.556480098038548 ], [ -71.087205858636239, -34.556370141739244 ], [ -71.086785466846194, -34.556255612435031 ], [ -71.086372835601921, -34.556122926155609 ], [ -71.085964443507436, -34.555981156061037 ], [ -71.085151361275791, -34.555688463447211 ], [ -71.084739604092277, -34.555551252193844 ], [ -71.08431676439308, -34.555427743894356 ], [ -71.083908444163853, -34.555281460368349 ], [ -71.08354455371024, -34.555080352560438 ], [ -71.083221035342135, -34.554833425379989 ], [ -71.082916919685843, -34.554559061233206 ], [ -71.082616312849069, -34.554289289125272 ], [ -71.082335447388957, -34.554005589297141 ], [ -71.082040172951693, -34.553731145476185 ], [ -71.08173076082852, -34.553465952575031 ], [ -71.081407853314786, -34.553214505284771 ], [ -71.081064007868434, -34.552986014916613 ], [ -71.080701135206056, -34.552771289686603 ], [ -71.080319129326426, -34.55258399635715 ], [ -71.079907818605591, -34.552456583855907 ], [ -71.079376972663169, -34.552655372634881 ], [ -71.078949141025959, -34.552886453404277 ], [ -71.07794108125853, -34.553154519521286 ], [ -71.076945976994111, -34.553434100545509 ], [ -71.075184899948198, -34.553410804875504 ], [ -71.073958039323642, -34.553183493631508 ], [ -71.073267594196267, -34.553016781751801 ], [ -71.072667648045552, -34.55278080053759 ], [ -71.072007435719073, -34.552591040543604 ], [ -71.071520336832677, -34.552430836758596 ], [ -71.071237682826833, -34.552253276272133 ], [ -71.070865720112081, -34.552120881033979 ], [ -71.070461243773948, -34.552059719580335 ], [ -71.070030022793162, -34.551949524381698 ], [ -71.069567476660112, -34.551886464310897 ], [ -71.069101451351941, -34.551895546881745 ], [ -71.068664548527011, -34.5519055387444 ], [ -71.068286908459655, -34.55189332654988 ], [ -71.067822072520954, -34.551878380555614 ], [ -71.066951661604506, -34.551826208279216 ], [ -71.066549480461902, -34.551716912447887 ], [ -71.06605671051112, -34.551676950818525 ], [ -71.065595271102481, -34.551589853015031 ], [ -71.065219833704234, -34.551529511683796 ], [ -71.064816645550195, -34.551444304828635 ], [ -71.06438424328482, -34.551358187847597 ], [ -71.063977132187944, -34.551139433519999 ], [ -71.063525218514584, -34.551065609187184 ], [ -71.063067092092737, -34.550906358380715 ], [ -71.062696250475469, -34.550749988339525 ], [ -71.062297479337687, -34.550568607246966 ], [ -71.061838341412823, -34.550433373379711 ], [ -71.061498835727605, -34.550229865524322 ], [ -71.061072135967635, -34.550023470896875 ], [ -71.060848772567198, -34.549823687346979 ], [ -71.060506827955976, -34.549521098565116 ], [ -71.060160729534886, -34.549292512227431 ], [ -71.059862613726381, -34.549141774144317 ], [ -71.059406889399611, -34.548934460093875 ], [ -71.059096518773998, -34.548731857160107 ], [ -71.058667537293204, -34.548573575587064 ], [ -71.05829671454056, -34.548417191543422 ], [ -71.057779436752185, -34.548280041548203 ], [ -71.057437651142791, -34.548124569246596 ], [ -71.056860012855523, -34.54803370756143 ], [ -71.05643001987174, -34.547899365592855 ], [ -71.056145798305735, -34.547757764241105 ], [ -71.055744756226929, -34.547624482846423 ], [ -71.054983877791386, -34.54739629306669 ], [ -71.054419793285135, -34.547340866099773 ], [ -71.054111684617411, -34.547262221614261 ], [ -71.05324246307039, -34.547114578581876 ], [ -71.052807294892261, -34.547045305546582 ], [ -71.052367861513147, -34.546998557461777 ], [ -71.051924513276035, -34.547010516586404 ], [ -71.051491816363239, -34.547085444758224 ], [ -71.0510614326123, -34.547178280807891 ], [ -71.050627282225364, -34.547248651012062 ], [ -71.050191082781282, -34.547319129182831 ], [ -71.04975320977583, -34.547376116622104 ], [ -71.049313398205982, -34.547419471296102 ], [ -71.048868289270914, -34.547418007026465 ], [ -71.04843019168662, -34.547465835134645 ], [ -71.047994433315353, -34.547536297583477 ], [ -71.047561591773785, -34.547620152200096 ], [ -71.047133507709987, -34.547610418788622 ], [ -71.046726763125747, -34.547597224113517 ], [ -71.046379248959781, -34.547585989437593 ], [ -71.045999833821412, -34.547569749320125 ], [ -71.045618133369004, -34.547598747572131 ], [ -71.045235511245096, -34.547641129159274 ], [ -71.044853317617552, -34.547679145306184 ], [ -71.04447090210617, -34.547708078408746 ], [ -71.043981370581974, -34.54782108344633 ], [ -71.043629370229468, -34.547881929858704 ], [ -71.043304184588209, -34.547991737557943 ], [ -71.042860466245173, -34.548145850176418 ], [ -71.042446889074881, -34.548276854815462 ], [ -71.041949623056112, -34.548332962602821 ], [ -71.041573106781186, -34.548296644076053 ], [ -71.041286599002788, -34.54820305457924 ], [ -71.040969951848282, -34.548132643747863 ], [ -71.040595652615494, -34.548048202908376 ], [ -71.040192413257472, -34.547962914798923 ], [ -71.039699761884322, -34.547922844081263 ], [ -71.039037853538588, -34.547768901966826 ], [ -71.038378347287889, -34.547566907354778 ], [ -71.037835491768448, -34.547356756287144 ], [ -71.036642288322639, -34.546752263336359 ], [ -71.035873922429218, -34.546390243958406 ], [ -71.035022954648753, -34.545967997507844 ], [ -71.033545756910712, -34.54535240229697 ], [ -71.033179979096701, -34.545015712610933 ], [ -71.032857421925939, -34.5448997344402 ], [ -71.032472739965087, -34.544721417215676 ], [ -71.032100443975366, -34.544520143297397 ], [ -71.031739336502511, -34.544305388081803 ], [ -71.03138922979862, -34.544076710464239 ], [ -71.031056306069502, -34.543838808921258 ], [ -71.030753757075061, -34.543568863688172 ], [ -71.030455029513845, -34.543294421701411 ], [ -71.030138378766097, -34.543042730571102 ], [ -71.029817269679583, -34.542791111934235 ], [ -71.029493841142994, -34.542539532493862 ], [ -71.029119392789866, -34.542248914772664 ], [ -71.029023472480461, -34.542426738569389 ], [ -71.029189800945204, -34.542751837127391 ], [ -71.029379703897959, -34.543058890918218 ], [ -71.029636793647413, -34.543386911988527 ], [ -71.029826698396803, -34.54369389092269 ], [ -71.030039295488578, -34.544001674512884 ], [ -71.03024650807852, -34.544422109231029 ], [ -71.030435534275554, -34.544747862230317 ], [ -71.030643633502692, -34.545149521309902 ], [ -71.030746405262789, -34.54537854892255 ], [ -71.030812183501155, -34.545907102341381 ], [ -71.030815276400673, -34.546320886709935 ], [ -71.030822692891647, -34.546640797341531 ], [ -71.030877436225069, -34.54692461624925 ], [ -71.030956634395451, -34.547171540264536 ], [ -71.031010407548365, -34.547474208620748 ], [ -71.031071362731964, -34.547976844135576 ] ] ] } },
{ "type": "Feature", "properties": { "capa": "colegios", "popup": "<strong>ESCUELA MUNICIPAL LA DEHESA</strong><br><br><strong>Dirección:</strong> CAMINO PUBLICO 5", "etiqueta": "" }, "geometry": { "type": "Point", "coordinates": [ -71.114853, -34.65509 ] } },
{ "type": "Feature", "properties": { "capa": "colegios", "popup": "<strong>ESCUELA DE LENGUAJE SANTA MARIA DE LA COMUNA</strong><br><br><strong>Dirección:</strong> OSCAR GAJARDO 2351", "etiqueta": "" }, "geometry": { "type": "Point", "coordinates": [ -71.11756, -34.63825 ] } },
{ "type": "Feature", "properties": { "capa": "colegios", "popup": "<strong>ESCUELA ESPECIAL DE LENGUAJE MARIA MONTESSORI</strong><br><br><strong>Dirección:</strong> OSCAR GAJARDO 2642", "etiqueta": "" }, "geometry": { "type": "Point", "coordinates": [ -71.11756, -34.63825 ] } },
{ "type": "Feature", "properties": { "capa": "colegios", "popup": "<strong>LICEO SAN FRANCISCO</strong><br><br><strong>Dirección:</strong> MIRAFLORES 847", "etiqueta": "" }, "geometry": { "type": "Point", "coordinates": [ -71.11911, -34.63797 ] } },
{ "type": "Feature", "properties": { "capa": "colegios", "popup": "<strong>ESCUELA MUNICIPAL LA TUNA</strong><br><br><strong>Dirección:</strong> LA TUNA 0", "etiqueta": "" }, "geometry": { "type": "Point", "coordinates": [ -71.069557, -34.627659 ] } },
{ "type": "Feature", "properties": { "capa": "colegios", "popup": "<strong>ESCUELA DANY GERMAN GONZALEZ SOTO</strong><br><br><strong>Dirección:</strong> CAMINO PUBLICO 12", "etiqueta": "" }, "geometry": { "type": "Point", "coordinates": [ -71.039513, -34.625111 ] } },
{ "type": "Feature", "properties": { "capa": "colegios", "popup": "<strong>ESCUELA MUNICIPAL SN LUIS DE MANANTIALES</strong><br><br><strong>Dirección:</strong> SAN LUIS DE MANANTIALES 0", "etiqueta": "" }, "geometry": { "type": "Point", "coordinates": [ -71.069862, -34.6143 ] } },
{ "type": "Feature", "properties": { "capa": "colegios", "popup": "<strong>ESCUELA BASICA RAUL CACERES PACHECO</strong><br><br><strong>Dirección:</strong> SAN JOSE DE PEÑUELAS CAMINO ANTIGUO 0", "etiqueta": "" }, "geometry": { "type": "Point", "coordinates": [ -71.044228, -34.60482 ] } },
{ "type": "Feature", "properties": { "capa": "colegios", "popup": "<strong>ESCUELA EL AMANECER</strong><br><br><strong>Dirección:</strong> LO MOSCOSO 0", "etiqueta": "" }, "geometry": { "type": "Point", "coordinates": [ -71.109833, -34.603741 ] } },
{ "type": "Feature", "properties": { "capa": "jardines", "popup": "<strong>LOS ENANITOS</strong><br><br><strong>Dirección:</strong> LO MOSCOSO S/N ESC.EL AMANECER G-473 ", "etiqueta": "" }, "geometry": { "type": "MultiPoint", "coordinates": [ [ -71.048416, -34.590765 ] ] } },
{ "type": "Feature", "properties": { "capa": "jardines", "popup": "<strong>LOS GRILLITOS</strong><br><br><strong>Dirección:</strong> PSJE.EL AROMO S/N RCNADA.DE MANANT.ESC.G-508 ", "etiqueta": "" }, "geometry": { "type": "MultiPoint", "coordinates": [ [ -71.039394, -34.624752 ] ] } },
{ "type": "Feature", "properties": { "capa": "jardines", "popup": "<strong>PESTAÃ‘ITAS</strong><br><br><strong>Dirección:</strong> SAN JOSE DE PEÑUELAS,ESC.RAUL CACERES PACHECO F471 ", "etiqueta": "" }, "geometry": { "type": "MultiPoint", "coordinates": [ [ -71.044144, -34.604731 ] ] } },
{ "type": "Feature", "properties": { "capa": "jardines", "popup": "<strong>LOS PAMPANITOS</strong><br><br><strong>Dirección:</strong> CALLE LORD COCHRANE N 817 ", "etiqueta": "" }, "geometry": { "type": "MultiPoint", "coordinates": [ [ -71.118, -34.637297 ] ] } },
{ "type": "Feature", "properties": { "capa": "jardines", "popup": "<strong>SALA CUNA GOTITAS DE AMOR</strong><br><br><strong>Dirección:</strong> CAMINO PUBLICO S/N RUTA H-830, SECTOR SAN JOSE DE ", "etiqueta": "" }, "geometry": { "type": "MultiPoint", "coordinates": [ [ -71.043861, -34.604569 ] ] } },
{ "type": "Feature", "properties": { "capa": "bomberos", "popup": "<strong>Cuerpo de Bomberos</strong><br><br><strong>Dirección:</strong> Miraflores 697", "etiqueta": "" }, "geometry": { "type": "Point", "coordinates": [ -71.118738935116966, -34.637250685924478 ] } },
{ "type": "Feature", "properties": { "capa": "comisarias", "popup": "<strong>RETEN PLACILLA COLCHAGUA</strong><br><br><strong>Dirección:</strong> MIRAFLORES 27", "etiqueta": "" }, "geometry": { "type": "Point", "coordinates": [ -71.119819450999898, -34.635905596999933 ] } },
{ "type": "Feature", "properties": { "capa": "salud", "popup": "<strong>Posta de Salud Rural La Dehesa</strong><br><br><strong>Tipo de atención:</strong> Posta de Salud Rural (PSR)<br><strong>Dirección:</strong>  NA", "etiqueta": "" }, "geometry": { "type": "Point", "coordinates": [ -71.11445, -34.65473 ] } },
{ "type": "Feature", "properties": { "capa": "salud", "popup": "<strong>CESFAM  Placilla</strong><br><br><strong>Tipo de atención:</strong> Centro de Salud Familiar (CESFAM)<br><strong>Dirección:</strong>  84", "etiqueta": "" }, "geometry": { "type": "Point", "coordinates": [ -71.117, -34.63918 ] } },
{ "type": "Feature", "properties": { "capa": "salud", "popup": "<strong>SUR Placilla</strong><br><br><strong>Tipo de atención:</strong> Servicio de Urgencia Rural (SUR)<br><strong>Dirección:</strong>  84", "etiqueta": "" }, "geometry": { "type": "Point", "coordinates": [ -71.117002, -34.639175 ] } },
{ "type": "Feature", "properties": { "capa": "salud", "popup": "<strong>Posta de Salud Rural Lo Moscoso</strong><br><br><strong>Tipo de atención:</strong> Posta de Salud Rural (PSR)<br><strong>Dirección:</strong>  NA", "etiqueta": "" }, "geometry": { "type": "Point", "coordinates": [ -71.110004, -34.60379 ] } }
]
}
