{
"type": "FeatureCollection",
"name": "6310",
"crs": { "type": "name", "properties": { "name": "urn:ogc:def:crs:OGC:1.3:CRS84" } },
"features": [
{ "type": "Feature", "properties": { "capa": "comuna", "popup": "", "etiqueta": "" }, "geometry": { "type": "Polygon", "coordinates": [ [ [ -71.396957291689716, -34.60179255794219 ], [ -71.396534902944808, -34.601955919325647 ], [ -71.394770563217762, -34.602394620378604 ], [ -71.393692410603663, -34.605623934853398 ], [ -71.393322117857025, -34.607264453311409 ], [ -71.384022095977443, -34.605775922142058 ], [ -71.376143790985651, -34.604457381986066 ], [ -71.374364803329613, -34.6042109312232 ], [ -71.373575106041443, -34.605582507050663 ], [ -71.373325729226991, -34.606455329477996 ], [ -71.372702286741713, -34.60707877183183 ], [ -71.371841831853558, -34.608007691153936 ], [ -71.371294964458045, -34.60847308886315 ], [ -71.370927759221033, -34.608971441507741 ], [ -71.37091478126014, -34.609077405956256 ], [ -71.370848969784092, -34.609387215151017 ], [ -71.370793938091481, -34.609646281608612 ], [ -71.370639889596674, -34.610011820663715 ], [ -71.370485840203543, -34.610377433522501 ], [ -71.370220867737444, -34.610699783739612 ], [ -71.369842491051557, -34.610888447008421 ], [ -71.369409383608684, -34.611078099081887 ], [ -71.369031091364448, -34.611266759272986 ], [ -71.368653994777844, -34.611500665523195 ], [ -71.36833299977738, -34.611778828225056 ], [ -71.367897309678057, -34.611877906665818 ], [ -71.367518922212383, -34.612066563560688 ], [ -71.367197921822026, -34.612344722148492 ], [ -71.366933021221158, -34.61266713792007 ], [ -71.366778949370143, -34.613032673285659 ], [ -71.366734421678132, -34.613396082245586 ], [ -71.366854256937032, -34.613756300955558 ], [ -71.366919456660369, -34.614117653683046 ], [ -71.36709402357458, -34.614476809095578 ], [ -71.367104404505994, -34.614839152311021 ], [ -71.367114608469308, -34.615201573049966 ], [ -71.367070171507152, -34.615564979907859 ], [ -71.367025643815154, -34.615928388871218 ], [ -71.366981207751309, -34.616291869433297 ], [ -71.366771023534383, -34.616613149113668 ], [ -71.366616856461974, -34.616978685585323 ], [ -71.366406760279943, -34.617300035796148 ], [ -71.366196572469761, -34.617621314531306 ], [ -71.366042578772181, -34.617986847302319 ], [ -71.365777570373481, -34.618309335786591 ], [ -71.365512646416406, -34.618631675163812 ], [ -71.365302450521398, -34.618952951701459 ], [ -71.365148363399015, -34.619318559187654 ], [ -71.364994363413231, -34.619684091876437 ], [ -71.364673235462107, -34.619962247116135 ], [ -71.364352198240795, -34.620240473131389 ], [ -71.363973850301008, -34.620429045226906 ], [ -71.363595415224651, -34.620617692297657 ], [ -71.363218262044185, -34.620851584026695 ], [ -71.362839911409438, -34.621040226440762 ], [ -71.362461558079772, -34.621228793022816 ], [ -71.356268245524276, -34.61790398479274 ], [ -71.354665265680154, -34.61678860268097 ], [ -71.354535713344831, -34.616791030497723 ], [ -71.353920691667014, -34.616611847227425 ], [ -71.351623591687698, -34.615471565934989 ], [ -71.348309279006514, -34.614312652452028 ], [ -71.3472327604279, -34.61383664211337 ], [ -71.346998562446799, -34.613726457082663 ], [ -71.347077974416223, -34.613266445179718 ], [ -71.342626062208694, -34.611917380236008 ], [ -71.340318582196261, -34.611218205607408 ], [ -71.338792136119395, -34.610605705538589 ], [ -71.338682458111407, -34.610561650382202 ], [ -71.331519674718137, -34.60809916456256 ], [ -71.320282008330295, -34.603729094884827 ], [ -71.319893787905542, -34.603104880579203 ], [ -71.319268251447326, -34.601693758798426 ], [ -71.318905284461835, -34.600101351080873 ], [ -71.318749669305177, -34.599001815672132 ], [ -71.318813553894913, -34.598138649798798 ], [ -71.319016778863315, -34.597009470717019 ], [ -71.318620105291728, -34.596105356667202 ], [ -71.319647149156083, -34.594392721282986 ], [ -71.319948595917651, -34.592842919641306 ], [ -71.319970758254016, -34.590798066896589 ], [ -71.318123482466703, -34.590174558531139 ], [ -71.316581610519776, -34.589803635668147 ], [ -71.314735932835333, -34.589747836137754 ], [ -71.313551124145846, -34.589666918506396 ], [ -71.311224302507057, -34.589231568346442 ], [ -71.309921378832428, -34.588912826554441 ], [ -71.308794622869868, -34.588383058461119 ], [ -71.308105156906151, -34.588019744889792 ], [ -71.307228157745428, -34.587556209373005 ], [ -71.305470875183246, -34.58711994294395 ], [ -71.304213406262036, -34.586527683541782 ], [ -71.303638056882107, -34.586127180514175 ], [ -71.303106505762187, -34.585750664019336 ], [ -71.301938727333891, -34.585426920504119 ], [ -71.300331755376618, -34.585364547728204 ], [ -71.298605629083454, -34.58533024811733 ], [ -71.298285982454232, -34.58482940695604 ], [ -71.297606612655997, -34.584317690276499 ], [ -71.294999631632876, -34.584080800185205 ], [ -71.292883430792202, -34.583908337886932 ], [ -71.29054546914557, -34.583958834121674 ], [ -71.289382444601713, -34.583851347372267 ], [ -71.288374769313222, -34.583527790228395 ], [ -71.287444487479718, -34.583346274272195 ], [ -71.28561785318098, -34.58330865235412 ], [ -71.282871604542763, -34.583306015735154 ], [ -71.279374729042999, -34.582627170468385 ], [ -71.277237819340087, -34.581971735283574 ], [ -71.275787826182111, -34.581215562517109 ], [ -71.274725370729271, -34.581083975913479 ], [ -71.273629244622953, -34.581050421536588 ], [ -71.272180821720113, -34.581114261966427 ], [ -71.271357421439092, -34.581422506187174 ], [ -71.26586329102544, -34.580225196157919 ], [ -71.265828654683034, -34.580528128843696 ], [ -71.26561347673146, -34.581104577590054 ], [ -71.265230594994421, -34.581875055919085 ], [ -71.264763410859544, -34.582395474155426 ], [ -71.264446783468003, -34.582748323458581 ], [ -71.263881852748739, -34.583188130307732 ], [ -71.26309025552375, -34.58377534442733 ], [ -71.262353719635769, -34.584266111520513 ], [ -71.261735578108997, -34.584516053822703 ], [ -71.261610621554652, -34.584518370167849 ], [ -71.261034124127818, -34.584529057008368 ], [ -71.259881043035861, -34.584550498726053 ], [ -71.259362114143997, -34.584560110962279 ], [ -71.258962374622328, -34.584710571860306 ], [ -71.258676661852974, -34.584811283766264 ], [ -71.258040662716652, -34.584731921084682 ], [ -71.257802836440121, -34.584493560421897 ], [ -71.257219889109535, -34.584265796461125 ], [ -71.256529273302263, -34.584326210186667 ], [ -71.255847772700164, -34.584720499135692 ], [ -71.255217480560844, -34.584875284752364 ], [ -71.254640799877677, -34.584885945661995 ], [ -71.253945117572201, -34.58475574343128 ], [ -71.25282779661508, -34.583965303216921 ], [ -71.252246062908455, -34.58378527699147 ], [ -71.25166313174752, -34.583557410506309 ], [ -71.251254377632009, -34.583374112957038 ], [ -71.251074290570372, -34.583295751040218 ], [ -71.250729023989237, -34.583145326778691 ], [ -71.250313933157699, -34.582723588622372 ], [ -71.25028812635621, -34.58176992579299 ], [ -71.250221558498708, -34.581437252357311 ], [ -71.250097244239811, -34.581105570878449 ], [ -71.249680791562298, -34.580636144273477 ], [ -71.249380943801924, -34.580212351315481 ], [ -71.249200263852202, -34.579929418139848 ], [ -71.248489211372203, -34.579226938817158 ], [ -71.247492460495891, -34.578624993230626 ], [ -71.24655329342589, -34.578022126141796 ], [ -71.245882039007938, -34.577904499487509 ], [ -71.245568212563441, -34.577849493729389 ], [ -71.245185529354075, -34.577730982228381 ], [ -71.244404860134523, -34.577489214692051 ], [ -71.243242891111137, -34.577176685208336 ], [ -71.241918210240343, -34.577248672033569 ], [ -71.240778015481155, -34.57774672829904 ], [ -71.239343132884557, -34.57801162928952 ], [ -71.237631558400693, -34.578710912606908 ], [ -71.236837161126942, -34.579202515792701 ], [ -71.236210612267428, -34.579500267480647 ], [ -71.235358632085649, -34.579992990950849 ], [ -71.23371859044785, -34.581215728927823 ], [ -71.232712927385592, -34.5817495794428 ], [ -71.23217976289142, -34.581817461237826 ], [ -71.231717334437676, -34.581872524277451 ], [ -71.23044885935758, -34.581895723223731 ], [ -71.229818533980591, -34.582050379495207 ], [ -71.228621810935508, -34.582597068385262 ], [ -71.227996566429766, -34.582942392266453 ], [ -71.227693471259641, -34.583088991753954 ], [ -71.227484001203379, -34.583190307647783 ], [ -71.227032912183446, -34.583580230316201 ], [ -71.226757340495311, -34.584062370646947 ], [ -71.226481855045449, -34.584544434962723 ], [ -71.225750081126805, -34.585225668162849 ], [ -71.224564552886775, -34.585940357228615 ], [ -71.224444318775895, -34.586012786855967 ], [ -71.223875333959768, -34.586309427735443 ], [ -71.223771539916896, -34.586740718263314 ], [ -71.223784248383225, -34.587217522155377 ], [ -71.223917367030239, -34.587882975243339 ], [ -71.22404531407615, -34.588357751419281 ], [ -71.224179799959032, -34.58907096332225 ], [ -71.223663336044311, -34.589412288284869 ], [ -71.223043052933861, -34.589711854431933 ], [ -71.222422815637529, -34.590247976907342 ], [ -71.221861416195665, -34.590830735832732 ], [ -71.221102038844961, -34.591867249814037 ], [ -71.221043809149947, -34.592055092125015 ], [ -71.220356599754211, -34.592814139047711 ], [ -71.219736320237061, -34.593350102479434 ], [ -71.219455601202327, -34.593641475640659 ], [ -71.218891621798974, -34.594128847152696 ], [ -71.218382854649604, -34.594519788526746 ], [ -71.217470321729479, -34.594918070370348 ], [ -71.217132009905271, -34.595210412664883 ], [ -71.216536073834007, -34.595554850739184 ], [ -71.21638168847096, -34.595589784296436 ], [ -71.216117046584884, -34.595532332226576 ], [ -71.21595838434277, -34.595715571897891 ], [ -71.215795515290182, -34.596100218085503 ], [ -71.215655565853766, -34.596261772310363 ], [ -71.215517307046696, -34.596486960360636 ], [ -71.215410836922587, -34.596822870816546 ], [ -71.215419702396133, -34.597156612553036 ], [ -71.215490039584566, -34.597632445659563 ], [ -71.215442504332984, -34.598014996232671 ], [ -71.215397499635557, -34.598492849034294 ], [ -71.215464036950351, -34.598825544399233 ], [ -71.215531841787993, -34.599205999811282 ], [ -71.215652251070352, -34.599394656660046 ], [ -71.215777728647566, -34.599774064639362 ], [ -71.216014747338647, -34.600008239145311 ], [ -71.21607739764319, -34.60019794490789 ], [ -71.216087624962711, -34.600579446982898 ], [ -71.21588817651174, -34.600821403923447 ], [ -71.215808135721602, -34.600918427259991 ], [ -71.215695327084873, -34.60101589931535 ], [ -71.215354366128892, -34.601213010338071 ], [ -71.215015932133809, -34.601505349702627 ], [ -71.214621180058614, -34.601846420976187 ], [ -71.214113526820199, -34.602285110776876 ], [ -71.213887896970292, -34.602479976884361 ], [ -71.213608395152775, -34.602819027781798 ], [ -71.213496935785571, -34.602964183623421 ], [ -71.212759837552255, -34.603454594846397 ], [ -71.212368775756246, -34.603938799599852 ], [ -71.212266167489545, -34.604417696359263 ], [ -71.212276289706153, -34.60479920049255 ], [ -71.212286321192948, -34.605180633370502 ], [ -71.212238768873377, -34.605563182448698 ], [ -71.212366862344695, -34.606037968487186 ], [ -71.212553718211993, -34.606559325957029 ], [ -71.212677930961263, -34.606891122461185 ], [ -71.212989093002662, -34.60774412571083 ], [ -71.213290135522342, -34.608215771774191 ], [ -71.213240055343576, -34.608502945714974 ], [ -71.213074619804217, -34.608792214002293 ], [ -71.212790028132318, -34.608940437343307 ], [ -71.212512349894851, -34.609022654470891 ], [ -71.212274728434195, -34.60909291910469 ], [ -71.2119889608676, -34.609193525299013 ], [ -71.211649221620391, -34.609438241541021 ], [ -71.211309479678278, -34.609682957801063 ], [ -71.211144122292339, -34.609972148042452 ], [ -71.211033825345126, -34.610164991745492 ], [ -71.21098626583904, -34.610547541518784 ], [ -71.210942499020078, -34.611073081199208 ], [ -71.210892408061525, -34.611360254868423 ], [ -71.210680049921621, -34.611605318864243 ], [ -71.210565690792691, -34.611752888050091 ], [ -71.210374045108296, -34.611909982501025 ], [ -71.210336000557689, -34.612008013895291 ], [ -71.210258082486575, -34.612209354394061 ], [ -71.20994094215699, -34.612474854522752 ], [ -71.209775575787901, -34.612764043171651 ], [ -71.209496022766444, -34.613103084607474 ], [ -71.20932930173791, -34.613344659796198 ], [ -71.208990799470868, -34.613636983805392 ], [ -71.208561502681434, -34.61394838250984 ], [ -71.208461369273337, -34.614002633929594 ], [ -71.208359213757547, -34.61405810369812 ], [ -71.208139572077314, -34.614177148177014 ], [ -71.208032082365349, -34.614365137426773 ], [ -71.207936793571591, -34.614568563706101 ], [ -71.207837863905979, -34.614779588796907 ], [ -71.207661809381662, -34.615286253238558 ], [ -71.207555809076439, -34.615591277450733 ], [ -71.207322345018952, -34.616004886558024 ], [ -71.207277378949072, -34.616482737121807 ], [ -71.207236254075383, -34.616913322434371 ], [ -71.207166298670941, -34.617048045994373 ], [ -71.207091910080578, -34.617359440773988 ], [ -71.206451363672272, -34.61797665194905 ], [ -71.206114007655543, -34.618316732951264 ], [ -71.205715355095379, -34.61851471442526 ], [ -71.205368941365634, -34.618742252888573 ], [ -71.205110248123376, -34.618912147098904 ], [ -71.20485852940098, -34.619062048247933 ], [ -71.204828250786008, -34.619241253581542 ], [ -71.204753089644512, -34.619513737946669 ], [ -71.204750356071102, -34.619842593652642 ], [ -71.204880788755403, -34.620463800509718 ], [ -71.205008005471001, -34.620990382588239 ], [ -71.205277662651298, -34.621575467321577 ], [ -71.205536324452524, -34.622133201270813 ], [ -71.205818474503488, -34.622579062390045 ], [ -71.206331083747315, -34.623185154437898 ], [ -71.207304735344422, -34.62375165733804 ], [ -71.20801047518782, -34.624318795056318 ], [ -71.208635610997405, -34.625104081116014 ], [ -71.20916884376355, -34.62553969784507 ], [ -71.209731520609751, -34.625872560560012 ], [ -71.210016422200425, -34.626377001773079 ], [ -71.210425104450721, -34.626768193448491 ], [ -71.210840424352654, -34.627028906548219 ], [ -71.211323634432205, -34.62717457593444 ], [ -71.211755229112157, -34.627422214412888 ], [ -71.212158862830549, -34.627578998314739 ], [ -71.212758723641301, -34.627827419864737 ], [ -71.213378668086861, -34.627990835723338 ], [ -71.214099187911629, -34.628193411806251 ], [ -71.214571393628944, -34.628415412384463 ], [ -71.214895135677537, -34.628668764721887 ], [ -71.215191036240554, -34.628903197751669 ], [ -71.215499467403461, -34.629192130321719 ], [ -71.215831531444863, -34.629260985275621 ], [ -71.216372026191763, -34.629255222664185 ], [ -71.216912136459698, -34.629258475035996 ], [ -71.217511823895606, -34.629556432407611 ], [ -71.217914517976226, -34.629690615066174 ], [ -71.218419867934259, -34.629814434338748 ], [ -71.219023810689663, -34.629882690048618 ], [ -71.219361043637207, -34.629974335970012 ], [ -71.219647312463749, -34.630104870898577 ], [ -71.219912020825163, -34.630338309388222 ], [ -71.220147270733449, -34.630512313264433 ], [ -71.220569350457893, -34.630656104234923 ], [ -71.221187612358932, -34.630738341245888 ], [ -71.221898675618704, -34.630728856315862 ], [ -71.223048352994056, -34.630692386779316 ], [ -71.223682324632776, -34.630653498685525 ], [ -71.224164518717714, -34.63074950333371 ], [ -71.224347330369625, -34.630863303915291 ], [ -71.224472703742236, -34.630984354022608 ], [ -71.224546249712873, -34.631135302187879 ], [ -71.224634528952478, -34.63142638088506 ], [ -71.22476114200019, -34.631714175241072 ], [ -71.224945715248367, -34.631940644917201 ], [ -71.225178000716227, -34.632123554406384 ], [ -71.225475857809911, -34.632285917386149 ], [ -71.225754387650269, -34.632393683677869 ], [ -71.226060676331244, -34.632520366803902 ], [ -71.226471528911276, -34.632744769849005 ], [ -71.22692851716765, -34.633123941895306 ], [ -71.227005503685817, -34.633500232528398 ], [ -71.227083444214813, -34.633975692515833 ], [ -71.227195517131349, -34.634344104593566 ], [ -71.227560907771462, -34.634612244293571 ], [ -71.228067212638649, -34.634699963182754 ], [ -71.228662443532428, -34.634795065109806 ], [ -71.229171326564483, -34.634828819512087 ], [ -71.229561858354458, -34.635021086596012 ], [ -71.229861315347691, -34.635269154734651 ], [ -71.230319097714784, -34.635449997695581 ], [ -71.231003248346951, -34.63552521866626 ], [ -71.231737945383543, -34.635475951159229 ], [ -71.232350891953047, -34.63566155285244 ], [ -71.232913158269156, -34.635989807224348 ], [ -71.233255269967017, -34.636275194717975 ], [ -71.233641562607176, -34.636561987756572 ], [ -71.234092948969462, -34.636886877104423 ], [ -71.234386451928984, -34.637265323633052 ], [ -71.234635249330054, -34.637655962116952 ], [ -71.235031760306597, -34.63819987479112 ], [ -71.235410331926872, -34.638671146015064 ], [ -71.235785887902765, -34.639196384917177 ], [ -71.236029482261742, -34.639519243290032 ], [ -71.236253567907681, -34.640093861344987 ], [ -71.23658152305498, -34.640676175088245 ], [ -71.236800976987297, -34.641354200705358 ], [ -71.23702894335527, -34.641843370377927 ], [ -71.237504854623111, -34.64247074993159 ], [ -71.237577204936116, -34.642738844882182 ], [ -71.237560342659918, -34.643112270933159 ], [ -71.237564178466158, -34.643644031143907 ], [ -71.237699679445313, -34.644067243967534 ], [ -71.237964832472784, -34.644413335806703 ], [ -71.238306991781343, -34.644622118876399 ], [ -71.238737742044904, -34.644725582721954 ], [ -71.239170350024494, -34.644788462970304 ], [ -71.239717449185349, -34.644805368440032 ], [ -71.240223047976727, -34.644820965811363 ], [ -71.240657429230666, -34.644843409614346 ], [ -71.241034465630122, -34.644900067090333 ], [ -71.241549411392029, -34.6450105388585 ], [ -71.241920484774653, -34.645184215602697 ], [ -71.242277874120532, -34.645357405700075 ], [ -71.242694800210202, -34.645464948818251 ], [ -71.243308015375987, -34.645573974291104 ], [ -71.244468353058807, -34.647301424147138 ], [ -71.244634406639079, -34.646960405895058 ], [ -71.244858872272374, -34.646618164639143 ], [ -71.245083427737214, -34.646275994394806 ], [ -71.245307891573873, -34.645933825694499 ], [ -71.245532443445455, -34.645591654104003 ], [ -71.245756903688857, -34.645249484796608 ], [ -71.245981451967168, -34.644907312599031 ], [ -71.246147581005914, -34.644566144082482 ], [ -71.246312318554317, -34.644176772349063 ], [ -71.246478446694752, -34.643835676209264 ], [ -71.246822330768651, -34.643587832497303 ], [ -71.247106500232377, -34.643292934940305 ], [ -71.247508884394222, -34.643044009850342 ], [ -71.247976019121751, -34.64303539619241 ], [ -71.248443334410652, -34.64302685052639 ], [ -71.248909164784365, -34.642969956012465 ], [ -71.249376474683388, -34.642961259572843 ], [ -71.249843698344108, -34.642952636298617 ], [ -71.250306916417003, -34.642799182071727 ], [ -71.250772922860534, -34.642742277054793 ], [ -71.251234923716211, -34.642540614501051 ], [ -71.25163850982392, -34.642340029004622 ], [ -71.251922655931423, -34.642045047191367 ], [ -71.252265210498734, -34.641748911388781 ], [ -71.252607764167706, -34.641452849174463 ], [ -71.253011339495615, -34.641252185661848 ], [ -71.253353978504549, -34.640956119456874 ], [ -71.25363811293397, -34.640661134198929 ], [ -71.253922246465066, -34.640366147891676 ], [ -71.254206464437814, -34.640071085888167 ], [ -71.254430874375572, -34.63972890193002 ], [ -71.254715002516789, -34.639433914524055 ], [ -71.254939497794481, -34.639091727936858 ], [ -71.255223710377336, -34.638796737525396 ], [ -71.255627268637269, -34.638596140016901 ], [ -71.256091845861192, -34.638490865875447 ], [ -71.256556338643449, -34.638385740158263 ], [ -71.257024930438362, -34.638425365938126 ], [ -71.257324744961082, -34.638709546984508 ], [ -71.257681664488075, -34.638944441654957 ], [ -71.258095774359319, -34.6391299018117 ], [ -71.258508488248623, -34.639267084456307 ], [ -71.258865413165509, -34.639501976808589 ], [ -71.259279442188387, -34.639687507409555 ], [ -71.259749262878628, -34.639775327359004 ], [ -71.260215153439475, -34.639718387747415 ], [ -71.26067833557974, -34.639564969663304 ], [ -71.261140380452886, -34.639363195171818 ], [ -71.261484204339666, -34.639115386133199 ], [ -71.261768392668017, -34.638820381763175 ], [ -71.262112211164904, -34.638572570363515 ], [ -71.26251565893206, -34.638371878447863 ], [ -71.262859560972274, -34.638123990320217 ], [ -71.263263095875985, -34.637923368272496 ], [ -71.263667941421716, -34.637771021518539 ], [ -71.264133817609533, -34.637714067966193 ], [ -71.264601006235964, -34.637705390192018 ], [ -71.265069507301035, -34.637744986732962 ], [ -71.265539321703059, -34.637832784349072 ], [ -71.266006510329504, -34.637824100674536 ], [ -71.266408810948036, -34.637575190210796 ], [ -71.266633163393621, -34.637232985607135 ], [ -71.2669769585343, -34.636985088162682 ], [ -71.267320754573319, -34.636737262409937 ], [ -71.267786621777987, -34.636680296321963 ], [ -71.268253803217902, -34.636671604396554 ], [ -71.268723615823276, -34.636759463016723 ], [ -71.269193425733732, -34.636847245415758 ], [ -71.269494589525991, -34.637179671776607 ], [ -71.269737437384947, -34.637513257194989 ], [ -71.270037288738592, -34.637797405150835 ], [ -71.270394237910011, -34.638032262493454 ], [ -71.270861424739806, -34.638023485713553 ], [ -71.271263710086956, -34.637774560327109 ], [ -71.271667221634488, -34.63757391082644 ], [ -71.272011002402152, -34.637325999618916 ], [ -71.272414507661466, -34.637125274383465 ], [ -71.272818015615755, -34.63692469574454 ], [ -71.273221516383487, -34.636723968798762 ], [ -71.273684743439532, -34.636570427656856 ], [ -71.274149284730839, -34.636465159813461 ], [ -71.274612508193613, -34.636311614496904 ], [ -71.275016092504671, -34.636110953326806 ], [ -71.275477902917501, -34.635909130519828 ], [ -71.275941121888721, -34.635755654390081 ], [ -71.276406976516952, -34.635698655106758 ], [ -71.276811871470017, -34.635546190441978 ], [ -71.277276315743265, -34.635440987080379 ], [ -71.277742167676564, -34.635383983146063 ], [ -71.278208017813242, -34.635326976216099 ], [ -71.278673867949919, -34.635269968507806 ], [ -71.279142448965047, -34.635309509299077 ], [ -71.279609529793646, -34.635300775839191 ], [ -71.280074145645131, -34.635195484949847 ], [ -71.280538583630161, -34.635090269317445 ], [ -71.280943378870234, -34.634937793186666 ], [ -71.281406667910019, -34.634784221390596 ], [ -71.281871100505171, -34.63467892688903 ], [ -71.282274569831884, -34.634478244769156 ], [ -71.282557253482125, -34.634134920168378 ], [ -71.282901076470594, -34.633886977986094 ], [ -71.283243487307459, -34.633590908401665 ], [ -71.283527576821115, -34.63329578164155 ], [ -71.283871305486471, -34.633047913082642 ], [ -71.284155299778718, -34.632752787347201 ], [ -71.284321251849349, -34.632411720352302 ], [ -71.284487112291842, -34.632070580257498 ], [ -71.284653058074269, -34.631729364844482 ], [ -71.284759274873466, -34.631341042314929 ], [ -71.284925132620998, -34.630999975428963 ], [ -71.28497294185874, -34.630612673965601 ], [ -71.2850791568613, -34.630224349904758 ], [ -71.28518537096555, -34.629836026243773 ], [ -71.285291494339944, -34.629447705200178 ], [ -71.285575564090678, -34.629152648705258 ], [ -71.285859630248126, -34.628857518721489 ], [ -71.286203333760668, -34.628609642814816 ], [ -71.286667726829961, -34.628504406262955 ], [ -71.287102341645877, -34.628375501672089 ], [ -71.287484847887114, -34.628366330624829 ], [ -71.287728476382071, -34.628586867161225 ], [ -71.298063723981571, -34.637943301748223 ], [ -71.304857693255158, -34.644449475610877 ], [ -71.305000896389529, -34.644586572595642 ], [ -71.301856734504625, -34.646376760221301 ], [ -71.301534196198503, -34.64656032146906 ], [ -71.317412763261672, -34.655492331273564 ], [ -71.317725889020281, -34.655692944065521 ], [ -71.317681223886026, -34.656056341299937 ], [ -71.317526864574134, -34.656421897582021 ], [ -71.317536956248034, -34.656784252684623 ], [ -71.317547048820245, -34.657146607680843 ], [ -71.317502294752785, -34.657510080562083 ], [ -71.317457627821909, -34.657873476479324 ], [ -71.317467719495809, -34.658235831146797 ], [ -71.317587420905738, -34.658596101231616 ], [ -71.317542753974863, -34.658959498298124 ], [ -71.317388301238196, -34.659325056553222 ], [ -71.317233933841436, -34.65969053856638 ], [ -71.316970042946949, -34.660058102668238 ], [ -71.31653394591082, -34.660157086509784 ], [ -71.316096675674885, -34.660210743932346 ], [ -71.315660570553916, -34.660309576117335 ], [ -71.315225819194055, -34.66045380161674 ], [ -71.314789806599563, -34.660552776118877 ], [ -71.314411163114045, -34.660741278738072 ], [ -71.314032335473897, -34.660929709994754 ], [ -71.31359640911765, -34.661028678756246 ], [ -71.313159039168767, -34.66108225433635 ], [ -71.312719240175326, -34.661045256540532 ], [ -71.31227809550559, -34.660963009683741 ], [ -71.311840815388223, -34.66101657865628 ], [ -71.311402278527765, -34.661024970994958 ], [ -71.310966255153474, -34.661123858364633 ], [ -71.310587508361706, -34.661312277667975 ], [ -71.310148969704613, -34.6613206662823 ], [ -71.309706567393491, -34.661193087285405 ], [ -71.30926676840005, -34.661156076239038 ], [ -71.308825715358495, -34.661073815453278 ], [ -71.308383315742319, -34.660946232381868 ], [ -71.307993344501071, -34.66072703506206 ], [ -71.307656878714781, -34.660461404870155 ], [ -71.307320505454953, -34.660195844761141 ], [ -71.306984045956852, -34.659930285278897 ], [ -71.306595250610314, -34.659756407412345 ], [ -71.306206456162087, -34.659582529919859 ], [ -71.305817749748755, -34.659408499847764 ], [ -71.30542895979211, -34.659234619408579 ], [ -71.305146103665336, -34.658922693888201 ], [ -71.304809655845332, -34.658657128848283 ], [ -71.304368530938561, -34.658574926172861 ], [ -71.303926238221891, -34.658447249845466 ], [ -71.303537456350085, -34.658273362955939 ], [ -71.303097675322945, -34.658236328438022 ], [ -71.302655298164652, -34.658108723264071 ], [ -71.302214265784343, -34.658026437285749 ], [ -71.301775829535202, -34.658034719089414 ], [ -71.301337212724675, -34.658042929217139 ], [ -71.300899938895512, -34.658096532589717 ], [ -71.300521183120594, -34.658284994244333 ], [ -71.300254627822966, -34.65856195527369 ], [ -71.299875867556466, -34.658750415869918 ], [ -71.299497104595005, -34.658938799929736 ], [ -71.299054907099773, -34.658811178842448 ], [ -71.29871713606137, -34.658500274386306 ], [ -71.298380712495884, -34.658234764150471 ], [ -71.297939680115576, -34.658152388149297 ], [ -71.297499902681693, -34.658115407518373 ], [ -71.297057621643134, -34.657987706098723 ], [ -71.296617845107605, -34.657950722438635 ], [ -71.296183068594928, -34.658094880368225 ], [ -71.295692100664596, -34.658194748822176 ], [ -71.295314670803023, -34.658428516864127 ], [ -71.294878549512376, -34.658527348219017 ], [ -71.294501023531069, -34.658761041431525 ], [ -71.294122338723056, -34.658949483102234 ], [ -71.293743648525137, -34.659137848236838 ], [ -71.293366119848898, -34.659371612140738 ], [ -71.292987338022812, -34.659559976315833 ], [ -71.292551295783909, -34.659658799671192 ], [ -71.292113917750157, -34.659712373181364 ], [ -71.291674222961305, -34.659675370340501 ], [ -71.291235594472681, -34.659683544099373 ], [ -71.290798303575528, -34.659737111682311 ], [ -71.290359767613396, -34.659745428782401 ], [ -71.289922476716228, -34.659798992630812 ], [ -71.289486339255902, -34.659897732944074 ], [ -71.289107545751733, -34.660086160207683 ], [ -71.288673990049531, -34.660275615590123 ], [ -71.288352624943158, -34.660553507626382 ], [ -71.288141939466314, -34.660874740023807 ], [ -71.287707131512605, -34.661018869222453 ], [ -71.287328418856816, -34.661207289503473 ], [ -71.287062966690343, -34.661529548637155 ], [ -71.286852450995099, -34.661850703362433 ], [ -71.286530985277423, -34.662128665482619 ], [ -71.286320377055688, -34.662449820841438 ], [ -71.286165867725131, -34.662815343011061 ], [ -71.285955258605071, -34.663136571073522 ], [ -71.285910449740399, -34.663499887641642 ], [ -71.286084882805625, -34.663859312482167 ], [ -71.286149691761793, -34.664220571840019 ], [ -71.286324125725372, -34.664579922623666 ], [ -71.286279227927452, -34.664943240990382 ], [ -71.286234334621128, -34.665306706273611 ], [ -71.286079820799003, -34.665672228400766 ], [ -71.286035013730952, -34.666035618078951 ], [ -71.285990116831371, -34.666399010596379 ], [ -71.285779497829836, -34.66672023806435 ], [ -71.285568966863224, -34.667041390403 ], [ -71.285414356921365, -34.667406914481887 ], [ -71.285038097564609, -34.667685826572509 ], [ -71.284601912493571, -34.667784624721314 ], [ -71.284165908882215, -34.667883492202392 ], [ -71.283788311035693, -34.668117153117976 ], [ -71.283296113311749, -34.668171723749772 ], [ -71.282615203801086, -34.668343119969371 ], [ -71.282236266566485, -34.668531456361833 ], [ -71.281857506299971, -34.668719861775543 ], [ -71.281422646243982, -34.6688639692008 ], [ -71.281045037617687, -34.669097697538866 ], [ -71.280723612324181, -34.669375571069871 ], [ -71.280288567215223, -34.66951967883211 ], [ -71.279855031275972, -34.669709103779233 ], [ -71.279420159541885, -34.669853130430589 ], [ -71.278981476256021, -34.669861410313402 ], [ -71.278545362151874, -34.669960185180877 ], [ -71.278108008372669, -34.670013709918287 ], [ -71.277669412223403, -34.670021909254544 ], [ -71.277231965917707, -34.670075431735611 ], [ -71.276793278140275, -34.670083556445832 ], [ -71.27641449990746, -34.670271945769827 ], [ -71.276036868823269, -34.670505658314461 ], [ -71.275826290245945, -34.670826794500996 ], [ -71.275447414995085, -34.671015182873525 ], [ -71.275254184682524, -34.671111246438379 ], [ -71.275183703763645, -34.671146285608117 ], [ -71.275068626880795, -34.671203494721034 ], [ -71.275032563115403, -34.671204168507984 ], [ -71.275020923644263, -34.671208626435991 ], [ -71.274472256923247, -34.671513443529101 ], [ -71.278010295924261, -34.674673908020509 ], [ -71.278980870791528, -34.673999240813707 ], [ -71.279662512429113, -34.674447782610727 ], [ -71.280117193811861, -34.674746973132812 ], [ -71.280117757055535, -34.674747784302134 ], [ -71.279808160777705, -34.675005782287165 ], [ -71.279679160906269, -34.675263779468537 ], [ -71.27978236026442, -34.67557337694614 ], [ -71.279988758082425, -34.675805574110129 ], [ -71.280401554616716, -34.675986172028864 ], [ -71.280607952434707, -34.676166771031326 ], [ -71.280607952434707, -34.676424769767372 ], [ -71.280298356156891, -34.67670856567571 ], [ -71.279240565655329, -34.677172961113619 ], [ -71.278234377078618, -34.677637356163629 ], [ -71.277331385165127, -34.678153351056856 ], [ -71.276531593508125, -34.678669345689919 ], [ -71.275963998385748, -34.679288539142583 ], [ -71.275525402236482, -34.679985132891154 ], [ -71.275190006343678, -34.68065592699643 ], [ -71.275112607498798, -34.681094522164621 ], [ -71.275171116569879, -34.681357819096441 ], [ -71.275395087231473, -34.681634831530481 ], [ -71.276423359991099, -34.68228281960441 ], [ -71.277144063970525, -34.682769711129346 ], [ -71.276863996214374, -34.683613263370837 ], [ -71.27597988688818, -34.684544835116803 ], [ -71.275084537841124, -34.685066425295439 ], [ -71.27278874940211, -34.686110075190491 ], [ -71.2786899828278, -34.690304189317821 ], [ -71.281170787384397, -34.692309122247089 ], [ -71.28135608916628, -34.69219959765546 ], [ -71.281587055008956, -34.692063073576271 ], [ -71.282333444517292, -34.691621920324337 ], [ -71.283195173216527, -34.692414322857729 ], [ -71.283259545591463, -34.692651664487087 ], [ -71.283206964502938, -34.692843487965433 ], [ -71.283214911898256, -34.693129522447975 ], [ -71.283279197136608, -34.693366865719511 ], [ -71.283460257972024, -34.69364972905548 ], [ -71.283820049412995, -34.693892978889316 ], [ -71.283895702831273, -34.694784673653963 ], [ -71.283855416085729, -34.69527411954374 ], [ -71.283828056097107, -34.695479133241669 ], [ -71.283813321929827, -34.695596985458323 ], [ -71.283784049427979, -34.695830025323808 ], [ -71.283775004291385, -34.696135359636351 ], [ -71.283820499468945, -34.696512046650369 ], [ -71.283912982824077, -34.696782906284938 ], [ -71.283926650691129, -34.697006870940498 ], [ -71.283839488955735, -34.697199637817953 ], [ -71.283599195905452, -34.697520975511658 ], [ -71.28357457667677, -34.697663088913778 ], [ -71.283621177680445, -34.697787175196154 ], [ -71.283674428013853, -34.697928715016175 ], [ -71.283960248581081, -34.698229110956625 ], [ -71.284432218041459, -34.698564195853649 ], [ -71.284944005326807, -34.69866921716833 ], [ -71.285780652164988, -34.698806322671437 ], [ -71.286616253364159, -34.698905332585312 ], [ -71.28708183759953, -34.699011212404606 ], [ -71.287594680405348, -34.699154385285389 ], [ -71.288013008765162, -34.699222965728339 ], [ -71.288567946625179, -34.699212614189989 ], [ -71.289031429701069, -34.699242086085739 ], [ -71.289402409658905, -34.699273296520218 ], [ -71.289728234900664, -34.69934360950392 ], [ -71.290146565955439, -34.699412183881655 ], [ -71.29038094000633, -34.699522396857041 ], [ -71.290799271959415, -34.699590968870957 ], [ -71.29124893984455, -34.699609024157034 ], [ -71.291447679524751, -34.699617027801828 ], [ -71.291770435223185, -34.699572699401877 ], [ -71.292924407443891, -34.699474541833808 ], [ -71.29334063194932, -34.699466705087353 ], [ -71.293756766623218, -34.699458869078725 ], [ -71.29408268528978, -34.69952917008797 ], [ -71.294601681555278, -34.699703584102252 ], [ -71.294970837034768, -34.699856373868094 ], [ -71.295087027828558, -34.699948126321075 ], [ -71.295301853640552, -34.700117559453574 ], [ -71.295779066567249, -34.700643634877572 ], [ -71.297867980182858, -34.704234433847255 ], [ -71.299746765277078, -34.706912122977883 ], [ -71.299961927058987, -34.707173415524124 ], [ -71.300195229419742, -34.707456815802217 ], [ -71.300273429561869, -34.707551791402757 ], [ -71.300426987576529, -34.707652063984575 ], [ -71.301591889599308, -34.708412677735524 ], [ -71.302091266659005, -34.708338027300812 ], [ -71.303422018344492, -34.708325345552325 ], [ -71.304340670588331, -34.708641562336467 ], [ -71.304854860867053, -34.708965426927719 ], [ -71.306241880326994, -34.707938457133764 ], [ -71.306202472133791, -34.706519227009707 ], [ -71.306978532097659, -34.705337130823324 ], [ -71.307246831025225, -34.704078832541811 ], [ -71.30841273466956, -34.702384480313697 ], [ -71.309292100891085, -34.701286008273819 ], [ -71.309388828785927, -34.701490815798302 ], [ -71.310009430798274, -34.702333307281648 ], [ -71.310321437256022, -34.702825307374482 ], [ -71.311156918979279, -34.703746948528888 ], [ -71.311507641927449, -34.704309035551141 ], [ -71.312062100985429, -34.70498084074098 ], [ -71.312732510987018, -34.70586291606481 ], [ -71.313790321251503, -34.706480914328203 ], [ -71.316177913919304, -34.707096662253541 ], [ -71.316795944953313, -34.707214519339978 ], [ -71.317357966927659, -34.707366671959576 ], [ -71.319111511599928, -34.707933274525196 ], [ -71.319469199186486, -34.70807926400898 ], [ -71.31997037826666, -34.708418894909698 ], [ -71.320527237623082, -34.708904281303745 ], [ -71.321078089046878, -34.709276859725321 ], [ -71.32166622235161, -34.709578489783908 ], [ -71.322673113410858, -34.709973826586442 ], [ -71.323540064915122, -34.71021628997984 ], [ -71.32428691975079, -34.710369536633095 ], [ -71.324623275942628, -34.710366218029769 ], [ -71.325243049708263, -34.710200106772831 ], [ -71.325604052976558, -34.710102891527107 ], [ -71.325982788988554, -34.710127932511121 ], [ -71.326412386713614, -34.71026698921824 ], [ -71.326817773045121, -34.710509013850967 ], [ -71.327752000279361, -34.710911161335133 ], [ -71.328150751654206, -34.711008778822574 ], [ -71.328839549271351, -34.711381046480057 ], [ -71.330002179454766, -34.712078428334792 ], [ -71.331018234228225, -34.712992112475533 ], [ -71.331964379411346, -34.713759568812236 ], [ -71.332101850395915, -34.713934922371962 ], [ -71.332150514829792, -34.714193213217989 ], [ -71.332137386850235, -34.714598324505602 ], [ -71.331765310947759, -34.715438582472487 ], [ -71.331655264630498, -34.716061494878581 ], [ -71.332526175908569, -34.716371687030041 ], [ -71.33493648786822, -34.717192153606305 ], [ -71.337355367959034, -34.718003914619409 ], [ -71.340074243133913, -34.718896711098836 ], [ -71.34077200683592, -34.718710410538534 ], [ -71.345691378062796, -34.717249843342564 ], [ -71.350048632992227, -34.715925331375118 ], [ -71.35062850808454, -34.71628059446094 ], [ -71.350819795341138, -34.716444029366684 ], [ -71.351066170884224, -34.716983047634642 ], [ -71.351277025244343, -34.717818380706873 ], [ -71.351458692442577, -34.718324010773017 ], [ -71.351764293912325, -34.718711667995436 ], [ -71.352615673121164, -34.719250737935596 ], [ -71.352805167340463, -34.719517744884612 ], [ -71.353117303155599, -34.719788437642343 ], [ -71.353465775824006, -34.719943069455255 ], [ -71.353870376129649, -34.720004743710213 ], [ -71.355656849446973, -34.721445983109469 ], [ -71.356360286009973, -34.722156418970556 ], [ -71.358358027810766, -34.723247973995299 ], [ -71.35947649591651, -34.724029299187535 ], [ -71.360048712871034, -34.724294267687092 ], [ -71.360432269242821, -34.724445392882998 ], [ -71.361164729474353, -34.724620473490681 ], [ -71.361767852067899, -34.724742152271574 ], [ -71.362847341375172, -34.724670841250756 ], [ -71.363268328748219, -34.724716434978049 ], [ -71.363478736645646, -34.724739306772143 ], [ -71.364172239638251, -34.724931224191458 ], [ -71.36456022290777, -34.724920293334051 ], [ -71.365295524510543, -34.724843089174911 ], [ -71.365974914970053, -34.724872427900891 ], [ -71.366567963855985, -34.725318119500372 ], [ -71.367292934832989, -34.725556081428373 ], [ -71.36827672122314, -34.725770174444563 ], [ -71.369725478299273, -34.726241445135116 ], [ -71.370343309008987, -34.726507691938409 ], [ -71.370561781082728, -34.726599741899328 ], [ -71.370748812121505, -34.72659632132261 ], [ -71.370963485219889, -34.726539706438707 ], [ -71.37135598432036, -34.726501856352677 ], [ -71.371703252347942, -34.726624776411398 ], [ -71.372420157352011, -34.727452719890721 ], [ -71.374238880188031, -34.729322642161492 ], [ -71.374840423543318, -34.730074979121589 ], [ -71.375024009542969, -34.731851150264205 ], [ -71.375099027852343, -34.73294372599355 ], [ -71.375251894164265, -34.733218204820652 ], [ -71.376760437715816, -34.734343433201779 ], [ -71.37681115120688, -34.734508609335926 ], [ -71.377129268903488, -34.735557811587221 ], [ -71.377448222931633, -34.736607808865607 ], [ -71.377554200778974, -34.736756470266968 ], [ -71.377864211180139, -34.737216270724069 ], [ -71.378725712605615, -34.738476334025037 ], [ -71.379022736961048, -34.739209709813068 ], [ -71.379500256213248, -34.740387319355861 ], [ -71.380378451031632, -34.741485011451189 ], [ -71.38025403166985, -34.741626286040535 ], [ -71.380299362455702, -34.741852861235913 ], [ -71.381911862645211, -34.744487062212805 ], [ -71.382339762554381, -34.744999931246817 ], [ -71.382240171728725, -34.745812473978937 ], [ -71.38408524305035, -34.746687380524669 ], [ -71.385844083291218, -34.746973875400265 ], [ -71.387373136279038, -34.747271646316747 ], [ -71.388626305863326, -34.747511670081153 ], [ -71.390950842188062, -34.744552818559598 ], [ -71.389637896908127, -34.74183303175122 ], [ -71.391569740994626, -34.739583540217829 ], [ -71.393981289036091, -34.739839740107598 ], [ -71.39553154136631, -34.740385799435188 ], [ -71.396151964613921, -34.740413246584851 ], [ -71.397458108748822, -34.740186062867323 ], [ -71.398255623176595, -34.738853512521295 ], [ -71.399593169718884, -34.737681057432923 ], [ -71.400114041666711, -34.737304782322894 ], [ -71.400470654868201, -34.737086019717538 ], [ -71.401732319820113, -34.736415526563221 ], [ -71.403645819410187, -34.735543168114233 ], [ -71.403508377171718, -34.733769541311979 ], [ -71.403967365976243, -34.732768657108963 ], [ -71.406544115995104, -34.732844844676194 ], [ -71.410350438652358, -34.732317352855731 ], [ -71.412512615269264, -34.732029634061782 ], [ -71.415239405500131, -34.732516082270877 ], [ -71.416779596699158, -34.732790741913426 ], [ -71.41938382079266, -34.732232101962779 ], [ -71.422104992061406, -34.732947519123982 ], [ -71.424034194202662, -34.73407123558335 ], [ -71.423945420889652, -34.73526731725795 ], [ -71.423829006415346, -34.736834014689251 ], [ -71.423792318320849, -34.73768491604644 ], [ -71.424792452252518, -34.738424256882872 ], [ -71.424559463403796, -34.739837303346363 ], [ -71.423262181149155, -34.74200000659657 ], [ -71.42422870820775, -34.743519291592669 ], [ -71.425462153483352, -34.744833484332759 ], [ -71.426790960316239, -34.74792526512622 ], [ -71.426923036917515, -34.748852114345688 ], [ -71.428064501894525, -34.750305546700744 ], [ -71.430445879118878, -34.752931254533522 ], [ -71.431105662050655, -34.753589598674758 ], [ -71.43235071535635, -34.756196085315835 ], [ -71.433069381956685, -34.755898946606059 ], [ -71.433396160310963, -34.755593984994611 ], [ -71.433904891527703, -34.755202152901923 ], [ -71.434526357719363, -34.754712649858341 ], [ -71.436356586177538, -34.754055903717294 ], [ -71.437504865774329, -34.75379437407279 ], [ -71.438200893931182, -34.753875846713505 ], [ -71.438668651191193, -34.75405723001424 ], [ -71.439358984029155, -34.753948054373019 ], [ -71.439925444579345, -34.753555041683015 ], [ -71.440317106449953, -34.753117897920852 ], [ -71.440762406726165, -34.752536481123251 ], [ -71.441269679977225, -34.752096941330699 ], [ -71.442009422850774, -34.751700516531322 ], [ -71.442746257877715, -34.751208658161488 ], [ -71.444217093746929, -34.750129717457902 ], [ -71.444729957213994, -34.749880881018086 ], [ -71.444864929085441, -34.749821748928269 ], [ -71.44541461898757, -34.749580883059856 ], [ -71.445989548854243, -34.749473916547167 ], [ -71.446624788914136, -34.7494611481075 ], [ -71.447202440676136, -34.749449534796945 ], [ -71.447891400888352, -34.749292558608886 ], [ -71.448364514802392, -34.749131354252725 ], [ -71.4486352176217, -34.749039060718182 ], [ -71.448864871025762, -34.748986807183698 ], [ -71.449604455795807, -34.74859026633461 ], [ -71.450747064328183, -34.74813789999012 ], [ -71.451204859271698, -34.747985559630301 ], [ -71.451888159199299, -34.747637847210989 ], [ -71.452579826933786, -34.747576278458567 ], [ -71.453165924656062, -34.747850636343166 ], [ -71.453267822355357, -34.747907736332678 ], [ -71.453577326106725, -34.748080878399882 ], [ -71.453925320871392, -34.748121570678229 ], [ -71.454211228575176, -34.748020391317191 ], [ -71.454784545067596, -34.747865708695223 ], [ -71.455011455016788, -34.747718010598227 ], [ -71.455407242849503, -34.747423857345858 ], [ -71.455511475270228, -34.747040098476511 ], [ -71.455612882489405, -34.746560980504313 ], [ -71.455967829316037, -34.746017890168609 ], [ -71.456664275189524, -34.745299749498109 ], [ -71.456921161021413, -34.745149523107692 ], [ -71.457212739789611, -34.745031827862327 ], [ -71.458024800636778, -34.744915808034847 ], [ -71.458950740912513, -34.74494724998668 ], [ -71.459674778539934, -34.744819703918068 ], [ -71.460202791195954, -34.744740425706524 ], [ -71.461039946480582, -34.744496487614725 ], [ -71.461440552876468, -34.744296598592136 ], [ -71.461950496818872, -34.743952410083295 ], [ -71.463090135520915, -34.743404576178754 ], [ -71.463602110554163, -34.743394214669131 ], [ -71.463956362084772, -34.743387044211424 ], [ -71.464535381082612, -34.743423028623845 ], [ -71.465236918607118, -34.743695064044594 ], [ -71.466220261229509, -34.743722778044756 ], [ -71.466551547329885, -34.74364730987368 ], [ -71.467368290196305, -34.743461050332378 ], [ -71.468227509002631, -34.743205094930353 ], [ -71.469150158749486, -34.743138674643731 ], [ -71.469901037139266, -34.743123440510395 ], [ -71.47088570477672, -34.743198870037631 ], [ -71.471929556120017, -34.743320796799964 ], [ -71.473148109124836, -34.743486797224826 ], [ -71.474362490353457, -34.74350982326623 ], [ -71.475293674095511, -34.743729424383972 ], [ -71.476220680671489, -34.743805983470693 ], [ -71.477029232699152, -34.743789531507169 ], [ -71.47759022340756, -34.743638094010869 ], [ -71.478058850236778, -34.743434625065959 ], [ -71.47839401166928, -34.743046220875947 ], [ -71.479009327096193, -34.74236586842116 ], [ -71.479344478647221, -34.741977387603953 ], [ -71.479790867681572, -34.741443518675119 ], [ -71.480569453708, -34.740425958844803 ], [ -71.480891755757213, -34.739608374438383 ], [ -71.481219669582003, -34.738981575680214 ], [ -71.481492762818263, -34.7384512337118 ], [ -71.482161583700119, -34.737626654432589 ], [ -71.483183967104765, -34.737033321599498 ], [ -71.483927557462664, -34.736779690120379 ], [ -71.484204070585221, -34.73667508851976 ], [ -71.487729888905108, -34.734136436943125 ], [ -71.490957743231775, -34.73333614501346 ], [ -71.492178792654755, -34.733175195960655 ], [ -71.494493186101622, -34.733372677891062 ], [ -71.498141279504722, -34.731995904497694 ], [ -71.49865350247299, -34.731117220435813 ], [ -71.498909133358453, -34.7306887426139 ], [ -71.499172993710218, -34.730064395195853 ], [ -71.49957305662538, -34.729275815827016 ], [ -71.499470425002471, -34.728651089329858 ], [ -71.499621215307755, -34.727438858317512 ], [ -71.499728967327769, -34.725644175077406 ], [ -71.499768463555867, -34.725307349647558 ], [ -71.499571100094684, -34.723823853435952 ], [ -71.4993402231852, -34.723024151999851 ], [ -71.498965811662984, -34.722504183986523 ], [ -71.496500592876544, -34.720306559106263 ], [ -71.496223149997675, -34.720059756386213 ], [ -71.493565240786168, -34.718969404169847 ], [ -71.49171758321485, -34.718014987422549 ], [ -71.488429781614315, -34.716401702919654 ], [ -71.487545761221313, -34.71575888571013 ], [ -71.486671170443856, -34.714958644023689 ], [ -71.48659637850993, -34.714420328823834 ], [ -71.486704436855447, -34.71377009132113 ], [ -71.486507937573577, -34.712610970209958 ], [ -71.485508499836243, -34.711086142849929 ], [ -71.484325825543877, -34.709186563527361 ], [ -71.484039004253432, -34.708534042887273 ], [ -71.484374950813503, -34.707543436271884 ], [ -71.484846893324431, -34.707174085325939 ], [ -71.485105123934318, -34.706969789607228 ], [ -71.485055059026905, -34.704444851880169 ], [ -71.485459056563002, -34.70362846836769 ], [ -71.485980395634769, -34.702532160465516 ], [ -71.487680649549446, -34.701012246902017 ], [ -71.489336676707723, -34.700537007529228 ], [ -71.490158207594618, -34.700451753409013 ], [ -71.490759813831971, -34.698703981012436 ], [ -71.491120627555716, -34.697947100063992 ], [ -71.493623361785055, -34.696498423620675 ], [ -71.493623875621395, -34.69523454827273 ], [ -71.4930236644677, -34.694454502091304 ], [ -71.493351210881528, -34.693570534716223 ], [ -71.493353060512689, -34.692577365444016 ], [ -71.494403283606303, -34.691877697893567 ], [ -71.494801672960094, -34.689613722961504 ], [ -71.494556855095695, -34.689467049417303 ], [ -71.493970816662227, -34.689265329197511 ], [ -71.493292643419949, -34.688597062319083 ], [ -71.493086784591128, -34.687626900830111 ], [ -71.492830326357293, -34.687434675251822 ], [ -71.492363868061176, -34.68727259313264 ], [ -71.491854350818542, -34.687019152489654 ], [ -71.491394695464066, -34.686442629733961 ], [ -71.491155689699568, -34.686012172008255 ], [ -71.490935989628866, -34.685226398380792 ], [ -71.490952510545256, -34.684641094251624 ], [ -71.491115908705538, -34.683924214673752 ], [ -71.493798325754639, -34.681728937761022 ], [ -71.493968675078577, -34.680818573151079 ], [ -71.493245895990867, -34.679817119742481 ], [ -71.492274131754172, -34.679091784251121 ], [ -71.491834850190344, -34.678251053729987 ], [ -71.491697557970539, -34.677866887330801 ], [ -71.491858487560435, -34.677342584184878 ], [ -71.492487524753301, -34.677138887082691 ], [ -71.492948937212461, -34.676675490247355 ], [ -71.493439197270348, -34.676196509697732 ], [ -71.49398930758403, -34.675611952160367 ], [ -71.493776841646294, -34.674834673197793 ], [ -71.493955035059301, -34.674466354611752 ], [ -71.494191519252809, -34.673940353652654 ], [ -71.494684881193365, -34.673565506920021 ], [ -71.49492144803186, -34.673039577073546 ], [ -71.495418997019954, -34.671985370555248 ], [ -71.495883046932803, -34.672314170400959 ], [ -71.496451402928216, -34.672716897272139 ], [ -71.496485922489654, -34.672732289918493 ], [ -71.497885228207721, -34.673354594445755 ], [ -71.498895029808494, -34.673811547030454 ], [ -71.499114606810025, -34.673910875703285 ], [ -71.500023412620038, -34.673892229699938 ], [ -71.501000083454798, -34.672967744966087 ], [ -71.501103943973007, -34.672869385927868 ], [ -71.501464852918176, -34.672861975897654 ], [ -71.501811111239391, -34.672854865814173 ], [ -71.502144105037118, -34.673244674648174 ], [ -71.50260515906848, -34.67269765258159 ], [ -71.503199552732426, -34.671992507309966 ], [ -71.503271794349246, -34.671921752196468 ], [ -71.503984913852719, -34.671223544313371 ], [ -71.503940905386955, -34.67013006757044 ], [ -71.503584611985701, -34.66980344077286 ], [ -71.503221145536898, -34.669238425687574 ], [ -71.502801503840146, -34.668722344222928 ], [ -71.502086165497914, -34.667973798000489 ], [ -71.501702554328887, -34.666741366711207 ], [ -71.501509452475403, -34.666077432408152 ], [ -71.501317610958282, -34.665461253714419 ], [ -71.501294672477499, -34.664698486014842 ], [ -71.50127899148589, -34.664174029320819 ], [ -71.50113769188161, -34.663318277583393 ], [ -71.500771498147614, -34.662657968861026 ], [ -71.500118141763366, -34.662051184758475 ], [ -71.499874529438088, -34.661626893347737 ], [ -71.499850172517483, -34.660816372581323 ], [ -71.499717579384907, -34.6602466078905 ], [ -71.499818656922372, -34.659767536038274 ], [ -71.50026528760354, -34.659405517620385 ], [ -71.501816130126883, -34.656662726678519 ], [ -71.501954106862939, -34.65590736342746 ], [ -71.502104262957644, -34.655141039915307 ], [ -71.502313458129422, -34.65442121152595 ], [ -71.502352516877977, -34.653800216832884 ], [ -71.502394532880459, -34.653274650706912 ], [ -71.502537421604487, -34.65226986629559 ], [ -71.502285138740106, -34.651559513995281 ], [ -71.501689648233196, -34.650951621446545 ], [ -71.5008653487386, -34.650458163224272 ], [ -71.50046061278735, -34.649580635798401 ], [ -71.500315821431528, -34.648958244342992 ], [ -71.50022617585438, -34.648074250981054 ], [ -71.500131836579868, -34.647033939596184 ], [ -71.499971415436434, -34.645890855709325 ], [ -71.500140137013105, -34.645209893316867 ], [ -71.500576121759821, -34.644629865477469 ], [ -71.500667156132423, -34.643817049304488 ], [ -71.500131236505254, -34.642813048215487 ], [ -71.498305419673429, -34.642902626020287 ], [ -71.499105825778116, -34.642260927500672 ], [ -71.500032306839671, -34.641616488734755 ], [ -71.500460850840881, -34.641190888035048 ], [ -71.501259657944345, -34.640497069263311 ], [ -71.502799337103681, -34.639861589232886 ], [ -71.504902007519533, -34.638768836118842 ], [ -71.505464521770662, -34.638280275802309 ], [ -71.505616055881006, -34.637561553790839 ], [ -71.50562926740389, -34.636082433856018 ], [ -71.506111029399179, -34.634832290446603 ], [ -71.506545229193435, -34.633916999392717 ], [ -71.508182031506323, -34.632690724336811 ], [ -71.509086172365073, -34.632051924100779 ], [ -71.510117245173461, -34.631792159596237 ], [ -71.511388919154271, -34.631861380490001 ], [ -71.51254676221555, -34.631980715049451 ], [ -71.513248999527661, -34.632300039554693 ], [ -71.513669948273161, -34.632863919090973 ], [ -71.513974183405381, -34.633382274213631 ], [ -71.514615881453864, -34.633607572978171 ], [ -71.515365747442331, -34.633592175282111 ], [ -71.515886234911221, -34.633629139504428 ], [ -71.516524966722642, -34.633759075156497 ], [ -71.517576211200719, -34.634166656270736 ], [ -71.518806118012392, -34.634956845604265 ], [ -71.519753469632946, -34.635284507032971 ], [ -71.521155499941273, -34.636054053328998 ], [ -71.523435456471702, -34.63693988956755 ], [ -71.525089957392339, -34.636253753050674 ], [ -71.528187944075015, -34.636497633396012 ], [ -71.530505360352805, -34.635405752468607 ], [ -71.534413793610085, -34.635611156052832 ], [ -71.536340502028096, -34.637033963047102 ], [ -71.538205263522428, -34.639271479062856 ], [ -71.539794687788927, -34.639518552246486 ], [ -71.540159026501854, -34.639528979242534 ], [ -71.5405212568688, -34.639467371404706 ], [ -71.540821843044341, -34.639312372690789 ], [ -71.541107897173532, -34.63913507837993 ], [ -71.541388768921834, -34.638949029919885 ], [ -71.541665075431879, -34.638753918311743 ], [ -71.541938832523115, -34.638554428599427 ], [ -71.54221017584122, -34.638354914017157 ], [ -71.542354029355877, -34.63824660484422 ], [ -71.54284728709186, -34.637964179786195 ], [ -71.544210078090273, -34.637189935724543 ], [ -71.544419603842073, -34.6361812112888 ], [ -71.544645455575875, -34.635420353056141 ], [ -71.544837120124882, -34.634444346094043 ], [ -71.544709136248045, -34.633887536032375 ], [ -71.544519414754987, -34.633257574037614 ], [ -71.543940013973142, -34.63265228731921 ], [ -71.54306933176548, -34.632306451665933 ], [ -71.542678007661408, -34.631911545995884 ], [ -71.542510377537823, -34.631451416097768 ], [ -71.542406313102049, -34.629081468949899 ], [ -71.542355810715094, -34.625421952191935 ], [ -71.542319891578444, -34.624894899264099 ], [ -71.542264961395446, -34.624128306128512 ], [ -71.54203455789812, -34.622711138428038 ], [ -71.542171846524681, -34.621495592725211 ], [ -71.542718296203574, -34.619478886161829 ], [ -71.543268937421601, -34.618753348577457 ], [ -71.543633356982909, -34.617639923661791 ], [ -71.543629047764497, -34.616348754152462 ], [ -71.54388278500133, -34.615112610741299 ], [ -71.544029020848114, -34.614375568323602 ], [ -71.544372464747553, -34.613070347542227 ], [ -71.54433686720779, -34.612726508508047 ], [ -71.544397270825797, -34.612379040917709 ], [ -71.544408499766845, -34.612076835790766 ], [ -71.544388800610989, -34.611779780483538 ], [ -71.544353211156064, -34.611482984358844 ], [ -71.544312804036267, -34.611186360917173 ], [ -71.544277704163179, -34.610885122200749 ], [ -71.544238366936881, -34.610588402726563 ], [ -71.544202423545727, -34.610291687367322 ], [ -71.544189380906118, -34.609998998170575 ], [ -71.544198557196736, -34.609696835394956 ], [ -71.544222867404969, -34.609398862168526 ], [ -71.54425918629191, -34.609105143599663 ], [ -71.544299334696902, -34.60880226039405 ], [ -71.544337708030881, -34.608508572246457 ], [ -71.544376387690377, -34.608210225074046 ], [ -71.544417298765055, -34.60791190492548 ], [ -71.544463387729039, -34.607613477236058 ], [ -71.544517108779658, -34.60731932129805 ], [ -71.544580742739427, -34.60702510516807 ], [ -71.544624337081856, -34.606858550784466 ], [ -71.544699298797354, -34.60667797453165 ], [ -71.545202149642265, -34.606309308749388 ], [ -71.545582251093506, -34.60595738317982 ], [ -71.545675363269325, -34.6054763030168 ], [ -71.545848928562009, -34.604816155517469 ], [ -71.546011725749366, -34.604417661607606 ], [ -71.546201369987315, -34.603959526483621 ], [ -71.546363261672852, -34.603581211239693 ], [ -71.546670403753353, -34.603227186761586 ], [ -71.547338627255542, -34.602984073739023 ], [ -71.547684355570723, -34.602872944866377 ], [ -71.547884923322542, -34.602737597160811 ], [ -71.547568483678873, -34.60272862661872 ], [ -71.547010262476476, -34.602672493422112 ], [ -71.546532491695984, -34.602437291987698 ], [ -71.546288421229903, -34.60232097982162 ], [ -71.546219863604065, -34.602240216404979 ], [ -71.545938505867198, -34.602052235932334 ], [ -71.545614037081521, -34.601914781763519 ], [ -71.545344239764034, -34.601722127415869 ], [ -71.545109846848518, -34.601492621281388 ], [ -71.544887677309063, -34.601253923462707 ], [ -71.544686425939346, -34.60100112630326 ], [ -71.544568527448206, -34.600711142465613 ], [ -71.543998853624259, -34.600153277893028 ], [ -71.543778657683504, -34.599332084368299 ], [ -71.543777366804434, -34.598595977020118 ], [ -71.543673181994421, -34.598040954749102 ], [ -71.543444222089747, -34.597429823825998 ], [ -71.542821060777143, -34.597123049137565 ], [ -71.541981246479281, -34.596678554626735 ], [ -71.541494859956899, -34.595376676871346 ], [ -71.541840653849093, -34.594702975709808 ], [ -71.542405507313234, -34.594114360576675 ], [ -71.54323198342577, -34.593349176631463 ], [ -71.54324720537825, -34.592981530608853 ], [ -71.54298537072745, -34.5923957503677 ], [ -71.542632654417659, -34.5917022697679 ], [ -71.542230635870126, -34.590665601387414 ], [ -71.542086936865715, -34.589531161768086 ], [ -71.541610552185702, -34.58875525449119 ], [ -71.54159278889928, -34.587650608764307 ], [ -71.541425095893615, -34.587093878217374 ], [ -71.540983774255778, -34.586240063836534 ], [ -71.540826031888514, -34.585446953117831 ], [ -71.540674657678295, -34.584496261346132 ], [ -71.540707369829363, -34.583708561769633 ], [ -71.540636120850934, -34.583128181694136 ], [ -71.540524364141376, -34.582756977395313 ], [ -71.539756859732293, -34.582104249413355 ], [ -71.538955404395381, -34.581503253603103 ], [ -71.538597298193892, -34.580940954799345 ], [ -71.53800932299265, -34.580556247305147 ], [ -71.537490363558078, -34.580042045099148 ], [ -71.537691447841169, -34.578260143685988 ], [ -71.537416464549523, -34.577227163343885 ], [ -71.537072514000286, -34.575561170459935 ], [ -71.536333373896312, -34.574225750118451 ], [ -71.535782614999007, -34.572948219856521 ], [ -71.535306181809943, -34.571410002726793 ], [ -71.535181330358512, -34.570591531983119 ], [ -71.535253359074616, -34.569620898686246 ], [ -71.535085838545484, -34.569064078435353 ], [ -71.534836178761736, -34.568189488761817 ], [ -71.534334912544978, -34.566322705353443 ], [ -71.534323413211027, -34.566199761932097 ], [ -71.534289588047315, -34.56590299676229 ], [ -71.534250583197675, -34.565606263821834 ], [ -71.534183717099509, -34.565229760894788 ], [ -71.534043472117361, -34.565085711627169 ], [ -71.533915571783837, -34.564727757792703 ], [ -71.533574860559511, -34.564158359273513 ], [ -71.533408967777675, -34.564081011941248 ], [ -71.533348909112718, -34.563958116988857 ], [ -71.532537603748693, -34.563439841819921 ], [ -71.531863496281403, -34.562753141480293 ], [ -71.531636504585521, -34.561950077149078 ], [ -71.531509253733944, -34.561710193060797 ], [ -71.531346120576686, -34.561402668054249 ], [ -71.531359858512303, -34.561104913692908 ], [ -71.531318679739684, -34.560803720485893 ], [ -71.531196647201611, -34.560526802309859 ], [ -71.530989524443171, -34.560278678781046 ], [ -71.530747759952447, -34.560053871261957 ], [ -71.530487044602467, -34.559842898011269 ], [ -71.530214562220607, -34.559641250822935 ], [ -71.529943951927791, -34.559439490696647 ], [ -71.529690379980963, -34.559228440428164 ], [ -71.529467977777855, -34.559003155118518 ], [ -71.529350814108611, -34.558721630111513 ], [ -71.529308529509862, -34.558416027168711 ], [ -71.528941424884181, -34.557583292920384 ], [ -71.528709676608869, -34.557612171531957 ], [ -71.528605628342788, -34.557625109383409 ], [ -71.527857900344685, -34.557688385568753 ], [ -71.527456030917492, -34.55774441746734 ], [ -71.526937367926948, -34.557755087035034 ], [ -71.526417267631956, -34.557718224420064 ], [ -71.526127679530447, -34.557676438336166 ], [ -71.525607579235469, -34.557639571987281 ], [ -71.524913236318056, -34.557558454421162 ], [ -71.524446529188609, -34.557377281263115 ], [ -71.524038718304126, -34.557242669550902 ], [ -71.523569132972526, -34.5569661382821 ], [ -71.523228800837245, -34.556698305652972 ], [ -71.522860111583384, -34.556168370719654 ], [ -71.522609725062551, -34.555745658225618 ], [ -71.522561463972238, -34.555427473855474 ], [ -71.522537697244758, -34.555270072844436 ], [ -71.522412364296315, -34.554938784884179 ], [ -71.522284154942326, -34.554512142027356 ], [ -71.522157382892814, -34.554133103004396 ], [ -71.522032051741007, -34.553801741710878 ], [ -71.521491825590374, -34.553097368092587 ], [ -71.521353636851913, -34.552336903437514 ], [ -71.52104248738695, -34.551580085294134 ], [ -71.520796161251212, -34.551060392353968 ], [ -71.520496531781461, -34.550684995546639 ], [ -71.520077429073851, -34.550168869153502 ], [ -71.51971874435732, -34.549746982221848 ], [ -71.519413370161317, -34.549180796593411 ], [ -71.51905190426065, -34.548663476301954 ], [ -71.518746542641082, -34.548097362470308 ], [ -71.518504555368168, -34.547720770673443 ], [ -71.517947158819211, -34.546444242787487 ], [ -71.517697996702111, -34.545829258571956 ], [ -71.517682279777887, -34.54530472539826 ], [ -71.517716917916928, -34.544540836905078 ], [ -71.517703898633513, -34.544111737429446 ], [ -71.517616112569002, -34.543111762017212 ], [ -71.517536945839652, -34.542397782172209 ], [ -71.517289327028209, -34.541830472130798 ], [ -71.517104982850441, -34.541452613287966 ], [ -71.517094839972586, -34.541118869145222 ], [ -71.517080570234299, -34.540642161993595 ], [ -71.51707339000022, -34.540403771135665 ], [ -71.517066209766142, -34.540165381074956 ], [ -71.517054723008627, -34.53978403088685 ], [ -71.517046017435192, -34.539497964746083 ], [ -71.516978437176377, -34.539165405609467 ], [ -71.516392225368051, -34.538843613334421 ], [ -71.515698046842346, -34.538762510003323 ], [ -71.51516168434577, -34.538851403103855 ], [ -71.514601901871416, -34.538737392092813 ], [ -71.514200111495967, -34.53879337829477 ], [ -71.513681563489783, -34.53880405991228 ], [ -71.513219197918104, -34.538765873955761 ], [ -71.512752621942695, -34.538584650259224 ], [ -71.512510688568682, -34.538207970279167 ], [ -71.512444472850788, -34.537923087143405 ], [ -71.512265981197075, -34.537735929853497 ], [ -71.51202826631166, -34.537502359120332 ], [ -71.511445037808386, -34.537275896854183 ], [ -71.511149794812141, -34.537043359344771 ], [ -71.510568002715033, -34.536864497670891 ], [ -71.510095626317835, -34.536492626573661 ], [ -71.509679436846696, -34.536071815100847 ], [ -71.509382865242173, -34.535791740621811 ], [ -71.508969544990038, -34.535466283356406 ], [ -71.508138624013483, -34.534672403446152 ], [ -71.507666270074154, -34.534300447075402 ], [ -71.507372569485284, -34.534115649712106 ], [ -71.506789285286459, -34.533889091650735 ], [ -71.506211722457707, -34.533853245616967 ], [ -71.504698045932585, -34.533555680537788 ], [ -71.50435514910717, -34.533301209272345 ], [ -71.50402903191295, -34.533192692785562 ], [ -71.503963177317786, -34.533073666973259 ], [ -71.503876806099839, -34.532877443737547 ], [ -71.503814326475208, -34.532677407379964 ], [ -71.503771696025083, -34.532559086085257 ], [ -71.503733637999744, -34.532346141964823 ], [ -71.503558590486861, -34.532007727178041 ], [ -71.503473153516822, -34.531788959731571 ], [ -71.503083544296629, -34.53150294974327 ], [ -71.502756503634288, -34.53141697271839 ], [ -71.501922575098163, -34.531568773784684 ], [ -71.500053790948002, -34.531614377546404 ], [ -71.499808355042688, -34.53160729310212 ], [ -71.499566227632599, -34.531618381925966 ], [ -71.498854878708556, -34.531557397816876 ], [ -71.498259986479638, -34.531445726462408 ], [ -71.497692098506477, -34.531258171266792 ], [ -71.497117166843182, -34.531124522289396 ], [ -71.496570029054737, -34.531090813806948 ], [ -71.496133729897679, -34.53106022609844 ], [ -71.495583503701312, -34.530985809676416 ], [ -71.495103479946081, -34.530895481359742 ], [ -71.494850632041377, -34.530870223426248 ], [ -71.494712813408825, -34.530830131899016 ], [ -71.494440404688802, -34.530786293471017 ], [ -71.493580813979932, -34.530428175787705 ], [ -71.492540291793077, -34.52932585237982 ], [ -71.491422879207789, -34.527996002609967 ], [ -71.491431126640435, -34.527847540922281 ], [ -71.490954521873164, -34.527871225627649 ], [ -71.490057687012623, -34.528265501751889 ], [ -71.489702800373124, -34.528475168167063 ], [ -71.488964098647003, -34.52870233449547 ], [ -71.48753639089459, -34.52926169319224 ], [ -71.486155655150071, -34.530224932801154 ], [ -71.485147374397073, -34.531575753885946 ], [ -71.484663770855448, -34.532154404614168 ], [ -71.484298977594989, -34.53242208238764 ], [ -71.483287016444251, -34.532866879024859 ], [ -71.483091690362144, -34.53295762850145 ], [ -71.482723167296612, -34.533100052045711 ], [ -71.482261227526394, -34.533438383209941 ], [ -71.481071549968078, -34.534222357864429 ], [ -71.480927702741624, -34.534258735814205 ], [ -71.480543189664047, -34.534355838325091 ], [ -71.479807206239954, -34.534523814538083 ], [ -71.479435412408478, -34.534688745982386 ], [ -71.478810404159674, -34.534855495318062 ], [ -71.478356121628906, -34.53504063514567 ], [ -71.477949310569343, -34.535231678378615 ], [ -71.477565712875034, -34.53551345528389 ], [ -71.477136050471273, -34.536068826221943 ], [ -71.476888303200752, -34.53630944136173 ], [ -71.476495797812092, -34.536757710025086 ], [ -71.475786097296606, -34.537349998337248 ], [ -71.475041070532555, -34.537828602434438 ], [ -71.474542133647347, -34.537715091735883 ], [ -71.474109485243574, -34.537486282053543 ], [ -71.473395303931454, -34.537231346245392 ], [ -71.472491067851294, -34.537191620378437 ], [ -71.471961422956412, -34.537325016899324 ], [ -71.471387368048823, -34.537574298147192 ], [ -71.471094645725287, -34.538313794084516 ], [ -71.470518494149829, -34.539081183585019 ], [ -71.469867314383521, -34.539463327285794 ], [ -71.469018371405724, -34.539803680092355 ], [ -71.468785714933674, -34.539882607634901 ], [ -71.467984984537168, -34.540066741764377 ], [ -71.467258437915163, -34.540460217955449 ], [ -71.466824957671435, -34.540844074257748 ], [ -71.466144951865985, -34.541617457009849 ], [ -71.465921520193561, -34.541975943158313 ], [ -71.465530285921034, -34.542343136962131 ], [ -71.465223955917565, -34.542681141984396 ], [ -71.464736477043814, -34.543198719966277 ], [ -71.464149392073026, -34.543704348450433 ], [ -71.463649490397188, -34.544194552931835 ], [ -71.462962845143466, -34.544462979278919 ], [ -71.462496138014018, -34.544683761542501 ], [ -71.462266403761575, -34.544965489435363 ], [ -71.462028127429093, -34.545463184850419 ], [ -71.461835784652038, -34.545890235186292 ], [ -71.461435083034715, -34.546094839110843 ], [ -71.461260299626503, -34.546121257792066 ], [ -71.460502482649446, -34.546207437166302 ], [ -71.459720138071887, -34.546148692368334 ], [ -71.459203213321416, -34.546025511952791 ], [ -71.458433710160847, -34.545890505996041 ], [ -71.458588943533499, -34.546291571329533 ], [ -71.458509897178402, -34.546708285310437 ], [ -71.458130209850523, -34.546963115883322 ], [ -71.457608806100055, -34.547173313079277 ], [ -71.456959819121352, -34.547722177225459 ], [ -71.456602692981846, -34.548216494803988 ], [ -71.456222315747823, -34.548484774997867 ], [ -71.455304782804831, -34.54857975073822 ], [ -71.454602699104626, -34.548874733166087 ], [ -71.454129838515499, -34.549446774853386 ], [ -71.453586234699415, -34.549840998374073 ], [ -71.452877665162859, -34.550113281259762 ], [ -71.452112369711074, -34.550739861681024 ], [ -71.451529107970131, -34.55142577631208 ], [ -71.450755905547197, -34.551871864571844 ], [ -71.450041090024484, -34.5524007459383 ], [ -71.449318241766491, -34.553118698060686 ], [ -71.449045877962249, -34.553376591960919 ], [ -71.448416423951087, -34.554074644202636 ], [ -71.447855720703558, -34.554630552711245 ], [ -71.447491809588712, -34.555453549250828 ], [ -71.447067235242713, -34.556473024588421 ], [ -71.44652397817633, -34.557015874812343 ], [ -71.445927990901083, -34.557169694025035 ], [ -71.445427241215626, -34.557128107416318 ], [ -71.444811749718923, -34.556938973607245 ], [ -71.444215128233097, -34.556705220022415 ], [ -71.443619688031845, -34.556444557663113 ], [ -71.443005975199412, -34.556196887307799 ], [ -71.441953709336843, -34.55608058587994 ], [ -71.441016172709098, -34.556035241144627 ], [ -71.440118289514643, -34.555923368102363 ], [ -71.439362729105582, -34.555730063352755 ], [ -71.438797445348428, -34.555416192147618 ], [ -71.438246266937853, -34.555044136116734 ], [ -71.437542374030699, -34.554739747796269 ], [ -71.437087596528215, -34.554550759484719 ], [ -71.436598374922795, -34.554392737567376 ], [ -71.436558628064731, -34.554388878552572 ], [ -71.436193659632792, -34.554353110152178 ], [ -71.435793025389117, -34.554456524482269 ], [ -71.435285559000278, -34.554848248770185 ], [ -71.434887613414233, -34.555047024436398 ], [ -71.434432213379282, -34.555246944891039 ], [ -71.434032962541139, -34.555398035911679 ], [ -71.433469239157631, -34.555838583010477 ], [ -71.433249824751186, -34.5562246278092 ], [ -71.433144284383388, -34.5565606928619 ], [ -71.432645124715989, -34.557238492547192 ], [ -71.432190917643723, -34.557486089519102 ], [ -71.431849374579429, -34.557636023104671 ], [ -71.431159255540507, -34.557697484521903 ], [ -71.43058024013591, -34.557613676311888 ], [ -71.430232964023503, -34.557572811243276 ], [ -71.429890362743805, -34.557539236280149 ], [ -71.428744299290841, -34.55793641251099 ], [ -71.428579807880865, -34.558225938236852 ], [ -71.428477018154467, -34.558657287914976 ], [ -71.428489407718871, -34.559086419655223 ], [ -71.428340164312502, -34.559900436896129 ], [ -71.428063078963135, -34.560287546636594 ], [ -71.427901261837732, -34.560672361239078 ], [ -71.427798467619766, -34.561103784785431 ], [ -71.427923443038722, -34.561435258291482 ], [ -71.427931759641638, -34.561721271216278 ], [ -71.427941553074859, -34.562055037039364 ], [ -71.427951168641655, -34.562388805961682 ], [ -71.427848370830446, -34.562820155505456 ], [ -71.427749821152204, -34.56339454696149 ], [ -71.427665232191771, -34.563749096987046 ], [ -71.426806020571988, -34.564653747264948 ], [ -71.426412341085239, -34.564995463962212 ], [ -71.425906066760774, -34.565434983030521 ], [ -71.425370243253369, -34.565828634424406 ], [ -71.425172086579792, -34.565974296515172 ], [ -71.424547746677533, -34.566320591928594 ], [ -71.423690078363407, -34.566576176877732 ], [ -71.422549918638495, -34.567028200115608 ], [ -71.422104679447713, -34.567036965908578 ], [ -71.421570039919828, -34.567047652777489 ], [ -71.42093738161806, -34.567107843043878 ], [ -71.420245790240372, -34.567121564270352 ], [ -71.419781071980964, -34.567249906339306 ], [ -71.419313563554283, -34.567078682933548 ], [ -71.415428448765141, -34.56495145785204 ], [ -71.415860127886731, -34.566313245613003 ], [ -71.415881857235135, -34.567061089218193 ], [ -71.416414843862881, -34.56805123663122 ], [ -71.417851310189306, -34.568861150969134 ], [ -71.417774708150077, -34.569696538063447 ], [ -71.417995588607099, -34.570359269537796 ], [ -71.418442726836389, -34.571851458416198 ], [ -71.418579757646469, -34.573101870544619 ], [ -71.41900241408932, -34.573760673119125 ], [ -71.419345402542916, -34.573999504664535 ], [ -71.419492753198952, -34.574631935626321 ], [ -71.419701359075916, -34.574796402954135 ], [ -71.41991828155578, -34.574967425552579 ], [ -71.420021624644377, -34.575347487250177 ], [ -71.420068532871881, -34.575539533373558 ], [ -71.420222951472581, -34.575916661961031 ], [ -71.420414225254476, -34.576142178821421 ], [ -71.420515445624048, -34.576445846062988 ], [ -71.420613432058616, -34.576634957700421 ], [ -71.420907521618005, -34.576932728200987 ], [ -71.421275281115541, -34.57715680888397 ], [ -71.421794300737247, -34.577528692032523 ], [ -71.422451817219567, -34.577897674157207 ], [ -71.422973062866546, -34.578345871875563 ], [ -71.423123197401665, -34.578897667827249 ], [ -71.423137065593039, -34.579221530709169 ], [ -71.423285546329708, -34.579562510786964 ], [ -71.423529717407078, -34.580016208172495 ], [ -71.423609690823582, -34.580110406818399 ], [ -71.4238167902258, -34.580354435117194 ], [ -71.423848162988776, -34.58046311272355 ], [ -71.42397082075432, -34.580886286092245 ], [ -71.423563898303655, -34.584371780597522 ], [ -71.423584885643621, -34.585097330177341 ], [ -71.423547621729014, -34.585403819426659 ], [ -71.423467456971395, -34.585825779162249 ], [ -71.423243232086563, -34.586059470859034 ], [ -71.422880498663062, -34.586295988489184 ], [ -71.422375834119578, -34.586420631276624 ], [ -71.421917399575577, -34.586544427085784 ], [ -71.42150621102563, -34.586705391239938 ], [ -71.421140142157469, -34.586827277837976 ], [ -71.420829081625726, -34.58725381851032 ], [ -71.420605955380495, -34.587525740041308 ], [ -71.420379502673782, -34.587683108102944 ], [ -71.420338812584689, -34.587874971159955 ], [ -71.42011235808134, -34.588032265345475 ], [ -71.419703374895406, -34.588269690692854 ], [ -71.419383527941875, -34.588390655009363 ], [ -71.419205427055331, -34.588623425424871 ], [ -71.418987831737326, -34.589086363361616 ], [ -71.418998903473209, -34.589468181960875 ], [ -71.419003411219293, -34.589623625788583 ], [ -71.419012106012929, -34.589926541964452 ], [ -71.418838520058998, -34.590312096466754 ], [ -71.418660414680872, -34.590544866676034 ], [ -71.41848239823598, -34.590777707966438 ], [ -71.418377782234614, -34.591059608081522 ], [ -71.41831093500106, -34.59123965700222 ], [ -71.418229632976278, -34.591623454249991 ], [ -71.418192254975608, -34.591929795930149 ], [ -71.418024199948903, -34.592506369690753 ], [ -71.417500450697219, -34.593739598114468 ], [ -71.417135935016177, -34.593746822948184 ], [ -71.41667311310033, -34.593717739476062 ], [ -71.416322221268885, -34.593822251062058 ], [ -71.416123265993008, -34.593881507931876 ], [ -71.41562296816015, -34.594158837093175 ], [ -71.415212926758826, -34.594358087453692 ], [ -71.414839702809402, -34.594413187292183 ], [ -71.414614714356603, -34.594446297019061 ], [ -71.41409982069699, -34.59448499650064 ], [ -71.413833538487225, -34.594489159062007 ], [ -71.413270126819128, -34.595415930527096 ], [ -71.412475236370284, -34.59584641212772 ], [ -71.411884264389272, -34.596358376518374 ], [ -71.410894431438962, -34.597049635358132 ], [ -71.409995946373229, -34.597400910979466 ], [ -71.408710879409853, -34.598341404483264 ], [ -71.407826850931997, -34.599197234452923 ], [ -71.396957291689716, -34.60179255794219 ] ] ] } },
{ "type": "Feature", "properties": { "capa": "ds19", "popup": "<strong>PARRONES DE SANTA CRUZ</strong><br><br><strong>Programa:</strong> DS19<br><strong>Comuna:</strong> Santa Cruz<br><strong>Región:</strong> O'Higgins<br><strong>Año de inicio:</strong> 2020", "etiqueta": "PARRONES DE SANTA CRUZ" }, "geometry": { "type": "Polygon", "coordinates": [ [ [ -71.364415593248722, -34.62958926867185 ], [ -71.366874388182552, -34.627808716924115 ], [ -71.366543339237424, -34.626611935802558 ], [ -71.363357840476382, -34.62901637626085 ], [ -71.364415593248722, -34.62958926867185 ] ] ] } },
{ "type": "Feature", "properties": { "capa": "ds19", "popup": "<strong>CONDOMINIO LOS VIÑEDOS</strong><br><br><strong>Programa:</strong> DS19<br><strong>Comuna:</strong> Santa Cruz<br><strong>Región:</strong> O'Higgins<br><strong>Año de inicio:</strong> 0", "etiqueta": "CONDOMINIO LOS VIÑEDOS" }, "geometry": { "type": "Polygon", "coordinates": [ [ [ -71.361143080076005, -34.644412706883365 ], [ -71.362386710450295, -34.644965977990687 ], [ -71.362678211963356, -34.644739974738251 ], [ -71.362896991260911, -34.644619303878748 ], [ -71.363227327842026, -34.644547977024132 ], [ -71.363456671327327, -34.644304077487753 ], [ -71.363483094373095, -34.643996008279501 ], [ -71.363561097784171, -34.643829063229894 ], [ -71.362145339421659, -34.643122919192884 ], [ -71.361143080076005, -34.644412706883365 ] ] ] } },
{ "type": "Feature", "properties": { "capa": "ds19", "popup": "<strong>VALLE LOS PARRONES</strong><br><br><strong>Programa:</strong> DS19<br><strong>Comuna:</strong> Santa Cruz<br><strong>Región:</strong> O'Higgins<br><strong>Año de inicio:</strong> 2021", "etiqueta": "VALLE LOS PARRONES" }, "geometry": { "type": "Polygon", "coordinates": [ [ [ -71.353004772098288, -34.64033347775122 ], [ -71.354358623062978, -34.641300147499734 ], [ -71.355539189009349, -34.640460731142419 ], [ -71.354188032092196, -34.6395849736965 ], [ -71.352999254645809, -34.637628939856548 ], [ -71.352803977971021, -34.637739051761514 ], [ -71.352677366719945, -34.637977615844463 ], [ -71.352798266482452, -34.638095565406907 ], [ -71.351684798399589, -34.638731304347864 ], [ -71.353004772098288, -34.64033347775122 ] ] ] } },
{ "type": "Feature", "properties": { "capa": "ds19", "popup": "<strong>LOMAS DE COLCHAGUA</strong><br><br><strong>Programa:</strong> DS19<br><strong>Comuna:</strong> Santa Cruz<br><strong>Región:</strong> O'Higgins<br><strong>Año de inicio:</strong> 2017", "etiqueta": "LOMAS DE COLCHAGUA" }, "geometry": { "type": "Polygon", "coordinates": [ [ [ -71.35145587532584, -34.647024214871045 ], [ -71.353031748506268, -34.648798595837469 ], [ -71.354302508900446, -34.648108460380207 ], [ -71.352973780220978, -34.646507418618796 ], [ -71.35145587532584, -34.647024214871045 ] ] ] } },
{ "type": "Feature", "properties": { "capa": "ds19", "popup": "<strong>DOÑA PAULA</strong><br><br><strong>Programa:</strong> DS19<br><strong>Comuna:</strong> Santa Cruz<br><strong>Región:</strong> O'Higgins<br><strong>Año de inicio:</strong> 2017", "etiqueta": "DOÑA PAULA" }, "geometry": { "type": "Polygon", "coordinates": [ [ [ -71.351948037117182, -34.637072670764333 ], [ -71.350970019707788, -34.637663456596414 ], [ -71.351452214691051, -34.638292040715804 ], [ -71.352926906129454, -34.637482430729598 ], [ -71.35234967477902, -34.636465714885951 ], [ -71.351723899368935, -34.63681522134776 ], [ -71.351948037117182, -34.637072670764333 ] ] ] } },
{ "type": "Feature", "properties": { "capa": "colegios", "popup": "<strong>ESCUELA MUNICIPAL DE PANAMA</strong><br><br><strong>Dirección:</strong> CAMINO PUBLICO PANAMA 5", "etiqueta": "" }, "geometry": { "type": "Point", "coordinates": [ -71.449722, -34.713551 ] } },
{ "type": "Feature", "properties": { "capa": "colegios", "popup": "<strong>ESCUELA MUNICIPAL DE LA PATAGUA</strong><br><br><strong>Dirección:</strong> LA PATAGUA 0", "etiqueta": "" }, "geometry": { "type": "Point", "coordinates": [ -71.366341, -34.695759 ] } },
{ "type": "Feature", "properties": { "capa": "colegios", "popup": "<strong>ESCUELA MUNICIPAL DE QUINAHUE</strong><br><br><strong>Dirección:</strong> CAMINO A CHEPICA 12", "etiqueta": "" }, "geometry": { "type": "Point", "coordinates": [ -71.3162, -34.695042 ] } },
{ "type": "Feature", "properties": { "capa": "colegios", "popup": "<strong>ESCUELA MUNICIPAL DE LOS MAITENES</strong><br><br><strong>Dirección:</strong> CAMINO A LOLOL 12", "etiqueta": "" }, "geometry": { "type": "Point", "coordinates": [ -71.466537, -34.67802 ] } },
{ "type": "Feature", "properties": { "capa": "colegios", "popup": "<strong>ESCUELA ANGEL ARRIGORRIAGA</strong><br><br><strong>Dirección:</strong> CAMINO A CHEPICA 10", "etiqueta": "" }, "geometry": { "type": "Point", "coordinates": [ -71.309776, -34.67625 ] } },
{ "type": "Feature", "properties": { "capa": "colegios", "popup": "<strong>ESCUELA GRANJA ADEODATO GARCIA VALENZUELA</strong><br><br><strong>Dirección:</strong> ALQUIMIA DE CHOMEDAHUE 0", "etiqueta": "" }, "geometry": { "type": "Point", "coordinates": [ -71.349617, -34.675201 ] } },
{ "type": "Feature", "properties": { "capa": "colegios", "popup": "<strong>ESCUELA MUNICIPAL DE GUINDO ALTO</strong><br><br><strong>Dirección:</strong> GUINDO ALTO 0", "etiqueta": "" }, "geometry": { "type": "Point", "coordinates": [ -71.297333, -34.66824 ] } },
{ "type": "Feature", "properties": { "capa": "colegios", "popup": "<strong>ESC. MUNICIPAL LA LAJUELA</strong><br><br><strong>Dirección:</strong> CAMINO A LOLOL 5", "etiqueta": "" }, "geometry": { "type": "Point", "coordinates": [ -71.413658, -34.65913 ] } },
{ "type": "Feature", "properties": { "capa": "colegios", "popup": "<strong>ESCUELA MARIA ARAYA VALDES</strong><br><br><strong>Dirección:</strong> RAMON SANFURGO 581", "etiqueta": "" }, "geometry": { "type": "Point", "coordinates": [ -71.363693, -34.64587 ] } },
{ "type": "Feature", "properties": { "capa": "colegios", "popup": "<strong>LICEO MARIA AUXILIADORA</strong><br><br><strong>Dirección:</strong> ORLANDI 106", "etiqueta": "" }, "geometry": { "type": "Point", "coordinates": [ -71.365578, -34.64212 ] } },
{ "type": "Feature", "properties": { "capa": "colegios", "popup": "<strong>ESCUELA LUIS OYARZUN PEÑA</strong><br><br><strong>Dirección:</strong> JOSE TORIBIO MEDINA 129", "etiqueta": "" }, "geometry": { "type": "Point", "coordinates": [ -71.369278, -34.64035 ] } },
{ "type": "Feature", "properties": { "capa": "colegios", "popup": "<strong>LICEO MUNICIPAL DE SANTA CRUZ</strong><br><br><strong>Dirección:</strong> DANIEL BARROS GREZ 86", "etiqueta": "" }, "geometry": { "type": "Point", "coordinates": [ -71.361763, -34.639061 ] } },
{ "type": "Feature", "properties": { "capa": "colegios", "popup": "<strong>LICEO MUNICIPAL DE ADULTOS SANTA CRUZ</strong><br><br><strong>Dirección:</strong> DANIEL BARROS GREZ 88", "etiqueta": "" }, "geometry": { "type": "Point", "coordinates": [ -71.36194, -34.638866 ] } },
{ "type": "Feature", "properties": { "capa": "colegios", "popup": "<strong>ESCUELA MUNICIPAL DE LENGUAJE SANTA CRUZ</strong><br><br><strong>Dirección:</strong> AVENIDA CENTRAL 485", "etiqueta": "" }, "geometry": { "type": "Point", "coordinates": [ -71.36494, -34.638844 ] } },
{ "type": "Feature", "properties": { "capa": "colegios", "popup": "<strong>ESCUELA DEL LENGUAJE SANTA MARIA</strong><br><br><strong>Dirección:</strong> 21 DE MAYO 565", "etiqueta": "" }, "geometry": { "type": "Point", "coordinates": [ -71.36235, -34.637722 ] } },
{ "type": "Feature", "properties": { "capa": "colegios", "popup": "<strong>COLEGIO LUIS ALEJANDRO ALVAREZ MUÑOZ</strong><br><br><strong>Dirección:</strong> PLAZA ARTURO PRAT 565", "etiqueta": "" }, "geometry": { "type": "Point", "coordinates": [ -71.37237549, -34.63695908 ] } },
{ "type": "Feature", "properties": { "capa": "colegios", "popup": "<strong>INSTITUTO REGIONAL FEDERICO ERRAZURIZ</strong><br><br><strong>Dirección:</strong> AVENIDA ERRAZURIZ 670", "etiqueta": "" }, "geometry": { "type": "Point", "coordinates": [ -71.358688, -34.636841 ] } },
{ "type": "Feature", "properties": { "capa": "colegios", "popup": "<strong>COLEGIO PARTICULAR LUCILA GODOY ALCAYAGA</strong><br><br><strong>Dirección:</strong> DOMINGO SANTA MARIA 54", "etiqueta": "" }, "geometry": { "type": "Point", "coordinates": [ -71.358757, -34.63604 ] } },
{ "type": "Feature", "properties": { "capa": "colegios", "popup": "<strong>ESCUELA ESPECIAL DE SANTA CRUZ</strong><br><br><strong>Dirección:</strong> CABELLO 150", "etiqueta": "" }, "geometry": { "type": "Point", "coordinates": [ -71.36969757, -34.63597488 ] } },
{ "type": "Feature", "properties": { "capa": "colegios", "popup": "<strong>COLEGIO EVELYN S SCHOOL</strong><br><br><strong>Dirección:</strong> COLON 414", "etiqueta": "" }, "geometry": { "type": "Point", "coordinates": [ -71.373703, -34.635632 ] } },
{ "type": "Feature", "properties": { "capa": "colegios", "popup": "<strong>SALA CUNA Y JARDIN INFANTIL PEQUEÑO MUNDO FELIZ</strong><br><br><strong>Dirección:</strong> CALLE AVENIDA IADOR ACEVEDO 201", "etiqueta": "" }, "geometry": { "type": "Point", "coordinates": [ -71.376755159999988, -34.6351228 ] } },
{ "type": "Feature", "properties": { "capa": "colegios", "popup": "<strong>JARDIN INFANTIL MONTESSORI SAN ANDRES</strong><br><br><strong>Dirección:</strong> ISMAEL VALDES 491", "etiqueta": "" }, "geometry": { "type": "Point", "coordinates": [ -71.362976, -34.633274 ] } },
{ "type": "Feature", "properties": { "capa": "colegios", "popup": "<strong>JARDIN INFANTIL MONTESSORI SAN ANDRÉS ACONCAGUA</strong><br><br><strong>Dirección:</strong> ACONCAGUA 439", "etiqueta": "" }, "geometry": { "type": "Point", "coordinates": [ -71.3641749, -34.6327201 ] } },
{ "type": "Feature", "properties": { "capa": "colegios", "popup": "<strong>INSTITUTO POLITECNICO</strong><br><br><strong>Dirección:</strong> AVENIDA CABELLO 451", "etiqueta": "" }, "geometry": { "type": "Point", "coordinates": [ -71.366127, -34.632061 ] } },
{ "type": "Feature", "properties": { "capa": "colegios", "popup": "<strong>COLEGIO SANTA CRUZ DE UNCO</strong><br><br><strong>Dirección:</strong> ADRIANO DIAZ GONZALEZ 500", "etiqueta": "" }, "geometry": { "type": "Point", "coordinates": [ -71.36104, -34.630933 ] } },
{ "type": "Feature", "properties": { "capa": "colegios", "popup": "<strong>COLEGIO MANQUEMAVIDA</strong><br><br><strong>Dirección:</strong> BARREALES 771", "etiqueta": "" }, "geometry": { "type": "Point", "coordinates": [ -71.372673, -34.629009 ] } },
{ "type": "Feature", "properties": { "capa": "colegios", "popup": "<strong>ESCUELA MUNICIPAL DE PANIAHUE</strong><br><br><strong>Dirección:</strong> CAMILO HENRIQUEZ 426", "etiqueta": "" }, "geometry": { "type": "Point", "coordinates": [ -71.353279, -34.626011 ] } },
{ "type": "Feature", "properties": { "capa": "colegios", "popup": "<strong>COLEGIO DE LENGUAJE PADRE PIO</strong><br><br><strong>Dirección:</strong> EL SAUCE 159", "etiqueta": "" }, "geometry": { "type": "Point", "coordinates": [ -71.34891, -34.625233 ] } },
{ "type": "Feature", "properties": { "capa": "colegios", "popup": "<strong>ESCUELA MUNICIPAL DE BARREALES</strong><br><br><strong>Dirección:</strong> BARREALES 0", "etiqueta": "" }, "geometry": { "type": "Point", "coordinates": [ -71.372917, -34.622082 ] } },
{ "type": "Feature", "properties": { "capa": "colegios", "popup": "<strong>ESCUELA MUNICIPAL DE MILLAHUE DE APALTA</strong><br><br><strong>Dirección:</strong> MILLAHUE DE APALTA 12", "etiqueta": "" }, "geometry": { "type": "Point", "coordinates": [ -71.269188, -34.618839 ] } },
{ "type": "Feature", "properties": { "capa": "colegios", "popup": "<strong>ESCUELA MUNICIPAL DE ISLA DE YAQUIL</strong><br><br><strong>Dirección:</strong> CALLE HERRERA 0", "etiqueta": "" }, "geometry": { "type": "Point", "coordinates": [ -71.421356, -34.608631 ] } },
{ "type": "Feature", "properties": { "capa": "colegios", "popup": "<strong>ESCUELA LA FINCA</strong><br><br><strong>Dirección:</strong> CAMINO LA FINCA 18.5", "etiqueta": "" }, "geometry": { "type": "Point", "coordinates": [ -71.433891, -34.586781 ] } },
{ "type": "Feature", "properties": { "capa": "colegios", "popup": "<strong>ESCUELA MUNICIPAL DE RINCON DE YAQUIL</strong><br><br><strong>Dirección:</strong> RINCON DE YAQUIL 0", "etiqueta": "" }, "geometry": { "type": "Point", "coordinates": [ -71.475677, -34.561131 ] } },
{ "type": "Feature", "properties": { "capa": "jardines", "popup": "<strong>EL NIDO</strong><br><br><strong>Dirección:</strong> CALLE CABELLO 150 A UN COSTADO DEL CESFAM ", "etiqueta": "" }, "geometry": { "type": "MultiPoint", "coordinates": [ [ -71.36451, -34.639631 ] ] } },
{ "type": "Feature", "properties": { "capa": "jardines", "popup": "<strong>PERSONITAS</strong><br><br><strong>Dirección:</strong> CAMINO MILLAHUE APALTA KM 12 ESC-F299 ", "etiqueta": "" }, "geometry": { "type": "MultiPoint", "coordinates": [ [ -71.268965, -34.618322 ] ] } },
{ "type": "Feature", "properties": { "capa": "jardines", "popup": "<strong>CECI PANAMA (PANAMA)</strong><br><br><strong>Dirección:</strong> SECTOR LAGUNILLA S/N ESCUELA PANAMA ", "etiqueta": "" }, "geometry": { "type": "MultiPoint", "coordinates": [ [ -71.44947, -34.713677 ] ] } },
{ "type": "Feature", "properties": { "capa": "jardines", "popup": "<strong>PADRE HURTADO</strong><br><br><strong>Dirección:</strong> CALLE CAMILO HENRIQUE N 289 PANIAHUE ", "etiqueta": "" }, "geometry": { "type": "MultiPoint", "coordinates": [ [ -71.351975, -34.625372 ] ] } },
{ "type": "Feature", "properties": { "capa": "jardines", "popup": "<strong>SALA CUNA NICOLAS PALACIOS</strong><br><br><strong>Dirección:</strong> CALLE VIOLETA PARRA N 262 POBL NICOLAS PALACIOS ", "etiqueta": "" }, "geometry": { "type": "MultiPoint", "coordinates": [ [ -71.360247, -34.644025 ] ] } },
{ "type": "Feature", "properties": { "capa": "jardines", "popup": "<strong>SALA CUNA MILAGRO</strong><br><br><strong>Dirección:</strong> CALLE SAN RAMON SAN FURGO N 875 ", "etiqueta": "" }, "geometry": { "type": "MultiPoint", "coordinates": [ [ -71.356191, -34.648627 ] ] } },
{ "type": "Feature", "properties": { "capa": "jardines", "popup": "<strong>DON HORACIO</strong><br><br><strong>Dirección:</strong> CALLE SUECIA 1230 VILLA DON HORACIO 2 ETAPA ", "etiqueta": "" }, "geometry": { "type": "MultiPoint", "coordinates": [ [ -71.3479, -34.6349 ] ] } },
{ "type": "Feature", "properties": { "capa": "jardines", "popup": "<strong>GUINDO ALTO</strong><br><br><strong>Dirección:</strong> SECTOR GUINDO ALTO S/N ", "etiqueta": "" }, "geometry": { "type": "MultiPoint", "coordinates": [ [ -71.295861, -34.667786 ] ] } },
{ "type": "Feature", "properties": { "capa": "jardines", "popup": "<strong>LA FINCA YAQUIL</strong><br><br><strong>Dirección:</strong> SECTOR LA FINCA ISLA DE YAQUIL S/N ", "etiqueta": "" }, "geometry": { "type": "MultiPoint", "coordinates": [ [ -71.434556, -34.586911 ] ] } },
{ "type": "Feature", "properties": { "capa": "jardines", "popup": "<strong>EL NIDO DE ANGELES</strong><br><br><strong>Dirección:</strong> CALLE 21 DE MAYO N 265 ", "etiqueta": "" }, "geometry": { "type": "MultiPoint", "coordinates": [ [ -71.368847, -34.640288 ] ] } },
{ "type": "Feature", "properties": { "capa": "jardines", "popup": "<strong>PMI LAS MARAVILLAS DEL SABER</strong><br><br><strong>Dirección:</strong> LA LAJUELA S / N PMI ", "etiqueta": "" }, "geometry": { "type": "MultiPoint", "coordinates": [ [ -71.410579, -34.657551 ] ] } },
{ "type": "Feature", "properties": { "capa": "jardines", "popup": "<strong>PMI GOTITAS DE LLUVIA (RINCON</strong><br><br><strong>Dirección:</strong> RINCON DE YAQUIL ", "etiqueta": "" }, "geometry": { "type": "MultiPoint", "coordinates": [ [ -71.434556, -34.586633 ] ] } },
{ "type": "Feature", "properties": { "capa": "jardines", "popup": "<strong>NA</strong><br><br><strong>Dirección:</strong> NA ", "etiqueta": "" }, "geometry": { "type": "MultiPoint", "coordinates": [ [ -71.360383999933205, -34.632242000156957 ] ] } },
{ "type": "Feature", "properties": { "capa": "jardines", "popup": "<strong>NA</strong><br><br><strong>Dirección:</strong> NA ", "etiqueta": "" }, "geometry": { "type": "MultiPoint", "coordinates": [ [ -71.34995599952498, -34.632983999771994 ] ] } },
{ "type": "Feature", "properties": { "capa": "bomberos", "popup": "<strong>Cuerpo de Bomberos</strong><br><br><strong>Dirección:</strong> Díaz Besoaín 141", "etiqueta": "" }, "geometry": { "type": "Point", "coordinates": [ -71.367245972691208, -34.639090963457924 ] } },
{ "type": "Feature", "properties": { "capa": "comisarias", "popup": "<strong>2DA. COM. SANTA CRUZ</strong><br><br><strong>Dirección:</strong> GENERAL DEL CANTO 24", "etiqueta": "" }, "geometry": { "type": "Point", "coordinates": [ -71.365075564873436, -34.64082300790966 ] } },
{ "type": "Feature", "properties": { "capa": "salud", "popup": "<strong>Posta de Salud Rural Quinahue</strong><br><br><strong>Tipo de atención:</strong> Posta de Salud Rural (PSR)<br><strong>Dirección:</strong>  NA", "etiqueta": "" }, "geometry": { "type": "Point", "coordinates": [ -71.31729, -34.69254 ] } },
{ "type": "Feature", "properties": { "capa": "salud", "popup": "<strong>Posta de Salud Rural Guindo Alto</strong><br><br><strong>Tipo de atención:</strong> Posta de Salud Rural (PSR)<br><strong>Dirección:</strong>  NA", "etiqueta": "" }, "geometry": { "type": "Point", "coordinates": [ -71.29579, -34.66773 ] } },
{ "type": "Feature", "properties": { "capa": "salud", "popup": "<strong>Policlínico de la Asociación Chilena de Seguridad AChS Santa Cruz</strong><br><br><strong>Tipo de atención:</strong> Centro de Salud Privado<br><strong>Dirección:</strong>  101", "etiqueta": "" }, "geometry": { "type": "Point", "coordinates": [ -71.365204, -34.64271 ] } },
{ "type": "Feature", "properties": { "capa": "salud", "popup": "<strong>CENTRO CLINICO SANFURGO</strong><br><br><strong>Tipo de atención:</strong> Centro de Salud Privado<br><strong>Dirección:</strong>  184", "etiqueta": "" }, "geometry": { "type": "Point", "coordinates": [ -71.365126, -34.64222 ] } },
{ "type": "Feature", "properties": { "capa": "salud", "popup": "<strong>Centro Médico y Laboratorio Clínico Santa Cruz</strong><br><br><strong>Tipo de atención:</strong> Centro de Salud Privado<br><strong>Dirección:</strong>  124", "etiqueta": "" }, "geometry": { "type": "Point", "coordinates": [ -71.366621, -34.641001 ] } },
{ "type": "Feature", "properties": { "capa": "salud", "popup": "<strong>Centro Médico Monte Vital</strong><br><br><strong>Tipo de atención:</strong> Centro de Salud Privado<br><strong>Dirección:</strong>  185", "etiqueta": "" }, "geometry": { "type": "Point", "coordinates": [ -71.369489, -34.638003 ] } },
{ "type": "Feature", "properties": { "capa": "salud", "popup": "<strong>SAR Santa Cruz</strong><br><br><strong>Tipo de atención:</strong> Servicio de Atención Primaria de Urgencia de Alta Resolutividad (SAR)<br><strong>Dirección:</strong>  250", "etiqueta": "" }, "geometry": { "type": "Point", "coordinates": [ -71.368656, -34.634649 ] } },
{ "type": "Feature", "properties": { "capa": "salud", "popup": "<strong>Hospital de Santa Cruz</strong><br><br><strong>Tipo de atención:</strong> Hospital<br><strong>Dirección:</strong>  921", "etiqueta": "" }, "geometry": { "type": "Point", "coordinates": [ -71.35723, -34.634422 ] } },
{ "type": "Feature", "properties": { "capa": "salud", "popup": "<strong>Centro de Salud Familiar Santa Cruz</strong><br><br><strong>Tipo de atención:</strong> Centro de Salud Familiar (CESFAM)<br><strong>Dirección:</strong>  625", "etiqueta": "" }, "geometry": { "type": "Point", "coordinates": [ -71.36903, -34.6344 ] } },
{ "type": "Feature", "properties": { "capa": "salud", "popup": "<strong>Centro Comunitario de Salud Familiar Paniahue</strong><br><br><strong>Tipo de atención:</strong> Centro Comunitario de Salud Familiar (CECOSF)<br><strong>Dirección:</strong>  360", "etiqueta": "" }, "geometry": { "type": "Point", "coordinates": [ -71.352848, -34.626329 ] } },
{ "type": "Feature", "properties": { "capa": "salud", "popup": "<strong>Posta de Salud Rural Apalta</strong><br><br><strong>Tipo de atención:</strong> Posta de Salud Rural (PSR)<br><strong>Dirección:</strong>  NA", "etiqueta": "" }, "geometry": { "type": "Point", "coordinates": [ -71.2671, -34.62065 ] } },
{ "type": "Feature", "properties": { "capa": "salud", "popup": "<strong>Posta de Salud Rural Isla de Yáquil</strong><br><br><strong>Tipo de atención:</strong> Posta de Salud Rural (PSR)<br><strong>Dirección:</strong>  NA", "etiqueta": "" }, "geometry": { "type": "Point", "coordinates": [ -71.42891, -34.59454 ] } },
{ "type": "Feature", "properties": { "capa": "salud", "popup": "<strong>Centro Clinico Pasteur</strong><br><br><strong>Tipo de atención:</strong> Centro de Salud Privado<br><strong>Dirección:</strong>  334", "etiqueta": "" }, "geometry": { "type": "Point", "coordinates": [ -71.368281, -34.63708 ] } },
{ "type": "Feature", "properties": { "capa": "salud", "popup": "<strong>Mutual Santa Cruz</strong><br><br><strong>Tipo de atención:</strong> Centro de Salud Privado<br><strong>Dirección:</strong>  248", "etiqueta": "" }, "geometry": { "type": "Point", "coordinates": [ -71.368084519999968, -34.638233949999972 ] } },
{ "type": "Feature", "properties": { "capa": "salud", "popup": "<strong>Centro diagnostico San Lorenzo</strong><br><br><strong>Tipo de atención:</strong> Centro de Salud Privado<br><strong>Dirección:</strong>  37", "etiqueta": "" }, "geometry": { "type": "Point", "coordinates": [ -71.364656199999956, -34.641291459999934 ] } },
{ "type": "Feature", "properties": { "capa": "municipios", "popup": "<strong>Municipalidad de Santa Cruz</strong><br><br><strong>Dirección:</strong> Plaza de Armas Nº 242<br><strong>Región:</strong> Libertador General Bernardo O'Higgins", "etiqueta": "" }, "geometry": { "type": "Point", "coordinates": [ -71.366023186999939, -34.640340266999935 ] } }
]
}
