{
"type": "FeatureCollection",
"name": "7104",
"crs": { "type": "name", "properties": { "name": "urn:ogc:def:crs:OGC:1.3:CRS84" } },
"features": [
{ "type": "Feature", "properties": { "capa": "comuna", "popup": "", "etiqueta": "" }, "geometry": { "type": "Polygon", "coordinates": [ [ [ -72.314194457188577, -35.480744624016019 ], [ -72.313468987646587, -35.480819418447375 ], [ -72.311682321191498, -35.480439963655357 ], [ -72.311504438595563, -35.480286349238739 ], [ -72.310154200654935, -35.479348950101681 ], [ -72.308404595095197, -35.479121539843376 ], [ -72.305369488685784, -35.478827405830735 ], [ -72.303774374490274, -35.478969097003052 ], [ -72.302315493400869, -35.479098692930833 ], [ -72.299861851203502, -35.479998773126532 ], [ -72.297818151592779, -35.478169729860653 ], [ -72.297119343150115, -35.477834633046449 ], [ -72.296391175967329, -35.477485495903551 ], [ -72.296338428690476, -35.477460213237478 ], [ -72.296120447995207, -35.477603266013958 ], [ -72.264709157168397, -35.498226565881176 ], [ -72.264692628167168, -35.498235282092807 ], [ -72.250243297789012, -35.509651535026649 ], [ -72.247987376582302, -35.511881505184384 ], [ -72.247638342466871, -35.514440189069504 ], [ -72.248107628659497, -35.516019443946185 ], [ -72.248145687583147, -35.520012905589638 ], [ -72.24799764252937, -35.521791960654241 ], [ -72.247864320863115, -35.523143538123023 ], [ -72.247982584070257, -35.524785997049918 ], [ -72.248531729593338, -35.526580954268788 ], [ -72.248515525782253, -35.529610677945499 ], [ -72.248016457742992, -35.531452939974024 ], [ -72.247280215604135, -35.532576921808442 ], [ -72.246885438376111, -35.533922476757198 ], [ -72.24646855450726, -35.535909283934615 ], [ -72.24627715855452, -35.536403979301546 ], [ -72.246225949193416, -35.537899957804058 ], [ -72.244184810679585, -35.538922794610791 ], [ -72.244078089925509, -35.539490730240928 ], [ -72.244973525210838, -35.541364891627744 ], [ -72.245176488769488, -35.543080667312246 ], [ -72.245498365017255, -35.543872190264615 ], [ -72.245013723023163, -35.545287045790261 ], [ -72.24472049315149, -35.54620720795463 ], [ -72.244059137269645, -35.547689275887599 ], [ -72.242974054153137, -35.548805206795478 ], [ -72.241194003790071, -35.549833964237472 ], [ -72.239016375251964, -35.552279396433427 ], [ -72.237388541718886, -35.553953155696988 ], [ -72.23620881210401, -35.555280720795075 ], [ -72.234379583470741, -35.557734136802296 ], [ -72.233274590094254, -35.559419789803478 ], [ -72.230956315027044, -35.560863797941714 ], [ -72.227771206134861, -35.56214510656185 ], [ -72.227584586524472, -35.5624973102395 ], [ -72.228011926783239, -35.565287693198478 ], [ -72.227815416721583, -35.565924835324871 ], [ -72.226468317494565, -35.567034507317835 ], [ -72.224869435764759, -35.567853242334081 ], [ -72.224192712403337, -35.569762631855966 ], [ -72.22228414366586, -35.571964483799675 ], [ -72.223563671617214, -35.575344757848818 ], [ -72.222961688087452, -35.577612336131907 ], [ -72.223094282118325, -35.578827504065089 ], [ -72.223929403617149, -35.579916151754006 ], [ -72.225943569316271, -35.582243972355094 ], [ -72.22813760109149, -35.583651495084162 ], [ -72.228249009254696, -35.583722924344464 ], [ -72.226259162746942, -35.584290232098454 ], [ -72.22382442110316, -35.58472819171574 ], [ -72.22133072392559, -35.58562370155537 ], [ -72.218181425473873, -35.585480386844011 ], [ -72.216185422811478, -35.584481330660729 ], [ -72.214377106059715, -35.584298322365932 ], [ -72.211955785246261, -35.584348171662647 ], [ -72.210231633450107, -35.585472972457886 ], [ -72.209664637504005, -35.586871662446711 ], [ -72.209630338029839, -35.587859113533192 ], [ -72.210339013567577, -35.589851979025156 ], [ -72.20543941605672, -35.590338362898812 ], [ -72.203397944267905, -35.590644001441582 ], [ -72.201767311584391, -35.591559040724718 ], [ -72.200413092310427, -35.593221732310973 ], [ -72.200111508106602, -35.594198053740648 ], [ -72.199043488488911, -35.593371676893483 ], [ -72.197278016884624, -35.590992717323857 ], [ -72.196493143549532, -35.589562058166592 ], [ -72.195660531943602, -35.587789368186769 ], [ -72.194826455185449, -35.586065213109315 ], [ -72.194034870536854, -35.584829245660913 ], [ -72.194079013749928, -35.583563944986018 ], [ -72.193753817328869, -35.582630988193877 ], [ -72.191823680041409, -35.581563253263162 ], [ -72.190781966688505, -35.58066219807899 ], [ -72.190155589407198, -35.579819600902958 ], [ -72.189954813246231, -35.578743434456435 ], [ -72.189160013527257, -35.577604744936608 ], [ -72.188190710674448, -35.577176083071869 ], [ -72.187543818566979, -35.577181912761176 ], [ -72.187528275017627, -35.577181881344167 ], [ -72.187192064352871, -35.57718310222527 ], [ -72.186912225667143, -35.577181575941225 ], [ -72.186640155611983, -35.577157178041858 ], [ -72.186383368594747, -35.57708291100375 ], [ -72.186144745512564, -35.576958478782672 ], [ -72.185926714511652, -35.576820063527784 ], [ -72.185725842230966, -35.576667684163013 ], [ -72.185528856960516, -35.576506193487901 ], [ -72.185321036211121, -35.57635399764645 ], [ -72.185090182657831, -35.576229430586316 ], [ -72.18486167909731, -35.576100297570051 ], [ -72.184691783422579, -35.575924506386862 ], [ -72.184493262931298, -35.575772062483217 ], [ -72.184261962915329, -35.575643001793907 ], [ -72.184022351686323, -35.575527671162327 ], [ -72.183781295966355, -35.575416881324394 ], [ -72.183536989243365, -35.575306177549443 ], [ -72.183288799103408, -35.575209159372264 ], [ -72.183034825609653, -35.575116722970613 ], [ -72.18277163360446, -35.575047047627997 ], [ -72.182505553515597, -35.574982024998405 ], [ -72.182248239187317, -35.574894178277482 ], [ -72.181981782704369, -35.574860688931942 ], [ -72.181705458228038, -35.574876996312383 ], [ -72.181428136621719, -35.574906914965645 ], [ -72.181154414564759, -35.574945596286966 ], [ -72.180885021489146, -35.575002323889329 ], [ -72.180621214137986, -35.575072339752964 ], [ -72.18035903183916, -35.575146889223873 ], [ -72.180096936676904, -35.575221362638125 ], [ -72.179837545443675, -35.575304844120211 ], [ -72.179582662854855, -35.575392636323016 ], [ -72.179335721373135, -35.575489299184731 ], [ -72.179104651325872, -35.575612562466873 ], [ -72.178883229184748, -35.575753584547407 ], [ -72.178662982040009, -35.575890072022858 ], [ -72.178446790788797, -35.576030881729373 ], [ -72.17823222728488, -35.576176299323677 ], [ -72.178016215696715, -35.576317102681962 ], [ -72.177796867765579, -35.576453565086197 ], [ -72.177585010885593, -35.576598909580383 ], [ -72.177377840516471, -35.576748560161803 ], [ -72.177171837957189, -35.576902608865886 ], [ -72.176968458478555, -35.57705673618176 ], [ -72.176769769104013, -35.577215242589844 ], [ -72.176578294997825, -35.577377987783656 ], [ -72.176400892102251, -35.577553797695728 ], [ -72.176230894917893, -35.577734064028434 ], [ -72.176057649425445, -35.577905333801795 ], [ -72.175878353779581, -35.578076764676155 ], [ -72.175692290226365, -35.578248445786002 ], [ -72.175501170056407, -35.578411106320679 ], [ -72.175310413704125, -35.578578408130532 ], [ -72.175124618747191, -35.57874550574936 ], [ -72.174949562251143, -35.578921398872048 ], [ -72.174788128706368, -35.579105867526593 ], [ -72.174630574087004, -35.579294736219005 ], [ -72.17446534965174, -35.579474799177419 ], [ -72.174275672176137, -35.579637493751818 ], [ -72.17407940915119, -35.579795932220556 ], [ -72.173910210569105, -35.579976099989672 ], [ -72.173750126293896, -35.580160530415505 ], [ -72.173598434978388, -35.58034924319476 ], [ -72.173457212629202, -35.580546760701147 ], [ -72.173335841251145, -35.580752689077954 ], [ -72.173230354782291, -35.580962700948895 ], [ -72.173135528620904, -35.581172579301274 ], [ -72.173050255144247, -35.581390991863969 ], [ -72.172965983289117, -35.581609599628777 ], [ -72.172873944600056, -35.581823759715746 ], [ -72.172765751507242, -35.582029339972934 ], [ -72.172631297963719, -35.582222173951259 ], [ -72.172469490719791, -35.582406648884167 ], [ -72.172293790131704, -35.582582557344708 ], [ -72.172117901795687, -35.582762898567083 ], [ -72.171950140518049, -35.582938522781404 ], [ -72.171780031942589, -35.583118785030628 ], [ -72.171597826653525, -35.583290285108745 ], [ -72.171396941796445, -35.583448767491049 ], [ -72.171223038737196, -35.583619975364911 ], [ -72.171091194799587, -35.583817243716879 ], [ -72.170964763211543, -35.584018872335449 ], [ -72.170825601597627, -35.584216258786803 ], [ -72.170686528916903, -35.584413642559902 ], [ -72.170553687849335, -35.584610936717993 ], [ -72.17042066352542, -35.584812737941782 ], [ -72.170288451278537, -35.585009941257994 ], [ -72.170160027227212, -35.585211548609493 ], [ -72.170038282150017, -35.585412978659349 ], [ -72.169975577048248, -35.58562643893378 ], [ -72.169991406261857, -35.585855845814727 ], [ -72.170002540879793, -35.586080798618831 ], [ -72.170014311504971, -35.586305808504072 ], [ -72.170028246171654, -35.586535265307226 ], [ -72.170045161448456, -35.586760140226218 ], [ -72.170065957447292, -35.586984838453581 ], [ -72.170093436911813, -35.587209435236218 ], [ -72.17013157129395, -35.587433750132654 ], [ -72.17017936705696, -35.587657811636049 ], [ -72.170235465049828, -35.587881581030416 ], [ -72.17029897414379, -35.588100724817672 ], [ -72.170362931497067, -35.588319783994507 ], [ -72.170426711882243, -35.588538920007672 ], [ -72.170491840638647, -35.588762450980404 ], [ -72.170559142419734, -35.588981495927854 ], [ -72.170630505484226, -35.589200359107181 ], [ -72.170707107523441, -35.589419158133225 ], [ -72.170790123533791, -35.58963328491518 ], [ -72.170890930678368, -35.589842439979954 ], [ -72.171019186744729, -35.590046293905772 ], [ -72.171157558739523, -35.590245377813815 ], [ -72.17129060911455, -35.590440173144444 ], [ -72.171420949272402, -35.590639542431468 ], [ -72.171552280271982, -35.590838811142895 ], [ -72.171684604808277, -35.59103805379069 ], [ -72.171817836643015, -35.591237347077701 ], [ -72.17195206111613, -35.591432036263861 ], [ -72.172090801420197, -35.591631183201109 ], [ -72.172232883457099, -35.591825664699229 ], [ -72.172372080105333, -35.592020296206606 ], [ -72.172502334024898, -35.592219666671966 ], [ -72.172622743307258, -35.592423725656182 ], [ -72.172739447039078, -35.592632386195213 ], [ -72.172858144132533, -35.592836563927094 ], [ -72.172985780361358, -35.593035927976665 ], [ -72.173123894539671, -35.593235091377508 ], [ -72.173263905061518, -35.593429625956567 ], [ -72.173395793016596, -35.5936244486021 ], [ -72.173514222412066, -35.593828632569348 ], [ -72.173625242503078, -35.594037441385197 ], [ -72.173737436692178, -35.59424621897648 ], [ -72.173858396641819, -35.594450336345759 ], [ -72.173985047418782, -35.594649799372455 ], [ -72.174114857570601, -35.594849105581936 ], [ -72.174246476929397, -35.595048438322429 ], [ -72.174378998196744, -35.595247746461233 ], [ -72.174524520781191, -35.595446637009694 ], [ -72.174660567037719, -35.595641274322347 ], [ -72.174742156523394, -35.595850858539649 ], [ -72.174798909388102, -35.596074681731665 ], [ -72.174884563750439, -35.596288734466668 ], [ -72.174993065863717, -35.596497682955615 ], [ -72.175100570847007, -35.59671108591899 ], [ -72.175185141841126, -35.596925168361317 ], [ -72.17524144644652, -35.59714442544751 ], [ -72.175282220078941, -35.597368669410734 ], [ -72.175317035186097, -35.597593070521263 ], [ -72.17535464674873, -35.597821901125776 ], [ -72.175384220186203, -35.598046365244244 ], [ -72.175434115312015, -35.598270368558076 ], [ -72.175499993263372, -35.598489373611443 ], [ -72.175571201817647, -35.598708310865661 ], [ -72.175643852167923, -35.598927136495568 ], [ -72.175713529992933, -35.599141610363624 ], [ -72.175779229179554, -35.599360619606749 ], [ -72.175843934829473, -35.599584232117145 ], [ -72.175910540416211, -35.599803290548181 ], [ -72.175979220212952, -35.600022219825576 ], [ -72.176047813771405, -35.600241226658859 ], [ -72.176114056438777, -35.600464797996693 ], [ -72.176174972096504, -35.600683932902214 ], [ -72.176229208780114, -35.600903317008793 ], [ -72.176276850032878, -35.601127379524094 ], [ -72.176318891188174, -35.601351515183318 ], [ -72.176355246007716, -35.601575875179968 ], [ -72.176386905333274, -35.601800358716361 ], [ -72.176414949838147, -35.602024864265523 ], [ -72.176440921031315, -35.602249498465675 ], [ -72.176466167284062, -35.60247407725538 ], [ -72.176490240337046, -35.60270326494517 ], [ -72.176510522499541, -35.602928047702164 ], [ -72.176532695615691, -35.603157211449648 ], [ -72.176561198261325, -35.603377274612114 ], [ -72.176591322366079, -35.60360630268169 ], [ -72.176623071523167, -35.603830709674803 ], [ -72.176661325381232, -35.604055019627943 ], [ -72.176709783202583, -35.604274482869016 ], [ -72.176771427394016, -35.604498174407219 ], [ -72.176845448573431, -35.604717110560841 ], [ -72.176933734101226, -35.604931018938707 ], [ -72.177038279135687, -35.605139994529772 ], [ -72.177157817052233, -35.605344070969736 ], [ -72.177286843873119, -35.605548044637409 ], [ -72.177423818089324, -35.605742653732079 ], [ -72.177566933188828, -35.605937100212017 ], [ -72.177715019565099, -35.606131489981287 ], [ -72.17786942918265, -35.606316632150573 ], [ -72.178038836173869, -35.606496946932154 ], [ -72.178219715549602, -35.606667879103611 ], [ -72.178408545015571, -35.606834097176531 ], [ -72.178603156937044, -35.60699565960882 ], [ -72.178802020584754, -35.607152678903475 ], [ -72.17900304827397, -35.607309567156584 ], [ -72.179204167591351, -35.607466452180631 ], [ -72.179403210003812, -35.607623393134105 ], [ -72.179598824445137, -35.607780496647706 ], [ -72.17979280934253, -35.607942072506269 ], [ -72.179986976597931, -35.608103644386766 ], [ -72.180183762442383, -35.608265145827808 ], [ -72.180387059276029, -35.608417542474974 ], [ -72.180599384178265, -35.608565048457528 ], [ -72.180812077389774, -35.608712692202637 ], [ -72.181023053920754, -35.608855803915652 ], [ -72.18123393882361, -35.609003420832018 ], [ -72.181445095915961, -35.609151030172598 ], [ -72.181657156713513, -35.609298615139757 ], [ -72.181870755426814, -35.609441656422902 ], [ -72.182086793964444, -35.609584632450606 ], [ -72.182307351027944, -35.609722983760108 ], [ -72.1825388423851, -35.609847537419192 ], [ -72.182774130022636, -35.60996748542437 ], [ -72.183004268516967, -35.61009207229791 ], [ -72.183220672668909, -35.610235036938619 ], [ -72.18343066105308, -35.610382673219853 ], [ -72.183641916061816, -35.610534853308877 ], [ -72.183849645183059, -35.610686979064511 ], [ -72.184049699098523, -35.610848461414513 ], [ -72.184237378720937, -35.611014773777136 ], [ -72.184408342492546, -35.611190387133448 ], [ -72.184556366885076, -35.611375688490156 ], [ -72.184667539689684, -35.611580125137152 ], [ -72.184751612118816, -35.611794138589353 ], [ -72.184823761209174, -35.61201754838298 ], [ -72.18489951883204, -35.612240788120971 ], [ -72.18499343949162, -35.612454613577349 ], [ -72.18511888023788, -35.612658526029037 ], [ -72.185269617542545, -35.612848331418668 ], [ -72.185432547680591, -35.613033236762789 ], [ -72.185593859054478, -35.613213754035911 ], [ -72.185752634484302, -35.613403273291674 ], [ -72.185914032096463, -35.613588217519343 ], [ -72.186081759238107, -35.613764062572066 ], [ -72.186260324553643, -35.61393962023287 ], [ -72.18645939391557, -35.614096472537362 ], [ -72.186669219704683, -35.614244107534439 ], [ -72.186872178771765, -35.614396427065799 ], [ -72.187081190687223, -35.614557666044639 ], [ -72.187299504657474, -35.6147140826167 ], [ -72.18749812845499, -35.614880099940443 ], [ -72.187647615304797, -35.615056351111853 ], [ -72.187708493233274, -35.615257465795054 ], [ -72.187666850929986, -35.615488316227278 ], [ -72.187580778851029, -35.615720490716278 ], [ -72.187501388441163, -35.615943333804388 ], [ -72.187399966848957, -35.616157827056952 ], [ -72.187237954789154, -35.616337823897496 ], [ -72.187032516371886, -35.616482943357795 ], [ -72.186810190525591, -35.616619502340534 ], [ -72.186576579144372, -35.616747353375438 ], [ -72.18633709996773, -35.616866351911455 ], [ -72.186097078208647, -35.61698536487571 ], [ -72.185856876786517, -35.617095301202383 ], [ -72.185612614979291, -35.617200914946544 ], [ -72.185364649418148, -35.61730662640646 ], [ -72.185113615212003, -35.617403411735125 ], [ -72.184859512360845, -35.617491196478255 ], [ -72.184602611257588, -35.617579129367883 ], [ -72.184339303369711, -35.617649143779964 ], [ -72.184071488634046, -35.617705839664431 ], [ -72.183802674073476, -35.617766992277382 ], [ -72.183535038102576, -35.617823682236221 ], [ -72.183240376316334, -35.617917039841849 ], [ -72.182981487241349, -35.617995941180922 ], [ -72.182731260620642, -35.618092700846688 ], [ -72.182481213662982, -35.618193958034546 ], [ -72.182235044732408, -35.61830411907863 ], [ -72.182002503244718, -35.618427355875433 ], [ -72.181792623556674, -35.618572583272787 ], [ -72.181598905458912, -35.618730967319031 ], [ -72.181417638909323, -35.618906963180606 ], [ -72.181248292105209, -35.619087145158709 ], [ -72.181091675327011, -35.619275998389199 ], [ -72.180949234862297, -35.619468980698571 ], [ -72.180824587328402, -35.61967057208728 ], [ -72.180711043869763, -35.619876374988735 ], [ -72.180600747820847, -35.620086520082886 ], [ -72.180486120993976, -35.620292349662861 ], [ -72.180366884013054, -35.620498228368973 ], [ -72.180252161964745, -35.620703986787014 ], [ -72.180128953531963, -35.620910043339698 ], [ -72.179982268527539, -35.621098706787429 ], [ -72.179805238432792, -35.621270010113456 ], [ -72.179607267710495, -35.621424000894045 ], [ -72.179397096968287, -35.621578165171371 ], [ -72.179181786964364, -35.621723606643954 ], [ -72.178968458643951, -35.621868847041156 ], [ -72.178748453146042, -35.622009908126174 ], [ -72.178522667887577, -35.622142040578836 ], [ -72.178299498523231, -35.622274028960284 ], [ -72.178086352560825, -35.622419411480138 ], [ -72.177889455325271, -35.622577800321331 ], [ -72.177705193792519, -35.622749365546241 ], [ -72.177527615725452, -35.622920754422069 ], [ -72.177351389622913, -35.623096610355311 ], [ -72.177171103135279, -35.623268143798342 ], [ -72.176981332234888, -35.623435350397656 ], [ -72.176779554452409, -35.6235893632958 ], [ -72.176570100565812, -35.623739073534729 ], [ -72.176356043711692, -35.623879899846237 ], [ -72.17614026838045, -35.624025274335011 ], [ -72.175926387596135, -35.624170598175645 ], [ -72.175716481856966, -35.624315816603556 ], [ -72.175515331098538, -35.624469811011224 ], [ -72.175328802218004, -35.624641432052684 ], [ -72.175149139161164, -35.624817449225574 ], [ -72.174966583529155, -35.624988966563727 ], [ -72.174770669050517, -35.625142820938592 ], [ -72.174530340965916, -35.625248309414978 ], [ -72.174257698683931, -35.625309541692452 ], [ -72.173840627965504, -35.625207881686805 ], [ -72.173572755737666, -35.625147394126543 ], [ -72.173300705445442, -35.625118466134388 ], [ -72.173023864437809, -35.625103248941706 ], [ -72.172744844117304, -35.625106100340098 ], [ -72.172466270259491, -35.625117947698428 ], [ -72.172190847691709, -35.625143221083412 ], [ -72.171919931073376, -35.625186388520603 ], [ -72.171651448889463, -35.625243075410509 ], [ -72.171383862325897, -35.625304168955928 ], [ -72.171115733179889, -35.6253652741377 ], [ -72.170844812968312, -35.625412943069243 ], [ -72.170567492260304, -35.62544284064527 ], [ -72.170290168857363, -35.6254726630007 ], [ -72.170020425438793, -35.625515795211008 ], [ -72.169762490374637, -35.625599221324471 ], [ -72.169528458581865, -35.625731553758371 ], [ -72.169351401537682, -35.625898414210184 ], [ -72.169196823036856, -35.62608727253015 ], [ -72.169054973663606, -35.62628472974454 ], [ -72.168926486730214, -35.626490914301165 ], [ -72.168811821275753, -35.626692157947637 ], [ -72.168797948592825, -35.626913264774181 ], [ -72.168787508372603, -35.627138858633053 ], [ -72.168750240864725, -35.627365158660915 ], [ -72.168708635392349, -35.62758699598573 ], [ -72.168665134474693, -35.627813459762841 ], [ -72.168621635353688, -35.628035420701927 ], [ -72.168617235405421, -35.628061375868654 ], [ -72.168179374078065, -35.628440929151687 ], [ -72.166907049716997, -35.629837404234138 ], [ -72.166007454333595, -35.630576897324687 ], [ -72.164876695478128, -35.631263475790831 ], [ -72.162944697779722, -35.631550809107281 ], [ -72.16089462462206, -35.631882778615065 ], [ -72.158076326606462, -35.632529443877544 ], [ -72.156130825432712, -35.63319671586504 ], [ -72.153928983704418, -35.634523452902457 ], [ -72.1520946382673, -35.63533584313609 ], [ -72.150425732861095, -35.634773352332701 ], [ -72.149811780178482, -35.635662206585366 ], [ -72.148997821191102, -35.63725942065998 ], [ -72.148423485110854, -35.638672141197176 ], [ -72.148306351984331, -35.639424992974753 ], [ -72.14827922016778, -35.639473395263892 ], [ -72.148165118855346, -35.639679256700305 ], [ -72.14804821120596, -35.639885044600717 ], [ -72.147923898743684, -35.640086521727788 ], [ -72.147773850446839, -35.64027523556009 ], [ -72.147620182837699, -35.640463896382997 ], [ -72.147502826928971, -35.640669843603781 ], [ -72.14739241948898, -35.640875460312259 ], [ -72.147286616813133, -35.64108545968601 ], [ -72.147183255758222, -35.641295469458548 ], [ -72.147079803973497, -35.641505481599303 ], [ -72.14696731334034, -35.641715655257023 ], [ -72.146853105128372, -35.641925875084304 ], [ -72.146750374690811, -35.642135867317357 ], [ -72.146671306776142, -35.642354248550646 ], [ -72.146630460380166, -35.642567126205016 ], [ -72.146636941724935, -35.642792202825873 ], [ -72.146667633564931, -35.64302115015122 ], [ -72.146697695685916, -35.643250187343774 ], [ -72.146711496503627, -35.643475072964335 ], [ -72.146725299117961, -35.643704608920665 ], [ -72.146739461058417, -35.64392948523205 ], [ -72.146752994178172, -35.644154451432726 ], [ -72.146764716294314, -35.644379390719394 ], [ -72.146773908754611, -35.644608973718725 ], [ -72.146778765047046, -35.644834093498638 ], [ -72.146777573880968, -35.645059517788198 ], [ -72.146764904940525, -35.645285169204008 ], [ -72.146738589692589, -35.64551110322455 ], [ -72.146697275274363, -35.645737430077872 ], [ -72.146635277146714, -35.645959868304097 ], [ -72.146553404691716, -35.646178321575803 ], [ -72.146455729074248, -35.646383605100652 ], [ -72.14634513119141, -35.646593803156783 ], [ -72.146226492488481, -35.646799633839137 ], [ -72.146105326824625, -35.647005605609557 ], [ -72.145987771489928, -35.647211408221303 ], [ -72.145879793094451, -35.647416959917109 ], [ -72.14578771128626, -35.647631177476697 ], [ -72.145748656130962, -35.647857518763708 ], [ -72.14574356627655, -35.648087401280726 ], [ -72.145708218468457, -35.648313718645788 ], [ -72.145603314107873, -35.648514686894877 ], [ -72.145485123664272, -35.648720506058439 ], [ -72.145360610877674, -35.648921985725984 ], [ -72.145229955411196, -35.649123700666415 ], [ -72.145093698948884, -35.64932556182152 ], [ -72.144951748964317, -35.649522993747304 ], [ -72.144804744159657, -35.649716054873949 ], [ -72.144652951334507, -35.649909314814472 ], [ -72.144496464812022, -35.650093616177514 ], [ -72.144333299315392, -35.650269084578525 ], [ -72.144112079295198, -35.650396533610547 ], [ -72.143852481449457, -35.650497963031043 ], [ -72.143609858169313, -35.65061245858319 ], [ -72.143380140086535, -35.650740053788851 ], [ -72.143149519196911, -35.650867745144922 ], [ -72.142919350159872, -35.65099542461757 ], [ -72.142691258027767, -35.651123049869554 ], [ -72.142466861564742, -35.651259584720918 ], [ -72.142247072560806, -35.651395998166954 ], [ -72.142033785562901, -35.651536745824309 ], [ -72.141834756625187, -35.651695134636498 ], [ -72.141661641388453, -35.65187543687901 ], [ -72.141506223861157, -35.652064210460829 ], [ -72.141358667490906, -35.652252778482328 ], [ -72.141212823309587, -35.652445804543746 ], [ -72.141067881036804, -35.652638807510542 ], [ -72.140924744377742, -35.652836340738155 ], [ -72.140783599283665, -35.653029317943449 ], [ -72.140645158118616, -35.65322665385284 ], [ -72.140510061381349, -35.65342397613594 ], [ -72.140378575871523, -35.653621130047398 ], [ -72.140251333104771, -35.653822676916683 ], [ -72.140136828448775, -35.654028469265214 ], [ -72.140053215058771, -35.654246963976476 ], [ -72.139984959266855, -35.654464985099601 ], [ -72.139917244260729, -35.654687569826145 ], [ -72.139854138510344, -35.654905455441387 ], [ -72.139795188366449, -35.655127810476259 ], [ -72.139736961366353, -35.655350147374136 ], [ -72.139676018759161, -35.655572480003507 ], [ -72.139608849030424, -35.655790546412341 ], [ -72.13953209787087, -35.656008788863879 ], [ -72.139446315947751, -35.656222836671468 ], [ -72.139354386853157, -35.656436972223936 ], [ -72.139258302152044, -35.656651288218313 ], [ -72.139159056279468, -35.656861111093846 ], [ -72.139058999228169, -35.657071027575149 ], [ -72.138959298808061, -35.657285439674304 ], [ -72.138861768717661, -35.657495216360068 ], [ -72.138766856318, -35.657709501778626 ], [ -72.138664621750451, -35.657923905594529 ], [ -72.138559773085433, -35.658133947012999 ], [ -72.138461422833174, -35.658348248964842 ], [ -72.1383781633794, -35.65856215620321 ], [ -72.138319212337194, -35.658780007891572 ], [ -72.138281220787192, -35.659001815675808 ], [ -72.138253437692086, -35.659227861256596 ], [ -72.13823487041347, -35.659453664607916 ], [ -72.138224525414671, -35.659679181209484 ], [ -72.138221946351479, -35.659908998319743 ], [ -72.138225792039208, -35.660134218037371 ], [ -72.138235325859327, -35.660363792981144 ], [ -72.138250466065116, -35.66058864429273 ], [ -72.138277446964693, -35.660813260684399 ], [ -72.138315181596511, -35.661037596906525 ], [ -72.138360414466007, -35.661261663179616 ], [ -72.1384098083319, -35.661485695250413 ], [ -72.13846037449926, -35.661709622323038 ], [ -72.138508955389824, -35.661933674302816 ], [ -72.138554196344145, -35.66215331077229 ], [ -72.138602597571662, -35.662377368075703 ], [ -72.138653347893637, -35.662601364902777 ], [ -72.138703829619331, -35.662820790799401 ], [ -72.138752322475014, -35.663044844770077 ], [ -72.138796834895658, -35.663268929495288 ], [ -72.138835115703174, -35.663493250789934 ], [ -72.138867883549793, -35.663717715962385 ], [ -72.138897576463194, -35.663942187802171 ], [ -72.138923747082373, -35.664166824683356 ], [ -72.138946028894665, -35.664391490125823 ], [ -72.138964064370626, -35.664620916351005 ], [ -72.138976948906745, -35.66484582573807 ], [ -72.138984231548761, -35.66507095562897 ], [ -72.138976151202769, -35.66529648701831 ], [ -72.138949630240646, -35.665522425011389 ], [ -72.138915337054669, -35.665748565984948 ], [ -72.138878918454736, -35.665959701983859 ], [ -72.136922794702755, -35.663272776497422 ], [ -72.126071942876251, -35.645855924834535 ], [ -72.123467165420536, -35.645851438241586 ], [ -72.091192895439619, -35.645779084777885 ], [ -72.091090229680745, -35.645795306898194 ], [ -72.090838355549806, -35.645887417118367 ], [ -72.090595463673395, -35.646010748637174 ], [ -72.090357886230194, -35.646147599556059 ], [ -72.090122025467522, -35.646279755622125 ], [ -72.089885917668127, -35.646398480253559 ], [ -72.089654320309791, -35.646521592714613 ], [ -72.089426690810058, -35.646649106125011 ], [ -72.089201662831371, -35.646785485834542 ], [ -72.088977098383396, -35.646917497036952 ], [ -72.088751718265129, -35.647049455461875 ], [ -72.088523081753976, -35.647181423158699 ], [ -72.088288858620047, -35.6473046001123 ], [ -72.088052379816432, -35.647427909003724 ], [ -72.0878165271386, -35.647551053457853 ], [ -72.087584015295278, -35.64767411085392 ], [ -72.087358273155971, -35.647806149787307 ], [ -72.087141998361417, -35.647946878950371 ], [ -72.086938177809984, -35.64809629391727 ], [ -72.086750148742908, -35.648258814669035 ], [ -72.086578091721606, -35.648434510473699 ], [ -72.086419473496946, -35.648623298026955 ], [ -72.08627159912308, -35.648816313149574 ], [ -72.086131755687845, -35.649018202820415 ], [ -72.08599742701017, -35.649215373446097 ], [ -72.085865627988298, -35.649412478617847 ], [ -72.085737431210745, -35.649618572856049 ], [ -72.085615112110077, -35.649819938573792 ], [ -72.085501362038897, -35.650030091820362 ], [ -72.085398548058009, -35.650240037934807 ], [ -72.085309460334656, -35.650454136240441 ], [ -72.085238800651041, -35.650672264800804 ], [ -72.085204816485529, -35.650893882685537 ], [ -72.085196936463845, -35.651123912675111 ], [ -72.085197096363956, -35.651353662430743 ], [ -72.085186963367576, -35.651579246432156 ], [ -72.085148917020334, -35.651801042827564 ], [ -72.085085933440823, -35.652018899819844 ], [ -72.085009758999675, -35.652237170826027 ], [ -72.084923911499558, -35.652455614961887 ], [ -72.084831749741298, -35.652669791272224 ], [ -72.084737052937285, -35.652883958978961 ], [ -72.084637758555672, -35.653093814379943 ], [ -72.084513353566919, -35.653295232651566 ], [ -72.084392467279145, -35.653501137308815 ], [ -72.084309869883711, -35.653719498425531 ], [ -72.084263506035271, -35.653941507856423 ], [ -72.084238731398059, -35.654167467030575 ], [ -72.084225253973855, -35.654393136515523 ], [ -72.08422713594436, -35.654618337482866 ], [ -72.084243028040049, -35.654843254606263 ], [ -72.084271026730846, -35.655067787159453 ], [ -72.084307165056387, -35.65529225849842 ], [ -72.084347816517962, -35.655516467167431 ], [ -72.084389100393466, -35.65574065914894 ], [ -72.084427397370661, -35.65596950440532 ], [ -72.084461722895981, -35.65619387467239 ], [ -72.084494696456787, -35.656418353794962 ], [ -72.084528212600034, -35.656642817688471 ], [ -72.084564617725249, -35.656867134240962 ], [ -72.08460789675901, -35.65709142315707 ], [ -72.084676565775951, -35.65731491293559 ], [ -72.084738283629235, -35.657534076728837 ], [ -72.084752102413262, -35.657759120671223 ], [ -72.084746658622635, -35.657989014106683 ], [ -72.084729831380727, -35.65821927255481 ], [ -72.084694845593674, -35.658445492604031 ], [ -72.08463511122055, -35.658663267972727 ], [ -72.084540153006799, -35.65886843474663 ], [ -72.084385945510178, -35.659052603035626 ], [ -72.084195704790901, -35.659224257839512 ], [ -72.084001582451251, -35.659391435200469 ], [ -72.083823973841476, -35.659571698902546 ], [ -72.083644574889362, -35.659743074508128 ], [ -72.083464088975745, -35.659914405223645 ], [ -72.083285131096403, -35.660090199468861 ], [ -72.083109254438511, -35.660261485647403 ], [ -72.082933996719831, -35.660437109798949 ], [ -72.082759286973484, -35.660612868589709 ], [ -72.082586471774079, -35.660788504376157 ], [ -72.08241798555602, -35.660968532827695 ], [ -72.082255093147225, -35.661152920340946 ], [ -72.082104661269753, -35.661346070134385 ], [ -72.081964708240051, -35.661538877886649 ], [ -72.081825924816883, -35.661736232182392 ], [ -72.081678559787775, -35.66192922875495 ], [ -72.081514681028807, -35.662109212303079 ], [ -72.081342218867292, -35.662284763054807 ], [ -72.08116497048195, -35.662460584924872 ], [ -72.080984563620078, -35.662631909079792 ], [ -72.080802528112585, -35.662803274468367 ], [ -72.080620493503417, -35.662974640948839 ], [ -72.080440168388222, -35.663150540122949 ], [ -72.080262741238144, -35.663321786893782 ], [ -72.08009045873969, -35.663497480217835 ], [ -72.079924664772548, -35.663681939983924 ], [ -72.079765561457634, -35.663866300795782 ], [ -72.079610061285322, -35.664055000055669 ], [ -72.079459794697854, -35.664248069115693 ], [ -72.0793168403968, -35.664445453206739 ], [ -72.079183469323198, -35.664642666759327 ], [ -72.079061827552252, -35.664848512236858 ], [ -72.078953927310224, -35.665054081309179 ], [ -72.078860739675903, -35.665268205587324 ], [ -72.078778662405028, -35.665486622838131 ], [ -72.078710764142599, -35.66570910751178 ], [ -72.078660395604601, -35.665935720149186 ], [ -72.078631077288691, -35.666166297966093 ], [ -72.078625896704438, -35.666391681028131 ], [ -72.078648208161155, -35.666607353300051 ], [ -72.078697180717185, -35.666826995158146 ], [ -72.078768374000092, -35.667050423387742 ], [ -72.078857030532092, -35.667264470790556 ], [ -72.078959053097222, -35.667482606713818 ], [ -72.079069590792926, -35.667691590317972 ], [ -72.079184740439331, -35.6679004573367 ], [ -72.079306228598327, -35.668100079448287 ], [ -72.079441004637047, -35.668299363164699 ], [ -72.079587361756396, -35.668493918770537 ], [ -72.079743759345689, -35.668683714919261 ], [ -72.079908929882023, -35.668868707857328 ], [ -72.080080896173484, -35.669044519607098 ], [ -72.080260918556434, -35.669215695352683 ], [ -72.080449080574169, -35.669382084787756 ], [ -72.080643668241123, -35.66954380689733 ], [ -72.080842785213733, -35.669700907686142 ], [ -72.081045067849402, -35.669858001597724 ], [ -72.081247982000733, -35.670015004707274 ], [ -72.081450173906561, -35.670172027212054 ], [ -72.081651741483284, -35.670324560540863 ], [ -72.081857285901748, -35.670476992139172 ], [ -72.082065099464629, -35.670624861618592 ], [ -72.082273455609936, -35.670772716958368 ], [ -72.082480539740814, -35.67092510756337 ], [ -72.082684192307312, -35.671077659886684 ], [ -72.082882675967639, -35.671239277123007 ], [ -72.08307600419657, -35.671405603958512 ], [ -72.083265269345475, -35.671567456975339 ], [ -72.083452178213363, -35.671733874347716 ], [ -72.083637363214251, -35.671904837802977 ], [ -72.083821375913672, -35.672075905977827 ], [ -72.084004851420588, -35.672242409131677 ], [ -72.084189134512897, -35.672413396309501 ], [ -72.084374510854943, -35.672579849865521 ], [ -72.037216650514466, -35.67135534770064 ], [ -72.03207802208631, -35.671228639263724 ], [ -72.033233231287156, -35.672336783946676 ], [ -72.033682441031516, -35.672622915052742 ], [ -72.033931113566794, -35.672616643517081 ], [ -72.034266472628644, -35.672608185627276 ], [ -72.034619954303054, -35.672301884624098 ], [ -72.03479456613303, -35.671991087833973 ], [ -72.034825330736581, -35.671936194296435 ], [ -72.034995916317456, -35.67190125247236 ], [ -72.035477776229115, -35.671802566421007 ], [ -72.035895028407225, -35.671691777080234 ], [ -72.035984157453086, -35.671668117334889 ], [ -72.036641037029867, -35.671651537775652 ], [ -72.037083595647843, -35.671762035995904 ], [ -72.037384427063472, -35.671993204876998 ], [ -72.037398007793911, -35.672348939558951 ], [ -72.03726319851755, -35.672649727795935 ], [ -72.037185362193128, -35.672703964061718 ], [ -72.036907506987546, -35.672897471220729 ], [ -72.036701971552219, -35.673258738498212 ], [ -72.036686816973386, -35.673350668905954 ], [ -72.036642497690522, -35.673620747024266 ], [ -72.036521347298049, -35.674277120094068 ], [ -72.03668755628685, -35.674809145709887 ], [ -72.036641829343949, -35.675209199910924 ], [ -72.036632703358976, -35.675288279662979 ], [ -72.03675656396868, -35.675476517734019 ], [ -72.037020427015392, -35.675877762424221 ], [ -72.037046899468493, -35.676575813947238 ], [ -72.037049621363806, -35.676647580544682 ], [ -72.037070269140614, -35.676688625130801 ], [ -72.037286663411081, -35.677119270570373 ], [ -72.037738302199955, -35.677468299692222 ], [ -72.037899917204413, -35.677878769570547 ], [ -72.037977572967463, -35.677998552004901 ], [ -72.038422217473553, -35.678163035379555 ], [ -72.038586230081478, -35.678636566243512 ], [ -72.03868928301425, -35.67879365570252 ], [ -72.03881893596089, -35.678991195008308 ], [ -72.03904907176026, -35.679282764765723 ], [ -72.039576624478855, -35.679745558860432 ], [ -72.039578309718323, -35.679747067134421 ], [ -72.039737718460444, -35.680099042192658 ], [ -72.039835712979851, -35.6807543827464 ], [ -72.039639320597473, -35.68135426025065 ], [ -72.039730390902676, -35.681829559876526 ], [ -72.039604635746045, -35.682368958058532 ], [ -72.039321778720947, -35.682614942732897 ], [ -72.039118540277812, -35.68303462876905 ], [ -72.03906592146005, -35.683572252303911 ], [ -72.038862850103541, -35.683996436725572 ], [ -72.038885404105386, -35.68459063362382 ], [ -72.03912931916291, -35.685242361310664 ], [ -72.039087942760915, -35.685663789764952 ], [ -72.039076517088816, -35.685779989668717 ], [ -72.039094630718211, -35.686257132978334 ], [ -72.038969142361225, -35.686796597537601 ], [ -72.038984864675342, -35.687210749996808 ], [ -72.039005110905208, -35.687746458594724 ], [ -72.039385904059188, -35.68815596430963 ], [ -72.039625307777357, -35.688686060232726 ], [ -72.039637897666083, -35.689017604059011 ], [ -72.039641205262939, -35.689104711852039 ], [ -72.039859218297565, -35.689271592432085 ], [ -72.040017573315865, -35.689392657188023 ], [ -72.040320800538311, -35.689682448105813 ], [ -72.040843186147399, -35.689966625167216 ], [ -72.041436226948505, -35.690190466503566 ], [ -72.041887792075514, -35.690535050671272 ], [ -72.041981201593728, -35.691068833447098 ], [ -72.042371096478163, -35.691716934712488 ], [ -72.042672293508105, -35.691948077887957 ], [ -72.043050637854634, -35.692294508319108 ], [ -72.043349704979008, -35.692467157549061 ], [ -72.043433969647609, -35.692762482053723 ], [ -72.043296931651014, -35.693004786095962 ], [ -72.043093262914851, -35.693182329928867 ], [ -72.042801908725508, -35.693436364135287 ], [ -72.042427923903048, -35.693759450078282 ], [ -72.042377363125595, -35.693803107184173 ], [ -72.042167353181839, -35.694047256044207 ], [ -72.042107996101123, -35.694404760077283 ], [ -72.04227197726803, -35.694878212052636 ], [ -72.04243161418222, -35.695230176530387 ], [ -72.042668750552608, -35.695701850078343 ], [ -72.043273317637144, -35.69622277220526 ], [ -72.043616837893367, -35.69645963285457 ], [ -72.044023650749565, -35.696740001661553 ], [ -72.044614705375594, -35.696905329135419 ], [ -72.045214567982981, -35.697309193779382 ], [ -72.045323254250889, -35.697392082394167 ], [ -72.04566618790723, -35.697653685181301 ], [ -72.045825754752826, -35.698005646893343 ], [ -72.045839463942386, -35.698365805420558 ], [ -72.046307034352822, -35.699129016736698 ], [ -72.046774613746408, -35.699892225854441 ], [ -72.04686799092525, -35.700190934030012 ], [ -72.046941050008982, -35.700424300974127 ], [ -72.047244341910158, -35.700713998555102 ], [ -72.047371878425977, -35.700830590159647 ], [ -72.047623021328292, -35.701060404038593 ], [ -72.048081535822334, -35.701585001359597 ], [ -72.04824220220587, -35.701708726846263 ], [ -72.048608478584853, -35.701990695203634 ], [ -72.048909554342231, -35.702221898328915 ], [ -72.049145736701789, -35.702336766871802 ], [ -72.049574938269799, -35.702545449833181 ], [ -72.049728765779065, -35.702620250332828 ], [ -72.050616228516233, -35.7028950483204 ], [ -72.051711472476939, -35.702867333160796 ], [ -72.052076237889622, -35.702829281973713 ], [ -72.052512229822881, -35.702783884889371 ], [ -72.053018849998722, -35.702653858340312 ], [ -72.053596128061542, -35.702458985535799 ], [ -72.05432621943568, -35.702440370546981 ], [ -72.055211465130725, -35.702656791590456 ], [ -72.055441912645506, -35.702948317161244 ], [ -72.055676914618772, -35.703361396581251 ], [ -72.055758552613483, -35.703695390248051 ], [ -72.055763381956453, -35.70371520127965 ], [ -72.056146754173611, -35.704183129149293 ], [ -72.056815331612029, -35.704463516755943 ], [ -72.057687007356407, -35.704324189318513 ], [ -72.057693137459907, -35.704323516020025 ], [ -72.058341906147987, -35.704248988480565 ], [ -72.058711526056484, -35.704356753469632 ], [ -72.059811334357136, -35.704450368126516 ], [ -72.060116928640383, -35.7047985934351 ], [ -72.060420374153466, -35.705088251049915 ], [ -72.060575543745756, -35.705323137710636 ], [ -72.060443018885152, -35.705682510387113 ], [ -72.060251594186312, -35.705850986606528 ], [ -72.060089588414712, -35.705993464068065 ], [ -72.059884170658691, -35.706354617225266 ], [ -72.059897775643677, -35.706710271644084 ], [ -72.060123773802843, -35.706884735886199 ], [ -72.060137317702385, -35.70690041236675 ], [ -72.060276527825337, -35.707061137875037 ], [ -72.059925157191842, -35.707426080008013 ], [ -72.059936521778496, -35.707723171974443 ], [ -72.059801840062903, -35.708023979298012 ], [ -72.059730673729447, -35.708127599653679 ], [ -72.059594089382088, -35.708326646264553 ], [ -72.059238054695641, -35.708574613709835 ], [ -72.059099073643097, -35.7087583645826 ], [ -72.05955323130803, -35.709165860069568 ], [ -72.060093945243835, -35.70932057641032 ], [ -72.060883424241396, -35.709546552410039 ], [ -72.060960968613344, -35.709666321574609 ], [ -72.061483465613506, -35.709950400434707 ], [ -72.061784790204214, -35.710181562240486 ], [ -72.061862156709736, -35.710296684091304 ], [ -72.062022085576416, -35.710653114519388 ], [ -72.062110925364749, -35.711065472750505 ], [ -72.062270765298194, -35.711421904846475 ], [ -72.062562777054339, -35.711414394188267 ], [ -72.063003175224054, -35.711461795860856 ], [ -72.063231348204539, -35.711694817629748 ], [ -72.06339809977581, -35.712226784074019 ], [ -72.063340800735389, -35.712642789872952 ], [ -72.063137707819337, -35.713067013697689 ], [ -72.062930049664999, -35.71336968412546 ], [ -72.062870859670909, -35.713731695166445 ], [ -72.062815983386841, -35.714206332128668 ], [ -72.062699576997389, -35.714984272407875 ], [ -72.062861670803883, -35.715399193103579 ], [ -72.062946036982112, -35.715694498314896 ], [ -72.063356798832302, -35.714967603385844 ], [ -72.063559973495046, -35.714547808225362 ], [ -72.063842857469595, -35.714301764493719 ], [ -72.06411678074916, -35.713817189560345 ], [ -72.064532177007919, -35.713211768533704 ], [ -72.064812812499312, -35.712907236105636 ], [ -72.065246224471053, -35.712774444904021 ], [ -72.065520222310823, -35.71228979066214 ], [ -72.065862351974985, -35.711686307719091 ], [ -72.06651739000543, -35.711611057662417 ], [ -72.066813978677942, -35.711720584411118 ], [ -72.067188214130383, -35.711949873095456 ], [ -72.067792976149306, -35.712470732101366 ], [ -72.068605378356295, -35.712688836335971 ], [ -72.069474787651188, -35.712486356425806 ], [ -72.070042921762749, -35.712057306739347 ], [ -72.070328206035725, -35.711869807069924 ], [ -72.071126857730661, -35.71173217165542 ], [ -72.071779375986736, -35.711593835048916 ], [ -72.072354418142822, -35.711340383131038 ], [ -72.072941040481226, -35.711388442039578 ], [ -72.073458827614374, -35.711550917814485 ], [ -72.0739860542445, -35.711956562401447 ], [ -72.074152697119615, -35.712488514699047 ], [ -72.07395200270534, -35.712971239959096 ], [ -72.073899703687829, -35.713508863004989 ], [ -72.074289797099951, -35.71415226776611 ], [ -72.074698728183577, -35.714218887624163 ], [ -72.07620219086391, -35.71446385724277 ], [ -72.076316303854455, -35.714491058537817 ], [ -72.076644858178028, -35.714569621608234 ], [ -72.076862091474979, -35.71461825185694 ], [ -72.07760335878956, -35.714783924448291 ], [ -72.078340572905589, -35.714945340090402 ], [ -72.079081773744818, -35.715125548320025 ], [ -72.079447390760407, -35.715214375158943 ], [ -72.080195876038289, -35.715672869039523 ], [ -72.080236911978787, -35.7157041543567 ], [ -72.081024389529887, -35.716305091320507 ], [ -72.081816824883035, -35.716745468343291 ], [ -72.081845964434223, -35.716761627175266 ], [ -72.0818491363855, -35.716766418299301 ], [ -72.082001216671529, -35.716996407231044 ], [ -72.082090340327497, -35.717413242198695 ], [ -72.082106303390091, -35.717827376413453 ], [ -72.082414657297889, -35.718238591844688 ], [ -72.083078832991404, -35.71840177642872 ], [ -72.084171729654287, -35.718310622173775 ], [ -72.084931123174655, -35.717975747435212 ], [ -72.085321720541657, -35.717803451741773 ], [ -72.085652090360441, -35.717855806963144 ], [ -72.085983641463812, -35.717908205181338 ], [ -72.087017536778816, -35.718179041929297 ], [ -72.087608642608814, -35.718344075510089 ], [ -72.087911199688079, -35.718285585404118 ], [ -72.088334257677857, -35.718203844614145 ], [ -72.088592826952606, -35.717923006470166 ], [ -72.088614810524263, -35.71789918612329 ], [ -72.0889640090314, -35.717475672878258 ], [ -72.089682559749065, -35.717155254726265 ], [ -72.090120736385089, -35.717143993560597 ], [ -72.090641028919563, -35.717369452151061 ], [ -72.091316698557122, -35.71782974532244 ], [ -72.091807350280476, -35.717981469127288 ], [ -72.092204459534969, -35.718104367618842 ], [ -72.092425042649623, -35.718187656901002 ], [ -72.093243075496801, -35.718496696150417 ], [ -72.094279262414091, -35.718825955010168 ], [ -72.094731294665053, -35.719174820591 ], [ -72.095406919386889, -35.719630588067695 ], [ -72.095702790305495, -35.719761912839004 ], [ -72.096299416282889, -35.720026650515585 ], [ -72.097100453004899, -35.71994747217002 ], [ -72.097545707467049, -35.720116214341999 ], [ -72.097714327534092, -35.72012685735114 ], [ -72.098205215514355, -35.720157840438731 ], [ -72.098558633408402, -35.719851355165687 ], [ -72.098982860106375, -35.719479846891581 ], [ -72.099440826628097, -35.719308574054274 ], [ -72.099487318037319, -35.719291134305116 ], [ -72.100064491895566, -35.719096039614428 ], [ -72.100644022933125, -35.718959427536291 ], [ -72.101454294336264, -35.719118740808092 ], [ -72.101856287730953, -35.719479057028487 ], [ -72.101908721495775, -35.719526135187749 ], [ -72.102557998630303, -35.719833779151443 ], [ -72.103079823690649, -35.719833821452305 ], [ -72.103652539210145, -35.719521662216806 ], [ -72.103996941611967, -35.718976563226022 ], [ -72.10470154149327, -35.718300494565092 ], [ -72.104989113775304, -35.718175904305618 ], [ -72.10586292571341, -35.718090211101604 ], [ -72.106301101451123, -35.7180788909914 ], [ -72.107102103138814, -35.717999647986865 ], [ -72.107601712862191, -35.717689285236254 ], [ -72.108388798747811, -35.717249895133406 ], [ -72.109107347668868, -35.716933865314481 ], [ -72.109767441417731, -35.716802583290111 ], [ -72.11012291286049, -35.716731963627069 ], [ -72.111161412939651, -35.71711963472022 ], [ -72.111585813012482, -35.717478008977046 ], [ -72.111917176367953, -35.717757875014435 ], [ -72.11301246973602, -35.717729593945499 ], [ -72.114155414238283, -35.717042047118113 ], [ -72.114499555230381, -35.716497000453074 ], [ -72.115135883150089, -35.715944234878272 ], [ -72.115991238302385, -35.715385863936476 ], [ -72.116636849412245, -35.715071755177007 ], [ -72.1172094742019, -35.714759534252913 ], [ -72.117485164467652, -35.714333343558252 ], [ -72.117468842078949, -35.713914650796369 ], [ -72.117231388603258, -35.713447649477111 ], [ -72.116991392895315, -35.712917665637349 ], [ -72.117114284222822, -35.712315150978498 ], [ -72.117599869447957, -35.711649265855286 ], [ -72.11809702766891, -35.711275802468244 ], [ -72.118808728732546, -35.710784260063129 ], [ -72.119520153115062, -35.710288143396056 ], [ -72.119583691853421, -35.710243896467517 ], [ -72.120231839805641, -35.709792090017928 ], [ -72.120491623602661, -35.709685163913541 ], [ -72.121167006677666, -35.709407246256703 ], [ -72.1216664214666, -35.70909698060931 ], [ -72.121805693573322, -35.708917508597494 ], [ -72.121999058633165, -35.708254689337068 ], [ -72.122576271118973, -35.70805941517564 ], [ -72.123080323011422, -35.707870616460269 ], [ -72.123589125195096, -35.707798854609891 ], [ -72.124383054446554, -35.707539397561632 ], [ -72.124736316932029, -35.707228265362374 ], [ -72.125447939842232, -35.706736687054914 ], [ -72.126093354221041, -35.706417956707057 ], [ -72.126668340681576, -35.706168680483621 ], [ -72.127016924741056, -35.705740574258527 ], [ -72.127000470300004, -35.705321960364863 ], [ -72.127134976844104, -35.705021013001037 ], [ -72.127554415521629, -35.704532444717294 ], [ -72.128120057706582, -35.704044648136566 ], [ -72.128767817586606, -35.703789038507779 ], [ -72.129041121926974, -35.703304267625207 ], [ -72.129336137649432, -35.703048384256356 ], [ -72.129394613482845, -35.702997619785947 ], [ -72.129407880701265, -35.702994321079053 ], [ -72.129684113549459, -35.702927037495321 ], [ -72.130119815326864, -35.702857077389424 ], [ -72.130475592196845, -35.702608986383972 ], [ -72.130388618209338, -35.702255257749407 ], [ -72.130365524320027, -35.702102224484477 ], [ -72.130289936478761, -35.701599955225817 ], [ -72.130709426360241, -35.701115951594382 ], [ -72.131142742212262, -35.700983002874011 ], [ -72.131232173092059, -35.701001714496783 ], [ -72.131658534187139, -35.701091163288083 ], [ -72.132242632259619, -35.70107602403413 ], [ -72.132826726738813, -35.701060808180102 ], [ -72.13328439412156, -35.700831021293787 ], [ -72.133328416960367, -35.700808833565226 ], [ -72.133686378533113, -35.700619294012917 ], [ -72.134270290654314, -35.700604149562878 ], [ -72.134699008030395, -35.700354071673765 ], [ -72.13511229684147, -35.700287778717453 ], [ -72.135134781673045, -35.700284166941024 ], [ -72.136006149295255, -35.700139778184159 ], [ -72.136802339606319, -35.699943304531317 ], [ -72.137885623397324, -35.699613163741255 ], [ -72.13888978627304, -35.699485814436052 ], [ -72.139049193218526, -35.69946563249097 ], [ -72.1398708920904, -35.699921838038897 ], [ -72.140820066392635, -35.699896976410557 ], [ -72.141123592754084, -35.700186496449156 ], [ -72.141215380813193, -35.700661683867736 ], [ -72.141373068383217, -35.700955011299371 ], [ -72.141459995658323, -35.701308658892664 ], [ -72.14184383679607, -35.701776288664639 ], [ -72.142159131087752, -35.702362870782537 ], [ -72.142542891377133, -35.702830500207249 ], [ -72.142919669960108, -35.703118026871238 ], [ -72.143009088263497, -35.703534802389797 ], [ -72.143020144728013, -35.703816236151241 ], [ -72.143025531924764, -35.703953338131285 ], [ -72.143112472674602, -35.704307058502387 ], [ -72.143564531875029, -35.704651232261853 ], [ -72.143662723125473, -35.70490188972542 ], [ -72.143727011957097, -35.705066023656279 ], [ -72.143688350263901, -35.705530960120583 ], [ -72.143677393512377, -35.70566214108166 ], [ -72.143733951442655, -35.705894397831941 ], [ -72.14376451751852, -35.706020358966335 ], [ -72.144289556750934, -35.706362547793326 ], [ -72.144805490659664, -35.706470720604464 ], [ -72.145676904994289, -35.706326334298019 ], [ -72.146044057230668, -35.706375272297677 ], [ -72.146425647190313, -35.706784327120047 ], [ -72.146585759313311, -35.707136128898817 ], [ -72.146307765767176, -35.707503824318422 ], [ -72.146326358198607, -35.70797649096658 ], [ -72.146571221877068, -35.708628024641321 ], [ -72.146886849443703, -35.70921451039225 ], [ -72.147710905494861, -35.709729141267559 ], [ -72.14815149859902, -35.709780727152165 ], [ -72.148669584871158, -35.709942868484774 ], [ -72.148897988718645, -35.710175714529186 ], [ -72.14919936900489, -35.710406649563865 ], [ -72.149795312262697, -35.710688412099273 ], [ -72.150313406619659, -35.710855122783698 ], [ -72.150897649320868, -35.710839738844079 ], [ -72.151486235376495, -35.71094147512828 ], [ -72.15193615029834, -35.711231631216648 ], [ -72.152597896049031, -35.7113314442934 ], [ -72.15318897852282, -35.711363193027012 ], [ -72.153330489231209, -35.711370776630353 ], [ -72.15393963682537, -35.711392303498094 ], [ -72.154281917406507, -35.711404364172488 ], [ -72.154729359266369, -35.71163152683441 ], [ -72.154766287211061, -35.711647464236172 ], [ -72.155249862904938, -35.711856622462825 ], [ -72.155772864758305, -35.712140341947496 ], [ -72.156458248777355, -35.712838760313495 ], [ -72.156901081381505, -35.712948798864545 ], [ -72.157019549404538, -35.713007776471969 ], [ -72.157124810396283, -35.713060086704544 ], [ -72.157725326078861, -35.713463353112864 ], [ -72.158628649470685, -35.713593921467073 ], [ -72.158754561832495, -35.713612096951294 ], [ -72.159779261093931, -35.71364829254891 ], [ -72.160872044569061, -35.71355644577762 ], [ -72.16160216558761, -35.713537248414895 ], [ -72.162272766930357, -35.71355578714477 ], [ -72.162772815929884, -35.713569580505514 ], [ -72.163703298087711, -35.713940217010084 ], [ -72.164035412434757, -35.714072558431013 ], [ -72.16515180004231, -35.714579371146186 ], [ -72.165969164542915, -35.714913839311031 ], [ -72.166345902701707, -35.71520128884044 ], [ -72.166384579666286, -35.715240726484588 ], [ -72.166574372126234, -35.715434098370793 ], [ -72.166672897549986, -35.715558409923737 ], [ -72.167036037910322, -35.716016680099344 ], [ -72.167356305275405, -35.71639575482434 ], [ -72.167490848650459, -35.71642373295424 ], [ -72.168006782559161, -35.716531805317679 ], [ -72.168666269046895, -35.716573042352501 ], [ -72.16925045605258, -35.716557644200122 ], [ -72.169829643933696, -35.716420709770453 ], [ -72.170708419063757, -35.716460584424979 ], [ -72.172743599052325, -35.716168066016309 ], [ -72.174722046837431, -35.716291617892011 ], [ -72.175036997074372, -35.716328408157807 ], [ -72.17516259682246, -35.716343105441936 ], [ -72.17627201619834, -35.716669713244734 ], [ -72.177183794533605, -35.716902165478615 ], [ -72.177970190513122, -35.717102487690894 ], [ -72.178714650440213, -35.717438793432407 ], [ -72.179303488024132, -35.717544814955616 ], [ -72.1802647482602, -35.717816833017281 ], [ -72.180926571265985, -35.717916484684523 ], [ -72.181303285170273, -35.718203886915873 ], [ -72.181461245828146, -35.718497149798502 ], [ -72.181765253686606, -35.718790977565838 ], [ -72.182212895870776, -35.719017955072914 ], [ -72.18301612268543, -35.718996690636956 ], [ -72.183602648005802, -35.719039704509591 ], [ -72.184266908140955, -35.719197890074611 ], [ -72.185082057396087, -35.719478168706026 ], [ -72.185897124006189, -35.719753940573945 ], [ -72.186850978531069, -35.719845820315193 ], [ -72.188151157852474, -35.719455359674015 ], [ -72.188971087941525, -35.719151526466575 ], [ -72.189015604853751, -35.719135063987807 ], [ -72.189736329494409, -35.718877118556783 ], [ -72.19060300611423, -35.71861529440762 ], [ -72.191189351771527, -35.718658350058313 ], [ -72.191745562544298, -35.718688026746783 ], [ -72.191922014123989, -35.718697442474323 ], [ -72.192433138452671, -35.718683944652931 ], [ -72.193375205284383, -35.718483146512021 ], [ -72.194093482914198, -35.718162193428334 ], [ -72.19451657773493, -35.71791677788044 ], [ -72.194736435909135, -35.717789123775155 ], [ -72.195384060143553, -35.71753308706316 ], [ -72.196099981492395, -35.717158145140466 ], [ -72.196752271576372, -35.717019064532501 ], [ -72.197180865883283, -35.716768916335397 ], [ -72.197762696607953, -35.716694824186881 ], [ -72.19863895376028, -35.71667151402098 ], [ -72.200318398201375, -35.716626818436296 ], [ -72.201936136467324, -35.716675656024975 ], [ -72.202986922804612, -35.717133655750764 ], [ -72.204098299609512, -35.717849600248485 ], [ -72.204647864645807, -35.718729932195849 ], [ -72.204261414800484, -35.720101271971885 ], [ -72.203771446695058, -35.720977123656418 ], [ -72.203990196348215, -35.721632913778734 ], [ -72.204702626843854, -35.722004384300014 ], [ -72.205613140351218, -35.722242482554371 ], [ -72.207861538167393, -35.722945412059289 ], [ -72.210580754702121, -35.723324036665723 ], [ -72.21223243581106, -35.723481897941262 ], [ -72.224060472308679, -35.724612656657911 ], [ -72.224567441030842, -35.725130595279659 ], [ -72.225613405211689, -35.725795227899773 ], [ -72.225849195905781, -35.725897127408366 ], [ -72.226436088637115, -35.726048514972476 ], [ -72.22711053207432, -35.72617303895543 ], [ -72.227694234888062, -35.726207198567479 ], [ -72.227951781880023, -35.72627381272239 ], [ -72.22821469810242, -35.726437508107729 ], [ -72.228592524121026, -35.726615096356092 ], [ -72.229560829843891, -35.726927200816156 ], [ -72.229820831931519, -35.727238175891607 ], [ -72.231179849107406, -35.727618317363465 ], [ -72.231597624105021, -35.727760346070596 ], [ -72.233656993927553, -35.728854998314652 ], [ -72.233842301099301, -35.728908112707558 ], [ -72.234084000911338, -35.729048151203408 ], [ -72.23442676837935, -35.729325292271014 ], [ -72.235443571449451, -35.729760510917039 ], [ -72.235844060166059, -35.729866446766252 ], [ -72.23633978198086, -35.730083801135407 ], [ -72.236685015324326, -35.730320930889562 ], [ -72.236882694992488, -35.730581005073368 ], [ -72.236883400169987, -35.731054420850398 ], [ -72.236822930076642, -35.731877269439323 ], [ -72.236909742367374, -35.732603280887687 ], [ -72.237035271148557, -35.732975222363571 ], [ -72.237709799027414, -35.733607223487304 ], [ -72.239060002832048, -35.734233195726439 ], [ -72.239088265627515, -35.734271486408218 ], [ -72.239991702207078, -35.735497052676571 ], [ -72.240379515694997, -35.734807342555349 ], [ -72.240574565096011, -35.73420720944592 ], [ -72.240826008035626, -35.733642467147014 ], [ -72.240976623169431, -35.733304204811311 ], [ -72.241538982012003, -35.732748352438399 ], [ -72.242181804751226, -35.732375035340738 ], [ -72.243116664399423, -35.731993909526111 ], [ -72.243465322120755, -35.73183958504297 ], [ -72.24369123763492, -35.731739584724188 ], [ -72.244185332600765, -35.731307224498686 ], [ -72.244382723909723, -35.730765639340461 ], [ -72.244655568312652, -35.73028070657837 ], [ -72.244751958440929, -35.729914152491013 ], [ -72.244782166088996, -35.729799648202601 ], [ -72.245055186561729, -35.729319139684286 ], [ -72.245400825943719, -35.728832240097255 ], [ -72.245678408061451, -35.728464262417873 ], [ -72.245883008350546, -35.728102758777339 ], [ -72.246231103726515, -35.727674333552535 ], [ -72.246871487539735, -35.727242515704397 ], [ -72.247584751671965, -35.726804148203748 ], [ -72.248300390051469, -35.726428832769763 ], [ -72.248877377958479, -35.726233035041524 ], [ -72.24906208236068, -35.726093092235388 ], [ -72.249444574228875, -35.72580318205781 ], [ -72.249938779687483, -35.725370722514143 ], [ -72.250282082551408, -35.724825257331972 ], [ -72.250476953187672, -35.7242252634151 ], [ -72.250744795771098, -35.723618717405934 ], [ -72.251241363798911, -35.72324930883368 ], [ -72.251491464655473, -35.722976852049179 ], [ -72.251521286027966, -35.722944374998875 ], [ -72.25289412288619, -35.722546825424914 ], [ -72.25362187414899, -35.722468439417298 ], [ -72.253965230911845, -35.721922963844051 ], [ -72.254381471586939, -35.721375586138556 ], [ -72.25465370333886, -35.720953400492157 ], [ -72.254656423437538, -35.720949045021115 ], [ -72.25456667994402, -35.720536953808832 ], [ -72.254153496235816, -35.720256387173208 ], [ -72.253890118279358, -35.720077628043079 ], [ -72.253800106189587, -35.719661040398108 ], [ -72.254077622730293, -35.719297549495998 ], [ -72.254428291779547, -35.718932078253061 ], [ -72.25462795582618, -35.718639867215693 ], [ -72.254635212417057, -35.718629113878073 ], [ -72.254834893531665, -35.718146141364173 ], [ -72.254963706553525, -35.717723554970327 ], [ -72.25485589704131, -35.717592483569305 ], [ -72.254579329121526, -35.71725632142887 ], [ -72.254484464332577, -35.716722706666438 ], [ -72.254443501155635, -35.716512532089332 ], [ -72.254392071707301, -35.716247566847045 ], [ -72.254368586152523, -35.716173197786709 ], [ -72.254224148732916, -35.715715929926908 ], [ -72.25421532009031, -35.715496763997805 ], [ -72.254202351112554, -35.715180336284874 ], [ -72.254182933129371, -35.71470322161025 ], [ -72.2540954911196, -35.714349610097578 ], [ -72.254210106268417, -35.713571503158754 ], [ -72.254193072413983, -35.713152940601503 ], [ -72.254310600799244, -35.712575482339538 ], [ -72.254314833660857, -35.712554918589014 ], [ -72.254397952977456, -35.712433147933545 ], [ -72.254521737230348, -35.712251881098851 ], [ -72.255013455253945, -35.711760928233005 ], [ -72.255522119097066, -35.711688612623405 ], [ -72.255760676602236, -35.711218317399386 ], [ -72.255860474040389, -35.711021605544722 ], [ -72.256432291244607, -35.710708682379526 ], [ -72.256736716819674, -35.710549097729896 ], [ -72.257148019455641, -35.71033338886572 ], [ -72.257352524523341, -35.709971869332826 ], [ -72.258011961603742, -35.710012544465073 ], [ -72.258381648885887, -35.710119683848724 ], [ -72.258741893077755, -35.7099928356578 ], [ -72.259377205002878, -35.709439357549449 ], [ -72.259428342498737, -35.708901788748122 ], [ -72.259844479867581, -35.708354323784128 ], [ -72.260109914067741, -35.707689282353122 ], [ -72.260309355332183, -35.70720623332619 ], [ -72.260939867558733, -35.706535793160654 ], [ -72.260930050769304, -35.706297239483533 ], [ -72.260703735504833, -35.706123172965363 ], [ -72.260331406277459, -35.705953066994688 ], [ -72.26032701171907, -35.7058452552901 ], [ -72.260319295190783, -35.705655958948292 ], [ -72.260441090573636, -35.705057856613969 ], [ -72.261010467055229, -35.704686510615559 ], [ -72.261587262722742, -35.704490587242212 ], [ -72.262151852980494, -35.703997704537436 ], [ -72.262923195890778, -35.703201772419845 ], [ -72.263714078056822, -35.702882870371042 ], [ -72.264590036968457, -35.702859090027204 ], [ -72.265171679046929, -35.702784680753773 ], [ -72.265976980071585, -35.702821498409406 ], [ -72.266126409429205, -35.70276391751726 ], [ -72.266480788520596, -35.702627534950466 ], [ -72.2667507511281, -35.702084018655135 ], [ -72.267016733300579, -35.701709076272664 ], [ -72.26709641386627, -35.701596913971919 ], [ -72.267578254913317, -35.700872011856831 ], [ -72.26821573267658, -35.700376972983406 ], [ -72.26854676814699, -35.699534431272689 ], [ -72.268655200191674, -35.699426063753904 ], [ -72.269038142115832, -35.699043433637051 ], [ -72.269454257925105, -35.698495938906937 ], [ -72.269435254963582, -35.698030923481596 ], [ -72.269425012372707, -35.697780274326959 ], [ -72.269400737198794, -35.697186211425574 ], [ -72.26944913842631, -35.696585594304203 ], [ -72.269502775933603, -35.696106496321072 ], [ -72.269707283696235, -35.695744958231927 ], [ -72.269927087971553, -35.695678076347363 ], [ -72.270356764748342, -35.695547091987052 ], [ -72.270863007631746, -35.695416238000867 ], [ -72.271094952638123, -35.694949046598097 ], [ -72.271132915442024, -35.694872640449283 ], [ -72.271548995318696, -35.694325139699878 ], [ -72.272264318389546, -35.693945195431674 ], [ -72.27255127263065, -35.693911695376691 ], [ -72.272918836295446, -35.693868765704671 ], [ -72.27343606647311, -35.693531266165976 ], [ -72.273488073538175, -35.693497367593807 ], [ -72.274137617472348, -35.693299479722008 ], [ -72.274187155068674, -35.693315849045227 ], [ -72.274804285990783, -35.693520145387268 ], [ -72.275256714398779, -35.693863727341508 ], [ -72.275831092699875, -35.693613764742167 ], [ -72.275995466430572, -35.69353273186448 ], [ -72.276475745307323, -35.693294336994569 ], [ -72.277195829449198, -35.693035894998964 ], [ -72.277303660520943, -35.693019446095057 ], [ -72.277649064544335, -35.692868733383939 ], [ -72.277843056628242, -35.692784011757581 ], [ -72.278356544424426, -35.692828555828193 ], [ -72.278536264973425, -35.692965396545873 ], [ -72.279110738495945, -35.693402787262023 ], [ -72.279480642272063, -35.693514287699031 ], [ -72.280144835033568, -35.693671944648763 ], [ -72.280214485010816, -35.693675581529867 ], [ -72.280876996126096, -35.693710513089762 ], [ -72.281470824749732, -35.693933127738504 ], [ -72.281556049717366, -35.694232666588931 ], [ -72.282295690182963, -35.694446795022863 ], [ -72.283023150391614, -35.69436839305024 ], [ -72.283818846629259, -35.694170966962659 ], [ -72.28461666468759, -35.694027516296195 ], [ -72.285419554634032, -35.694005508335437 ], [ -72.285930470553552, -35.69399154743801 ], [ -72.287701846784216, -35.694420765124171 ], [ -72.288071673305211, -35.694527810921578 ], [ -72.288599703029206, -35.694932391625109 ], [ -72.288765391893477, -35.695405496120976 ], [ -72.289011158378798, -35.696052110355964 ], [ -72.289463845501615, -35.696400132325664 ], [ -72.289981993757493, -35.696561728914851 ], [ -72.290804621487354, -35.697016855316015 ], [ -72.2917608484629, -35.697170882481181 ], [ -72.292636810967792, -35.69714689908259 ], [ -72.293658677841151, -35.697118986409997 ], [ -72.294619728769774, -35.697390017092175 ], [ -72.29534978780454, -35.697370011163166 ], [ -72.296147795407407, -35.697230981381097 ], [ -72.297174478148989, -35.697319990117691 ], [ -72.297979899547897, -35.697356517754685 ], [ -72.298132939234634, -35.697323676440618 ], [ -72.298921476797787, -35.697154841509565 ], [ -72.299488997359987, -35.69713934330747 ], [ -72.299505449106107, -35.697138891726389 ], [ -72.299523495361854, -35.697113444874084 ], [ -72.299850617770872, -35.696651785285013 ], [ -72.300825768656182, -35.695489548884979 ], [ -72.300849272177288, -35.69546919302546 ], [ -72.301390229556546, -35.69500099515011 ], [ -72.301810924078822, -35.694570424340746 ], [ -72.302236624912197, -35.694261301806193 ], [ -72.30263846559329, -35.693952979862459 ], [ -72.302803112411823, -35.693826650202453 ], [ -72.303435510202164, -35.693809352249502 ], [ -72.303605993375115, -35.693804668450532 ], [ -72.304053796357721, -35.694031108657853 ], [ -72.304484325635727, -35.693839149813272 ], [ -72.304490824946811, -35.693799328773508 ], [ -72.304542495143636, -35.693481503897537 ], [ -72.305340624019053, -35.693342410429999 ], [ -72.306221367357907, -35.693435353684848 ], [ -72.306812654647601, -35.693599295998503 ], [ -72.307367371522076, -35.69412641634618 ], [ -72.30742097309674, -35.694177430137756 ], [ -72.307863765276707, -35.6942823328164 ], [ -72.308563649002778, -35.694141860416813 ], [ -72.308878409695168, -35.69407871764826 ], [ -72.309678862512243, -35.693998073369926 ], [ -72.310250423696601, -35.693680552784976 ], [ -72.311111527168393, -35.693300871008809 ], [ -72.31205041037073, -35.693036123354624 ], [ -72.312904048842512, -35.692476507064399 ], [ -72.313400305154914, -35.69210678706866 ], [ -72.313893955454688, -35.691674239514519 ], [ -72.314384988962047, -35.691183000142146 ], [ -72.314737679220684, -35.69087592046435 ], [ -72.315148491376519, -35.690211265116297 ], [ -72.315388617340176, -35.688952096221875 ], [ -72.315198178991523, -35.687884924134998 ], [ -72.315772190779967, -35.687630280525468 ], [ -72.316003811494511, -35.687428633677001 ], [ -72.316124860377357, -35.687323198844382 ], [ -72.31604830774549, -35.687056742995516 ], [ -72.315953998115376, -35.686728617354653 ], [ -72.315982562744779, -35.685655481374496 ], [ -72.316176947392478, -35.685055332677251 ], [ -72.316305665192914, -35.684632764947487 ], [ -72.316285809730189, -35.684155679050647 ], [ -72.316616361008656, -35.683312957941148 ], [ -72.317540286363197, -35.682692757932749 ], [ -72.318031338735182, -35.682201578537928 ], [ -72.31823559227459, -35.68184004382109 ], [ -72.318588137006159, -35.681532884396788 ], [ -72.318865040895858, -35.68116476713174 ], [ -72.319032157183102, -35.679907605844939 ], [ -72.319440456751096, -35.67918439066603 ], [ -72.319924104310175, -35.678513207030313 ], [ -72.320141455286432, -35.67850720667758 ], [ -72.320434902550389, -35.678499105507434 ], [ -72.320780047858975, -35.678011943610215 ], [ -72.320913589612474, -35.677710824591138 ], [ -72.321206475429392, -35.677279216201384 ], [ -72.321440650054285, -35.676326564845084 ], [ -72.321501848681336, -35.676172578428293 ], [ -72.321705203905466, -35.675661424145275 ], [ -72.321690453568493, -35.675305858930628 ], [ -72.321816611170377, -35.674824742386818 ], [ -72.322388171456424, -35.674511597630186 ], [ -72.323042374951967, -35.674434982173196 ], [ -72.323263870754943, -35.67453346866975 ], [ -72.323328116467437, -35.674562034335658 ], [ -72.323414392463945, -35.674600401121239 ], [ -72.323547976438277, -35.674503397539503 ], [ -72.323839906447731, -35.674291284391067 ], [ -72.323898257415323, -35.673933699704449 ], [ -72.324474390126156, -35.673737574535437 ], [ -72.325138576599471, -35.673899414796303 ], [ -72.326097271247093, -35.674111722368281 ], [ -72.327060470945852, -35.674441053617024 ], [ -72.32788052949401, -35.674837381435943 ], [ -72.328763696487513, -35.674993141497652 ], [ -72.329196287399085, -35.675294249608974 ], [ -72.329666432381117, -35.675621555355669 ], [ -72.33004866553452, -35.676029989310052 ], [ -72.330725048434431, -35.676484312682405 ], [ -72.331409031081662, -35.677123273794024 ], [ -72.331888929072747, -35.677395303535341 ], [ -72.332007720489287, -35.677462586767895 ], [ -72.332611385665274, -35.677923490527029 ], [ -72.333059173376512, -35.67814989700792 ], [ -72.333806275248861, -35.678548204335911 ], [ -72.334190981464232, -35.679015170731503 ], [ -72.334497696844949, -35.6793625636098 ], [ -72.33504065028076, -35.680122494396102 ], [ -72.335863332807861, -35.680577308167159 ], [ -72.336109640078988, -35.680794894740878 ], [ -72.336318371720083, -35.680979270755607 ], [ -72.336854992033139, -35.681252288470972 ], [ -72.336990143567647, -35.681321106612451 ], [ -72.337659293232903, -35.681599891971736 ], [ -72.338401471439155, -35.681876647866503 ], [ -72.338927113441144, -35.682218025294631 ], [ -72.339450504265017, -35.682505351192219 ], [ -72.340270514304137, -35.682897088779534 ], [ -72.341382554964028, -35.683285284133511 ], [ -72.34227316360132, -35.683616430852993 ], [ -72.343236815152693, -35.683950118312147 ], [ -72.344492393120248, -35.684271174848867 ], [ -72.345229545252508, -35.684430871197186 ], [ -72.346042168445038, -35.684642574329402 ], [ -72.346781865504497, -35.684860804308975 ], [ -72.347456159821391, -35.685261123323855 ], [ -72.347830998043364, -35.685489428667111 ], [ -72.348525071466156, -35.686362240885657 ], [ -72.34876550914521, -35.68681028827293 ], [ -72.348842048302373, -35.68695270052816 ], [ -72.349302271392105, -35.687476125491294 ], [ -72.349981492968311, -35.687993300040496 ], [ -72.350436733103166, -35.688395199730195 ], [ -72.350986851501688, -35.688683500029278 ], [ -72.351407999673185, -35.688904228078684 ], [ -72.352077453867324, -35.689187573243366 ], [ -72.352817203927387, -35.689405688645415 ], [ -72.353483832919935, -35.689621409626945 ], [ -72.353948694909803, -35.689824742875118 ], [ -72.354004592578363, -35.689845699906414 ], [ -72.355119327285777, -35.6902921539902 ], [ -72.355698310351016, -35.690158916543659 ], [ -72.356355136927192, -35.690140584685551 ], [ -72.357024420441419, -35.690419255323022 ], [ -72.357226290750376, -35.690610870734844 ], [ -72.357328825355225, -35.69070811082215 ], [ -72.357769106743973, -35.690754431148562 ], [ -72.35821011846302, -35.690662830867666 ], [ -72.358421025823759, -35.690619069899839 ], [ -72.359075397304267, -35.69054217734152 ], [ -72.359731010256496, -35.690734179141707 ], [ -72.360185067310098, -35.690867141301219 ], [ -72.36069847246128, -35.690911407738952 ], [ -72.361289740886363, -35.691075079456105 ], [ -72.361883650358351, -35.691297288514761 ], [ -72.362475005021679, -35.691456449144496 ], [ -72.362920396926057, -35.691624191549799 ], [ -72.363353400164371, -35.69149499968767 ], [ -72.363856600453929, -35.691300651909181 ], [ -72.364435659875966, -35.691167296494896 ], [ -72.364613217281757, -35.691087989526935 ], [ -72.364865916066123, -35.69097505862068 ], [ -72.365145367577981, -35.690669811608032 ], [ -72.365568050970296, -35.690297585831125 ], [ -72.36621994849051, -35.69016218367927 ], [ -72.366740739589957, -35.690386341111051 ], [ -72.367113096665108, -35.690551683945117 ], [ -72.367926018098331, -35.690767730143548 ], [ -72.368369044738557, -35.690876978370575 ], [ -72.36867340293999, -35.691165878176101 ], [ -72.368766513319187, -35.691640820218986 ], [ -72.36908858539968, -35.692348232931579 ], [ -72.369546401902781, -35.692808450992125 ], [ -72.369630274905902, -35.692883317532527 ], [ -72.370001859429919, -35.693214697269369 ], [ -72.370527706247771, -35.693555997727543 ], [ -72.371411052005996, -35.69371143088199 ], [ -72.372286814186609, -35.693686872275507 ], [ -72.373084699618587, -35.693547337778675 ], [ -72.37379930313891, -35.693166819281593 ], [ -72.374219767692466, -35.692740515329561 ], [ -72.374489220056887, -35.692196790103267 ], [ -72.375050429055904, -35.691644801556144 ], [ -72.375473067532468, -35.691272542390685 ], [ -72.37611242007975, -35.690840013659241 ], [ -72.376527542352335, -35.690287691052227 ], [ -72.377086345663002, -35.689677220511406 ], [ -72.377370595076783, -35.689489039287849 ], [ -72.377871646596191, -35.689240657166202 ], [ -72.378447823324478, -35.689044273397862 ], [ -72.378893233195157, -35.689212028901629 ], [ -72.379192753070456, -35.689379232471836 ], [ -72.379550031923571, -35.689193496913894 ], [ -72.379897317019143, -35.68876472753221 ], [ -72.380194284780728, -35.688556546230636 ], [ -72.38025220096371, -35.68851594040926 ], [ -72.380387392922415, -35.688490289432593 ], [ -72.380614504094211, -35.68844714160678 ], [ -72.381153533688874, -35.688252084512911 ], [ -72.381693890993532, -35.688056396553584 ], [ -72.382557120777591, -35.687734766447207 ], [ -72.38328207558493, -35.687597143357991 ], [ -72.383853187611635, -35.687283721852168 ], [ -72.38421052665187, -35.687093467954199 ], [ -72.384718780863224, -35.687020549187515 ], [ -72.384825702839905, -35.68701761390296 ], [ -72.385156665546774, -35.687008222888686 ], [ -72.385800884267951, -35.686692808641773 ], [ -72.385913991145372, -35.686523821331519 ], [ -72.386007022472825, -35.686385076168712 ], [ -72.386210965195147, -35.686023368515066 ], [ -72.386315632400468, -35.6859843228237 ], [ -72.386991033441774, -35.685465238186197 ], [ -72.388002643351228, -35.685197929746344 ], [ -72.38804047320447, -35.685187414868366 ], [ -72.388724719956386, -35.684997386538541 ], [ -72.389142256002131, -35.68444709495131 ], [ -72.389416591608423, -35.684085761578594 ], [ -72.390415591866216, -35.683521364527365 ], [ -72.391792001324333, -35.683243740204503 ], [ -72.392287728529041, -35.68287386577633 ], [ -72.393085272601212, -35.682729708177845 ], [ -72.393664120919169, -35.682596220229044 ], [ -72.393892993687246, -35.682610135692677 ], [ -72.394323248080795, -35.682636157770993 ], [ -72.394674052775656, -35.682495591894543 ], [ -72.394690654540412, -35.682684399615674 ], [ -72.394823917816183, -35.682383213587173 ], [ -72.394811322537592, -35.682086219840521 ], [ -72.394857103379394, -35.68173841196073 ], [ -72.394866684810225, -35.681665649557573 ], [ -72.395430250090243, -35.681172117920994 ], [ -72.395928424305779, -35.680860627451267 ], [ -72.396866834994285, -35.680595386833268 ], [ -72.397513431556021, -35.68033831053031 ], [ -72.398021809734857, -35.680265407480071 ], [ -72.398530002860767, -35.680192432853737 ], [ -72.399247035425603, -35.679874816451218 ], [ -72.39967723142864, -35.679682460152506 ], [ -72.400256041119036, -35.679548868596953 ], [ -72.401148399674497, -35.679618714886288 ], [ -72.401355556568902, -35.679634927943823 ], [ -72.402163377367941, -35.679733807164943 ], [ -72.402741810664224, -35.679595711296372 ], [ -72.40317467466366, -35.679466383202765 ], [ -72.403670310240202, -35.679091889786775 ], [ -72.40438472960588, -35.678715704624032 ], [ -72.404960847943684, -35.678519197896442 ], [ -72.405884158850569, -35.677898279807849 ], [ -72.406761589202659, -35.677311504617997 ], [ -72.407122973356621, -35.677069839571281 ], [ -72.407375801498389, -35.676900787366236 ], [ -72.407919132226638, -35.676570030905772 ], [ -72.408087784633025, -35.676466110491489 ], [ -72.408812304655754, -35.676323919597095 ], [ -72.409312886356247, -35.676070921106295 ], [ -72.409889253527382, -35.675878886934576 ], [ -72.410229164352785, -35.675832264620368 ], [ -72.41047004669791, -35.675799302065954 ], [ -72.410762100674873, -35.675791018918517 ], [ -72.411199820966729, -35.675778604047117 ], [ -72.41170547814859, -35.675647106848174 ], [ -72.412422415492017, -35.675329491327254 ], [ -72.412777130553295, -35.675080543361794 ], [ -72.413204772645997, -35.674829671032413 ], [ -72.413386526980801, -35.674670449501015 ], [ -72.413486383707777, -35.674582869131321 ], [ -72.413813828611993, -35.674471112365147 ], [ -72.414062537079886, -35.67438631865884 ], [ -72.414562998406112, -35.674133302349738 ], [ -72.415139243406372, -35.673941173757015 ], [ -72.415861049618627, -35.673740478929396 ], [ -72.41651010666591, -35.67354177216329 ], [ -72.417159264324525, -35.673347563816314 ], [ -72.418168110117833, -35.673021619951179 ], [ -72.418884797729604, -35.672699322809002 ], [ -72.419317500032292, -35.672569868967052 ], [ -72.419669687234375, -35.67226250674473 ], [ -72.419974863801002, -35.671939060078493 ], [ -72.420019178592284, -35.671892104879653 ], [ -72.420590025615994, -35.671578521703154 ], [ -72.42101761919966, -35.671327551523397 ], [ -72.421442708280324, -35.671018036797847 ], [ -72.422013724187281, -35.670704443619449 ], [ -72.42251413430958, -35.670451395204829 ], [ -72.423007313892128, -35.670022860072578 ], [ -72.423573120468774, -35.66958775165417 ], [ -72.423927599273142, -35.669338925898806 ], [ -72.424352576962718, -35.669029405651607 ], [ -72.424429935383401, -35.668980991349081 ], [ -72.424850647871978, -35.668717801374704 ], [ -72.425273015057329, -35.668345309708741 ], [ -72.425695571787202, -35.667977314061666 ], [ -72.426120627630198, -35.667667858596062 ], [ -72.426834926621623, -35.667291621774389 ], [ -72.427672024414065, -35.666371149156866 ], [ -72.428373499056505, -35.665697847838096 ], [ -72.429043137405259, -35.664750248795507 ], [ -72.429062322724789, -35.664722978714984 ], [ -72.429547451605771, -35.664114378741552 ], [ -72.429883602981718, -35.663915961842463 ], [ -72.430188688818504, -35.663735702838778 ], [ -72.430754603192995, -35.663304989567635 ], [ -72.431249734814656, -35.662930401343104 ], [ -72.431669729549341, -35.662503920506815 ], [ -72.431931574081617, -35.662235126538398 ], [ -72.432089440416377, -35.662073015937885 ], [ -72.432587541868386, -35.661746912178586 ], [ -72.432657928464153, -35.661700758936682 ], [ -72.433158337688127, -35.661447668844559 ], [ -72.433583240817512, -35.66113819317826 ], [ -72.434226852277547, -35.660817969045901 ], [ -72.434865632597976, -35.660385229975468 ], [ -72.435934397817363, -35.659759936812598 ], [ -72.43627093187564, -35.659092512945477 ], [ -72.436602350926663, -35.65830808249224 ], [ -72.43678032515075, -35.657347841518806 ], [ -72.436903339547442, -35.656808098328952 ], [ -72.436729362826384, -35.656159761702718 ], [ -72.436708905492409, -35.655682805592058 ], [ -72.436756508117625, -35.655086677432706 ], [ -72.43679046263874, -35.654653121908957 ], [ -72.436803647212159, -35.654486060175635 ], [ -72.436931875430759, -35.654067897014272 ], [ -72.437041876832254, -35.653231178718137 ], [ -72.437313380948765, -35.652745879433226 ], [ -72.437660017460715, -35.652316898165303 ], [ -72.437735784965042, -35.6522172163505 ], [ -72.437842971944747, -35.652076183753636 ], [ -72.437936638381089, -35.651953106860589 ], [ -72.437958992956951, -35.651898652842611 ], [ -72.4384195115924, -35.650776640708145 ], [ -72.438531599780305, -35.650503255238469 ], [ -72.438943771087168, -35.649896779123679 ], [ -72.439131937596457, -35.64917497681914 ], [ -72.43940314437063, -35.648689608362027 ], [ -72.439587623295694, -35.648446780681788 ], [ -72.439679565865035, -35.648325819517204 ], [ -72.440109484288641, -35.648133257257832 ], [ -72.440841601363729, -35.648175435564987 ], [ -72.441435084135975, -35.648392689263041 ], [ -72.441586197834766, -35.648434503903893 ], [ -72.442026347171137, -35.648556040856143 ], [ -72.442474239086977, -35.64878203278451 ], [ -72.443062991330919, -35.648886838196681 ], [ -72.443571652479079, -35.648876781338856 ], [ -72.445207524137331, -35.647811597659725 ], [ -72.445571989512729, -35.647596826524413 ], [ -72.446275850978864, -35.647181802753472 ], [ -72.447054931977007, -35.646623327813082 ], [ -72.447766605192868, -35.646188435713285 ], [ -72.448475287917134, -35.645690509110345 ], [ -72.449040872609913, -35.645255220648806 ], [ -72.449533485355516, -35.644826598470999 ], [ -72.449585851746704, -35.644347556923762 ], [ -72.450007977285225, -35.643974990266344 ], [ -72.450445596067468, -35.64396243904401 ], [ -72.451112335552807, -35.644182047554501 ], [ -72.451972267621471, -35.643801490777513 ], [ -72.452771821224928, -35.643720007997821 ], [ -72.45358172342047, -35.643872450963485 ], [ -72.454110178047614, -35.644276353334213 ], [ -72.45463366409291, -35.644558594012537 ], [ -72.455297810142028, -35.644719787498168 ], [ -72.455523439991936, -35.644713307177213 ], [ -72.456099889808073, -35.644696748301357 ], [ -72.456756364244654, -35.644677886961581 ], [ -72.457269490918108, -35.644721753421742 ], [ -72.45777738670165, -35.644648544089634 ], [ -72.458350678041228, -35.644393258094112 ], [ -72.458777916790368, -35.644142243346899 ], [ -72.459192421022024, -35.643594100342796 ], [ -72.459388163024101, -35.643052320880159 ], [ -72.459291983999904, -35.642518935309127 ], [ -72.459346900708169, -35.64209828213118 ], [ -72.45969609562205, -35.641732357108431 ], [ -72.459748576997583, -35.641253235686193 ], [ -72.459649966233897, -35.640661381599912 ], [ -72.459405292099945, -35.640069076336431 ], [ -72.459239132518476, -35.639600818444421 ], [ -72.458848605220069, -35.639012779848407 ], [ -72.45875261753703, -35.638479387755226 ], [ -72.458516098309246, -35.638071615897267 ], [ -72.457844155781771, -35.637730543219405 ], [ -72.457112331557454, -35.637693034809473 ], [ -72.456302474277678, -35.637536109056867 ], [ -72.455859847387742, -35.637431598308787 ], [ -72.455628302131686, -35.637140904393917 ], [ -72.455610265757414, -35.63672242192326 ], [ -72.455271587420569, -35.636060757999275 ], [ -72.455076547901029, -35.636201597650718 ], [ -72.455058731614002, -35.636214142061064 ], [ -72.454722315235031, -35.636450576303666 ], [ -72.454362751067848, -35.636577978020817 ], [ -72.454155615733001, -35.636513648582323 ], [ -72.453844731271047, -35.636417158708078 ], [ -72.453349491851526, -35.636787333801465 ], [ -72.453146162678564, -35.637153631177249 ], [ -72.452799566590798, -35.637578076125166 ], [ -72.452598750903974, -35.638002840051342 ], [ -72.452493876187816, -35.638381370756811 ], [ -72.452282687654417, -35.639142827611359 ], [ -72.451709499621089, -35.639398080737394 ], [ -72.451420378643505, -35.639464914881813 ], [ -72.451266866442921, -35.63929355344267 ], [ -72.451113435090704, -35.639117760879891 ], [ -72.451178575525219, -35.638935698129778 ], [ -72.451616166459686, -35.638923144655763 ], [ -72.45164676667153, -35.638770641143175 ], [ -72.451676173022349, -35.638624003437492 ], [ -72.451595539344126, -35.638446123592523 ], [ -72.45130390398208, -35.638454489461736 ], [ -72.450871544835849, -35.638588546939388 ], [ -72.450717932922259, -35.638412684199167 ], [ -72.449970520232824, -35.638015117702061 ], [ -72.449512603118421, -35.637555137080071 ], [ -72.448973961595982, -35.63691277105643 ], [ -72.448667042297686, -35.636565682627214 ], [ -72.448354716938013, -35.63609702090951 ], [ -72.447914625093802, -35.636051094506577 ], [ -72.447610225569903, -35.635762397489067 ], [ -72.447587007713039, -35.635222405508365 ], [ -72.447061357626239, -35.634881507577326 ], [ -72.446699186548088, -35.634950495648511 ], [ -72.446361756869493, -35.63516176417312 ], [ -72.446201494727845, -35.635262098803537 ], [ -72.446000651193259, -35.635686926875451 ], [ -72.445802494519697, -35.63617014316462 ], [ -72.444932364775923, -35.636312212823732 ], [ -72.444276133782765, -35.636331073947943 ], [ -72.443755240275379, -35.636107103468937 ], [ -72.443662061624224, -35.635636658359367 ], [ -72.443645725760788, -35.635256288676523 ], [ -72.443644089030329, -35.635218170932696 ], [ -72.44369397427468, -35.634680588269468 ], [ -72.443736310975723, -35.63396302770601 ], [ -72.443650494018314, -35.633668136895395 ], [ -72.443557126720933, -35.633193193777004 ], [ -72.443758081646635, -35.632772868982897 ], [ -72.443956420678205, -35.632289577395341 ], [ -72.444011329301617, -35.631869003256085 ], [ -72.444067607855871, -35.631589828853308 ], [ -72.444071543375131, -35.63156985826901 ], [ -72.444092615156748, -35.631548880826593 ], [ -72.444561404581023, -35.631078368730542 ], [ -72.444848078547764, -35.63095300920552 ], [ -72.445051343940364, -35.630586725761027 ], [ -72.44525237522285, -35.630166397483272 ], [ -72.445096374688916, -35.629932129983374 ], [ -72.444932456404075, -35.629517746806933 ], [ -72.445208879695116, -35.629153872867946 ], [ -72.445334237796374, -35.628672742575972 ], [ -72.444878811710254, -35.628266705934024 ], [ -72.444433649774581, -35.628103757533879 ], [ -72.444071592782478, -35.628172660914402 ], [ -72.443676546059862, -35.628275578141306 ], [ -72.443522281969379, -35.627894135863563 ], [ -72.443195287121128, -35.627307544497413 ], [ -72.443057778407336, -35.626930862723007 ], [ -72.443088420839985, -35.626557858542796 ], [ -72.443141655003714, -35.626353035214798 ], [ -72.443551846423702, -35.626087134525626 ], [ -72.444313632157673, -35.625927952354076 ], [ -72.444996399384323, -35.625606852509769 ], [ -72.44551398978642, -35.624900930102029 ], [ -72.446029149347325, -35.624271183186451 ], [ -72.446404508592167, -35.623775804983929 ], [ -72.446648577261612, -35.623627450074508 ], [ -72.446804709847882, -35.6235325481776 ], [ -72.447470923818784, -35.623142517913543 ], [ -72.448075126187305, -35.62265194555944 ], [ -72.448743145771928, -35.621910991746304 ], [ -72.449263999753427, -35.621395784985161 ], [ -72.449727796341364, -35.620909968856246 ], [ -72.449995794333333, -35.62041226886155 ], [ -72.450628752672444, -35.619159630133154 ], [ -72.450780010999964, -35.618514461820965 ], [ -72.450803929542715, -35.618057421457003 ], [ -72.450562219849218, -35.617299356639442 ], [ -72.450048859613815, -35.617271111525255 ], [ -72.449179698253914, -35.616993364206735 ], [ -72.448697606576914, -35.616876445659535 ], [ -72.447844244786253, -35.616690584514949 ], [ -72.447109130931366, -35.61630888103403 ], [ -72.446686945205713, -35.61607109317535 ], [ -72.446197406494989, -35.615900562298883 ], [ -72.44488128207729, -35.615430362689303 ], [ -72.444477316880537, -35.615208210479345 ], [ -72.444255266817038, -35.615142443445123 ], [ -72.443938151640268, -35.61512811748981 ], [ -72.443547856107216, -35.615066425370699 ], [ -72.443012718014359, -35.614856806766433 ], [ -72.442253322697354, -35.614649983882238 ], [ -72.44181781585435, -35.614541596056647 ], [ -72.441203850595329, -35.614315029695454 ], [ -72.440570318232758, -35.61397356500224 ], [ -72.440192734759293, -35.613805419178433 ], [ -72.440071610417959, -35.613795224992401 ], [ -72.43970303794508, -35.613634792184413 ], [ -72.439125312521242, -35.613302206489273 ], [ -72.438924773515538, -35.613145385490824 ], [ -72.438694154422549, -35.61275917737121 ], [ -72.438474298044952, -35.612335013276493 ], [ -72.438412015151371, -35.61194473340769 ], [ -72.438252818411655, -35.611079530521394 ], [ -72.438379107167563, -35.61063226249459 ], [ -72.438523970388587, -35.61033793562337 ], [ -72.438528704510148, -35.609895617282376 ], [ -72.438325498406357, -35.609532837922707 ], [ -72.438159791575785, -35.609163303490178 ], [ -72.437733178952399, -35.608482980540963 ], [ -72.437536872808309, -35.608196701479521 ], [ -72.437181342076741, -35.607922131072492 ], [ -72.436842853284432, -35.607701404104908 ], [ -72.43643577812017, -35.60757830561689 ], [ -72.435924413941308, -35.607506460890981 ], [ -72.435352802451305, -35.607273043599299 ], [ -72.435042279112082, -35.607052915924349 ], [ -72.434860275943947, -35.606904120993818 ], [ -72.434510207867618, -35.606606869920192 ], [ -72.432418012706279, -35.606242456431019 ], [ -72.441618082637447, -35.579316115319145 ], [ -72.441572187709582, -35.577748816056314 ], [ -72.440510926117767, -35.575951277781321 ], [ -72.43956932640998, -35.574417172064734 ], [ -72.438327823246311, -35.573268327639802 ], [ -72.43767366556483, -35.569730329209214 ], [ -72.43785045940264, -35.568193945839006 ], [ -72.437302001989067, -35.566354933356095 ], [ -72.436960174158841, -35.564050485834727 ], [ -72.436924245140744, -35.562170264645104 ], [ -72.436038280793468, -35.56089836884253 ], [ -72.436588302173945, -35.55767316998628 ], [ -72.437616091639953, -35.55649422500224 ], [ -72.438089276520927, -35.554676980878959 ], [ -72.437431770818378, -35.553253439749739 ], [ -72.436841901070224, -35.552718759621939 ], [ -72.437006152630033, -35.551573615066516 ], [ -72.437042650281711, -35.550425841283229 ], [ -72.436314841526723, -35.549209593568555 ], [ -72.436045953304301, -35.546619508942989 ], [ -72.435305375895879, -35.544802567981783 ], [ -72.435284794594395, -35.543444776924758 ], [ -72.435698514596794, -35.542487626473211 ], [ -72.435667945826012, -35.542213810211749 ], [ -72.435599107925782, -35.541597966719479 ], [ -72.435473906131364, -35.541356378918252 ], [ -72.435112942388955, -35.541640917534963 ], [ -72.434618139550679, -35.542074035313405 ], [ -72.43447064157094, -35.542152210286815 ], [ -72.434312626115812, -35.542189270825915 ], [ -72.434042039179189, -35.542392759209086 ], [ -72.433851100468942, -35.542593828380916 ], [ -72.433586154952309, -35.542927447528371 ], [ -72.433281241592042, -35.543262207013626 ], [ -72.433090299288509, -35.543463274736602 ], [ -72.432867825220171, -35.543861015032853 ], [ -72.432795113784451, -35.544026083624132 ], [ -72.432644042306492, -35.544226014298367 ], [ -72.432451800140754, -35.544394564279379 ], [ -72.432095796895325, -35.544469892952698 ], [ -72.431179316777857, -35.544496078419421 ], [ -72.430738187379475, -35.54444338660025 ], [ -72.430533439766677, -35.544318775781157 ], [ -72.430371166297121, -35.544258213930718 ], [ -72.430049661053573, -35.544202112168037 ], [ -72.429611312839313, -35.544214594254456 ], [ -72.42925410225817, -35.544257393828104 ], [ -72.429019108369744, -35.544361897638581 ], [ -72.428821304734058, -35.544400157340228 ], [ -72.428580761952105, -35.544374449869252 ], [ -72.428494161663778, -35.544213844320652 ], [ -72.428408861237656, -35.544085829931085 ], [ -72.428127051648204, -35.544028593642366 ], [ -72.427769837473761, -35.544071314374747 ], [ -72.427331581786007, -35.544083860072512 ], [ -72.42680654704516, -35.543935728031528 ], [ -72.425943372956624, -35.54334070171052 ], [ -72.425042690611733, -35.541866344615087 ], [ -72.424557311100813, -35.54077142510846 ], [ -72.424221874783811, -35.540389634486907 ], [ -72.424091258843205, -35.540132463951117 ], [ -72.4240801745309, -35.539871968873797 ], [ -72.42410470841962, -35.539512500797677 ], [ -72.424162190716345, -35.538989171759646 ], [ -72.424089057970747, -35.538208598276498 ], [ -72.423658833221609, -35.537470877409874 ], [ -72.423353498551492, -35.536859972663521 ], [ -72.423126525720235, -35.536214212725568 ], [ -72.422964062706157, -35.535207994560551 ], [ -72.422948916212135, -35.534849727109169 ], [ -72.422933589156756, -35.53449146536795 ], [ -72.422761732459762, -35.534202834719963 ], [ -72.422534757831869, -35.534068581160909 ], [ -72.42203426147131, -35.534204826020797 ], [ -72.421828560745993, -35.534477459788079 ], [ -72.42180564562139, -35.534467406822721 ], [ -72.422158345761517, -35.533992312857563 ], [ -72.422759932235934, -35.533646569031809 ], [ -72.423459632705686, -35.533399463604837 ], [ -72.424158018041837, -35.533193732998654 ], [ -72.424952388366123, -35.533679631135577 ], [ -72.425354140114024, -35.534308827560423 ], [ -72.425658677978475, -35.534811823242173 ], [ -72.426334114952397, -35.53532279621411 ], [ -72.427387401301132, -35.535097058338124 ], [ -72.428481933796135, -35.534637675463934 ], [ -72.429229917814098, -35.533936417372885 ], [ -72.430012915466861, -35.533194590496933 ], [ -72.430440718357985, -35.531948636568096 ], [ -72.430446524169682, -35.530707464844298 ], [ -72.431283740539754, -35.530380511810719 ], [ -72.433965915942011, -35.530396212692636 ], [ -72.436590787812321, -35.530093549269289 ], [ -72.43717430916638, -35.529250770573633 ], [ -72.43796290152676, -35.528329719356982 ], [ -72.439164754850438, -35.528160174253131 ], [ -72.442934853842161, -35.528133910345737 ], [ -72.443181946240855, -35.528132237643462 ], [ -72.443356855413185, -35.52786384596488 ], [ -72.444492236999096, -35.526122214979686 ], [ -72.444822802650606, -35.52443097671042 ], [ -72.444202631829583, -35.522153545061016 ], [ -72.441334601283245, -35.520499602991457 ], [ -72.439047573214879, -35.518848199794839 ], [ -72.435241949446919, -35.517144680953052 ], [ -72.432663032691607, -35.514889050853427 ], [ -72.432230609764957, -35.514460509140427 ], [ -72.430632182582698, -35.51298442796358 ], [ -72.428028484901958, -35.51210476005955 ], [ -72.426369160926583, -35.511484390221 ], [ -72.42524766909159, -35.509799558526595 ], [ -72.424187050693519, -35.509543644942553 ], [ -72.421857091239403, -35.509609833602809 ], [ -72.420318232241954, -35.509081332649032 ], [ -72.415505456903304, -35.508359449184681 ], [ -72.413247537843404, -35.507374420437245 ], [ -72.411797215902041, -35.506175656383178 ], [ -72.409266175758106, -35.504244503886312 ], [ -72.403577897851989, -35.50211629894072 ], [ -72.396769260886444, -35.498302811857663 ], [ -72.3949938530168, -35.497685264466163 ], [ -72.393707316409603, -35.496230067013663 ], [ -72.393549484210808, -35.495483000943388 ], [ -72.392108269389794, -35.49296112543788 ], [ -72.391363301914552, -35.49177900520435 ], [ -72.390857292593111, -35.490839531230307 ], [ -72.390130436950642, -35.49019232730226 ], [ -72.38894968056141, -35.489844093020515 ], [ -72.388177453708877, -35.488627873473519 ], [ -72.387842789943051, -35.48788746525787 ], [ -72.3858772644233, -35.486490458313092 ], [ -72.385542614132191, -35.486252625972064 ], [ -72.383777451548355, -35.485195443412721 ], [ -72.381444314753082, -35.484578723513458 ], [ -72.379380093129697, -35.484104277888775 ], [ -72.378094874351021, -35.484044998230516 ], [ -72.375109546286453, -35.483185095571677 ], [ -72.374852886829999, -35.48296365266895 ], [ -72.373954714377987, -35.482634962482301 ], [ -72.372860419038233, -35.482785180495611 ], [ -72.370926654353667, -35.482719681470705 ], [ -72.36964543128137, -35.482755430096368 ], [ -72.366364519759074, -35.482370278799344 ], [ -72.36413569263965, -35.482050985176194 ], [ -72.361646316358602, -35.481071332239971 ], [ -72.359405635969011, -35.480466214635321 ], [ -72.352665907870602, -35.479988039614 ], [ -72.347707682711047, -35.479551785818103 ], [ -72.345005191908612, -35.47905459965876 ], [ -72.343483241001437, -35.478906061568907 ], [ -72.341479800288468, -35.478389403965352 ], [ -72.340265641842038, -35.478688006280919 ], [ -72.339687374734083, -35.479023168301147 ], [ -72.336839166412787, -35.481230532378582 ], [ -72.336704665258566, -35.481334729830216 ], [ -72.33516452975509, -35.481866876982998 ], [ -72.334167792353483, -35.482025265779924 ], [ -72.332067340776376, -35.481987964594225 ], [ -72.330669691551691, -35.482026590519212 ], [ -72.328573259935467, -35.482084497186094 ], [ -72.327260641642312, -35.481357763371754 ], [ -72.324499359697811, -35.479431023720878 ], [ -72.322476292592526, -35.478437757293896 ], [ -72.320348469348701, -35.477733335983743 ], [ -72.319179904894511, -35.47767013498509 ], [ -72.317681516797222, -35.478092979773962 ], [ -72.316975589205924, -35.479425739954365 ], [ -72.31527447560353, -35.480633202882842 ], [ -72.314194457188577, -35.480744624016019 ] ] ] } },
{ "type": "Feature", "properties": { "capa": "colegios", "popup": "<strong>ESCUELA SAN SEBASTIAN DE PUICO</strong><br><br><strong>Dirección:</strong> CAMINO A SAUZAL SECTOR DE PUICO 0", "etiqueta": "" }, "geometry": { "type": "Point", "coordinates": [ -72.108727, -35.65556 ] } },
{ "type": "Feature", "properties": { "capa": "colegios", "popup": "<strong>ESCUELA MARIA OLGA VEGA VEGA</strong><br><br><strong>Dirección:</strong> CAMINO A SAUZAL 8", "etiqueta": "" }, "geometry": { "type": "Point", "coordinates": [ -72.220093, -35.607052 ] } },
{ "type": "Feature", "properties": { "capa": "colegios", "popup": "<strong>LICEO SAN IGNACIO</strong><br><br><strong>Dirección:</strong> AGUSTIN QUINTANA 0", "etiqueta": "" }, "geometry": { "type": "Point", "coordinates": [ -72.27697, -35.59116 ] } },
{ "type": "Feature", "properties": { "capa": "colegios", "popup": "<strong>ESCUELA PEDRO ANTONIO TEJOS TEJOS</strong><br><br><strong>Dirección:</strong> PELLINES DOS 0", "etiqueta": "" }, "geometry": { "type": "Point", "coordinates": [ -72.287598, -35.53548 ] } },
{ "type": "Feature", "properties": { "capa": "jardines", "popup": "<strong>MI PEQUEÑO MUNDO</strong><br><br><strong>Dirección:</strong> JUVENAL PEREIRA CON BENEDICTO BOLLO #266.LA DEHESA ", "etiqueta": "" }, "geometry": { "type": "MultiPoint", "coordinates": [ [ -72.282379, -35.5906 ] ] } },
{ "type": "Feature", "properties": { "capa": "jardines", "popup": "<strong>NA</strong><br><br><strong>Dirección:</strong> NA ", "etiqueta": "" }, "geometry": { "type": "MultiPoint", "coordinates": [ [ -72.278122000438145, -35.590204999807945 ] ] } },
{ "type": "Feature", "properties": { "capa": "bomberos", "popup": "<strong>Cuerpo de Bomberos</strong><br><br><strong>Dirección:</strong> Bernardo O Higgins 274", "etiqueta": "" }, "geometry": { "type": "Point", "coordinates": [ -72.273419038226322, -35.587885015966314 ] } },
{ "type": "Feature", "properties": { "capa": "comisarias", "popup": "<strong>RETEN EMPEDRADO</strong><br><br><strong>Dirección:</strong> AGUSTIN QUINTANA S/N", "etiqueta": "" }, "geometry": { "type": "Point", "coordinates": [ -72.281092062999903, -35.590851831999956 ] } },
{ "type": "Feature", "properties": { "capa": "salud", "popup": "<strong>Centro de Salud Familiar Empedrado</strong><br><br><strong>Tipo de atención:</strong> Centro de Salud Familiar (CESFAM)<br><strong>Dirección:</strong>  NA", "etiqueta": "" }, "geometry": { "type": "Point", "coordinates": [ -72.28193, -35.59029 ] } },
{ "type": "Feature", "properties": { "capa": "salud", "popup": "<strong>SUR Empedrado</strong><br><br><strong>Tipo de atención:</strong> Servicio de Urgencia Rural (SUR)<br><strong>Dirección:</strong>  NA", "etiqueta": "" }, "geometry": { "type": "Point", "coordinates": [ -72.281722, -35.590225 ] } },
{ "type": "Feature", "properties": { "capa": "salud", "popup": "<strong>Posta de Salud Rural Pellines (Empedrado)</strong><br><br><strong>Tipo de atención:</strong> Posta de Salud Rural (PSR)<br><strong>Dirección:</strong>  NA", "etiqueta": "" }, "geometry": { "type": "Point", "coordinates": [ -72.287571, -35.535341 ] } }
]
}
