{
"type": "FeatureCollection",
"name": "7106",
"crs": { "type": "name", "properties": { "name": "urn:ogc:def:crs:OGC:1.3:CRS84" } },
"features": [
{ "type": "Feature", "properties": { "capa": "comuna", "popup": "", "etiqueta": "" }, "geometry": { "type": "Polygon", "coordinates": [ [ [ -71.382240626276271, -35.320802657323668 ], [ -71.381910000437628, -35.32072000060964 ], [ -71.381590061855931, -35.320506440383603 ], [ -71.381240190510653, -35.320839651290044 ], [ -71.380070000105789, -35.321159999625912 ], [ -71.37947477190697, -35.321260400761759 ], [ -71.379349096700395, -35.32138713611932 ], [ -71.378769183878845, -35.321457185336342 ], [ -71.378268842028533, -35.321764483954723 ], [ -71.377692578163646, -35.321956155710097 ], [ -71.376238443772223, -35.321984757608789 ], [ -71.3756599628652, -35.322113250907343 ], [ -71.375005567130202, -35.322126187446834 ], [ -71.374127704688462, -35.321963105540718 ], [ -71.373475241229613, -35.322039061096127 ], [ -71.372824267177521, -35.322169037795085 ], [ -71.372326012113589, -35.322539409479702 ], [ -71.371901820449921, -35.322962306418326 ], [ -71.371770069937085, -35.323442675107728 ], [ -71.371560740916337, -35.323744307199256 ], [ -71.371347400917813, -35.323837774513436 ], [ -71.371129698700287, -35.323933023477224 ], [ -71.371030958579183, -35.323874924671664 ], [ -71.37083347204883, -35.323758504123482 ], [ -71.370390196575244, -35.32352838318134 ], [ -71.36995569135378, -35.323595465088218 ], [ -71.369741672228912, -35.323690418232054 ], [ -71.369668552059721, -35.323722794126851 ], [ -71.369304737962921, -35.323729927772 ], [ -71.368645066422232, -35.323562602473395 ], [ -71.368205434515446, -35.323454025360327 ], [ -71.367833309205636, -35.323163866345901 ], [ -71.367459346841059, -35.322810603660379 ], [ -71.367324431563489, -35.322723081525069 ], [ -71.367014463383128, -35.32252179388707 ], [ -71.366361676530772, -35.322593211993677 ], [ -71.365854450890438, -35.32266620733153 ], [ -71.365096147026492, -35.322848829516246 ], [ -71.365059817359793, -35.322857515609101 ], [ -71.364259795734057, -35.32287324453695 ], [ -71.363889391596317, -35.322641599484101 ], [ -71.364023683443094, -35.322497482838422 ], [ -71.364171688970984, -35.322338550891025 ], [ -71.363728435955281, -35.322108330624111 ], [ -71.363366424777254, -35.322174044562487 ], [ -71.363009927458435, -35.322419907170719 ], [ -71.36236771198034, -35.322851613229155 ], [ -71.361647396073138, -35.323104584756251 ], [ -71.361273419335532, -35.323068914049522 ], [ -71.361136895175278, -35.32305600038201 ], [ -71.360995647673278, -35.323001455707356 ], [ -71.360548122270075, -35.322828611314065 ], [ -71.359955995953939, -35.3224795857857 ], [ -71.359371035498782, -35.322373814401899 ], [ -71.358771042635681, -35.322566229384314 ], [ -71.358577859933845, -35.322628190278365 ], [ -71.357769560332756, -35.322346511421799 ], [ -71.357012868046439, -35.321347145348781 ], [ -71.356637259069956, -35.320935246077681 ], [ -71.356232347947213, -35.320767830705051 ], [ -71.355679881352529, -35.320539266126538 ], [ -71.354773118311471, -35.320654710607322 ], [ -71.354592590177049, -35.320677649373181 ], [ -71.354152898981454, -35.320569022209355 ], [ -71.353807258701138, -35.320481600995457 ], [ -71.353153012984777, -35.320316151228063 ], [ -71.352613951949095, -35.320179766161054 ], [ -71.352500689663117, -35.320126734587809 ], [ -71.352245199813169, -35.320006685584048 ], [ -71.35158389333867, -35.319780737754506 ], [ -71.351067927090611, -35.319551884526859 ], [ -71.350486296690235, -35.319563124646926 ], [ -71.349831998871565, -35.319575922329832 ], [ -71.349034095473272, -35.319654572329334 ], [ -71.348599587556876, -35.319721578289354 ], [ -71.347854116126769, -35.319790783835415 ], [ -71.347801188288557, -35.319795652218865 ], [ -71.347728360071827, -35.319738654293147 ], [ -71.347503694114224, -35.319562612299791 ], [ -71.346913106612121, -35.319276556436698 ], [ -71.346404417616213, -35.319286434729221 ], [ -71.345743129108001, -35.319060378605585 ], [ -71.345377640551519, -35.31900891266924 ], [ -71.344714666803824, -35.318724324470757 ], [ -71.344129619212111, -35.318613975111376 ], [ -71.343553283482024, -35.318805411718962 ], [ -71.342910897324032, -35.319237019799537 ], [ -71.342412115847367, -35.319602775468184 ], [ -71.341913239149278, -35.31996853094838 ], [ -71.341435934594401, -35.320095195034092 ], [ -71.340686087470559, -35.320294263431407 ], [ -71.340445743216293, -35.320123975701932 ], [ -71.339943255290777, -35.3197677979079 ], [ -71.339464402938674, -35.319662606421403 ], [ -71.338698749059077, -35.319494434185486 ], [ -71.338194795083012, -35.319684445280011 ], [ -71.337698073443278, -35.320113206957373 ], [ -71.337190790310771, -35.320181578785935 ], [ -71.336537986390425, -35.320252836241281 ], [ -71.336165984149801, -35.319962574850905 ], [ -71.335805639346617, -35.320086734398295 ], [ -71.335528690541153, -35.320569799882556 ], [ -71.335471261245061, -35.321107256014947 ], [ -71.335050468806386, -35.321651733926458 ], [ -71.334379005080976, -35.321817200017783 ], [ -71.334255894564564, -35.321847492150376 ], [ -71.333380091061457, -35.321747137186563 ], [ -71.33285889302519, -35.321338047172702 ], [ -71.332525214711211, -35.321164598198713 ], [ -71.331972567555169, -35.320877441233691 ], [ -71.331686870955465, -35.321063138552617 ], [ -71.331103542739186, -35.321015831964161 ], [ -71.33096971532143, -35.320945895973409 ], [ -71.330785845454116, -35.320849602687574 ], [ -71.330438787632318, -35.320668134066651 ], [ -71.329496910345114, -35.320807919245823 ], [ -71.328845862631169, -35.320937735206925 ], [ -71.328196619632621, -35.321130503960447 ], [ -71.327402027424455, -35.321326069213036 ], [ -71.326529504568768, -35.32134287001972 ], [ -71.326394448255698, -35.321701558566673 ], [ -71.326408131394103, -35.322179008818594 ], [ -71.326127276713791, -35.322540503765978 ], [ -71.325283404725781, -35.322680363400259 ], [ -71.324896442840725, -35.32274452303507 ], [ -71.324529138789032, -35.322629889975005 ], [ -71.324163122023151, -35.322409111612913 ], [ -71.323862848461346, -35.322228054743704 ], [ -71.322983480443199, -35.322006068116679 ], [ -71.321821469199008, -35.321976410777914 ], [ -71.32167296151286, -35.321972691791004 ], [ -71.32159637833827, -35.321919294185577 ], [ -71.321004885334375, -35.321507737186771 ], [ -71.320489348481033, -35.321278742255672 ], [ -71.319613253025452, -35.321173788013944 ], [ -71.318747547484477, -35.321429295682982 ], [ -71.317957714550687, -35.321805116584152 ], [ -71.317383731508329, -35.322252410583161 ], [ -71.317175007053748, -35.322415036013524 ], [ -71.316143492274236, -35.321957022056864 ], [ -71.315916898532038, -35.321663909735051 ], [ -71.315979238917805, -35.321306625364393 ], [ -71.315810278389264, -35.320961749876197 ], [ -71.315747416980642, -35.32083327893541 ], [ -71.315593681099543, -35.320538770643701 ], [ -71.314857808168242, -35.320250908542427 ], [ -71.314346980283617, -35.320202057119886 ], [ -71.313917482271549, -35.320449176893177 ], [ -71.313637153105674, -35.320815137438593 ], [ -71.313143357278847, -35.321360940301474 ], [ -71.31263392178289, -35.321623689687151 ], [ -71.312426219611112, -35.32173075351357 ], [ -71.31208099345416, -35.321681900053257 ], [ -71.311975056929342, -35.32166694269263 ], [ -71.311695965641917, -35.321627530360281 ], [ -71.311554741496096, -35.321588433911586 ], [ -71.310889127599822, -35.32140406664633 ], [ -71.310150287533133, -35.320999037686164 ], [ -71.309855992259529, -35.320887468121427 ], [ -71.309282805124511, -35.321037918930152 ], [ -71.309133718923349, -35.321077099935188 ], [ -71.308408468570278, -35.32114951687263 ], [ -71.307385325190907, -35.320993300086272 ], [ -71.306865149437428, -35.320815290627287 ], [ -71.306724116632779, -35.320766954084107 ], [ -71.305839598573087, -35.320364678611476 ], [ -71.304821726507811, -35.320384094833997 ], [ -71.304463313980804, -35.320390930457336 ], [ -71.303731090904506, -35.32040489049006 ], [ -71.302917781399103, -35.319942675501153 ], [ -71.302322353774287, -35.319480734933741 ], [ -71.301943790238823, -35.318951521313259 ], [ -71.301566805043308, -35.318480983809259 ], [ -71.301186106212427, -35.317888816966246 ], [ -71.301041106447471, -35.317757397463744 ], [ -71.300737973548095, -35.317482624001478 ], [ -71.299931562205742, -35.317259077732622 ], [ -71.298918918335417, -35.317458678666064 ], [ -71.297679084241537, -35.3173605568116 ], [ -71.297179946133696, -35.317297231447711 ], [ -71.296876029903416, -35.317258552177002 ], [ -71.29648160301835, -35.31681668771261 ], [ -71.29635003037194, -35.316669130255448 ], [ -71.295726564530469, -35.316226667373073 ], [ -71.295533487829829, -35.31608972932154 ], [ -71.295068031155239, -35.315627054994494 ], [ -71.29471029685628, -35.315271478253564 ], [ -71.294333010725168, -35.314800924468337 ], [ -71.293956085716786, -35.314330287313282 ], [ -71.293871618028945, -35.31391716407088 ], [ -71.293787295868171, -35.31349960757295 ], [ -71.293763129390385, -35.313444607106561 ], [ -71.293553971947844, -35.312967682912614 ], [ -71.293544658214969, -35.312637909754827 ], [ -71.293540574473695, -35.312490145287782 ], [ -71.292943475084115, -35.311965122162256 ], [ -71.292356880593474, -35.311795987562064 ], [ -71.291773719463862, -35.311748411657213 ], [ -71.291028090828576, -35.311108998222274 ], [ -71.290292382288968, -35.310820906830493 ], [ -71.289780425222048, -35.310713484025754 ], [ -71.289051584302783, -35.310668729735205 ], [ -71.288539047822496, -35.310556660637268 ], [ -71.287949171786124, -35.310270370595603 ], [ -71.287574170070769, -35.30986274142343 ], [ -71.287127765765064, -35.309510666838648 ], [ -71.286698234515313, -35.309757690262984 ], [ -71.286557707462165, -35.309940610631749 ], [ -71.286199241934554, -35.310123221969839 ], [ -71.285318355763579, -35.309842349904628 ], [ -71.284681549041835, -35.309568524524167 ], [ -71.284655649713869, -35.309557420830735 ], [ -71.284496170903154, -35.309358166929478 ], [ -71.284278806452178, -35.309086749499791 ], [ -71.283974578506488, -35.308619210774062 ], [ -71.283233978640155, -35.308155483535351 ], [ -71.28199145588863, -35.307940052306321 ], [ -71.281332064622319, -35.307772163587259 ], [ -71.280887467726956, -35.307483095576906 ], [ -71.280732240642493, -35.307130006309883 ], [ -71.280343306955402, -35.306240318621157 ], [ -71.279750204170512, -35.305836925497104 ], [ -71.279024691509377, -35.305909093632934 ], [ -71.278372021438031, -35.305980033770823 ], [ -71.277579081231679, -35.306233874006253 ], [ -71.276564736850531, -35.306370105183099 ], [ -71.275261151117547, -35.306574986306906 ], [ -71.273957466569897, -35.306779855182484 ], [ -71.273165870243204, -35.30709220334461 ], [ -71.272445743880525, -35.307344641369411 ], [ -71.271571698380441, -35.30730243560982 ], [ -71.270704204293722, -35.307494566828666 ], [ -71.270272991397775, -35.307682929563882 ], [ -71.270067046330681, -35.307753777977709 ], [ -71.269912498372591, -35.307806896103642 ], [ -71.269484679311773, -35.308116892993318 ], [ -71.268759498129, -35.308189142665846 ], [ -71.268657702837643, -35.308208701828782 ], [ -71.267384738876061, -35.308453836436271 ], [ -71.266667487122291, -35.308823309148941 ], [ -71.266533941775521, -35.309245046999678 ], [ -71.266256118909297, -35.309723472459758 ], [ -71.265471611188516, -35.310279114484828 ], [ -71.26474604373017, -35.310351273526592 ], [ -71.264125270139601, -35.310317487011012 ], [ -71.263944724038851, -35.310307724178848 ], [ -71.263701403666033, -35.310224329546266 ], [ -71.263606872152067, -35.310281558492612 ], [ -71.26325851536636, -35.310531484653715 ], [ -71.262918438352614, -35.310781180597594 ], [ -71.262539684374318, -35.310991131314715 ], [ -71.26216847265114, -35.311209949160478 ], [ -71.261809373811261, -35.311446484117553 ], [ -71.261426545074826, -35.311642993491795 ], [ -71.260972394596422, -35.31171455535312 ], [ -71.260516431317768, -35.311750112315607 ], [ -71.260059803285813, -35.311781249751618 ], [ -71.259606807142546, -35.311839270747477 ], [ -71.259153596301928, -35.311892864133569 ], [ -71.258697666260943, -35.311932918222752 ], [ -71.258225761479252, -35.311968764640163 ], [ -71.257783922411818, -35.312049094834549 ], [ -71.257581045091428, -35.31236393110364 ], [ -71.257421557297562, -35.312722930699707 ], [ -71.257247772815958, -35.313073261351299 ], [ -71.257059327828927, -35.313414782429739 ], [ -71.256851484621635, -35.313752161212236 ], [ -71.256632406185091, -35.314080812702599 ], [ -71.256405038993407, -35.314409544955573 ], [ -71.25616553466395, -35.314729569115947 ], [ -71.255910918874747, -35.315040790728538 ], [ -71.255659272017581, -35.315351956167767 ], [ -71.255405948005773, -35.315667656989632 ], [ -71.255156729294811, -35.315978776036786 ], [ -71.254925536178362, -35.316303146548691 ], [ -71.254715967307405, -35.316640627630271 ], [ -71.254523361323962, -35.316982221604455 ], [ -71.254346727386263, -35.317328022975069 ], [ -71.254200276842127, -35.317686850274328 ], [ -71.25417049499552, -35.318061517992092 ], [ -71.254191393402294, -35.318444251171272 ], [ -71.254265587058242, -35.318812402134171 ], [ -71.254438545089783, -35.319151756490875 ], [ -71.25472054961368, -35.319452964073186 ], [ -71.254964151159143, -35.319772906706781 ], [ -71.255142587117305, -35.3201211677072 ], [ -71.255316127257146, -35.320465014035172 ], [ -71.255517278913885, -35.320803765559702 ], [ -71.255707659770366, -35.321147224182461 ], [ -71.255822176104459, -35.321510189650681 ], [ -71.255888709825967, -35.321887639524888 ], [ -71.255921199194873, -35.322265577245759 ], [ -71.255784852901044, -35.322615132883449 ], [ -71.255586258747925, -35.322952336957286 ], [ -71.255353589699439, -35.323285818499464 ], [ -71.255104597363939, -35.32360586836743 ], [ -71.254825641722121, -35.323895093505733 ], [ -71.254511632919616, -35.324171382132143 ], [ -71.254211830973318, -35.324456341076861 ], [ -71.253953127849599, -35.32476770848676 ], [ -71.253776859526226, -35.325104567172055 ], [ -71.253547960706996, -35.325415304707192 ], [ -71.253266249033885, -35.325803680238728 ], [ -71.252930220727151, -35.326215516596825 ], [ -71.252418046267906, -35.326540542308614 ], [ -71.251939979043371, -35.32667573226847 ], [ -71.250318016898987, -35.326728470048174 ], [ -71.249194534397304, -35.326325719993804 ], [ -71.248899072212154, -35.326394285187547 ], [ -71.248603969353127, -35.326462842994054 ], [ -71.248308508066273, -35.326531479896531 ], [ -71.248013133916018, -35.32660004125124 ], [ -71.247718030158666, -35.326668669975241 ], [ -71.247422532939225, -35.326732802259166 ], [ -71.247127064465872, -35.326801288686724 ], [ -71.246831600484072, -35.32686992237025 ], [ -71.246536494031787, -35.326938475375975 ], [ -71.246241029151676, -35.32700710821009 ], [ -71.245945743036316, -35.327075735855651 ], [ -71.245650635685706, -35.327144286488128 ], [ -71.245355169008974, -35.327212916215906 ], [ -71.245059698738984, -35.327281472595288 ], [ -71.244764588693414, -35.32735002085461 ], [ -71.24446908518577, -35.327414144536107 ], [ -71.244173704747297, -35.327482697080349 ], [ -71.243878235375632, -35.327551324322158 ], [ -71.243583125330048, -35.327619943443779 ], [ -71.243287650568476, -35.327688421057921 ], [ -71.242992179400176, -35.327757045193493 ], [ -71.242697064863037, -35.327825588652139 ], [ -71.242401773357784, -35.327894209006779 ], [ -71.242106300392862, -35.327962831501871 ], [ -71.241811184957399, -35.32803137258739 ], [ -71.241515709297516, -35.328099920210832 ], [ -71.241220110568449, -35.328164038167223 ], [ -71.240924723841758, -35.328232582746594 ], [ -71.240629698237839, -35.328301192495275 ], [ -71.240334221679646, -35.328369811713308 ], [ -71.240038741528195, -35.32843828136329 ], [ -71.239743624296096, -35.328506891670273 ], [ -71.239448145042971, -35.328575433760236 ], [ -71.239152757417969, -35.328644048348146 ], [ -71.238857639287573, -35.328712655548919 ], [ -71.238562248069329, -35.32878119453288 ], [ -71.238266642153732, -35.328845232064189 ], [ -71.237971161103957, -35.328913844224417 ], [ -71.237676037583654, -35.328982376441814 ], [ -71.237380646365409, -35.329050985554105 ], [ -71.237085255147164, -35.329119594608152 ], [ -71.236790130728565, -35.329188124452493 ], [ -71.236494646085532, -35.329256658635984 ], [ -71.236199250375705, -35.329325192028499 ], [ -71.235904125957092, -35.329393793521 ], [ -71.235608641314059, -35.329462400085433 ], [ -71.235313152179444, -35.329530859282535 ], [ -71.235017632502107, -35.329594961446354 ], [ -71.234722507185182, -35.329663559045493 ], [ -71.234427108780423, -35.329732087695753 ], [ -71.23413162144243, -35.329800691041548 ], [ -71.233836491633951, -35.329869213712541 ], [ -71.233541001601012, -35.329937742188434 ], [ -71.233245512466411, -35.330006343161074 ], [ -71.232950470692799, -35.330074861993346 ], [ -71.232654980659873, -35.33014346211673 ], [ -71.232359580458478, -35.330212059250414 ], [ -71.232063963763096, -35.330276081723554 ], [ -71.231768831259643, -35.33034459886143 ], [ -71.231473429261627, -35.330413194358655 ], [ -71.231177934737119, -35.330481717243259 ], [ -71.230882800437044, -35.330550306028265 ], [ -71.230587305014211, -35.330618828063812 ], [ -71.230291989254454, -35.330687344911141 ], [ -71.229996854954379, -35.330755931323047 ], [ -71.229701359531546, -35.330824525005475 ], [ -71.22940585961716, -35.330892969857281 ], [ -71.229110453127547, -35.3309615590262 ], [ -71.228815103231824, -35.331025643199474 ], [ -71.228519694047264, -35.331094156770476 ], [ -71.228224284862719, -35.331162745035805 ], [ -71.227929055341221, -35.331231255559146 ], [ -71.22763364436004, -35.331299767490144 ], [ -71.22733823517548, -35.33136835338243 ], [ -71.227043095485513, -35.331436933353558 ], [ -71.22674759287618, -35.331505445110217 ], [ -71.226452089368507, -35.331573956808839 ], [ -71.226156677489016, -35.331642540269826 ], [ -71.22586140933997, -35.331706540356976 ], [ -71.225565906730623, -35.331775123705469 ], [ -71.225270491257874, -35.331843630045469 ], [ -71.224975346177999, -35.331912131197363 ], [ -71.224679932501871, -35.331980711439989 ], [ -71.224384427197577, -35.332049290891547 ], [ -71.224089280321095, -35.332117790403451 ], [ -71.223793863950021, -35.332186367540125 ], [ -71.22349835505247, -35.332254871332999 ], [ -71.223202846154919, -35.332323375800669 ], [ -71.222907699278437, -35.332391946167235 ], [ -71.222612158041557, -35.332456017480716 ], [ -71.22231673538225, -35.332524443362502 ], [ -71.222021586709147, -35.33259301135994 ], [ -71.221726076913285, -35.332661585161993 ], [ -71.221430564422462, -35.332730084887807 ], [ -71.22113550378424, -35.332798649046516 ], [ -71.22083999039512, -35.332867147190477 ], [ -71.22054447610769, -35.332935644543518 ], [ -71.220248963616868, -35.33300421439067 ], [ -71.21995390208032, -35.333072776118264 ], [ -71.219658261130448, -35.333136694459533 ], [ -71.219362837572845, -35.333205261204725 ], [ -71.219067592779979, -35.333273824227469 ], [ -71.218772255460664, -35.333342313907416 ], [ -71.218476737579962, -35.33341080646067 ], [ -71.218181582618627, -35.333479365644841 ], [ -71.21786285766089, -35.333552786463102 ], [ -71.216842725434333, -35.333675189033286 ], [ -71.214935947039223, -35.334634146632673 ], [ -71.214267609450999, -35.334957444919425 ], [ -71.213740078291963, -35.335368181566842 ], [ -71.212947508191519, -35.335828964365433 ], [ -71.212447773602321, -35.336198643974583 ], [ -71.212004292414548, -35.33659889869346 ], [ -71.211477345160475, -35.337068249851576 ], [ -71.206705259012608, -35.335636579484785 ], [ -71.204755568096374, -35.33651500281286 ], [ -71.202542421070234, -35.335046933186469 ], [ -71.202439709497298, -35.335004718433623 ], [ -71.202000791751146, -35.334824255521141 ], [ -71.201325783273617, -35.334604743823348 ], [ -71.200396573130234, -35.334475743469568 ], [ -71.199588972418454, -35.334338097624752 ], [ -71.19882400754669, -35.334283857361676 ], [ -71.198733169905168, -35.334290606067732 ], [ -71.197968586817396, -35.33434690486699 ], [ -71.19743728093755, -35.334438244222866 ], [ -71.196763893020773, -35.334484385075825 ], [ -71.196429664937853, -35.334445413564254 ], [ -71.196039973970983, -35.334195206617423 ], [ -71.195969857768105, -35.334201797770554 ], [ -71.195873316722825, -35.334210937003618 ], [ -71.195812395675219, -35.334247565743723 ], [ -71.195700812340519, -35.334703246343643 ], [ -71.195459066714406, -35.3348615391359 ], [ -71.194803869682147, -35.334980670561315 ], [ -71.194322316994317, -35.335165840825411 ], [ -71.193417194276975, -35.335431069935474 ], [ -71.192903232170323, -35.335407683200849 ], [ -71.192453017211164, -35.33530537522612 ], [ -71.192137722919483, -35.335180087774724 ], [ -71.192014939389821, -35.335158609990167 ], [ -71.191916613392081, -35.335068378023301 ], [ -71.191769721775131, -35.335028579426734 ], [ -71.191403950249324, -35.335002867300979 ], [ -71.1903491717989, -35.335116149064575 ], [ -71.189579873454221, -35.33529883619385 ], [ -71.189011414152532, -35.335576985330832 ], [ -71.188810308309883, -35.335675524040241 ], [ -71.188677578633389, -35.335702963221159 ], [ -71.18692953614223, -35.336764507868445 ], [ -71.18611036782454, -35.337154261519181 ], [ -71.186067087892454, -35.337210357533202 ], [ -71.186062319634942, -35.337270851840259 ], [ -71.185278491938831, -35.337902333167392 ], [ -71.184895042466536, -35.33821123493329 ], [ -71.184144561132101, -35.338930354291357 ], [ -71.183268402794454, -35.339983396523948 ], [ -71.182982690923396, -35.340421681502569 ], [ -71.182788438328046, -35.340651759481901 ], [ -71.182374603341273, -35.341647775551884 ], [ -71.182340317341811, -35.342376765443788 ], [ -71.182352260443537, -35.34323607628081 ], [ -71.18238943811987, -35.343559305713839 ], [ -71.182574411118338, -35.34463880929988 ], [ -71.182619653869324, -35.345348786970312 ], [ -71.18253011249675, -35.34586313721406 ], [ -71.182422519478536, -35.345954511180324 ], [ -71.182213060202045, -35.346132430107794 ], [ -71.181697505382402, -35.346380641509839 ], [ -71.181614333065184, -35.346431696544805 ], [ -71.164513289156034, -35.359237777588241 ], [ -71.164349065444, -35.359448087447284 ], [ -71.164186942891419, -35.359662865667062 ], [ -71.164021634014517, -35.35987312020611 ], [ -71.163848844866251, -35.36008351046199 ], [ -71.1636658122288, -35.360285073045226 ], [ -71.163476356637034, -35.360482393368521 ], [ -71.163281489594056, -35.360679662660274 ], [ -71.163080252597368, -35.36086803701042 ], [ -71.162873431672864, -35.361056583813578 ], [ -71.162654021757973, -35.361236272387067 ], [ -71.162413284939944, -35.361393818696328 ], [ -71.16214467519525, -35.36150681583959 ], [ -71.161848490764612, -35.361579688851016 ], [ -71.161541582246102, -35.361625723362074 ], [ -71.161237137806424, -35.361649189685373 ], [ -71.160930952431713, -35.361668256068057 ], [ -71.160623080919237, -35.361678194379735 ], [ -71.160314974946459, -35.361679273484306 ], [ -71.160007734051305, -35.361675684527597 ], [ -71.159702420940746, -35.361663198268374 ], [ -71.159399177548593, -35.361623497753264 ], [ -71.159095635915776, -35.361579370906718 ], [ -71.158790922879817, -35.361548778652562 ], [ -71.158484915371545, -35.361527143777629 ], [ -71.158178161363281, -35.361514678740541 ], [ -71.157869330450055, -35.361502103080298 ], [ -71.157561220884034, -35.361503102334758 ], [ -71.15725674590162, -35.361522053735115 ], [ -71.156957403892747, -35.361567942493494 ], [ -71.156661816841776, -35.361636361302509 ], [ -71.15636844862955, -35.361713675153588 ], [ -71.156078023298207, -35.36180001955001 ], [ -71.155789402682245, -35.361886330887671 ], [ -71.155501858248002, -35.361972547629357 ], [ -71.155216055647102, -35.362063238182714 ], [ -71.154931454992038, -35.362158486047349 ], [ -71.154648686001849, -35.362258204029644 ], [ -71.15436837839556, -35.362362383322044 ], [ -71.154091703576256, -35.362471001197171 ], [ -71.153816500197379, -35.36258409719656 ], [ -71.153540813524899, -35.362692622468288 ], [ -71.153261945019665, -35.362796774094647 ], [ -71.152978778075806, -35.362891916335151 ], [ -71.152687867654194, -35.362973756315384 ], [ -71.152393860739807, -35.363051146538908 ], [ -71.152100003844069, -35.363123954422242 ], [ -71.151810740034378, -35.363210267274845 ], [ -71.151529464044188, -35.363305373131915 ], [ -71.151264974871708, -35.363431786886572 ], [ -71.151010034790701, -35.363571544984367 ], [ -71.150752119489482, -35.363711354852789 ], [ -71.150482912365135, -35.363833346178829 ], [ -71.150208419553664, -35.363946421955532 ], [ -71.149938217095979, -35.364068355786024 ], [ -71.149651137090729, -35.364186158487833 ], [ -71.149350628170325, -35.364304199834159 ], [ -71.149139653435952, -35.364470273798744 ], [ -71.149055243240284, -35.364697090041162 ], [ -71.148981464605995, -35.364937304171121 ], [ -71.148911468777385, -35.365177377667713 ], [ -71.148844627832034, -35.365417468764257 ], [ -71.148781330740491, -35.365662001351261 ], [ -71.148720736679621, -35.365906485581675 ], [ -71.148662575256552, -35.366150927316347 ], [ -71.148606874319029, -35.366399755533742 ], [ -71.148553219743746, -35.366644190646923 ], [ -71.148501393240068, -35.366892949949971 ], [ -71.148450948345285, -35.3671462641529 ], [ -71.148401914703811, -35.36739497356119 ], [ -71.148353423644778, -35.36764374813135 ], [ -71.148305771612215, -35.36789701163103 ], [ -71.148258482499017, -35.368150343193939 ], [ -71.148211428744446, -35.368399017277227 ], [ -71.148164136936316, -35.368652274744484 ], [ -71.148116095034936, -35.368901040312025 ], [ -71.148067719858574, -35.36915424346256 ], [ -71.148018324196045, -35.369403032388675 ], [ -71.147967487635796, -35.369651848383604 ], [ -71.147915300009345, -35.369900687784494 ], [ -71.147860948341403, -35.370149565241377 ], [ -71.147815244754682, -35.370398215585105 ], [ -71.147747644732931, -35.370647328840526 ], [ -71.147657126891644, -35.370892419869101 ], [ -71.147551225401116, -35.37112862561429 ], [ -71.14741342473485, -35.371351884431405 ], [ -71.147234385108845, -35.371553426205544 ], [ -71.147027498607329, -35.37174194805241 ], [ -71.146807393396401, -35.371921620899414 ], [ -71.146574970486313, -35.372092430155789 ], [ -71.146295930402886, -35.372259709163991 ], [ -71.145988767661137, -35.372427412670852 ], [ -71.145678812955509, -35.372595239620189 ], [ -71.145391204740889, -35.372762595230036 ], [ -71.14515045714306, -35.37292904440578 ], [ -71.144981927805873, -35.373098861941415 ], [ -71.144910849507312, -35.373271453770776 ], [ -71.144946650066331, -35.373455589160208 ], [ -71.145044966182596, -35.373634108929245 ], [ -71.145192400381987, -35.373811755920315 ], [ -71.145380872318498, -35.373993252424114 ], [ -71.145602687921709, -35.374174082698879 ], [ -71.145848687968993, -35.374359061304474 ], [ -71.146111060710666, -35.374539170006166 ], [ -71.146381126624419, -35.374723720011666 ], [ -71.146650831415428, -35.374908202207941 ], [ -71.146911615037354, -35.375092842195507 ], [ -71.147155187836745, -35.375277861178148 ], [ -71.147373587146944, -35.375458747903963 ], [ -71.147579878065415, -35.37564886105946 ], [ -71.147783617768496, -35.375834513078637 ], [ -71.147985405432451, -35.376024778432864 ], [ -71.148185123377985, -35.376215079961369 ], [ -71.148382885691149, -35.376409846825091 ], [ -71.148579176563885, -35.376600134993765 ], [ -71.148779376904727, -35.376794931691087 ], [ -71.148981798779289, -35.376985109816488 ], [ -71.149166377417345, -35.377189193036735 ], [ -71.14931219824247, -35.377407406839978 ], [ -71.149420167654782, -35.37763995619607 ], [ -71.149503438786681, -35.377886311425129 ], [ -71.149568055503394, -35.378133072406435 ], [ -71.149620174857844, -35.378384560520608 ], [ -71.149658381105198, -35.378631717690787 ], [ -71.14967949780258, -35.378883757970527 ], [ -71.149692774004166, -35.379136010600462 ], [ -71.149706828146776, -35.379383598334307 ], [ -71.149731098829122, -35.379635581333382 ], [ -71.149766364890553, -35.379887370185472 ], [ -71.149802893084953, -35.380139134814279 ], [ -71.149840471409917, -35.380386303455438 ], [ -71.149879523870268, -35.380638024779564 ], [ -71.149918998538809, -35.380885232175203 ], [ -71.149959133469054, -35.381136934364783 ], [ -71.149999778642396, -35.381384121189072 ], [ -71.15004045346015, -35.381635739060037 ], [ -71.150081100430128, -35.381882925820868 ], [ -71.150121659365198, -35.382130187994356 ], [ -71.150161702667319, -35.382381817454139 ], [ -71.150200998571094, -35.382629029027832 ], [ -71.150239242547698, -35.382880763129286 ], [ -71.15027682716088, -35.383128005399449 ], [ -71.150310384626607, -35.383379822901468 ], [ -71.150339973335434, -35.383631638152643 ], [ -71.150368004365575, -35.383879049500379 ], [ -71.150395884478726, -35.384130969389211 ], [ -71.150426017566616, -35.384382847477816 ], [ -71.150460536229716, -35.384630070496819 ], [ -71.150500497785131, -35.384881847423557 ], [ -71.150547877628171, -35.385124410264325 ], [ -71.150599643046419, -35.385375829714093 ], [ -71.15065997300259, -35.385627171481183 ], [ -71.150734485560463, -35.385869250181301 ], [ -71.15082924883977, -35.386106389065837 ], [ -71.150956403571612, -35.386334016018417 ], [ -71.151144314061071, -35.38653353273682 ], [ -71.151357734907947, -35.386719005182385 ], [ -71.151552227353491, -35.386918403038479 ], [ -71.151686115856677, -35.387141330352186 ], [ -71.151842751499515, -35.387354915842025 ], [ -71.152079003927668, -35.387612131514977 ], [ -71.152430373662838, -35.387759105358555 ], [ -71.152726319141621, -35.387825980869721 ], [ -71.153012976040372, -35.387919975304399 ], [ -71.153298312415629, -35.38801857098823 ], [ -71.153529745382272, -35.388172259001003 ], [ -71.15369822261718, -35.388390062277914 ], [ -71.153846872237139, -35.388608219421819 ], [ -71.153989093512905, -35.388835574206034 ], [ -71.154127859868112, -35.389058485235957 ], [ -71.15426689571791, -35.389281318021823 ], [ -71.154410443805361, -35.389504216834759 ], [ -71.154560719375979, -35.389722343868733 ], [ -71.154722983862371, -35.389940256471483 ], [ -71.154905144235698, -35.390139868260718 ], [ -71.155113957623485, -35.390320986037274 ], [ -71.155318952273007, -35.390511031949686 ], [ -71.155503578521774, -35.39071510438918 ], [ -71.15569688788608, -35.390909937309381 ], [ -71.155783713651545, -35.391098843072378 ], [ -71.155925089612651, -35.391497317850416 ], [ -71.156203389484304, -35.391845788883998 ], [ -71.156515112074416, -35.391823754230622 ], [ -71.15687546316579, -35.391853208707424 ], [ -71.157683398949189, -35.391760791140207 ], [ -71.158585064949321, -35.391757451776535 ], [ -71.159462078483102, -35.391353917950873 ], [ -71.15991995068174, -35.39103298014858 ], [ -71.160458720663271, -35.390729276362158 ], [ -71.161034976443304, -35.390563144388274 ], [ -71.161580687707058, -35.390600788207728 ], [ -71.16194957998016, -35.390399740729876 ], [ -71.162178562342717, -35.390173726126569 ], [ -71.16286925899837, -35.389825493200227 ], [ -71.163375424626665, -35.389648937495203 ], [ -71.163673432637339, -35.389468428978859 ], [ -71.164331996555291, -35.389399689564563 ], [ -71.164715804455355, -35.389170083692342 ], [ -71.16513164448186, -35.388637637723392 ], [ -71.165949597378969, -35.388304313164895 ], [ -71.166225921855329, -35.388291232696808 ], [ -71.167411476146469, -35.388124331127976 ], [ -71.167630891451253, -35.387855055251123 ], [ -71.168196908233682, -35.387395377800907 ], [ -71.168581283869017, -35.387083332662641 ], [ -71.168659316026179, -35.386905876742659 ], [ -71.168906900701643, -35.386628042796566 ], [ -71.169275517191949, -35.385970298146702 ], [ -71.169891946529802, -35.385673134419527 ], [ -71.170212592983944, -35.385588059130477 ], [ -71.170705370121254, -35.385499003302158 ], [ -71.171377303665565, -35.38554024177504 ], [ -71.171687613205748, -35.385517011630547 ], [ -71.172204303495917, -35.385388306446032 ], [ -71.172593650408047, -35.38523899639813 ], [ -71.173233988407191, -35.384788371635437 ], [ -71.174494439735156, -35.383534258002875 ], [ -71.174550219724409, -35.383247311718179 ], [ -71.17469545035641, -35.382987186232384 ], [ -71.174775675301163, -35.382767741710374 ], [ -71.174729794746341, -35.38248631793099 ], [ -71.175105211483356, -35.38166449121573 ], [ -71.175231846090639, -35.381386976858693 ], [ -71.175279791872299, -35.38128191246566 ], [ -71.175616890970872, -35.380699009505207 ], [ -71.175664368730281, -35.380616846922841 ], [ -71.175766994963269, -35.380439313057209 ], [ -71.176326648978531, -35.379595405523432 ], [ -71.176684345548267, -35.37935005894068 ], [ -71.177261629000995, -35.379159315093069 ], [ -71.177764696339878, -35.378911418316612 ], [ -71.178278661141476, -35.379082340221437 ], [ -71.179074588246152, -35.378887791481681 ], [ -71.179656621990091, -35.378877288385247 ], [ -71.180673737673914, -35.378800291271531 ], [ -71.180907180171829, -35.378575638725835 ], [ -71.181241695715656, -35.378253673739778 ], [ -71.181755478159261, -35.377513736817832 ], [ -71.181872489114909, -35.377345315828059 ], [ -71.182504968651941, -35.376500064838702 ], [ -71.183512367259326, -35.376067124099549 ], [ -71.18387291508175, -35.375938975890669 ], [ -71.184599163463105, -35.37586720647635 ], [ -71.185837580015459, -35.375903360736984 ], [ -71.186635158223623, -35.375771800461322 ], [ -71.187427501948633, -35.37545991764992 ], [ -71.188134304499016, -35.374671778993473 ], [ -71.18834135359559, -35.374248938073677 ], [ -71.188773029123908, -35.374060852779643 ], [ -71.189558895097392, -35.373510173757239 ], [ -71.1902706249071, -35.372902345962942 ], [ -71.190773248478237, -35.372654331077953 ], [ -71.191493001141751, -35.372343738590487 ], [ -71.192141431164984, -35.372093145803539 ], [ -71.194605968130119, -35.371692294173791 ], [ -71.195700638067336, -35.37178952233905 ], [ -71.196649412619294, -35.371889467950993 ], [ -71.197097389875069, -35.372300481945885 ], [ -71.197472829069966, -35.372712889240113 ], [ -71.197774882194352, -35.37312205097988 ], [ -71.198446122239275, -35.373709334707556 ], [ -71.199112175411742, -35.374111866875431 ], [ -71.199780040486147, -35.374577502502802 ], [ -71.200742272699358, -35.375154967901679 ], [ -71.201395586862773, -35.375084426138876 ], [ -71.202341670062111, -35.375067177981087 ], [ -71.20300465997947, -35.375352547062 ], [ -71.203890918075842, -35.375814176291655 ], [ -71.204333962682384, -35.376044989183747 ], [ -71.204638139424119, -35.376517234317554 ], [ -71.205441698615445, -35.376619685659449 ], [ -71.206314891614326, -35.376603811181404 ], [ -71.207199585743794, -35.377006807933896 ], [ -71.208082479649434, -35.377346764609115 ], [ -71.208894281781795, -35.377751081177017 ], [ -71.209549114996364, -35.37773910279067 ], [ -71.210273628730874, -35.377604144032972 ], [ -71.212327662560639, -35.378165959701903 ], [ -71.213800824168104, -35.378792592654754 ], [ -71.21483255005171, -35.379251471704912 ], [ -71.215715496957941, -35.379591296607664 ], [ -71.216676296358287, -35.380110096470212 ], [ -71.217405782267917, -35.380159770804177 ], [ -71.218125127994597, -35.37984902776001 ], [ -71.218485992922311, -35.379720772031305 ], [ -71.218831840713449, -35.379060790613416 ], [ -71.219475201543517, -35.378629808963105 ], [ -71.220155569370036, -35.378532747977822 ], [ -71.220418106503402, -35.37849535414702 ], [ -71.221011342238924, -35.378124363690731 ], [ -71.22120539450998, -35.378003081725986 ], [ -71.22141551674315, -35.377701683688933 ], [ -71.22162230353166, -35.377278720212935 ], [ -71.221974541039401, -35.376853005627815 ], [ -71.22214329315878, -35.376785801670792 ], [ -71.222857354994972, -35.376501122503889 ], [ -71.222910868534768, -35.376479755320325 ], [ -71.223457727845442, -35.37641083271081 ], [ -71.223999193671148, -35.376342523108555 ], [ -71.224179154968638, -35.376322445006849 ], [ -71.225305662097867, -35.376196756797064 ], [ -71.226177483369312, -35.376515293311847 ], [ -71.226484516753644, -35.37662749508408 ], [ -71.226703110998258, -35.376707355966097 ], [ -71.227510037075248, -35.376931373551074 ], [ -71.228447949198781, -35.376616612282213 ], [ -71.230046966574179, -35.376528536096991 ], [ -71.231355035798742, -35.376441236218639 ], [ -71.232385566923, -35.37684135085194 ], [ -71.233275048174619, -35.377419896523413 ], [ -71.234015765720244, -35.377883991779555 ], [ -71.234753437977048, -35.37823086704438 ], [ -71.235338768538085, -35.37833730507041 ], [ -71.235988617899466, -35.378144865426918 ], [ -71.236266710260281, -35.377661996189012 ], [ -71.236830675290591, -35.376998000948262 ], [ -71.237546916439669, -35.376565574866397 ], [ -71.238263183639901, -35.376137648156742 ], [ -71.238993863410514, -35.376241226500206 ], [ -71.23935308891285, -35.376058809956341 ], [ -71.23991698477289, -35.375390297594912 ], [ -71.24056356067338, -35.375080771856041 ], [ -71.240995199370758, -35.374892501720993 ], [ -71.241643568308547, -35.374641572586398 ], [ -71.242218941044641, -35.374392069531403 ], [ -71.242721674210259, -35.374143838749227 ], [ -71.243365165296041, -35.37371715979593 ], [ -71.243723885046862, -35.37353023424663 ], [ -71.244448327814482, -35.373399577648847 ], [ -71.245898523991727, -35.373192357865342 ], [ -71.246255880998262, -35.372946815284081 ], [ -71.246609806440418, -35.372584066208233 ], [ -71.247181774561611, -35.372212902808265 ], [ -71.247836635623955, -35.372200717036471 ], [ -71.248561058628638, -35.372070036311406 ], [ -71.24942935311428, -35.371873606459886 ], [ -71.249712167020235, -35.37157088094682 ], [ -71.249994705143379, -35.371268086908039 ], [ -71.250499199006953, -35.371078352392125 ], [ -71.251001977088322, -35.37083016122785 ], [ -71.251577379468827, -35.370580538710591 ], [ -71.252301780015628, -35.370449836316887 ], [ -71.252873829883498, -35.370083075762501 ], [ -71.252997731815697, -35.370054769975823 ], [ -71.254355934219618, -35.372662232447588 ], [ -71.25460603777114, -35.373277733359593 ], [ -71.254623377052752, -35.373897579768759 ], [ -71.254582321349304, -35.374518516464363 ], [ -71.254485788388891, -35.375235750951532 ], [ -71.254507018273998, -35.375998639880926 ], [ -71.25460105840952, -35.377284780487955 ], [ -71.254795617330387, -35.377996727795846 ], [ -71.25481552309877, -35.378711862971308 ], [ -71.254480900655423, -35.379242868579908 ], [ -71.252551934771105, -35.381091518151926 ], [ -71.251422080519134, -35.382352925665273 ], [ -71.250748599177584, -35.38327173412074 ], [ -71.250307994395342, -35.384186273291022 ], [ -71.250046113032141, -35.385240595906865 ], [ -71.249950860170998, -35.386005582220221 ], [ -71.24980268126825, -35.386962449386971 ], [ -71.249822551104032, -35.387677658884918 ], [ -71.249784192143068, -35.388393805304325 ], [ -71.249565861104855, -35.388922632182414 ], [ -71.24923239928485, -35.389501307991864 ], [ -71.248844767256614, -35.390224032123712 ], [ -71.248576142240566, -35.391040025829668 ], [ -71.248543071661686, -35.391946968501948 ], [ -71.248686007996454, -35.392898265564583 ], [ -71.248819682700613, -35.393515944482502 ], [ -71.248838224826386, -35.39418347256759 ], [ -71.248686045725691, -35.39499714953093 ], [ -71.248764142561541, -35.395711274302968 ], [ -71.248891200275324, -35.396090549415732 ], [ -71.249073839450688, -35.396373305336148 ], [ -71.249607195286018, -35.396697306214342 ], [ -71.249679912111617, -35.397220709663642 ], [ -71.249460232702162, -35.397701780552907 ], [ -71.249076541583065, -35.398567549050902 ], [ -71.24876025824625, -35.399765998089023 ], [ -71.248781453995392, -35.40052888716226 ], [ -71.248801322932835, -35.401244021747026 ], [ -71.248995898023367, -35.401955902574862 ], [ -71.24947096577317, -35.402280988137804 ], [ -71.249940915820801, -35.402415346925608 ], [ -71.250651585618485, -35.40283144806989 ], [ -71.250951954401714, -35.403159710835709 ], [ -71.250917588452197, -35.404019045413385 ], [ -71.250585493868073, -35.404645330350789 ], [ -71.249686835427525, -35.405854635992497 ], [ -71.249120445844255, -35.406437576805367 ], [ -71.248544774867469, -35.406686826253846 ], [ -71.248257556521679, -35.406835291194831 ], [ -71.248203289295375, -35.406979343023536 ], [ -71.248209822742439, -35.407217748000079 ], [ -71.248331689990493, -35.407406299258376 ], [ -71.248400438059207, -35.407786660077186 ], [ -71.248527606265753, -35.408165933296551 ], [ -71.24872882439783, -35.409116216056255 ], [ -71.248746048695082, -35.409735988422611 ], [ -71.248760535825667, -35.410260474998125 ], [ -71.248779086036279, -35.410927928144773 ], [ -71.248794989810079, -35.411500094007977 ], [ -71.24892737633013, -35.412070016216809 ], [ -71.24923316914105, -35.412589075716937 ], [ -71.249538964646916, -35.413108060857866 ], [ -71.249843441425952, -35.413579438135471 ], [ -71.249914944627633, -35.414055156288654 ], [ -71.24969124885051, -35.414393187293733 ], [ -71.249230598162697, -35.414592592123128 ], [ -71.249001595138907, -35.414739900412613 ], [ -71.248838790765021, -35.415172279958966 ], [ -71.248793801338948, -35.415650169633317 ], [ -71.24863099427013, -35.416082548687754 ], [ -71.248578140093755, -35.416274353862441 ], [ -71.248355757653599, -35.416660063209562 ], [ -71.248598018912688, -35.416989486384736 ], [ -71.248779382480336, -35.417224560045021 ], [ -71.249021559297788, -35.417554057780841 ], [ -71.249029601016204, -35.417840064986791 ], [ -71.249034903771332, -35.418030786162745 ], [ -71.248756833868384, -35.418512944442028 ], [ -71.24876620329681, -35.418846706344482 ], [ -71.248948809234491, -35.419129533982968 ], [ -71.249242786504482, -35.419219393080787 ], [ -71.249540567241397, -35.419452444127906 ], [ -71.249663692130866, -35.419688600643809 ], [ -71.249733875707378, -35.420116638146453 ], [ -71.249809365632288, -35.420735397665098 ], [ -71.249826606099205, -35.421355169245636 ], [ -71.24984508264798, -35.422022621999801 ], [ -71.249919338287683, -35.422593624936944 ], [ -71.249757851742316, -35.423073685721889 ], [ -71.249479861789439, -35.423555917768411 ], [ -71.248906724061754, -35.423900459802397 ], [ -71.248113742532908, -35.424726217409507 ], [ -71.248070159868576, -35.425251711752246 ], [ -71.248164223360305, -35.425626874524369 ], [ -71.248386946261945, -35.426092982060077 ], [ -71.248565593324187, -35.427284053232647 ], [ -71.248300788843039, -35.428244490810364 ], [ -71.248403558806501, -35.429315349408867 ], [ -71.248282812655887, -35.43020996405523 ], [ -71.248301193983238, -35.430867744496886 ], [ -71.248749551226382, -35.431274041283025 ], [ -71.249042406500593, -35.431331649985971 ], [ -71.249548719452591, -35.43120051464377 ], [ -71.250051953878128, -35.430952312333403 ], [ -71.250556578895726, -35.430767148796569 ], [ -71.251001775865689, -35.431056301167168 ], [ -71.251008333567256, -35.431295073350171 ], [ -71.250950663522644, -35.431832498115192 ], [ -71.250596241312138, -35.432195196613051 ], [ -71.250093452450983, -35.432443391432955 ], [ -71.249707788631511, -35.432633647650512 ], [ -71.249590301568787, -35.432691665269871 ], [ -71.249547909172207, -35.432825158701675 ], [ -71.249456405879044, -35.433113315562451 ], [ -71.249478565520477, -35.433909709425059 ], [ -71.249479596786429, -35.43394676136186 ], [ -71.249547115061489, -35.433989884665387 ], [ -71.250295433252731, -35.434467901318833 ], [ -71.250550430825911, -35.434733869086003 ], [ -71.250970743564196, -35.435171990110106 ], [ -71.251132568774423, -35.435254486480261 ], [ -71.251414118750787, -35.435398035906054 ], [ -71.252008204292551, -35.435806178417096 ], [ -71.252081162764995, -35.435804817052549 ], [ -71.25243695580464, -35.435500723501789 ], [ -71.252787902433312, -35.435016384036807 ], [ -71.253656672127732, -35.434819905496241 ], [ -71.254457593865382, -35.434804946403965 ], [ -71.255058345804898, -35.435451696611942 ], [ -71.255434378786191, -35.435863822669262 ], [ -71.25580666399614, -35.436154392752542 ], [ -71.256246879807861, -35.436263357727256 ], [ -71.256529967699962, -35.435960611168149 ], [ -71.25718534170035, -35.435948355982305 ], [ -71.257706586449004, -35.436357758982815 ], [ -71.257804369864317, -35.437248365803676 ], [ -71.258191647058013, -35.438074995106533 ], [ -71.258142418482151, -35.438909717924851 ], [ -71.25813225404471, -35.438943138860651 ], [ -71.257942267548643, -35.439571509739146 ], [ -71.257953970800159, -35.439990443865511 ], [ -71.25819066160615, -35.440639630539614 ], [ -71.25894873190812, -35.441698138055649 ], [ -71.259700328950146, -35.442517941760983 ], [ -71.259870875005149, -35.443411613473849 ], [ -71.260321217525089, -35.443880964787859 ], [ -71.260850994472293, -35.444583216314726 ], [ -71.261020375412372, -35.445418421985266 ], [ -71.261043601354046, -35.44625171332607 ], [ -71.26121414112086, -35.447141025885522 ], [ -71.26137472306273, -35.44767436310952 ], [ -71.261904890777103, -35.448395726944163 ], [ -71.262488737321306, -35.449190224302093 ], [ -71.262586967199297, -35.449323816245901 ], [ -71.263196101318712, -35.450263460706836 ], [ -71.26365814888679, -35.451151657614929 ], [ -71.264116888857998, -35.451918289046581 ], [ -71.264646972130748, -35.452625020550229 ], [ -71.265977854071934, -35.453312133291476 ], [ -71.266719827462325, -35.453775982626894 ], [ -71.267103903958699, -35.454485444059358 ], [ -71.26726289588251, -35.454960168370704 ], [ -71.267357623229202, -35.45573370036746 ], [ -71.267740033350719, -35.456379978758676 ], [ -71.268197109642017, -35.457088064274501 ], [ -71.26858166763536, -35.457797511136434 ], [ -71.268889473570823, -35.45838662852843 ], [ -71.269204444469011, -35.459214576589019 ], [ -71.269302524328353, -35.460109667503858 ], [ -71.269104028989915, -35.460825498778107 ], [ -71.269037666846629, -35.461065639451583 ], [ -71.268836005845117, -35.461668915089639 ], [ -71.268559677775514, -35.462210455428249 ], [ -71.268801497961789, -35.463039705282341 ], [ -71.269116491317845, -35.463867725444757 ], [ -71.269570206113357, -35.464454095645984 ], [ -71.269876980782882, -35.464989246747905 ], [ -71.270107133650257, -35.46539948829021 ], [ -71.270118914156882, -35.465818491366221 ], [ -71.269767857035419, -35.466302806438712 ], [ -71.269118827835911, -35.46654940355117 ], [ -71.269202141188615, -35.467008636053237 ], [ -71.269205145154942, -35.467025564568047 ], [ -71.269652768474486, -35.466951420895256 ], [ -71.270003084485836, -35.466893359196362 ], [ -71.270296227220925, -35.466946475786422 ], [ -71.270453621041838, -35.467362664272493 ], [ -71.270622904065576, -35.467787489640067 ], [ -71.270688943713679, -35.467953139011719 ], [ -71.270889652500983, -35.468176142841095 ], [ -71.271215683456944, -35.468538201289952 ], [ -71.271593248964109, -35.469008875860794 ], [ -71.272037084986422, -35.469239336282691 ], [ -71.272767268887037, -35.469284214836215 ], [ -71.27364142038833, -35.469267743322817 ], [ -71.274366744403238, -35.469136876831321 ], [ -71.275162918544595, -35.468941605345627 ], [ -71.275359152823484, -35.468922101216847 ], [ -71.275889888273127, -35.468869333449113 ], [ -71.27629484071835, -35.468520672434408 ], [ -71.276387729213681, -35.468440716690566 ], [ -71.276385912820189, -35.468376283654997 ], [ -71.276379347033753, -35.4681434232334 ], [ -71.276813156959193, -35.468018043551851 ], [ -71.277074700555858, -35.468013032662476 ], [ -71.277396153697126, -35.468007038470681 ], [ -71.277897451354889, -35.467973352319056 ], [ -71.27870561980194, -35.467919174088628 ], [ -71.279244687125839, -35.467982836358985 ], [ -71.280021953527111, -35.468074633876611 ], [ -71.280534234885863, -35.467931363681508 ], [ -71.281612621960278, -35.467629841000637 ], [ -71.282248418975655, -35.467657101418531 ], [ -71.28256139291895, -35.467670527500189 ], [ -71.283041095077294, -35.467511764361909 ], [ -71.283716822207055, -35.467288070957913 ], [ -71.28432364316464, -35.467015462917352 ], [ -71.285372116340071, -35.466544628888997 ], [ -71.286876354266496, -35.465619118999292 ], [ -71.28752971065073, -35.464906230652034 ], [ -71.287654042875928, -35.46477058083245 ], [ -71.28817899137853, -35.464470338405391 ], [ -71.288729783513503, -35.464155276576861 ], [ -71.289747395067351, -35.46366150792403 ], [ -71.289880147201728, -35.463597031549661 ], [ -71.290364817941921, -35.463493898363474 ], [ -71.291111553301619, -35.463334760415698 ], [ -71.29122804952263, -35.463305003550516 ], [ -71.29263106618113, -35.462945305322357 ], [ -71.293274874372216, -35.462518499345983 ], [ -71.293506832853296, -35.462063631272038 ], [ -71.293551123390074, -35.461976832305851 ], [ -71.293502211021163, -35.461900889901635 ], [ -71.293170017622373, -35.461384671791734 ], [ -71.29308015016133, -35.460791330362163 ], [ -71.293104372334653, -35.460287093935698 ], [ -71.293126013648163, -35.459834968086383 ], [ -71.293026332092651, -35.459515781064844 ], [ -71.292885530155033, -35.459064305756385 ], [ -71.293146190707759, -35.457986667665509 ], [ -71.293156021870232, -35.457919651348867 ], [ -71.293268482858963, -35.457150477287072 ], [ -71.293321987415595, -35.456577745932165 ], [ -71.293324124507663, -35.456554444065119 ], [ -71.293331973088314, -35.456551119825882 ], [ -71.293756053360894, -35.456365976384724 ], [ -71.294120482803677, -35.456359047638081 ], [ -71.29477267676792, -35.456229451647701 ], [ -71.294955191975788, -35.456284243624808 ], [ -71.295140072447765, -35.456339656803102 ], [ -71.295248902446133, -35.456491554235065 ], [ -71.295519377093356, -35.456868855160181 ], [ -71.296256239968059, -35.45715228464119 ], [ -71.296733112433287, -35.457163810730371 ], [ -71.297714679984665, -35.457187656822079 ], [ -71.29954755487968, -35.457567380861455 ], [ -71.300147472284294, -35.457703341369246 ], [ -71.300281100276081, -35.457733654216412 ], [ -71.300747032159435, -35.457604918745737 ], [ -71.301174278993386, -35.457486962758139 ], [ -71.301437735103278, -35.457414147144917 ], [ -71.302008794129407, -35.45698403150346 ], [ -71.302023557941098, -35.456944759143148 ], [ -71.302211992148358, -35.45644381333782 ], [ -71.30286246134726, -35.456251068433517 ], [ -71.303587163727997, -35.456120114906888 ], [ -71.304461154430868, -35.456103424836684 ], [ -71.304576901456912, -35.456079650865043 ], [ -71.305113196579853, -35.455969271932794 ], [ -71.305175749866336, -35.455915793202948 ], [ -71.305469136044863, -35.455665020402051 ], [ -71.307062750053859, -35.455337035238834 ], [ -71.30778262758318, -35.455265225285089 ], [ -71.308516367015685, -35.45519211203807 ], [ -71.309674601742429, -35.454931055268034 ], [ -71.310329249005719, -35.454746609109833 ], [ -71.310595513249197, -35.454671652857961 ], [ -71.311048268643972, -35.454544164505222 ], [ -71.311903631881094, -35.453874245290159 ], [ -71.312101599908473, -35.453153854775678 ], [ -71.312016006631552, -35.452815141262171 ], [ -71.311955950661556, -35.452577253942302 ], [ -71.311937408535798, -35.452503320139989 ], [ -71.311787293763587, -35.452445495348776 ], [ -71.311565357786137, -35.452359877320056 ], [ -71.31134761783936, -35.452275803227884 ], [ -71.310614373378598, -35.452109590306932 ], [ -71.310387507446833, -35.452034550372126 ], [ -71.310099322513807, -35.45193912180175 ], [ -71.310014500889721, -35.451526103320127 ], [ -71.310442040574486, -35.451076024778828 ], [ -71.310651164779372, -35.45085587504726 ], [ -71.311138647246409, -35.449618042803138 ], [ -71.311174740656185, -35.44952637423993 ], [ -71.311194847647187, -35.449475257111914 ], [ -71.312196935414633, -35.446296502981667 ], [ -71.312458980271202, -35.445277360353622 ], [ -71.312190883464538, -35.444665886732139 ], [ -71.312147440039098, -35.444566806340582 ], [ -71.312180900486808, -35.444317010304772 ], [ -71.312267393875615, -35.443672010166175 ], [ -71.312143350907931, -35.441885032922514 ], [ -71.311835216189067, -35.441296036965014 ], [ -71.311624872970327, -35.440866961518473 ], [ -71.31160312296069, -35.440822700911639 ], [ -71.311592814792789, -35.440462310818006 ], [ -71.311953546769857, -35.440338206833886 ], [ -71.312019255837939, -35.44032934162896 ], [ -71.312163797462105, -35.440309883258188 ], [ -71.31246160245351, -35.440269838681893 ], [ -71.313150777363091, -35.44040697965449 ], [ -71.31326757362136, -35.440430144213735 ], [ -71.313702849597348, -35.44036323988977 ], [ -71.313992475428108, -35.440299126883694 ], [ -71.314341205912967, -35.439756098996583 ], [ -71.314555467582977, -35.43923455267268 ], [ -71.314613760160071, -35.439092833216456 ], [ -71.314824003665791, -35.438988813775552 ], [ -71.315116373849747, -35.438844301731045 ], [ -71.315902211975455, -35.438292883115203 ], [ -71.316399870558016, -35.437868614135979 ], [ -71.316677564965161, -35.43738550240861 ], [ -71.317033020238256, -35.437081228924029 ], [ -71.317383665931303, -35.436596714525336 ], [ -71.31795921563554, -35.43634684471931 ], [ -71.318528405267543, -35.436240355185596 ], [ -71.318684030305661, -35.43621122360036 ], [ -71.318984064017314, -35.436507412767334 ], [ -71.319795090005272, -35.436847908307449 ], [ -71.320391282096409, -35.43731422682729 ], [ -71.32083148802667, -35.437422954559949 ], [ -71.321351727560526, -35.437773462992055 ], [ -71.321578691408632, -35.438066620754505 ], [ -71.322022487905073, -35.438296972205784 ], [ -71.322324095465078, -35.438647251410487 ], [ -71.322329568001805, -35.438655564223339 ], [ -71.32247651082271, -35.43888313427729 ], [ -71.322632552679153, -35.438943785849546 ], [ -71.322918542129614, -35.439054957347501 ], [ -71.32329802374332, -35.439583991256903 ], [ -71.323451668894549, -35.43982169522382 ], [ -71.323603048494661, -35.440055897917553 ], [ -71.324410850429047, -35.440279230843942 ], [ -71.324544235875706, -35.440264182013387 ], [ -71.325718103085023, -35.44013234690653 ], [ -71.326666550650202, -35.440172623556172 ], [ -71.327674031902603, -35.440273045761742 ], [ -71.327689415551831, -35.440274595142817 ], [ -71.327713820083162, -35.440269767689955 ], [ -71.328703856951051, -35.440074766456348 ], [ -71.328791156128673, -35.440073081674093 ], [ -71.329648451641972, -35.44005646073159 ], [ -71.329650347087238, -35.440056498057359 ], [ -71.329729869549439, -35.440082434337668 ], [ -71.330274783109218, -35.440260291361064 ], [ -71.33068032844254, -35.440392692729397 ], [ -71.331708397284615, -35.44067478529427 ], [ -71.332438335046831, -35.440719312383699 ], [ -71.333300133814646, -35.440283431810613 ], [ -71.333802912794326, -35.440192406181389 ], [ -71.334387285751276, -35.440086581155725 ], [ -71.335111740196993, -35.439950867532716 ], [ -71.335713608742395, -35.439832291380441 ], [ -71.336126247173212, -35.439750976564774 ], [ -71.337296362119588, -35.439908573713339 ], [ -71.337961935591679, -35.440251763542385 ], [ -71.338912211228489, -35.440355045085163 ], [ -71.339488131038593, -35.440805266283377 ], [ -71.339508536270259, -35.44082126351735 ], [ -71.339571519849798, -35.44083370385659 ], [ -71.340607768750829, -35.441038762789695 ], [ -71.341622182302274, -35.440838826951406 ], [ -71.34249947072054, -35.440939066822239 ], [ -71.343527581783448, -35.441221057206704 ], [ -71.344140880492517, -35.441537163929254 ], [ -71.344323363361013, -35.441472696903602 ], [ -71.34437036680994, -35.441472374883055 ], [ -71.345100058433772, -35.441467574581054 ], [ -71.345430261165902, -35.441465440462828 ], [ -71.346347228170288, -35.441567538488059 ], [ -71.347989967448868, -35.441821809608548 ], [ -71.349087032294662, -35.441920086136513 ], [ -71.349089296049172, -35.441920337896626 ], [ -71.349090737845202, -35.441920310085933 ], [ -71.350278471449258, -35.441909219466162 ], [ -71.354089627042711, -35.441370741471907 ], [ -71.355682631095604, -35.441023302058916 ], [ -71.356971050571659, -35.440869875094492 ], [ -71.357901047639203, -35.440843141328848 ], [ -71.358016764122524, -35.440853654649622 ], [ -71.358457926758561, -35.440893918496592 ], [ -71.358914832369948, -35.440935645331102 ], [ -71.360132381058278, -35.441105681189576 ], [ -71.360921559120214, -35.441395295566608 ], [ -71.361674076935401, -35.441671518735724 ], [ -71.362191999714142, -35.441790831359526 ], [ -71.363158862742637, -35.442182108720324 ], [ -71.36441687783956, -35.442608582732518 ], [ -71.365188279140355, -35.44277696911989 ], [ -71.365509864333973, -35.442847168432905 ], [ -71.366495024248195, -35.442934778436261 ], [ -71.367479134031825, -35.442891032726521 ], [ -71.367991666020544, -35.442822712117461 ], [ -71.368794292760597, -35.442624563507373 ], [ -71.369973245332758, -35.44250785240186 ], [ -71.373311826001355, -35.442541629721077 ], [ -71.374060954472967, -35.442584049499835 ], [ -71.37494300486054, -35.442684843406447 ], [ -71.375161989872296, -35.442727129912377 ], [ -71.375895714033447, -35.442868571453545 ], [ -71.376355735900546, -35.442957356786991 ], [ -71.376973499236598, -35.443193528546679 ], [ -71.377009873819091, -35.443224490887047 ], [ -71.37759223454978, -35.443720255563228 ], [ -71.378301426618833, -35.444462594181147 ], [ -71.378778344898109, -35.444726418317536 ], [ -71.37924205075619, -35.444881579696165 ], [ -71.379354541389333, -35.444892579158996 ], [ -71.379979075327682, -35.444953442094381 ], [ -71.380799789645991, -35.444882533275717 ], [ -71.382395194895636, -35.444633794259346 ], [ -71.383598711899225, -35.444324839518409 ], [ -71.384194673123318, -35.444258420713702 ], [ -71.384471629115296, -35.444252800185602 ], [ -71.384654341952526, -35.444249041457226 ], [ -71.385280042802421, -35.444236379898314 ], [ -71.385931570216741, -35.444264112961697 ], [ -71.38635360502542, -35.444282055469174 ], [ -71.388695697125755, -35.444521638826288 ], [ -71.388872830526736, -35.444539768626676 ], [ -71.389339241212156, -35.444587467553525 ], [ -71.389817798018527, -35.444521057015741 ], [ -71.390091541635044, -35.444483069534101 ], [ -71.390431697700535, -35.444435865267877 ], [ -71.390513691428083, -35.444379817438374 ], [ -71.391135681337559, -35.443955148019683 ], [ -71.392417446992283, -35.442660654900273 ], [ -71.392830470800348, -35.442344091519637 ], [ -71.392888881056749, -35.442299290882374 ], [ -71.39305378928502, -35.442172922432555 ], [ -71.39377041491305, -35.441925212821459 ], [ -71.394593108219922, -35.441764302821156 ], [ -71.395971706872373, -35.441167155902257 ], [ -71.396928578838285, -35.44080588544621 ], [ -71.397045653574324, -35.440761616023359 ], [ -71.397733062396043, -35.440573170636746 ], [ -71.398930376532576, -35.440244840727019 ], [ -71.400208258770334, -35.439968137673375 ], [ -71.401207655185161, -35.439860897629693 ], [ -71.402074295872382, -35.439698324328802 ], [ -71.402132999877864, -35.439675814592697 ], [ -71.402655598387668, -35.439474449661212 ], [ -71.403709783051681, -35.438864475511238 ], [ -71.403831666469443, -35.438794037056766 ], [ -71.403974593821019, -35.43846339589421 ], [ -71.405009889609559, -35.43606713034842 ], [ -71.405032422051846, -35.436020823597609 ], [ -71.405486183559717, -35.435087030734714 ], [ -71.405700023919849, -35.434741460623762 ], [ -71.405983292373335, -35.434415552306106 ], [ -71.406547060672594, -35.433895303505672 ], [ -71.408309358528996, -35.432626214014192 ], [ -71.408607557880813, -35.432450790684626 ], [ -71.408673618190178, -35.432411959427682 ], [ -71.410991208741152, -35.431274118870519 ], [ -71.41115385680817, -35.431243029697107 ], [ -71.411580614958623, -35.431161397320054 ], [ -71.412037783776398, -35.431073986040808 ], [ -71.412917767140499, -35.431108455466742 ], [ -71.413266391624163, -35.431178061088545 ], [ -71.413491237244841, -35.431262989454339 ], [ -71.413609948711311, -35.43132869873493 ], [ -71.414307709718372, -35.431714532898901 ], [ -71.415195053877909, -35.432647444817285 ], [ -71.415658623192073, -35.433199749683872 ], [ -71.416038731829829, -35.433561654459503 ], [ -71.416138629879313, -35.43361356047393 ], [ -71.416780372843562, -35.433947406927032 ], [ -71.416885221508579, -35.434001946187131 ], [ -71.416942781060413, -35.434004780962852 ], [ -71.417572622245444, -35.43403698746291 ], [ -71.418885078841853, -35.434010687660233 ], [ -71.419493563479335, -35.434055866927466 ], [ -71.419662753078256, -35.43406842468935 ], [ -71.420506788559649, -35.434344584433831 ], [ -71.421112052736845, -35.434625529302949 ], [ -71.421571921890347, -35.435031525338708 ], [ -71.421884844629687, -35.435513795577464 ], [ -71.422199908054338, -35.435754257713924 ], [ -71.422203326144, -35.435756921159395 ], [ -71.422221128057984, -35.435757819953309 ], [ -71.422645050227075, -35.435779881388022 ], [ -71.423551639893276, -35.435691894711653 ], [ -71.423852701277596, -35.435618650235156 ], [ -71.424320438774686, -35.435441038397514 ], [ -71.424684421754762, -35.43530280133109 ], [ -71.424958836412799, -35.435198632072932 ], [ -71.425218055169509, -35.435063161991863 ], [ -71.426333441155521, -35.434479899091166 ], [ -71.427300561102186, -35.433875312927739 ], [ -71.4274715778744, -35.433768418292964 ], [ -71.42811894159739, -35.433302658200972 ], [ -71.428691700236001, -35.432759384767145 ], [ -71.429047283069863, -35.43248040964292 ], [ -71.429267295754315, -35.432307765203163 ], [ -71.430029672579764, -35.431868996919924 ], [ -71.430446947215756, -35.431766664081671 ], [ -71.430594279905492, -35.431730541454606 ], [ -71.431315129411985, -35.431630361850175 ], [ -71.432598383575126, -35.431363771916224 ], [ -71.432657087580623, -35.431347746452587 ], [ -71.433061295322489, -35.431237102301871 ], [ -71.433320403586421, -35.431143783465629 ], [ -71.433944471299128, -35.430918971524243 ], [ -71.435358332419753, -35.430286482414367 ], [ -71.43627601627972, -35.429662072971055 ], [ -71.438128870604956, -35.427725915729802 ], [ -71.438977368916682, -35.426544259495763 ], [ -71.439616386392345, -35.426188709185475 ], [ -71.439679475074755, -35.426153687918749 ], [ -71.439704299119327, -35.426145210578277 ], [ -71.44029775763704, -35.425945280944838 ], [ -71.440923012024243, -35.425967934332562 ], [ -71.441074758136978, -35.426024751873321 ], [ -71.441777634151265, -35.426287520125506 ], [ -71.441939537514926, -35.426396856400842 ], [ -71.442040196437446, -35.426464748819768 ], [ -71.442375639940963, -35.426623591485274 ], [ -71.443337290045875, -35.426836290604143 ], [ -71.443507202788595, -35.426846289695412 ], [ -71.444901479737723, -35.42692859695574 ], [ -71.445273168466301, -35.427071485591497 ], [ -71.445605833480627, -35.427272392569385 ], [ -71.445923063641757, -35.427464010797173 ], [ -71.446096564255726, -35.427568749302331 ], [ -71.44658173266258, -35.42779144782704 ], [ -71.447359904565658, -35.428037001302279 ], [ -71.447763795202235, -35.428084045362922 ], [ -71.447848988728822, -35.428093910345765 ], [ -71.448194935334655, -35.428134152758183 ], [ -71.448792914174859, -35.428042049084667 ], [ -71.449222651138811, -35.427846282587922 ], [ -71.449916412846207, -35.427530035005908 ], [ -71.451446789950751, -35.427051098773781 ], [ -71.452034394147773, -35.42686718017935 ], [ -71.452599856669664, -35.426762352190075 ], [ -71.453116325075968, -35.426699058441052 ], [ -71.453733196384945, -35.426623603197299 ], [ -71.456006402974339, -35.426026715111583 ], [ -71.456346290443562, -35.425968698546647 ], [ -71.456967280528119, -35.425862794069985 ], [ -71.457538551556638, -35.425709162534552 ], [ -71.457977118061493, -35.425591312790537 ], [ -71.458315742499408, -35.425551186229107 ], [ -71.459061123199689, -35.425462748438186 ], [ -71.459177983238362, -35.425448920760047 ], [ -71.459468139075128, -35.425437765650507 ], [ -71.459839034591326, -35.425423560982573 ], [ -71.461166724818298, -35.425372641564522 ], [ -71.461706836882882, -35.425298269187792 ], [ -71.461973102922997, -35.425237381145337 ], [ -71.462919540058564, -35.425020688325553 ], [ -71.463059197542535, -35.424976412419817 ], [ -71.463718607673457, -35.424767121051659 ], [ -71.464244792257873, -35.424600051964262 ], [ -71.465428638851677, -35.42417261731304 ], [ -71.466260709671815, -35.423747486275659 ], [ -71.467146473694783, -35.423151708597281 ], [ -71.467224796906081, -35.423099082108791 ], [ -71.467394969261932, -35.422901986669366 ], [ -71.467978251664121, -35.42222694994846 ], [ -71.46842989135132, -35.421625270988017 ], [ -71.468842408509559, -35.42123757593702 ], [ -71.468881602005411, -35.421212332693571 ], [ -71.469370754440547, -35.420897205458303 ], [ -71.470191594523001, -35.420416305211575 ], [ -71.471168998383035, -35.420176466378642 ], [ -71.471701266358551, -35.420112548864729 ], [ -71.472150126658249, -35.420058680281954 ], [ -71.473313190727964, -35.420034852472668 ], [ -71.474002060210324, -35.420118428030719 ], [ -71.474211425163688, -35.420241884560497 ], [ -71.474620322111349, -35.420482869597905 ], [ -71.474904393658719, -35.420748196153397 ], [ -71.47495246610282, -35.420856940396824 ], [ -71.475014231566803, -35.42182574866392 ], [ -71.475105678266118, -35.421863157540962 ], [ -71.476016682253615, -35.422235986979693 ], [ -71.47664870634479, -35.422568825732689 ], [ -71.477024366525271, -35.422766695016136 ], [ -71.47735941566836, -35.422972854820337 ], [ -71.477610888252357, -35.423127562537054 ], [ -71.477697961952842, -35.423181157484194 ], [ -71.479990099638556, -35.424281597036824 ], [ -71.480289042795434, -35.42436015092111 ], [ -71.480667474278533, -35.424459592909137 ], [ -71.481150863122821, -35.424586708002209 ], [ -71.481242105904542, -35.424593767587211 ], [ -71.481282799586907, -35.424596918194013 ], [ -71.481928189711198, -35.424646783264755 ], [ -71.483790467363775, -35.424678474506862 ], [ -71.483896703925907, -35.424689062408056 ], [ -71.484697994871141, -35.424768563856631 ], [ -71.485955640760494, -35.424826107671528 ], [ -71.48804682891037, -35.424765070672734 ], [ -71.489698361797309, -35.424289728327452 ], [ -71.491859535894363, -35.423367950390592 ], [ -71.492813941984821, -35.423053387200241 ], [ -71.492950645808122, -35.423022281676872 ], [ -71.493770946901392, -35.422835053872568 ], [ -71.494761017905276, -35.422790962702301 ], [ -71.495144262561681, -35.422806374959521 ], [ -71.495698579685836, -35.422828585617211 ], [ -71.496013077171867, -35.422849625014088 ], [ -71.497137326834761, -35.423049151661118 ], [ -71.49715283175658, -35.423048757095678 ], [ -71.497660311620152, -35.42303825609077 ], [ -71.497981781829395, -35.422981241722603 ], [ -71.498806530481659, -35.422699000789969 ], [ -71.50232343302234, -35.421273266237343 ], [ -71.503943883302114, -35.42052759672336 ], [ -71.504297338925383, -35.420364972676545 ], [ -71.504590316370454, -35.420183664709185 ], [ -71.504994842115934, -35.419829318382959 ], [ -71.507207627121019, -35.417890422536935 ], [ -71.508110810375655, -35.417234249925251 ], [ -71.508422461100551, -35.41705653311918 ], [ -71.509022216808418, -35.416814564886749 ], [ -71.509239330629427, -35.416726978441943 ], [ -71.509985856681681, -35.41649413913872 ], [ -71.510109770291976, -35.416455453195951 ], [ -71.511166089353097, -35.416299308744009 ], [ -71.511603508709342, -35.416279574424031 ], [ -71.514017300742381, -35.415891123747109 ], [ -71.515080425440104, -35.415626552097059 ], [ -71.515450550201791, -35.415534363108442 ], [ -71.515750635117385, -35.415345128047861 ], [ -71.51616967494293, -35.414844972464344 ], [ -71.516337101148935, -35.414645210258335 ], [ -71.517471305043529, -35.413291660179794 ], [ -71.518278025406318, -35.412997849229576 ], [ -71.519043329841281, -35.413013706295004 ], [ -71.519478748649377, -35.413159170326473 ], [ -71.520214323339999, -35.413598829753298 ], [ -71.520234635146892, -35.413610958755093 ], [ -71.520665127593972, -35.413977382307948 ], [ -71.520863142333738, -35.414145964007687 ], [ -71.521488270956795, -35.414569387186589 ], [ -71.521740337327216, -35.414695117362314 ], [ -71.522630868709399, -35.41513935064944 ], [ -71.522724138090396, -35.415202973410487 ], [ -71.523555172254689, -35.415769470297981 ], [ -71.524134474221853, -35.416111060880375 ], [ -71.524963148511887, -35.416448169609602 ], [ -71.524983745084711, -35.416454901198399 ], [ -71.52557234192011, -35.416646021714158 ], [ -71.525941867505509, -35.416765962214726 ], [ -71.526148642615908, -35.416789915445989 ], [ -71.52620404890601, -35.416796361491429 ], [ -71.526760733989263, -35.4168609134287 ], [ -71.527236851869645, -35.416748895743588 ], [ -71.527368531415547, -35.416554887371447 ], [ -71.527677506059206, -35.416099605782776 ], [ -71.527776170721808, -35.415438056675512 ], [ -71.527973500047011, -35.415067519478619 ], [ -71.52820040550462, -35.414962194408488 ], [ -71.528414598902657, -35.414862893707294 ], [ -71.52913024716365, -35.414847900159764 ], [ -71.529712323128408, -35.414983459884056 ], [ -71.530092139813689, -35.415072010941962 ], [ -71.530699157502312, -35.415353101374308 ], [ -71.530807069422437, -35.415403045377026 ], [ -71.530848990203481, -35.415422473161094 ], [ -71.530860614403267, -35.415430721750077 ], [ -71.531856014213403, -35.416134160683292 ], [ -71.532894101965837, -35.416901085315878 ], [ -71.533077763423989, -35.417036644514262 ], [ -71.533793276039361, -35.417368017885721 ], [ -71.533834650644735, -35.4173872343559 ], [ -71.534582039079652, -35.417463327110916 ], [ -71.535625317297786, -35.417361516979682 ], [ -71.536263617019557, -35.417258240353632 ], [ -71.53639249651674, -35.417237366411882 ], [ -71.536569262506774, -35.417175833897808 ], [ -71.537482086481049, -35.416858030463764 ], [ -71.537803717488742, -35.416799283259259 ], [ -71.538629078791999, -35.416744414622997 ], [ -71.539045028412957, -35.416816816792512 ], [ -71.53952757733245, -35.417102696304077 ], [ -71.539977189522034, -35.41744265381314 ], [ -71.540419137285639, -35.417776864522082 ], [ -71.54078413715861, -35.417981624184385 ], [ -71.541110807715057, -35.418381836545976 ], [ -71.541332066362799, -35.419007121875346 ], [ -71.541776910294857, -35.419619575135791 ], [ -71.54245141212256, -35.419884194435205 ], [ -71.542849743085853, -35.419929263765418 ], [ -71.542968701589018, -35.419942780533219 ], [ -71.543333477781516, -35.419910505439589 ], [ -71.543658763135795, -35.419798499315 ], [ -71.543823267122178, -35.419765865453122 ], [ -71.545571933942455, -35.419418934575688 ], [ -71.545819899503613, -35.419369768319939 ], [ -71.546778429759541, -35.419060087056501 ], [ -71.546875748745833, -35.419010922045921 ], [ -71.547498982821963, -35.418695830856009 ], [ -71.548499149093004, -35.418122011809871 ], [ -71.548809103798632, -35.417858940927395 ], [ -71.550806243728175, -35.416606041507613 ], [ -71.550886517181965, -35.416560040562423 ], [ -71.552556560753629, -35.415602895020456 ], [ -71.553050758127412, -35.415213487882497 ], [ -71.554276505739324, -35.414247699133817 ], [ -71.554949528940057, -35.413451988666488 ], [ -71.555782711874528, -35.412147440615342 ], [ -71.556424560839972, -35.411365231276747 ], [ -71.556867967467582, -35.411039724029528 ], [ -71.557357301362401, -35.41068060417382 ], [ -71.557684604332792, -35.410440256072206 ], [ -71.558346826190586, -35.410072225473456 ], [ -71.559112409103264, -35.409764174856228 ], [ -71.559919516639951, -35.409713905211071 ], [ -71.560767368164676, -35.409791176656782 ], [ -71.561343703894778, -35.410032815279223 ], [ -71.562370533061767, -35.410594885354179 ], [ -71.562679916438853, -35.41081154010066 ], [ -71.56358085749855, -35.411442212676889 ], [ -71.564592143116172, -35.412488844484777 ], [ -71.564918104901864, -35.412724413746339 ], [ -71.565568845391994, -35.413081266627351 ], [ -71.565508711268549, -35.411586224057658 ], [ -71.565471550660192, -35.411043025255374 ], [ -71.56531335374541, -35.411074594456288 ], [ -71.565030159852085, -35.411024198235843 ], [ -71.564669730607264, -35.410853456040194 ], [ -71.563969577386615, -35.41078378306959 ], [ -71.563499300352234, -35.410624748100084 ], [ -71.561937557671229, -35.409634095312533 ], [ -71.56119199640959, -35.409283590347542 ], [ -71.560651242947912, -35.409219892625828 ], [ -71.559430724429234, -35.409339779017856 ], [ -71.558024307647386, -35.409388347364747 ], [ -71.557030601161571, -35.409324927945512 ], [ -71.555614293928414, -35.409448775145009 ], [ -71.554675161892746, -35.409562582114695 ], [ -71.554391388586055, -35.409493490091762 ], [ -71.554227052584622, -35.409327796536815 ], [ -71.55403881780336, -35.408796502108245 ], [ -71.553915725253233, -35.408385815369122 ], [ -71.553484825869319, -35.405981122934826 ], [ -71.552963619748198, -35.403042911785008 ], [ -71.552425763353313, -35.399964233105976 ], [ -71.551805121815079, -35.396618072174974 ], [ -71.551569101152282, -35.395699300047987 ], [ -71.551323756875149, -35.395291340979959 ], [ -71.550566658550338, -35.394574680958904 ], [ -71.549648199444263, -35.394712596871813 ], [ -71.549059797543279, -35.394687436855769 ], [ -71.548526677066576, -35.394473252729334 ], [ -71.548321482991042, -35.394177048146943 ], [ -71.54826441481768, -35.393530142326107 ], [ -71.548008106602495, -35.390830576749863 ], [ -71.547842837251466, -35.38907766158583 ], [ -71.547622153525509, -35.388113808728242 ], [ -71.547447511152811, -35.386240136181918 ], [ -71.547194895911773, -35.384432719853983 ], [ -71.54672708295621, -35.380845228372777 ], [ -71.546209604843526, -35.377230719947434 ], [ -71.545594543639851, -35.373627641120521 ], [ -71.544908950313328, -35.370110444654969 ], [ -71.544699323950198, -35.368499416859763 ], [ -71.544472646664673, -35.366738405348094 ], [ -71.544239757528942, -35.364385752682338 ], [ -71.544228527689569, -35.364030955252979 ], [ -71.54399582989501, -35.362413174780784 ], [ -71.543769286458442, -35.360652230497138 ], [ -71.543606109283715, -35.35900285648578 ], [ -71.543455466302134, -35.359062592337338 ], [ -71.54238883637818, -35.359418742020686 ], [ -71.542303021217407, -35.359447427365808 ], [ -71.541241551216444, -35.359747117000275 ], [ -71.540715633431674, -35.359895454430202 ], [ -71.540363360889629, -35.360263510359296 ], [ -71.53965081810459, -35.360756181093429 ], [ -71.538865700427735, -35.361245944087912 ], [ -71.538220517814281, -35.361561445879396 ], [ -71.537901713804771, -35.361873335512456 ], [ -71.537725994352044, -35.362045093486891 ], [ -71.5363553421966, -35.362871013666378 ], [ -71.536083101461529, -35.363035048886225 ], [ -71.535554308169537, -35.363400742603567 ], [ -71.535014391937693, -35.363774125191185 ], [ -71.534579845393722, -35.363841802967478 ], [ -71.534536754107862, -35.363833107360975 ], [ -71.533774154500236, -35.363678385479439 ], [ -71.53245372535568, -35.363350085827221 ], [ -71.531740649869676, -35.363591511244387 ], [ -71.531517289164157, -35.363667155890219 ], [ -71.53059894504247, -35.363510139272009 ], [ -71.530273403668346, -35.363454414620804 ], [ -71.529393017858979, -35.363233975620084 ], [ -71.52843619440209, -35.362897942526764 ], [ -71.52799602350612, -35.362785390541084 ], [ -71.527727048147128, -35.363216500761574 ], [ -71.527580070291918, -35.363452181004092 ], [ -71.526867417912413, -35.363944780268241 ], [ -71.525436839144334, -35.364749976622889 ], [ -71.524862489589353, -35.365000866185689 ], [ -71.524518408784388, -35.364908592939187 ], [ -71.523614446690388, -35.364666377363008 ], [ -71.522146807925282, -35.364282335671895 ], [ -71.521648552861379, -35.364200657450326 ], [ -71.521488359890014, -35.364174465254344 ], [ -71.520474044254939, -35.363922567305643 ], [ -71.519947948603757, -35.363791915666873 ], [ -71.519516936032119, -35.363976653609875 ], [ -71.519016825947133, -35.364284671824883 ], [ -71.518151380917573, -35.364541526634724 ], [ -71.516984163936314, -35.364448669009263 ], [ -71.516241879728824, -35.363986448053971 ], [ -71.515501328371542, -35.363582669829022 ], [ -71.51519548794991, -35.363115781065545 ], [ -71.515251733266481, -35.362578290023386 ], [ -71.515382315969433, -35.362097880709115 ], [ -71.51536993628649, -35.361699018970292 ], [ -71.515363722639691, -35.361498813012965 ], [ -71.51544723272346, -35.361398346116097 ], [ -71.515714804913983, -35.361076873037447 ], [ -71.515772772300949, -35.360597902405736 ], [ -71.515547180180278, -35.360363720059922 ], [ -71.513793772051926, -35.360161345215865 ], [ -71.512777284290507, -35.360241127885217 ], [ -71.512498237918848, -35.360416698857691 ], [ -71.511992135172619, -35.36073514966705 ], [ -71.51098843313261, -35.361233783766387 ], [ -71.510813914727436, -35.361277361356862 ], [ -71.510101433926124, -35.361455215762049 ], [ -71.50968825201457, -35.361558247388317 ], [ -71.509275082679423, -35.361635506369943 ], [ -71.508602714350502, -35.361761123484811 ], [ -71.508450515486885, -35.361957974275391 ], [ -71.508323109226765, -35.362122927082332 ], [ -71.507895751900008, -35.362429315047272 ], [ -71.507322948345603, -35.362743151455646 ], [ -71.506246532174956, -35.363238752744948 ], [ -71.505233840693919, -35.363440013689136 ], [ -71.50514925263181, -35.363436081966242 ], [ -71.504359170864689, -35.363399596125227 ], [ -71.503553533870118, -35.363235973353525 ], [ -71.503031470756241, -35.362832166467371 ], [ -71.502669685055352, -35.362898220906594 ], [ -71.501876630762965, -35.363153607649359 ], [ -71.500570906141292, -35.363297763143713 ], [ -71.499194602684383, -35.363506576036755 ], [ -71.49788159811564, -35.363411971497264 ], [ -71.497152244258388, -35.363368569411627 ], [ -71.496874074642434, -35.36379345406484 ], [ -71.496383386088169, -35.364398478069226 ], [ -71.495759916653427, -35.3654254506909 ], [ -71.495737124598051, -35.365566444819315 ], [ -71.495622710671881, -35.366274306796981 ], [ -71.495576534571342, -35.36656051716394 ], [ -71.495701220732769, -35.366865275228776 ], [ -71.495891123685524, -35.367329220211872 ], [ -71.496180075779804, -35.367666471379678 ], [ -71.496253012692677, -35.367751507695587 ], [ -71.496646239428514, -35.368210510330492 ], [ -71.496737536109151, -35.368803575724172 ], [ -71.496426906768747, -35.36890710121618 ], [ -71.496160895850181, -35.368995746832212 ], [ -71.4954680701873, -35.369270657940866 ], [ -71.495369828631198, -35.369309535005002 ], [ -71.494571066443498, -35.369581460034397 ], [ -71.494073235384377, -35.36975102237291 ], [ -71.493654851329026, -35.37006788270125 ], [ -71.493504289195826, -35.370181904208607 ], [ -71.493026496855762, -35.370115193537401 ], [ -71.492772978807864, -35.370079812415362 ], [ -71.491529158889051, -35.369866597260426 ], [ -71.4904305794837, -35.369650373826268 ], [ -71.488520527627699, -35.36909028915629 ], [ -71.487482132651422, -35.368458241464758 ], [ -71.48637805016665, -35.368061769902603 ], [ -71.486145333507451, -35.367593372381187 ], [ -71.485184795516858, -35.367135376409799 ], [ -71.484032057581345, -35.367515163873328 ], [ -71.483087051462022, -35.367487116504179 ], [ -71.482866250955084, -35.367480505358103 ], [ -71.482500793839606, -35.367427983171297 ], [ -71.481769513994365, -35.367322721863786 ], [ -71.481512201462706, -35.367501540887631 ], [ -71.481234853805262, -35.367694358261325 ], [ -71.48094235965381, -35.367819550601943 ], [ -71.480660104499947, -35.367940543870411 ], [ -71.480331801704637, -35.368200569892799 ], [ -71.479807304156338, -35.368616075481391 ], [ -71.479027240401265, -35.369285604292756 ], [ -71.478237757810447, -35.369662385644062 ], [ -71.477155596015237, -35.369982029142172 ], [ -71.476428329842676, -35.369996870612823 ], [ -71.475782668427144, -35.370174483856886 ], [ -71.475489784406875, -35.370254995735287 ], [ -71.475288216830151, -35.37037063069954 ], [ -71.474845915130345, -35.370624264349935 ], [ -71.474750475419611, -35.37044235006389 ], [ -71.474691419274521, -35.370329988794673 ], [ -71.473949212322168, -35.369867428665337 ], [ -71.473589777512373, -35.369731830441346 ], [ -71.473507419068795, -35.369700729979762 ], [ -71.473028766142704, -35.369555019063085 ], [ -71.47277251272476, -35.369476969947456 ], [ -71.471899562270991, -35.369494767224033 ], [ -71.471321289773144, -35.369623791501638 ], [ -71.471114065505105, -35.369988610050278 ], [ -71.471116618517129, -35.370004359837175 ], [ -71.471203211618942, -35.370523111460777 ], [ -71.471224916712842, -35.371234739719497 ], [ -71.470803040007652, -35.371721139237557 ], [ -71.46992997636616, -35.371738998281629 ], [ -71.469045019030318, -35.371757094651159 ], [ -71.468911311088476, -35.371759828334319 ], [ -71.468652221689169, -35.37184325177347 ], [ -71.46811841040801, -35.372014919680836 ], [ -71.46724904782549, -35.372154451960057 ], [ -71.466480940646861, -35.371933104981636 ], [ -71.466245644026174, -35.371865321184529 ], [ -71.465890380094251, -35.371762991993819 ], [ -71.465802032582701, -35.371635791396621 ], [ -71.46567464878045, -35.371452305978451 ], [ -71.465319559121681, -35.370940804075154 ], [ -71.464861333885139, -35.370233579284594 ], [ -71.464759394863322, -35.369280122840848 ], [ -71.464756173504711, -35.369174222992207 ], [ -71.464737748159934, -35.368568489801326 ], [ -71.464604280068272, -35.368128447109441 ], [ -71.46457602715428, -35.368035389966131 ], [ -71.463733012159054, -35.367786088445818 ], [ -71.463621029972359, -35.367753001333476 ], [ -71.463533069634693, -35.367596771347991 ], [ -71.463390218639887, -35.367343004385113 ], [ -71.463091865676148, -35.367110204129617 ], [ -71.462793785800258, -35.366877472794265 ], [ -71.462348333708732, -35.36658903954423 ], [ -71.46227778631453, -35.36659040427574 ], [ -71.461766053826409, -35.366600909703855 ], [ -71.461540682691307, -35.366366618039962 ], [ -71.46144143322546, -35.36610560962135 ], [ -71.461382547760266, -35.365950703829654 ], [ -71.460873249706566, -35.365961082609765 ], [ -71.460594389286186, -35.366025470867399 ], [ -71.460295026616066, -35.366094558379316 ], [ -71.459720530635678, -35.366318190801792 ], [ -71.459647561383463, -35.366346630489844 ], [ -71.459118461765954, -35.366676040946459 ], [ -71.458861874174715, -35.366835819686486 ], [ -71.458352478204645, -35.366846189562288 ], [ -71.457612307733029, -35.366446694188788 ], [ -71.456794239851561, -35.365868305000191 ], [ -71.456769943118061, -35.365839999933137 ], [ -71.456394007154827, -35.365402367859367 ], [ -71.456341488948354, -35.365341186236755 ], [ -71.456210000743596, -35.365137245206206 ], [ -71.455959717529041, -35.364749559062702 ], [ -71.455648836660345, -35.364102288326571 ], [ -71.45562536368196, -35.3633276265559 ], [ -71.455555055239614, -35.363027329718513 ], [ -71.455458257276192, -35.362614369653038 ], [ -71.455087150655899, -35.36238302825317 ], [ -71.454410339259582, -35.362147930225305 ], [ -71.454278056944119, -35.362101955351406 ], [ -71.454166866173182, -35.362145270940303 ], [ -71.453630603389598, -35.362354068499613 ], [ -71.453231578028607, -35.362391415598353 ], [ -71.452832373902865, -35.362428839601037 ], [ -71.451964850171734, -35.362626707783811 ], [ -71.451840225994061, -35.362667045883342 ], [ -71.450595211315928, -35.363069212622889 ], [ -71.44995131958153, -35.363442781352376 ], [ -71.448940318729839, -35.363702169874642 ], [ -71.448225257068742, -35.364131374919779 ], [ -71.447225029712271, -35.364751038104899 ], [ -71.446284445100758, -35.364945914681726 ], [ -71.446007434311539, -35.364976337159888 ], [ -71.445994587504671, -35.364977778837414 ], [ -71.445631590874768, -35.365017695273174 ], [ -71.445289938216021, -35.365062863404319 ], [ -71.44454404547605, -35.36516140717152 ], [ -71.444438574278536, -35.365442451107874 ], [ -71.444409367353714, -35.365520208905025 ], [ -71.443870415014175, -35.365755011417122 ], [ -71.443834468029763, -35.365770728332677 ], [ -71.443833258897385, -35.365775478935532 ], [ -71.44370512679852, -35.366309600948888 ], [ -71.443659360329747, -35.367207437082065 ], [ -71.443304788100562, -35.367512128241287 ], [ -71.442508079461618, -35.367645434428084 ], [ -71.442122518948395, -35.367631078196183 ], [ -71.441487682232065, -35.367607508126476 ], [ -71.440834711225094, -35.367679265107753 ], [ -71.440329327131082, -35.367811172611155 ], [ -71.440002714965132, -35.36804499052937 ], [ -71.439901759598541, -35.368117328751495 ], [ -71.439610654242529, -35.368123209511836 ], [ -71.439476226750145, -35.368113888052299 ], [ -71.438954151958157, -35.368077837251647 ], [ -71.438224715455874, -35.368029428620865 ], [ -71.437967190921796, -35.368096656718023 ], [ -71.437719324175347, -35.36816132529659 ], [ -71.43721352505969, -35.368288724024865 ], [ -71.43702376314242, -35.36824706651764 ], [ -71.436480613873883, -35.36812776365791 ], [ -71.436193299408359, -35.36825075041105 ], [ -71.435973413386364, -35.368196626681261 ], [ -71.435531471910977, -35.368025212899042 ], [ -71.434952915545509, -35.368158573910819 ], [ -71.434465345043591, -35.368100687838236 ], [ -71.434076303558641, -35.368054549337138 ], [ -71.433112875687797, -35.367479073248298 ], [ -71.432342390668609, -35.367071982362638 ], [ -71.431760985745385, -35.366764903647919 ], [ -71.431485534431488, -35.36661936470729 ], [ -71.430965410780288, -35.366269326935949 ], [ -71.430800405533958, -35.365619126448976 ], [ -71.43078529317593, -35.365115295560202 ], [ -71.430782432940077, -35.36501994569543 ], [ -71.430478911070182, -35.36461149156203 ], [ -71.42973159360217, -35.363968501584012 ], [ -71.429133791730052, -35.363444120496965 ], [ -71.428790045098381, -35.363416548618922 ], [ -71.428550126645561, -35.363397299505642 ], [ -71.428301870928593, -35.363253199132188 ], [ -71.428229760465783, -35.363211301671782 ], [ -71.427957194540582, -35.363053142079167 ], [ -71.427870457708323, -35.362577112764967 ], [ -71.427986362837871, -35.361766924856042 ], [ -71.427990676547864, -35.361736340731404 ], [ -71.428162681466887, -35.360186950433466 ], [ -71.428025391942001, -35.359600136821342 ], [ -71.427995826589381, -35.359473792526003 ], [ -71.428287575139151, -35.359063112492834 ], [ -71.42855440442294, -35.358687269969437 ], [ -71.428749104379307, -35.358073326713829 ], [ -71.428791196738572, -35.357940816467739 ], [ -71.428820598597838, -35.357848067005158 ], [ -71.428785668506308, -35.357756316004235 ], [ -71.428692126037475, -35.357510374805941 ], [ -71.4286622893936, -35.357432183637222 ], [ -71.428538780923503, -35.357359418974724 ], [ -71.428366182218099, -35.357257808420627 ], [ -71.428137243872982, -35.356906332928524 ], [ -71.42805190841257, -35.356488907638628 ], [ -71.427675912262188, -35.356081754008187 ], [ -71.427084886382247, -35.355796259649679 ], [ -71.426354079949164, -35.355689172080368 ], [ -71.426054120797701, -35.35539775068824 ], [ -71.425679893430129, -35.355049188907678 ], [ -71.42559623422602, -35.354690286423562 ], [ -71.425543345015356, -35.354570538590572 ], [ -71.425440195064553, -35.354337415036191 ], [ -71.425011458823846, -35.354227502604033 ], [ -71.425000193051858, -35.35422455292592 ], [ -71.424707292861896, -35.354171800852619 ], [ -71.424414389078663, -35.353898916884638 ], [ -71.424333169698897, -35.35382330558145 ], [ -71.423861666464134, -35.353720892709198 ], [ -71.42382029365541, -35.35371182748375 ], [ -71.423529146078565, -35.353717668997035 ], [ -71.423083902396201, -35.353429155762591 ], [ -71.422416892517958, -35.353027896406971 ], [ -71.422207961450852, -35.352856040855862 ], [ -71.421994872082323, -35.352680723067401 ], [ -71.420999390525495, -35.351861878172514 ], [ -71.41995243909615, -35.350927379912008 ], [ -71.419638631516264, -35.350158445234328 ], [ -71.419035311293342, -35.349458443789139 ], [ -71.418740073687019, -35.349226945267219 ], [ -71.418513873406894, -35.349049667677249 ], [ -71.418139349595265, -35.348701160562406 ], [ -71.417838012428149, -35.348346534543396 ], [ -71.417172728213558, -35.348003842874554 ], [ -71.416578756757815, -35.347561876088662 ], [ -71.415609740467602, -35.3468407408931 ], [ -71.41555181440313, -35.346759931626018 ], [ -71.415410772615303, -35.346563592599104 ], [ -71.41522995881661, -35.34631192694178 ], [ -71.415254850234803, -35.346209522863511 ], [ -71.415285132443032, -35.346085449601482 ], [ -71.415339857810139, -35.345856026771585 ], [ -71.41535964589923, -35.345772999266607 ], [ -71.415780088893229, -35.345228257377052 ], [ -71.416174805035809, -35.345024157834551 ], [ -71.416496560011026, -35.344857848233254 ], [ -71.416519635934023, -35.344773278011175 ], [ -71.416693464433081, -35.344137246521143 ], [ -71.416663177733284, -35.343123815640624 ], [ -71.416485952704136, -35.342054690518189 ], [ -71.416397550395345, -35.341952116903371 ], [ -71.41618433256771, -35.341704569708192 ], [ -71.415084424554053, -35.341424684472059 ], [ -71.414213528547336, -35.341505154672703 ], [ -71.413254220350382, -35.34104654468139 ], [ -71.412944331221766, -35.340529912667996 ], [ -71.412794789574718, -35.340280496913635 ], [ -71.412691777964469, -35.339268442206176 ], [ -71.412232363358513, -35.338502392236911 ], [ -71.411710088242202, -35.337910244533205 ], [ -71.411404187633451, -35.33756344517257 ], [ -71.410596860009505, -35.337340593437133 ], [ -71.410175754957152, -35.337216886151388 ], [ -71.409275544227782, -35.336952309244182 ], [ -71.408974205264045, -35.336597807528733 ], [ -71.408973055420475, -35.336559062011297 ], [ -71.408954809738731, -35.335944592203411 ], [ -71.409229619655505, -35.33540285020046 ], [ -71.409791982091349, -35.334733528517994 ], [ -71.409706903549122, -35.334320585734687 ], [ -71.409687980537669, -35.334272077720733 ], [ -71.409408786842292, -35.333558394923841 ], [ -71.409313227655616, -35.333314323556976 ], [ -71.408877290519612, -35.332972546481848 ], [ -71.408791676581458, -35.332905577886457 ], [ -71.408709992772671, -35.332609757792596 ], [ -71.408534640730892, -35.331599138700149 ], [ -71.408818623345027, -35.33135458945187 ], [ -71.409246039062268, -35.331048546776699 ], [ -71.409380736049229, -35.330689779507715 ], [ -71.409223035004473, -35.330273779031934 ], [ -71.408765244552526, -35.329960130128306 ], [ -71.408628560492176, -35.329866487405752 ], [ -71.40586030762104, -35.329745885615047 ], [ -71.404049393839784, -35.330020744191138 ], [ -71.402404933389107, -35.329943570030402 ], [ -71.40222816111087, -35.329935269459611 ], [ -71.40156491427534, -35.329651004809747 ], [ -71.400820021360289, -35.329070910511795 ], [ -71.400149634714907, -35.328547891020712 ], [ -71.399704610221448, -35.328259207278961 ], [ -71.399105317145967, -35.327671631830384 ], [ -71.398713401950431, -35.326728432669967 ], [ -71.398673099933532, -35.326651399748755 ], [ -71.398559268115676, -35.326434043328177 ], [ -71.397821345228905, -35.326088102801627 ], [ -71.3969295256626, -35.325452265047652 ], [ -71.395970413298372, -35.324993506057176 ], [ -71.395447163509985, -35.32452610106057 ], [ -71.394853247749779, -35.324118726238353 ], [ -71.393679286217363, -35.323785978866105 ], [ -71.393458149740496, -35.323705805450651 ], [ -71.392429166413478, -35.323332954451239 ], [ -71.392053237636731, -35.322925754653646 ], [ -71.392047350078357, -35.32272597225198 ], [ -71.392042617753461, -35.322565377702958 ], [ -71.391810355641795, -35.32209219549388 ], [ -71.391511007344718, -35.321800670501673 ], [ -71.390849587682482, -35.321574868412092 ], [ -71.389757277619509, -35.321537840333271 ], [ -71.387875350218408, -35.321872491635169 ], [ -71.386932003287413, -35.321949761454952 ], [ -71.386206706221955, -35.322027223966614 ], [ -71.385900836155912, -35.322055712966012 ], [ -71.385408690534263, -35.322101465095088 ], [ -71.384459772251887, -35.321998495282642 ], [ -71.384366998740902, -35.321962738332836 ], [ -71.383871220332225, -35.321771290143275 ], [ -71.383135251281203, -35.321488356415855 ], [ -71.382785969230753, -35.321277990242777 ], [ -71.382468697747129, -35.321086856336727 ], [ -71.382240626276271, -35.320802657323668 ] ] ] } },
{ "type": "Feature", "properties": { "capa": "colegios", "popup": "<strong>ESCUELA LIHUENO</strong><br><br><strong>Dirección:</strong> LIHUENO 0", "etiqueta": "" }, "geometry": { "type": "Point", "coordinates": [ -71.273323, -35.443939 ] } },
{ "type": "Feature", "properties": { "capa": "colegios", "popup": "<strong>ESCUELA EL MANZANO</strong><br><br><strong>Dirección:</strong> EL MANZANO 0", "etiqueta": "" }, "geometry": { "type": "Point", "coordinates": [ -71.406693, -35.427422 ] } },
{ "type": "Feature", "properties": { "capa": "colegios", "popup": "<strong>ESCUELA WILIBALDO NUNEZ</strong><br><br><strong>Dirección:</strong> CAMINO PELARCO 10", "etiqueta": "" }, "geometry": { "type": "Point", "coordinates": [ -71.494476, -35.403542 ] } },
{ "type": "Feature", "properties": { "capa": "colegios", "popup": "<strong>ESCUELA PARTICULAR SAN SEBASTIAN</strong><br><br><strong>Dirección:</strong> SANTA MARGARITA 0", "etiqueta": "" }, "geometry": { "type": "Point", "coordinates": [ -71.444687, -35.402119 ] } },
{ "type": "Feature", "properties": { "capa": "colegios", "popup": "<strong>ESCUELA HERNAN CIUDAD INOSTROZA</strong><br><br><strong>Dirección:</strong> CAMINO A PELARCO 5", "etiqueta": "" }, "geometry": { "type": "Point", "coordinates": [ -71.544724, -35.389641 ] } },
{ "type": "Feature", "properties": { "capa": "colegios", "popup": "<strong>LICEO DE PELARCO</strong><br><br><strong>Dirección:</strong> SAN PEDRO 502", "etiqueta": "" }, "geometry": { "type": "Point", "coordinates": [ -71.447197, -35.3839 ] } },
{ "type": "Feature", "properties": { "capa": "colegios", "popup": "<strong>COLEGIO ANTARES</strong><br><br><strong>Dirección:</strong> FUNDO LA CODICIA LOTE E-1 0", "etiqueta": "" }, "geometry": { "type": "Point", "coordinates": [ -71.448967, -35.381569 ] } },
{ "type": "Feature", "properties": { "capa": "colegios", "popup": "<strong>ESCUELA PABLO CORREA MONTT</strong><br><br><strong>Dirección:</strong> HUENCUECHO 0", "etiqueta": "" }, "geometry": { "type": "Point", "coordinates": [ -71.340462, -35.37867 ] } },
{ "type": "Feature", "properties": { "capa": "jardines", "popup": "<strong>PEQUEÑOS GIRASOLES</strong><br><br><strong>Dirección:</strong> POBLACION SAN LUIS, LAS ORQUIDEAS S/N ", "etiqueta": "" }, "geometry": { "type": "MultiPoint", "coordinates": [ [ -71.450177, -35.384693 ] ] } },
{ "type": "Feature", "properties": { "capa": "jardines", "popup": "<strong>MANITOS UNIDAS</strong><br><br><strong>Dirección:</strong> LIHUENO S/N ", "etiqueta": "" }, "geometry": { "type": "MultiPoint", "coordinates": [ [ -71.284919, -35.422397 ] ] } },
{ "type": "Feature", "properties": { "capa": "jardines", "popup": "<strong>NA</strong><br><br><strong>Dirección:</strong> NA ", "etiqueta": "" }, "geometry": { "type": "MultiPoint", "coordinates": [ [ -71.531490000122659, -35.395319999855147 ] ] } },
{ "type": "Feature", "properties": { "capa": "jardines", "popup": "<strong>NA</strong><br><br><strong>Dirección:</strong> NA ", "etiqueta": "" }, "geometry": { "type": "MultiPoint", "coordinates": [ [ -71.440516999917406, -35.386232000390621 ] ] } },
{ "type": "Feature", "properties": { "capa": "jardines", "popup": "<strong>NA</strong><br><br><strong>Dirección:</strong> NA ", "etiqueta": "" }, "geometry": { "type": "MultiPoint", "coordinates": [ [ -71.4394320003817, -35.385659000362658 ] ] } },
{ "type": "Feature", "properties": { "capa": "bomberos", "popup": "<strong>Cuerpo de Bomberos</strong><br><br><strong>Dirección:</strong> Calle San Pedro S/n", "etiqueta": "" }, "geometry": { "type": "Point", "coordinates": [ -71.446280654402258, -35.384480502701749 ] } },
{ "type": "Feature", "properties": { "capa": "comisarias", "popup": "<strong>TCIA. PELARCO</strong><br><br><strong>Dirección:</strong> CATEDRAL S/N", "etiqueta": "" }, "geometry": { "type": "Point", "coordinates": [ -71.446236841999905, -35.383324348999899 ] } },
{ "type": "Feature", "properties": { "capa": "salud", "popup": "<strong>Posta de Salud Rural El Manzano (Pelarco )</strong><br><br><strong>Tipo de atención:</strong> Posta de Salud Rural (PSR)<br><strong>Dirección:</strong>  NA", "etiqueta": "" }, "geometry": { "type": "Point", "coordinates": [ -71.41523, -35.42124 ] } },
{ "type": "Feature", "properties": { "capa": "salud", "popup": "<strong>Posta de Salud Rural Santa Rita</strong><br><br><strong>Tipo de atención:</strong> Posta de Salud Rural (PSR)<br><strong>Dirección:</strong>  62", "etiqueta": "" }, "geometry": { "type": "Point", "coordinates": [ -71.53165, -35.39527 ] } },
{ "type": "Feature", "properties": { "capa": "salud", "popup": "<strong>SUR Pelarco</strong><br><br><strong>Tipo de atención:</strong> Servicio de Urgencia Rural (SUR)<br><strong>Dirección:</strong>  50", "etiqueta": "" }, "geometry": { "type": "Point", "coordinates": [ -71.446452, -35.382956 ] } },
{ "type": "Feature", "properties": { "capa": "salud", "popup": "<strong>Posta de Salud Rural Huencuecho</strong><br><br><strong>Tipo de atención:</strong> Posta de Salud Rural (PSR)<br><strong>Dirección:</strong>  NA", "etiqueta": "" }, "geometry": { "type": "Point", "coordinates": [ -71.347708, -35.38313 ] } },
{ "type": "Feature", "properties": { "capa": "salud", "popup": "<strong>Centro de Salud Familiar Pelarco</strong><br><br><strong>Tipo de atención:</strong> Centro de Salud Familiar (CESFAM)<br><strong>Dirección:</strong>  50", "etiqueta": "" }, "geometry": { "type": "Point", "coordinates": [ -71.44662, -35.38275 ] } },
{ "type": "Feature", "properties": { "capa": "municipios", "popup": "<strong>Municipalidad de Pelarco</strong><br><br><strong>Dirección:</strong> Catedral Nº 50<br><strong>Región:</strong> Maule", "etiqueta": "" }, "geometry": { "type": "Point", "coordinates": [ -71.446611768999958, -35.383126653999959 ] } }
]
}
