{
"type": "FeatureCollection",
"name": "7110",
"crs": { "type": "name", "properties": { "name": "urn:ogc:def:crs:OGC:1.3:CRS84" } },
"features": [
{ "type": "Feature", "properties": { "capa": "comuna", "popup": "", "etiqueta": "" }, "geometry": { "type": "Polygon", "coordinates": [ [ [ -71.443426667026742, -35.219216689949889 ], [ -71.443375148645217, -35.219591865436904 ], [ -71.443349231350936, -35.219780597008047 ], [ -71.444016355315213, -35.219949765279218 ], [ -71.444866729309268, -35.22017027926141 ], [ -71.445033873444288, -35.220268179116822 ], [ -71.444963238913502, -35.220454184260305 ], [ -71.444735565396314, -35.220645653352214 ], [ -71.44459989104233, -35.220705113445788 ], [ -71.444287017710337, -35.220804128131896 ], [ -71.444130190726341, -35.220981702150837 ], [ -71.444106145521133, -35.221020543365562 ], [ -71.444165926606658, -35.221115285851184 ], [ -71.444277118275906, -35.221163857284559 ], [ -71.444375942838619, -35.221203321461026 ], [ -71.444397981207487, -35.221242803964834 ], [ -71.444203383659058, -35.22142540543328 ], [ -71.443920293970322, -35.221663516990063 ], [ -71.443896800330677, -35.221711163434911 ], [ -71.443786347974935, -35.221865002566801 ], [ -71.443749077772111, -35.221916913328457 ], [ -71.443780712843164, -35.222044003813068 ], [ -71.443867299656759, -35.222165102919931 ], [ -71.444204057395524, -35.222330599163122 ], [ -71.444590739006202, -35.222925380263085 ], [ -71.444579007008585, -35.22306754822133 ], [ -71.444560451408094, -35.223268052832822 ], [ -71.444599084355204, -35.223389448053126 ], [ -71.444757699884917, -35.223843069938567 ], [ -71.444762285784421, -35.223889848441338 ], [ -71.444766278795882, -35.223934415865166 ], [ -71.4447132422615, -35.224102016810662 ], [ -71.444596127999603, -35.22431915414856 ], [ -71.444465875876659, -35.224532109530955 ], [ -71.443674399025923, -35.224278114477443 ], [ -71.443396162036322, -35.224159177467271 ], [ -71.443188719477675, -35.224068972908903 ], [ -71.443031244808353, -35.22399654618291 ], [ -71.442844136514452, -35.223910489827773 ], [ -71.44239189136276, -35.223836169657631 ], [ -71.442053739438677, -35.223882636283328 ], [ -71.441743023859999, -35.223945017613048 ], [ -71.441405721742171, -35.224035169472977 ], [ -71.441260880979016, -35.224073881538843 ], [ -71.440969007563439, -35.224236952969022 ], [ -71.440700411293477, -35.224461955897951 ], [ -71.440592258624847, -35.224551011572693 ], [ -71.440400921960901, -35.224683342619699 ], [ -71.440193889033992, -35.224819729325915 ], [ -71.439591690806878, -35.224964865235329 ], [ -71.439467383734495, -35.225043993876305 ], [ -71.439347664358266, -35.22515422127281 ], [ -71.439015482637558, -35.225408995840532 ], [ -71.438712015564917, -35.225649055013513 ], [ -71.438568517783096, -35.225759575850283 ], [ -71.438415904796102, -35.225901175269833 ], [ -71.438139539895587, -35.226305556555282 ], [ -71.437874158696047, -35.226722143525649 ], [ -71.437691288653639, -35.226963725138503 ], [ -71.437516044409719, -35.227239003212993 ], [ -71.437283267563387, -35.227566596964408 ], [ -71.437116781893465, -35.227803620618012 ], [ -71.437348660424504, -35.228014887186603 ], [ -71.437550093253918, -35.22819841047798 ], [ -71.437752386669388, -35.228382717783447 ], [ -71.438051141180054, -35.228645809317719 ], [ -71.438283103254406, -35.228850082114754 ], [ -71.438687855375349, -35.229206513905822 ], [ -71.438661249971574, -35.229768186883661 ], [ -71.438635600375278, -35.230309021767994 ], [ -71.438622488565386, -35.23058549922515 ], [ -71.438647547070232, -35.230930110363708 ], [ -71.438678903663529, -35.231361306436987 ], [ -71.438703913659367, -35.23170525095469 ], [ -71.438739994492749, -35.232201430821043 ], [ -71.438770741129986, -35.232624259689963 ], [ -71.438820386524156, -35.232899157551053 ], [ -71.438890109264918, -35.233285232782265 ], [ -71.439092522156329, -35.234232480114414 ], [ -71.439201167101729, -35.234580705578416 ], [ -71.439331695007468, -35.235183455502359 ], [ -71.439455537650844, -35.235755327776573 ], [ -71.439156802004788, -35.236079552348954 ], [ -71.438809754962762, -35.236450262201501 ], [ -71.438429984091556, -35.236855921877492 ], [ -71.438073408619317, -35.237236801903208 ], [ -71.437046308161115, -35.238333883456335 ], [ -71.436266700750224, -35.239166583224829 ], [ -71.435331044296362, -35.24016597424783 ], [ -71.434649345166619, -35.240894142724436 ], [ -71.433920908489227, -35.241672213785883 ], [ -71.432698564593935, -35.242977807068513 ], [ -71.432137087896962, -35.243577541610343 ], [ -71.431671783037643, -35.244040202238843 ], [ -71.431947201113871, -35.243998015568387 ], [ -71.432165950767029, -35.243975588438175 ], [ -71.432470784177227, -35.24397544757619 ], [ -71.432606077645531, -35.244007300716902 ], [ -71.432744013059093, -35.244153264344227 ], [ -71.432863002104995, -35.244308621403498 ], [ -71.43307625496692, -35.24441250367947 ], [ -71.433314761268107, -35.244407705594291 ], [ -71.433522554169755, -35.244340425992227 ], [ -71.433757888519679, -35.244241038720247 ], [ -71.434014263210187, -35.244190809104232 ], [ -71.434262033836902, -35.244185823190456 ], [ -71.434396602364785, -35.244219172168805 ], [ -71.434740659813542, -35.244230276019763 ], [ -71.435207118109673, -35.244189335192978 ], [ -71.435414909214657, -35.244122051007835 ], [ -71.435873103908492, -35.244126345822778 ], [ -71.436251443763439, -35.24425865080903 ], [ -71.436492100631426, -35.244397831368858 ], [ -71.436686066664194, -35.24451110940273 ], [ -71.436905892499055, -35.244524709094918 ], [ -71.437023039100325, -35.244544362139074 ], [ -71.437145747171499, -35.244564948382227 ], [ -71.437303178721677, -35.244719525517127 ], [ -71.437433588049771, -35.244918000905471 ], [ -71.437503621607647, -35.245049017050633 ], [ -71.437733101636866, -35.245373415759886 ], [ -71.437871857212286, -35.245546399897897 ], [ -71.438233008702582, -35.245818562974257 ], [ -71.438681853730927, -35.246097976404521 ], [ -71.439273144613864, -35.246140136305137 ], [ -71.439521262888604, -35.246135132170323 ], [ -71.43975016350447, -35.246130515395308 ], [ -71.439988942893507, -35.246134711796564 ], [ -71.440466834048252, -35.246165634571902 ], [ -71.440830206173928, -35.24610448302991 ], [ -71.441172679892858, -35.246160405945929 ], [ -71.441499566943264, -35.245919434664366 ], [ -71.441733754144593, -35.24565051095145 ], [ -71.441901558541346, -35.245503416541929 ], [ -71.442173595358838, -35.245264954572853 ], [ -71.442748829754393, -35.245493214511782 ], [ -71.442878548278031, -35.245540033353379 ], [ -71.443156448399392, -35.245543435251001 ], [ -71.443271890896568, -35.245545610499242 ], [ -71.44340291736728, -35.245546673546336 ], [ -71.443743045584981, -35.245549435708007 ], [ -71.444047207953659, -35.245647130333872 ], [ -71.444729581718207, -35.246404064546837 ], [ -71.444837142397063, -35.246852607212105 ], [ -71.44485838126532, -35.246942321316418 ], [ -71.444872819886882, -35.247188926014672 ], [ -71.444886584771993, -35.247424014987324 ], [ -71.445101765418528, -35.247568401776086 ], [ -71.445536578762116, -35.247559610764092 ], [ -71.446038843007145, -35.247270010834896 ], [ -71.446269110858864, -35.247289593519177 ], [ -71.446577131491694, -35.247439404235365 ], [ -71.446795935043752, -35.247507097964608 ], [ -71.44725394019305, -35.24751586110456 ], [ -71.447492180592931, -35.247502026420705 ], [ -71.447755828942292, -35.247588754692856 ], [ -71.448075059651543, -35.247792209483968 ], [ -71.448258952875051, -35.247923701506323 ], [ -71.448472026073915, -35.248032065967223 ], [ -71.448674948310071, -35.248122609222733 ], [ -71.449102744913006, -35.248154510620317 ], [ -71.44932722761429, -35.248231094464636 ], [ -71.449530223512298, -35.248312619146326 ], [ -71.449677296588945, -35.248525810859789 ], [ -71.449883980071192, -35.248721580169182 ], [ -71.450364675766238, -35.248768967163713 ], [ -71.450707789085641, -35.248773715105159 ], [ -71.450813556727198, -35.24878240694779 ], [ -71.450980017244291, -35.248927770688603 ], [ -71.451109406086246, -35.249096419679695 ], [ -71.45137231691875, -35.249360142425019 ], [ -71.451843447352672, -35.249388026836748 ], [ -71.452257667716694, -35.249208358182308 ], [ -71.452651789174553, -35.248988529820302 ], [ -71.452917415614195, -35.248778069829967 ], [ -71.453005914042706, -35.248706413449327 ], [ -71.453154559171082, -35.248568184447038 ], [ -71.453322622282656, -35.248447589130109 ], [ -71.453510716926743, -35.248353631252854 ], [ -71.453697861153245, -35.248228140920162 ], [ -71.453836351725641, -35.248072089297182 ], [ -71.453984380609754, -35.247924856958406 ], [ -71.454064033327668, -35.248026905688214 ], [ -71.454230090501198, -35.248158750200297 ], [ -71.454442357012937, -35.248240078345241 ], [ -71.454636155060768, -35.248335301842808 ], [ -71.454848425165764, -35.248482480615955 ], [ -71.454855694333048, -35.248646347371235 ], [ -71.45483243695034, -35.248831611064126 ], [ -71.454828805959977, -35.249029999357809 ], [ -71.454787152876875, -35.249220145073309 ], [ -71.454773503874435, -35.249405215249979 ], [ -71.454788819251718, -35.249594204657186 ], [ -71.455202773714433, -35.250032008091708 ], [ -71.455669831186839, -35.25035533855236 ], [ -71.456019550716832, -35.25053825303128 ], [ -71.456248731607076, -35.25054261279648 ], [ -71.456706551703419, -35.250533315191639 ], [ -71.456926260757285, -35.250542372910395 ], [ -71.457139014155928, -35.250628194140077 ], [ -71.457351970573811, -35.250732038242063 ], [ -71.457832186568496, -35.251145951272576 ], [ -71.458052491205407, -35.251493031609648 ], [ -71.458163223835541, -35.25168007948178 ], [ -71.458216234318769, -35.251854779957398 ], [ -71.458357971402606, -35.252124581730165 ], [ -71.458473043793873, -35.252304640788864 ], [ -71.45866011076528, -35.252466234525912 ], [ -71.458942674041253, -35.252529604746641 ], [ -71.459410385487203, -35.252529108847483 ], [ -71.459877826540222, -35.252519603134061 ], [ -71.46010674063082, -35.252514947109354 ], [ -71.460335654721405, -35.252510289617213 ], [ -71.460547666111623, -35.252582597721059 ], [ -71.460722807947633, -35.252696220104838 ], [ -71.460870963494173, -35.252859970507458 ], [ -71.460962483855312, -35.253047406954117 ], [ -71.460968342667599, -35.25324109520399 ], [ -71.460974198784939, -35.253434781523922 ], [ -71.46084925301038, -35.253811417021609 ], [ -71.460843864915319, -35.253825541121337 ], [ -71.462281861970979, -35.254124451505888 ], [ -71.462300695150915, -35.254499863887425 ], [ -71.462231885996772, -35.254870784424874 ], [ -71.462163710154925, -35.255241839706031 ], [ -71.462095260326905, -35.255612752446872 ], [ -71.462045664340067, -35.255880157679599 ], [ -71.462026452071086, -35.255983747114755 ], [ -71.461956380783974, -35.256354693137752 ], [ -71.461884153540183, -35.256725756296717 ], [ -71.461809495455242, -35.25709686983803 ], [ -71.461731058157881, -35.2574680594347 ], [ -71.461647082746822, -35.2578347837973 ], [ -71.461555957644407, -35.258206232617269 ], [ -71.461459836112368, -35.258573277123865 ], [ -71.461361464300552, -35.258940295028509 ], [ -71.461262280411717, -35.259307328142 ], [ -71.461186574891158, -35.259593392806174 ], [ -71.460472385494185, -35.259123947127293 ], [ -71.459371802845737, -35.258785824227772 ], [ -71.458363797875549, -35.259103766549487 ], [ -71.457862378945194, -35.259352846549035 ], [ -71.457426445402447, -35.259361631881063 ], [ -71.45677803514215, -35.259555208952207 ], [ -71.45657085668816, -35.259915424955985 ], [ -71.456945154124341, -35.260268404763075 ], [ -71.456988842789869, -35.26050766099879 ], [ -71.457032003246027, -35.260744343394904 ], [ -71.456597833096154, -35.260811796427276 ], [ -71.456020384353423, -35.26094071694272 ], [ -71.455435684409721, -35.260835399107286 ], [ -71.455234564194001, -35.260808984907364 ], [ -71.454632654326105, -35.260730005584016 ], [ -71.453551813054347, -35.261049386743615 ], [ -71.452614781279806, -35.261307283292943 ], [ -71.451521435459284, -35.261212260608751 ], [ -71.450722071400349, -35.261228536974741 ], [ -71.450211929828598, -35.2611802411217 ], [ -71.449837654850313, -35.260827238880097 ], [ -71.449392762409204, -35.26053880347812 ], [ -71.448875441501713, -35.26025183186664 ], [ -71.448592010453154, -35.260257498222025 ], [ -71.448439590603954, -35.260260657444192 ], [ -71.447780301745581, -35.260093674742798 ], [ -71.44733907712579, -35.259926779718739 ], [ -71.446888779521629, -35.259458188316636 ], [ -71.446521614708814, -35.259343846295543 ], [ -71.446153191356288, -35.259175621325241 ], [ -71.445706422334567, -35.258824072260623 ], [ -71.445339849511527, -35.25871429332345 ], [ -71.445042544881716, -35.258482818159628 ], [ -71.444967413384617, -35.258424375281784 ], [ -71.444524399320784, -35.258194441898155 ], [ -71.444093655345426, -35.258378898897796 ], [ -71.443719824134874, -35.258030372184024 ], [ -71.443282227810528, -35.257980654312256 ], [ -71.44284453895969, -35.257930863790513 ], [ -71.442695757287396, -35.257812172710679 ], [ -71.442179874582664, -35.257583776542383 ], [ -71.441476481138778, -35.25748499526609 ], [ -71.441084827353009, -35.257430059430078 ], [ -71.440002167891123, -35.257686292109909 ], [ -71.439502586015536, -35.257998324299272 ], [ -71.43929349055675, -35.25830006464502 ], [ -71.439162674291808, -35.258780481252735 ], [ -71.438811951343624, -35.259202195964555 ], [ -71.437947320187718, -35.259458518398802 ], [ -71.437369529186867, -35.259591787875813 ], [ -71.436711932754491, -35.259483417595369 ], [ -71.435973316368319, -35.259083582299063 ], [ -71.434948712328293, -35.258865326979503 ], [ -71.434154976214614, -35.259057132319199 ], [ -71.433070652174493, -35.259259208655322 ], [ -71.432275064633018, -35.259392405108429 ], [ -71.431617698169347, -35.259288431999074 ], [ -71.430665892701626, -35.259068676450241 ], [ -71.429498005577159, -35.258911887968061 ], [ -71.428486463041381, -35.259112535771095 ], [ -71.427696244730328, -35.259425851257511 ], [ -71.426760521801157, -35.259742007897231 ], [ -71.425599796046129, -35.259828505954857 ], [ -71.424947667658884, -35.259900143702019 ], [ -71.424004819292861, -35.259977678816888 ], [ -71.423781825099994, -35.259993373022979 ], [ -71.422844396270094, -35.260059493158231 ], [ -71.422701818363137, -35.26003945731501 ], [ -71.422114240217269, -35.259956926312711 ], [ -71.421383951213784, -35.25984985337054 ], [ -71.420507011341854, -35.259691655852407 ], [ -71.419557236965005, -35.259530331049653 ], [ -71.419003238742746, -35.259541413732236 ], [ -71.418467506863507, -35.259552128922188 ], [ -71.41766813831299, -35.259568186300626 ], [ -71.416144107805906, -35.259657204165087 ], [ -71.414097838115168, -35.259283425741756 ], [ -71.412936960544855, -35.259365154228995 ], [ -71.412348799392362, -35.259137996215848 ], [ -71.412069588629009, -35.259073486137602 ], [ -71.411397126875315, -35.258918085486251 ], [ -71.410744991301556, -35.258989721104079 ], [ -71.409798661963805, -35.258949947426615 ], [ -71.409207042297467, -35.258605650465825 ], [ -71.40811362640838, -35.258505730537777 ], [ -71.407319864243533, -35.258701864513384 ], [ -71.406093431217073, -35.259023722693954 ], [ -71.404927621895851, -35.258929718393091 ], [ -71.404206143568658, -35.259119816681554 ], [ -71.403334426501786, -35.259137143866937 ], [ -71.402616536944166, -35.259448932811246 ], [ -71.402044357718893, -35.259762254332287 ], [ -71.40139738925464, -35.260009489728404 ], [ -71.400600133541673, -35.260088383199729 ], [ -71.39994093181987, -35.259921208696767 ], [ -71.399612954214703, -35.259826991984745 ], [ -71.39935416485271, -35.259752520610981 ], [ -71.399256480252077, -35.259691468072866 ], [ -71.398983967327482, -35.259521046211944 ], [ -71.398609209055564, -35.25947376085972 ], [ -71.398181404367818, -35.259419770407249 ], [ -71.397601679294141, -35.25948982558883 ], [ -71.396520601765488, -35.259808779596931 ], [ -71.395367167635612, -35.260129082008028 ], [ -71.393616537996451, -35.259929357279006 ], [ -71.392886278637363, -35.259822184542656 ], [ -71.39209968053693, -35.259507432897998 ], [ -71.391556231231064, -35.259290000259519 ], [ -71.391460000104559, -35.259290000259519 ], [ -71.391039999980009, -35.25916000031264 ], [ -71.390681510197894, -35.259020587629728 ], [ -71.390365811664324, -35.25974162647023 ], [ -71.390111133891381, -35.260294340158175 ], [ -71.389678661557426, -35.261173385826602 ], [ -71.388818593843155, -35.260655250440074 ], [ -71.388390472948416, -35.260489521381096 ], [ -71.387882745149824, -35.260452883448629 ], [ -71.387592835451443, -35.26050367879192 ], [ -71.386864043939539, -35.260937236472905 ], [ -71.386600387505325, -35.260938310320732 ], [ -71.386188879155142, -35.260648524930971 ], [ -71.38596594694603, -35.260481699999183 ], [ -71.385694767121322, -35.260364068172784 ], [ -71.385343812407811, -35.260394815346771 ], [ -71.384881741483525, -35.260488130652469 ], [ -71.384502869825937, -35.26056464416444 ], [ -71.383538061244479, -35.26069183693572 ], [ -71.383023126262387, -35.260688464280442 ], [ -71.38247026530729, -35.26076245874993 ], [ -71.381972732488862, -35.26090831812742 ], [ -71.381735500897051, -35.260977863705214 ], [ -71.381326162876604, -35.261097866049909 ], [ -71.380656115794395, -35.261294293020022 ], [ -71.381541077621804, -35.263058790178789 ], [ -71.379769845121587, -35.267326305027794 ], [ -71.380950186489173, -35.268030408951994 ], [ -71.361813345448837, -35.265764860134261 ], [ -71.363793238623245, -35.273841939246132 ], [ -71.365849913499929, -35.274764510576048 ], [ -71.384530570276041, -35.283141548213351 ], [ -71.38459741481465, -35.28341978215262 ], [ -71.384771632284213, -35.284655259176589 ], [ -71.385681232204931, -35.284774520294285 ], [ -71.38691257632108, -35.289749876661041 ], [ -71.387926952143289, -35.294143830161119 ], [ -71.388907613294563, -35.297907721235084 ], [ -71.388978895510647, -35.298181461444031 ], [ -71.389951191549997, -35.302220727778462 ], [ -71.390686993514379, -35.305396875371351 ], [ -71.390150000400482, -35.304960000857747 ], [ -71.38967000089977, -35.304699999999166 ], [ -71.389470000883222, -35.304600000574318 ], [ -71.389209999693904, -35.30454999971591 ], [ -71.388900000072525, -35.304570000356222 ], [ -71.388750000284674, -35.304610000155826 ], [ -71.388499999141104, -35.304689999695697 ], [ -71.388100000006361, -35.304789999742404 ], [ -71.38777999944088, -35.304800000033524 ], [ -71.387220000472553, -35.304860000288031 ], [ -71.386730000027796, -35.304889998932417 ], [ -71.386479999782537, -35.304889999665519 ], [ -71.386050000510537, -35.304880000118622 ], [ -71.385779999275485, -35.304909998755583 ], [ -71.385440000415173, -35.3050800003519 ], [ -71.385170000078418, -35.305289999588204 ], [ -71.384509999754357, -35.305969999903198 ], [ -71.384079999584046, -35.306339998590019 ], [ -71.38383999938452, -35.306440000262754 ], [ -71.383549999854623, -35.306440000262754 ], [ -71.382900000474592, -35.306430000174366 ], [ -71.382580000807451, -35.306290000273073 ], [ -71.382280000333481, -35.306080000700042 ], [ -71.38216999983031, -35.305810000343286 ], [ -71.38197999985951, -35.305339999256198 ], [ -71.381799999934458, -35.305100001594305 ], [ -71.381619999111081, -35.304920000498079 ], [ -71.381460000175849, -35.304800000033524 ], [ -71.381230000022057, -35.304680000124094 ], [ -71.381029999107213, -35.304660000244063 ], [ -71.380719999485805, -35.304699999999166 ], [ -71.380349999589967, -35.304859999554949 ], [ -71.380290000213805, -35.305960000489804 ], [ -71.379530000330632, -35.309120000657963 ], [ -71.379226600631611, -35.310209001339068 ], [ -71.379176312942008, -35.310184594956731 ], [ -71.378999366390616, -35.310162675095704 ], [ -71.378745038960631, -35.311297300495099 ], [ -71.378467289756259, -35.312536803729238 ], [ -71.377579066146026, -35.316631601491444 ], [ -71.377579832408969, -35.31673467489378 ], [ -71.377920646939558, -35.3169062327121 ], [ -71.378401113564209, -35.317311568772404 ], [ -71.378861602555276, -35.317680669714292 ], [ -71.379238492529353, -35.317976239517243 ], [ -71.379724613150401, -35.318257398520139 ], [ -71.380215360993489, -35.318431978857248 ], [ -71.380494226803776, -35.318613684851208 ], [ -71.380615564944151, -35.31869274625511 ], [ -71.380925316630524, -35.319039626582331 ], [ -71.381193355046676, -35.319349666180727 ], [ -71.38131211861544, -35.319601945744743 ], [ -71.381312876793544, -35.319655468752565 ], [ -71.381336002123902, -35.319675911304209 ], [ -71.381601069811424, -35.320037080277388 ], [ -71.381630000953464, -35.320190000564615 ], [ -71.381590061855931, -35.320506440383603 ], [ -71.381910000437628, -35.32072000060964 ], [ -71.382240626276271, -35.320802657323668 ], [ -71.382468697747129, -35.321086856336727 ], [ -71.382785969230753, -35.321277990242777 ], [ -71.383135251281203, -35.321488356415855 ], [ -71.383871220332225, -35.321771290143275 ], [ -71.384366998740902, -35.321962738332836 ], [ -71.384459772251887, -35.321998495282642 ], [ -71.385408690534263, -35.322101465095088 ], [ -71.385900836155912, -35.322055712966012 ], [ -71.386206706221955, -35.322027223966614 ], [ -71.386932003287413, -35.321949761454952 ], [ -71.387875350218408, -35.321872491635169 ], [ -71.389757277619509, -35.321537840333271 ], [ -71.390849587682482, -35.321574868412092 ], [ -71.391511007344718, -35.321800670501673 ], [ -71.391810355641795, -35.32209219549388 ], [ -71.392042617753461, -35.322565377702958 ], [ -71.392047350078357, -35.32272597225198 ], [ -71.392053237636731, -35.322925754653646 ], [ -71.392429166413478, -35.323332954451239 ], [ -71.393458149740496, -35.323705805450651 ], [ -71.393679286217363, -35.323785978866105 ], [ -71.394853247749779, -35.324118726238353 ], [ -71.395447163509985, -35.32452610106057 ], [ -71.395970413298372, -35.324993506057176 ], [ -71.3969295256626, -35.325452265047652 ], [ -71.397821345228905, -35.326088102801627 ], [ -71.398559268115676, -35.326434043328177 ], [ -71.398673099933532, -35.326651399748755 ], [ -71.398713401950431, -35.326728432669967 ], [ -71.399105317145967, -35.327671631830384 ], [ -71.399704610221448, -35.328259207278961 ], [ -71.400149634714907, -35.328547891020712 ], [ -71.400820021360289, -35.329070910511795 ], [ -71.40156491427534, -35.329651004809747 ], [ -71.40222816111087, -35.329935269459611 ], [ -71.402404933389107, -35.329943570030402 ], [ -71.404049393839784, -35.330020744191138 ], [ -71.40586030762104, -35.329745885615047 ], [ -71.408628560492176, -35.329866487405752 ], [ -71.408765244552526, -35.329960130128306 ], [ -71.409223035004473, -35.330273779031934 ], [ -71.409380736049229, -35.330689779507715 ], [ -71.409246039062268, -35.331048546776699 ], [ -71.408818623345027, -35.33135458945187 ], [ -71.408534640730892, -35.331599138700149 ], [ -71.408709992772671, -35.332609757792596 ], [ -71.408791676581458, -35.332905577886457 ], [ -71.408877290519612, -35.332972546481848 ], [ -71.409313227655616, -35.333314323556976 ], [ -71.409408786842292, -35.333558394923841 ], [ -71.409687980537669, -35.334272077720733 ], [ -71.409706903549122, -35.334320585734687 ], [ -71.409791982091349, -35.334733528517994 ], [ -71.409229619655505, -35.33540285020046 ], [ -71.408954809738731, -35.335944592203411 ], [ -71.408973055420475, -35.336559062011297 ], [ -71.408974205264045, -35.336597807528733 ], [ -71.409275544227782, -35.336952309244182 ], [ -71.410175754957152, -35.337216886151388 ], [ -71.410596860009505, -35.337340593437133 ], [ -71.411404187633451, -35.33756344517257 ], [ -71.411710088242202, -35.337910244533205 ], [ -71.412232363358513, -35.338502392236911 ], [ -71.412691777964469, -35.339268442206176 ], [ -71.412794789574718, -35.340280496913635 ], [ -71.412944331221766, -35.340529912667996 ], [ -71.413254220350382, -35.34104654468139 ], [ -71.414213528547336, -35.341505154672703 ], [ -71.415084424554053, -35.341424684472059 ], [ -71.41618433256771, -35.341704569708192 ], [ -71.416397550395345, -35.341952116903371 ], [ -71.416485952704136, -35.342054690518189 ], [ -71.416663177733284, -35.343123815640624 ], [ -71.416693464433081, -35.344137246521143 ], [ -71.416519635934023, -35.344773278011175 ], [ -71.416496560011026, -35.344857848233254 ], [ -71.416174805035809, -35.345024157834551 ], [ -71.415780088893229, -35.345228257377052 ], [ -71.41535964589923, -35.345772999266607 ], [ -71.415339857810139, -35.345856026771585 ], [ -71.415285132443032, -35.346085449601482 ], [ -71.415254850234803, -35.346209522863511 ], [ -71.41522995881661, -35.34631192694178 ], [ -71.415410772615303, -35.346563592599104 ], [ -71.41555181440313, -35.346759931626018 ], [ -71.415609740467602, -35.3468407408931 ], [ -71.416578756757815, -35.347561876088662 ], [ -71.417172728213558, -35.348003842874554 ], [ -71.417838012428149, -35.348346534543396 ], [ -71.418139349595265, -35.348701160562406 ], [ -71.418513873406894, -35.349049667677249 ], [ -71.418740073687019, -35.349226945267219 ], [ -71.419035311293342, -35.349458443789139 ], [ -71.419638631516264, -35.350158445234328 ], [ -71.41995243909615, -35.350927379912008 ], [ -71.420999390525495, -35.351861878172514 ], [ -71.421994872082323, -35.352680723067401 ], [ -71.422207961450852, -35.352856040855862 ], [ -71.422416892517958, -35.353027896406971 ], [ -71.423083902396201, -35.353429155762591 ], [ -71.423529146078565, -35.353717668997035 ], [ -71.42382029365541, -35.35371182748375 ], [ -71.423861666464134, -35.353720892709198 ], [ -71.424333169698897, -35.35382330558145 ], [ -71.424414389078663, -35.353898916884638 ], [ -71.424707292861896, -35.354171800852619 ], [ -71.425000193051858, -35.35422455292592 ], [ -71.425011458823846, -35.354227502604033 ], [ -71.425440195064553, -35.354337415036191 ], [ -71.425543345015356, -35.354570538590572 ], [ -71.42559623422602, -35.354690286423562 ], [ -71.425679893430129, -35.355049188907678 ], [ -71.426054120797701, -35.35539775068824 ], [ -71.426354079949164, -35.355689172080368 ], [ -71.427084886382247, -35.355796259649679 ], [ -71.427675912262188, -35.356081754008187 ], [ -71.42805190841257, -35.356488907638628 ], [ -71.428137243872982, -35.356906332928524 ], [ -71.428366182218099, -35.357257808420627 ], [ -71.428538780923503, -35.357359418974724 ], [ -71.4286622893936, -35.357432183637222 ], [ -71.428692126037475, -35.357510374805941 ], [ -71.428785668506308, -35.357756316004235 ], [ -71.428820598597838, -35.357848067005158 ], [ -71.428791196738572, -35.357940816467739 ], [ -71.428749104379307, -35.358073326713829 ], [ -71.42855440442294, -35.358687269969437 ], [ -71.428287575139151, -35.359063112492834 ], [ -71.427995826589381, -35.359473792526003 ], [ -71.428025391942001, -35.359600136821342 ], [ -71.428162681466887, -35.360186950433466 ], [ -71.427990676547864, -35.361736340731404 ], [ -71.427986362837871, -35.361766924856042 ], [ -71.427870457708323, -35.362577112764967 ], [ -71.427957194540582, -35.363053142079167 ], [ -71.428229760465783, -35.363211301671782 ], [ -71.428301870928593, -35.363253199132188 ], [ -71.428550126645561, -35.363397299505642 ], [ -71.428790045098381, -35.363416548618922 ], [ -71.429133791730052, -35.363444120496965 ], [ -71.42973159360217, -35.363968501584012 ], [ -71.430478911070182, -35.36461149156203 ], [ -71.430782432940077, -35.36501994569543 ], [ -71.43078529317593, -35.365115295560202 ], [ -71.430800405533958, -35.365619126448976 ], [ -71.430965410780288, -35.366269326935949 ], [ -71.431485534431488, -35.36661936470729 ], [ -71.431760985745385, -35.366764903647919 ], [ -71.432342390668609, -35.367071982362638 ], [ -71.433112875687797, -35.367479073248298 ], [ -71.434076303558641, -35.368054549337138 ], [ -71.434465345043591, -35.368100687838236 ], [ -71.434952915545509, -35.368158573910819 ], [ -71.435531471910977, -35.368025212899042 ], [ -71.435973413386364, -35.368196626681261 ], [ -71.436193299408359, -35.36825075041105 ], [ -71.436480613873883, -35.36812776365791 ], [ -71.43702376314242, -35.36824706651764 ], [ -71.43721352505969, -35.368288724024865 ], [ -71.437719324175347, -35.36816132529659 ], [ -71.437967190921796, -35.368096656718023 ], [ -71.438224715455874, -35.368029428620865 ], [ -71.438954151958157, -35.368077837251647 ], [ -71.439476226750145, -35.368113888052299 ], [ -71.439610654242529, -35.368123209511836 ], [ -71.439901759598541, -35.368117328751495 ], [ -71.440002714965132, -35.36804499052937 ], [ -71.440329327131082, -35.367811172611155 ], [ -71.440834711225094, -35.367679265107753 ], [ -71.441487682232065, -35.367607508126476 ], [ -71.442122518948395, -35.367631078196183 ], [ -71.442508079461618, -35.367645434428084 ], [ -71.443304788100562, -35.367512128241287 ], [ -71.443659360329747, -35.367207437082065 ], [ -71.44370512679852, -35.366309600948888 ], [ -71.443833258897385, -35.365775478935532 ], [ -71.443834468029763, -35.365770728332677 ], [ -71.443870415014175, -35.365755011417122 ], [ -71.444409367353714, -35.365520208905025 ], [ -71.444438574278536, -35.365442451107874 ], [ -71.44454404547605, -35.36516140717152 ], [ -71.445289938216021, -35.365062863404319 ], [ -71.445631590874768, -35.365017695273174 ], [ -71.445994587504671, -35.364977778837414 ], [ -71.446007434311539, -35.364976337159888 ], [ -71.446284445100758, -35.364945914681726 ], [ -71.447225029712271, -35.364751038104899 ], [ -71.448225257068742, -35.364131374919779 ], [ -71.448940318729839, -35.363702169874642 ], [ -71.44995131958153, -35.363442781352376 ], [ -71.450595211315928, -35.363069212622889 ], [ -71.451840225994061, -35.362667045883342 ], [ -71.451964850171734, -35.362626707783811 ], [ -71.452832373902865, -35.362428839601037 ], [ -71.453231578028607, -35.362391415598353 ], [ -71.453630603389598, -35.362354068499613 ], [ -71.454166866173182, -35.362145270940303 ], [ -71.454278056944119, -35.362101955351406 ], [ -71.454410339259582, -35.362147930225305 ], [ -71.455087150655899, -35.36238302825317 ], [ -71.455458257276192, -35.362614369653038 ], [ -71.455555055239614, -35.363027329718513 ], [ -71.45562536368196, -35.3633276265559 ], [ -71.455648836660345, -35.364102288326571 ], [ -71.455959717529041, -35.364749559062702 ], [ -71.456210000743596, -35.365137245206206 ], [ -71.456341488948354, -35.365341186236755 ], [ -71.456394007154827, -35.365402367859367 ], [ -71.456769943118061, -35.365839999933137 ], [ -71.456794239851561, -35.365868305000191 ], [ -71.457612307733029, -35.366446694188788 ], [ -71.458352478204645, -35.366846189562288 ], [ -71.458861874174715, -35.366835819686486 ], [ -71.459118461765954, -35.366676040946459 ], [ -71.459647561383463, -35.366346630489844 ], [ -71.459720530635678, -35.366318190801792 ], [ -71.460295026616066, -35.366094558379316 ], [ -71.460594389286186, -35.366025470867399 ], [ -71.460873249706566, -35.365961082609765 ], [ -71.461382547760266, -35.365950703829654 ], [ -71.46144143322546, -35.36610560962135 ], [ -71.461540682691307, -35.366366618039962 ], [ -71.461766053826409, -35.366600909703855 ], [ -71.46227778631453, -35.36659040427574 ], [ -71.462348333708732, -35.36658903954423 ], [ -71.462793785800258, -35.366877472794265 ], [ -71.463091865676148, -35.367110204129617 ], [ -71.463390218639887, -35.367343004385113 ], [ -71.463533069634693, -35.367596771347991 ], [ -71.463621029972359, -35.367753001333476 ], [ -71.463733012159054, -35.367786088445818 ], [ -71.46457602715428, -35.368035389966131 ], [ -71.464604280068272, -35.368128447109441 ], [ -71.464737748159934, -35.368568489801326 ], [ -71.464756173504711, -35.369174222992207 ], [ -71.464759394863322, -35.369280122840848 ], [ -71.464861333885139, -35.370233579284594 ], [ -71.465319559121681, -35.370940804075154 ], [ -71.46567464878045, -35.371452305978451 ], [ -71.465802032582701, -35.371635791396621 ], [ -71.465890380094251, -35.371762991993819 ], [ -71.466245644026174, -35.371865321184529 ], [ -71.466480940646861, -35.371933104981636 ], [ -71.46724904782549, -35.372154451960057 ], [ -71.46811841040801, -35.372014919680836 ], [ -71.468652221689169, -35.37184325177347 ], [ -71.468911311088476, -35.371759828334319 ], [ -71.469045019030318, -35.371757094651159 ], [ -71.46992997636616, -35.371738998281629 ], [ -71.470803040007652, -35.371721139237557 ], [ -71.471224916712842, -35.371234739719497 ], [ -71.471203211618942, -35.370523111460777 ], [ -71.471116618517129, -35.370004359837175 ], [ -71.471114065505105, -35.369988610050278 ], [ -71.471321289773144, -35.369623791501638 ], [ -71.471899562270991, -35.369494767224033 ], [ -71.47277251272476, -35.369476969947456 ], [ -71.473028766142704, -35.369555019063085 ], [ -71.473507419068795, -35.369700729979762 ], [ -71.473589777512373, -35.369731830441346 ], [ -71.473949212322168, -35.369867428665337 ], [ -71.474691419274521, -35.370329988794673 ], [ -71.474750475419611, -35.37044235006389 ], [ -71.474845915130345, -35.370624264349935 ], [ -71.475288216830151, -35.37037063069954 ], [ -71.475489784406875, -35.370254995735287 ], [ -71.475782668427144, -35.370174483856886 ], [ -71.476428329842676, -35.369996870612823 ], [ -71.477155596015237, -35.369982029142172 ], [ -71.478237757810447, -35.369662385644062 ], [ -71.479027240401265, -35.369285604292756 ], [ -71.479807304156338, -35.368616075481391 ], [ -71.480331801704637, -35.368200569892799 ], [ -71.480660104499947, -35.367940543870411 ], [ -71.48094235965381, -35.367819550601943 ], [ -71.481234853805262, -35.367694358261325 ], [ -71.481512201462706, -35.367501540887631 ], [ -71.481769513994365, -35.367322721863786 ], [ -71.482500793839606, -35.367427983171297 ], [ -71.482866250955084, -35.367480505358103 ], [ -71.483087051462022, -35.367487116504179 ], [ -71.484032057581345, -35.367515163873328 ], [ -71.485184795516858, -35.367135376409799 ], [ -71.486145333507451, -35.367593372381187 ], [ -71.48637805016665, -35.368061769902603 ], [ -71.487482132651422, -35.368458241464758 ], [ -71.488520527627699, -35.36909028915629 ], [ -71.4904305794837, -35.369650373826268 ], [ -71.491529158889051, -35.369866597260426 ], [ -71.492772978807864, -35.370079812415362 ], [ -71.493026496855762, -35.370115193537401 ], [ -71.493504289195826, -35.370181904208607 ], [ -71.493654851329026, -35.37006788270125 ], [ -71.494073235384377, -35.36975102237291 ], [ -71.494571066443498, -35.369581460034397 ], [ -71.495369828631198, -35.369309535005002 ], [ -71.4954680701873, -35.369270657940866 ], [ -71.496160895850181, -35.368995746832212 ], [ -71.496426906768747, -35.36890710121618 ], [ -71.496737536109151, -35.368803575724172 ], [ -71.496646239428514, -35.368210510330492 ], [ -71.496253012692677, -35.367751507695587 ], [ -71.496180075779804, -35.367666471379678 ], [ -71.495891123685524, -35.367329220211872 ], [ -71.495701220732769, -35.366865275228776 ], [ -71.495576534571342, -35.36656051716394 ], [ -71.495622710671881, -35.366274306796981 ], [ -71.495737124598051, -35.365566444819315 ], [ -71.495759916653427, -35.3654254506909 ], [ -71.496383386088169, -35.364398478069226 ], [ -71.496874074642434, -35.36379345406484 ], [ -71.497152244258388, -35.363368569411627 ], [ -71.49788159811564, -35.363411971497264 ], [ -71.499194602684383, -35.363506576036755 ], [ -71.500570906141292, -35.363297763143713 ], [ -71.501876630762965, -35.363153607649359 ], [ -71.502669685055352, -35.362898220906594 ], [ -71.503031470756241, -35.362832166467371 ], [ -71.503553533870118, -35.363235973353525 ], [ -71.504359170864689, -35.363399596125227 ], [ -71.50514925263181, -35.363436081966242 ], [ -71.505233840693919, -35.363440013689136 ], [ -71.506246532174956, -35.363238752744948 ], [ -71.507322948345603, -35.362743151455646 ], [ -71.507895751900008, -35.362429315047272 ], [ -71.508323109226765, -35.362122927082332 ], [ -71.508450515486885, -35.361957974275391 ], [ -71.508602714350502, -35.361761123484811 ], [ -71.509275082679423, -35.361635506369943 ], [ -71.50968825201457, -35.361558247388317 ], [ -71.510101433926124, -35.361455215762049 ], [ -71.510813914727436, -35.361277361356862 ], [ -71.51098843313261, -35.361233783766387 ], [ -71.511992135172619, -35.36073514966705 ], [ -71.512498237918848, -35.360416698857691 ], [ -71.512777284290507, -35.360241127885217 ], [ -71.513793772051926, -35.360161345215865 ], [ -71.515547180180278, -35.360363720059922 ], [ -71.515772772300949, -35.360597902405736 ], [ -71.515714804913983, -35.361076873037447 ], [ -71.51544723272346, -35.361398346116097 ], [ -71.515363722639691, -35.361498813012965 ], [ -71.51536993628649, -35.361699018970292 ], [ -71.515382315969433, -35.362097880709115 ], [ -71.515251733266481, -35.362578290023386 ], [ -71.51519548794991, -35.363115781065545 ], [ -71.515501328371542, -35.363582669829022 ], [ -71.516241879728824, -35.363986448053971 ], [ -71.516984163936314, -35.364448669009263 ], [ -71.518151380917573, -35.364541526634724 ], [ -71.519016825947133, -35.364284671824883 ], [ -71.519516936032119, -35.363976653609875 ], [ -71.519947948603757, -35.363791915666873 ], [ -71.520474044254939, -35.363922567305643 ], [ -71.521488359890014, -35.364174465254344 ], [ -71.521648552861379, -35.364200657450326 ], [ -71.522146807925282, -35.364282335671895 ], [ -71.523614446690388, -35.364666377363008 ], [ -71.524518408784388, -35.364908592939187 ], [ -71.524862489589353, -35.365000866185689 ], [ -71.525436839144334, -35.364749976622889 ], [ -71.526867417912413, -35.363944780268241 ], [ -71.527580070291918, -35.363452181004092 ], [ -71.527727048147128, -35.363216500761574 ], [ -71.52799602350612, -35.362785390541084 ], [ -71.52843619440209, -35.362897942526764 ], [ -71.529393017858979, -35.363233975620084 ], [ -71.530273403668346, -35.363454414620804 ], [ -71.53059894504247, -35.363510139272009 ], [ -71.531517289164157, -35.363667155890219 ], [ -71.531740649869676, -35.363591511244387 ], [ -71.53245372535568, -35.363350085827221 ], [ -71.533774154500236, -35.363678385479439 ], [ -71.534536754107862, -35.363833107360975 ], [ -71.534579845393722, -35.363841802967478 ], [ -71.535014391937693, -35.363774125191185 ], [ -71.535554308169537, -35.363400742603567 ], [ -71.536083101461529, -35.363035048886225 ], [ -71.5363553421966, -35.362871013666378 ], [ -71.537725994352044, -35.362045093486891 ], [ -71.537901713804771, -35.361873335512456 ], [ -71.538220517814281, -35.361561445879396 ], [ -71.538865700427735, -35.361245944087912 ], [ -71.53965081810459, -35.360756181093429 ], [ -71.540363360889629, -35.360263510359296 ], [ -71.540715633431674, -35.359895454430202 ], [ -71.541241551216444, -35.359747117000275 ], [ -71.542303021217407, -35.359447427365808 ], [ -71.54238883637818, -35.359418742020686 ], [ -71.543455466302134, -35.359062592337338 ], [ -71.543606109283715, -35.35900285648578 ], [ -71.543971217852842, -35.358857746051413 ], [ -71.54424613916072, -35.358748502056791 ], [ -71.544323157119905, -35.358689430456295 ], [ -71.544885758507633, -35.358257266730774 ], [ -71.545349843454758, -35.358210050046601 ], [ -71.545611401424466, -35.358183419264847 ], [ -71.545677619837321, -35.358176632992951 ], [ -71.546336588895471, -35.358109501399575 ], [ -71.546819469293283, -35.358184312330252 ], [ -71.547360865948718, -35.358268226002849 ], [ -71.548099169721169, -35.358608718759918 ], [ -71.548710089691383, -35.358776447697892 ], [ -71.548906940214536, -35.358830481038225 ], [ -71.548770649616273, -35.359099927038983 ], [ -71.548632748338676, -35.359372655701165 ], [ -71.548580735883732, -35.359802629556498 ], [ -71.548574883359663, -35.359851562538431 ], [ -71.548884631452765, -35.360439972125768 ], [ -71.549119758291866, -35.360971399054236 ], [ -71.549128917514494, -35.361004655977993 ], [ -71.549217671064582, -35.361324512511814 ], [ -71.549283759221709, -35.361562809963267 ], [ -71.549230923909946, -35.361740112832692 ], [ -71.549086259216594, -35.362224911725598 ], [ -71.549070609666046, -35.362375068003224 ], [ -71.549031808733957, -35.362749232601821 ], [ -71.54897467139034, -35.363299971857138 ], [ -71.549136839756983, -35.3638329381373 ], [ -71.549512027423617, -35.364185515294075 ], [ -71.550292516980136, -35.364059824299176 ], [ -71.550381128596385, -35.364045474022696 ], [ -71.550436563632573, -35.364056781944072 ], [ -71.550789478470037, -35.364128266636307 ], [ -71.551186758404427, -35.36420878088267 ], [ -71.552141836434714, -35.364486037115974 ], [ -71.553091470674389, -35.364847803594948 ], [ -71.553173131126968, -35.364878936693849 ], [ -71.553917789581746, -35.365404010249563 ], [ -71.554157497828811, -35.365375680845354 ], [ -71.55457036982159, -35.365327074268912 ], [ -71.555066293757335, -35.364901960337676 ], [ -71.555197781962107, -35.364546361554744 ], [ -71.555200599977155, -35.364538548030808 ], [ -71.555118346636462, -35.364242779295154 ], [ -71.554753306339308, -35.364015536154056 ], [ -71.554747237321237, -35.364011750240302 ], [ -71.55459404671754, -35.363776185912364 ], [ -71.554590098621858, -35.363648079723646 ], [ -71.554580985213306, -35.363361839251233 ], [ -71.554569958393188, -35.363009182309092 ], [ -71.554567779978626, -35.362942918443295 ], [ -71.554704075966782, -35.362642599662671 ], [ -71.555064050664072, -35.362517797085339 ], [ -71.557102590351789, -35.362533283135299 ], [ -71.558419394794186, -35.36274427450072 ], [ -71.559441301193402, -35.362839736207619 ], [ -71.560016002887991, -35.362738132550021 ], [ -71.560599489207746, -35.362635011589433 ], [ -71.561459295512279, -35.362202082918479 ], [ -71.562106377164255, -35.361949479194898 ], [ -71.563186913008792, -35.361926552143167 ], [ -71.563924505315541, -35.361910896016539 ], [ -71.564877830732726, -35.362129532073908 ], [ -71.566554362835689, -35.362211102503174 ], [ -71.567641636943179, -35.362070805064675 ], [ -71.567978784550775, -35.361968824622267 ], [ -71.568074140718196, -35.361939918199006 ], [ -71.568251480731689, -35.361662120628765 ], [ -71.56842108535227, -35.361396227459494 ], [ -71.568482414235049, -35.361038858668771 ], [ -71.568608960807438, -35.360529391141711 ], [ -71.568676037111388, -35.360259549910218 ], [ -71.568651483459732, -35.359484806578649 ], [ -71.568558135026976, -35.358828861958038 ], [ -71.56854766067076, -35.358498347661147 ], [ -71.568545004352472, -35.358414519211507 ], [ -71.568968063240575, -35.357986321901713 ], [ -71.569691544810851, -35.357853744844022 ], [ -71.570266055164282, -35.357602715118098 ], [ -71.570616229241821, -35.357176063016936 ], [ -71.570748469336479, -35.356758553403075 ], [ -71.570875215334851, -35.356156481831242 ], [ -71.570647537326096, -35.355863892828282 ], [ -71.570986510310348, -35.355081487034525 ], [ -71.571293408049073, -35.354876541265789 ], [ -71.57162793167771, -35.354653210507728 ], [ -71.571931578413427, -35.354283369897473 ], [ -71.57197817762048, -35.354226553812893 ], [ -71.572111016891441, -35.354089628115709 ], [ -71.572330783437494, -35.353863053158669 ], [ -71.572462399203019, -35.353505810015378 ], [ -71.572464636008078, -35.353499633659375 ], [ -71.572481518047212, -35.353486277929036 ], [ -71.573218729468266, -35.352901771153967 ], [ -71.573387712454689, -35.352767840565733 ], [ -71.573978831759405, -35.353052753634643 ], [ -71.574575865571958, -35.353146287429972 ], [ -71.574637097436693, -35.353155837011762 ], [ -71.574680707948772, -35.353144052795429 ], [ -71.575358792257859, -35.35296020370513 ], [ -71.575754130034611, -35.352864271666689 ], [ -71.576102152647024, -35.352779906915025 ], [ -71.576153044902824, -35.3527675233194 ], [ -71.576293281800133, -35.352775756337245 ], [ -71.576437132619844, -35.352784280957053 ], [ -71.576882229876816, -35.352810599203913 ], [ -71.578129091491178, -35.353478694856598 ], [ -71.578308450019122, -35.353574847429485 ], [ -71.578807274614917, -35.353842138627954 ], [ -71.580284820899308, -35.354527216007526 ], [ -71.581829158721675, -35.355030452852468 ], [ -71.583149618408953, -35.355358283004847 ], [ -71.584024347526963, -35.355402633045216 ], [ -71.585189693317503, -35.355436325989203 ], [ -71.585981991228422, -35.355510190620357 ], [ -71.586211887177598, -35.355531629293232 ], [ -71.587147628073112, -35.355214082564018 ], [ -71.587505682172306, -35.355026165384814 ], [ -71.588070261650273, -35.354477758881394 ], [ -71.58827340666862, -35.354000155810901 ], [ -71.588310809822104, -35.353582297880862 ], [ -71.588327150177122, -35.353399633041747 ], [ -71.589186610630264, -35.352966518576757 ], [ -71.589695509831984, -35.352955682406197 ], [ -71.590503318952912, -35.353177163478968 ], [ -71.591310721137006, -35.35339421718372 ], [ -71.592401654980989, -35.353370807074562 ], [ -71.592922348164066, -35.353720197413104 ], [ -71.59293489673027, -35.353788453627104 ], [ -71.593010123448778, -35.354195992475177 ], [ -71.593098176312949, -35.354671930532099 ], [ -71.593178624039894, -35.354904502167237 ], [ -71.593227893938291, -35.354917547751683 ], [ -71.593398706792939, -35.354962911289846 ], [ -71.5935261930031, -35.355380995790796 ], [ -71.593561229994137, -35.355495730392718 ], [ -71.593936149962801, -35.355843742961916 ], [ -71.594085688016563, -35.355962147440387 ], [ -71.594137750777179, -35.355961029429416 ], [ -71.594667472927171, -35.35594972477007 ], [ -71.595391010192984, -35.355812489156023 ], [ -71.595733195552697, -35.355805061622348 ], [ -71.596481881154887, -35.355788969118755 ], [ -71.596912514637467, -35.355599464170751 ], [ -71.597218544603621, -35.3549700326531 ], [ -71.597322218272268, -35.354756838400746 ], [ -71.597792086573179, -35.354306861066981 ], [ -71.597957717945292, -35.354148305980537 ], [ -71.598142233701267, -35.353988458171607 ], [ -71.598685604853685, -35.353517623485438 ], [ -71.598736465668452, -35.353473479753809 ], [ -71.599373823955801, -35.352923529963022 ], [ -71.599490630993856, -35.35289251314456 ], [ -71.600197563799981, -35.352705172304155 ], [ -71.600237892766344, -35.352799190064367 ], [ -71.600460003016963, -35.353159627830564 ], [ -71.600609277864351, -35.353401787808764 ], [ -71.601059347296427, -35.353992942779712 ], [ -71.601661416166152, -35.354638344236605 ], [ -71.60231200214605, -35.355194308384156 ], [ -71.604296067994966, -35.356889912424805 ], [ -71.605067919351683, -35.357549503696418 ], [ -71.605145655963128, -35.357587183432244 ], [ -71.606156007332842, -35.358075259371574 ], [ -71.606220465047741, -35.35810635845106 ], [ -71.606335596727803, -35.358121227014244 ], [ -71.607049469917797, -35.358213258927016 ], [ -71.607085763651909, -35.35821786564825 ], [ -71.60729073045367, -35.358198081214638 ], [ -71.608177092754602, -35.35811256082912 ], [ -71.609496329834784, -35.357857446794746 ], [ -71.611433305996471, -35.357256678705539 ], [ -71.612768226763194, -35.356764677492798 ], [ -71.613730335907206, -35.356267144058023 ], [ -71.614506893537722, -35.355790676177108 ], [ -71.614613919718991, -35.355744275680763 ], [ -71.614823525420874, -35.355653418313473 ], [ -71.615058112372481, -35.355551829789981 ], [ -71.615566203988749, -35.355420688385536 ], [ -71.615966999929185, -35.355436523071027 ], [ -71.616718411019932, -35.355466101461019 ], [ -71.617012804209907, -35.355477740274651 ], [ -71.618317895519283, -35.355529203504226 ], [ -71.619255838185538, -35.355462494644634 ], [ -71.620176605961873, -35.355397111087726 ], [ -71.620197961611112, -35.355396869314347 ], [ -71.620968314577965, -35.355390639619777 ], [ -71.621262941329903, -35.355437411770957 ], [ -71.621296751222246, -35.355345705653079 ], [ -71.621318203889544, -35.355287201563129 ], [ -71.621486650581744, -35.354829720434743 ], [ -71.621724980813141, -35.354520913713081 ], [ -71.621766162280693, -35.354467666558534 ], [ -71.621797974319861, -35.354063436302994 ], [ -71.621817724679701, -35.353812982388582 ], [ -71.621947745037289, -35.353332409557311 ], [ -71.62214660688835, -35.352728726942424 ], [ -71.622273266648477, -35.351968813291172 ], [ -71.622236094362023, -35.351000681567726 ], [ -71.622415969421255, -35.350361892897105 ], [ -71.62251612798218, -35.350006020527161 ], [ -71.622826931595739, -35.349018296940251 ], [ -71.623322745937031, -35.348592913233091 ], [ -71.624177930409417, -35.348038031288581 ], [ -71.624671507047339, -35.347549556904887 ], [ -71.624722993987845, -35.34689044302916 ], [ -71.624774623760487, -35.346235829330794 ], [ -71.625049976259689, -35.345752169836366 ], [ -71.625622134823715, -35.345442230034742 ], [ -71.625801672116395, -35.345417578562241 ], [ -71.626129252666217, -35.34537257676439 ], [ -71.626753721925866, -35.345459126213946 ], [ -71.626860186660068, -35.345473942883046 ], [ -71.627371094494762, -35.345521312827948 ], [ -71.627799695988173, -35.345273114905837 ], [ -71.6281458069857, -35.344729352987208 ], [ -71.628283004882391, -35.344388324695693 ], [ -71.628482455129983, -35.343888217803666 ], [ -71.628817200642516, -35.342988568191942 ], [ -71.628872504524665, -35.342451058960904 ], [ -71.629006262772165, -35.342087583718929 ], [ -71.629507516412488, -35.341837799060372 ], [ -71.630224981066974, -35.34152474827804 ], [ -71.630726317352313, -35.341274956750048 ], [ -71.631296435842316, -35.34090655268146 ], [ -71.631872337686133, -35.340713688926655 ], [ -71.632078899895816, -35.340353127475119 ], [ -71.632289351810698, -35.340109667254175 ], [ -71.632501613830868, -35.33992479703636 ], [ -71.632869193665357, -35.34003847566548 ], [ -71.63326197663342, -35.340134546044048 ], [ -71.63330920915277, -35.340145995810019 ], [ -71.633527319205427, -35.340141315512255 ], [ -71.633735863996947, -35.339839264629724 ], [ -71.633802687874308, -35.339657561641872 ], [ -71.633858712205324, -35.339559609623507 ], [ -71.63400923930422, -35.339296999141538 ], [ -71.634370877681405, -35.339230557535714 ], [ -71.634883652215251, -35.33933648566483 ], [ -71.634903580441531, -35.339339668914562 ], [ -71.635541865790231, -35.339439386493964 ], [ -71.636192467041511, -35.339308005686682 ], [ -71.636900216416194, -35.338697623810923 ], [ -71.637175649763776, -35.338213862763062 ], [ -71.637179400230067, -35.338207282929218 ], [ -71.637519762009774, -35.337611415528308 ], [ -71.637918500808183, -35.337350543536253 ], [ -71.638089766413742, -35.337238479905942 ], [ -71.63880715560974, -35.336925381258965 ], [ -71.639448001157007, -35.336492187990054 ], [ -71.639569554893072, -35.336251027451624 ], [ -71.639721418685099, -35.335949983582516 ], [ -71.640264994653407, -35.335216976962947 ], [ -71.640348763451968, -35.335102392367716 ], [ -71.640621990537213, -35.334560189628263 ], [ -71.640748150834028, -35.333962423659358 ], [ -71.640807184521236, -35.333542013644454 ], [ -71.641310311148928, -35.33335527503251 ], [ -71.641445998977673, -35.333050373650686 ], [ -71.641503179440448, -35.332575951995253 ], [ -71.641629183430382, -35.331973685520325 ], [ -71.64175343211231, -35.331317553393419 ], [ -71.641728207419121, -35.330542851987012 ], [ -71.641632049056156, -35.32982833082707 ], [ -71.641799687264594, -35.328274381089138 ], [ -71.642069339054999, -35.327614920889857 ], [ -71.642422907865992, -35.327305253783528 ], [ -71.642569856975115, -35.32716115204704 ], [ -71.642505551973812, -35.327112198528638 ], [ -71.64213538229636, -35.326626965347565 ], [ -71.641993173597001, -35.326437941672673 ], [ -71.641776476594274, -35.326149975245904 ], [ -71.641287362786699, -35.325412219853007 ], [ -71.640662498268313, -35.324932548148503 ], [ -71.639872072446451, -35.324464983021372 ], [ -71.639162124894256, -35.324089210397204 ], [ -71.638484765525646, -35.323695737868121 ], [ -71.638129300371062, -35.323320709264955 ], [ -71.63795833031125, -35.32283118540628 ], [ -71.637748107466791, -35.321474814354097 ], [ -71.637522651890038, -35.32033143867266 ], [ -71.63726156373923, -35.319452597586874 ], [ -71.636974712804388, -35.318803889322695 ], [ -71.63696394469909, -35.318472432114895 ], [ -71.637115231772711, -35.31801833122568 ], [ -71.637274733939606, -35.317470495940647 ], [ -71.637218504792699, -35.316765730514227 ], [ -71.637076719199854, -35.316147823458962 ], [ -71.636609771321901, -35.315409634485931 ], [ -71.635954674900944, -35.314675327424396 ], [ -71.635443480503696, -35.314266323315614 ], [ -71.635139036962329, -35.313929380627265 ], [ -71.634702421598263, -35.313389229093552 ], [ -71.634475109203834, -35.312844365685031 ], [ -71.634376176843261, -35.312299656209092 ], [ -71.634459604282029, -35.311739082958916 ], [ -71.634657272272079, -35.311173433867303 ], [ -71.634595452909167, -35.310564781400359 ], [ -71.634072784330783, -35.309515007302743 ], [ -71.634114262242392, -35.308516584466112 ], [ -71.634421036013606, -35.307418453928648 ], [ -71.634440230316287, -35.306954978586177 ], [ -71.634115948380185, -35.306374715593229 ], [ -71.633577027481664, -35.305717091339353 ], [ -71.632901743221353, -35.305198525400392 ], [ -71.632236840790753, -35.304430293412281 ], [ -71.631355947433278, -35.303620314176982 ], [ -71.6307287023794, -35.302995982059009 ], [ -71.630357914661033, -35.302485836231128 ], [ -71.630249592210816, -35.301947380995117 ], [ -71.630448727149741, -35.301346041800834 ], [ -71.630511487947061, -35.300883758950015 ], [ -71.630392873498621, -35.300594815889298 ], [ -71.630053802598013, -35.30037114596724 ], [ -71.629407192561558, -35.30021035893288 ], [ -71.628612451233067, -35.300473759146982 ], [ -71.62786425790766, -35.300667100871784 ], [ -71.626857891464525, -35.300781795853787 ], [ -71.626115433882191, -35.300832414879565 ], [ -71.625247082802701, -35.300772418236619 ], [ -71.624383115501786, -35.300605544710287 ], [ -71.623658455341854, -35.300228367952933 ], [ -71.622983276184428, -35.299709667127466 ], [ -71.622225671209776, -35.299081545205489 ], [ -71.621350784886587, -35.298128993182189 ], [ -71.620525484668775, -35.297034912490318 ], [ -71.619866707850093, -35.296124034760773 ], [ -71.619118026739486, -35.295282002299608 ], [ -71.618315400897743, -35.294688353202737 ], [ -71.617368907168299, -35.294412010784967 ], [ -71.616412081016477, -35.29438517201303 ], [ -71.615639670009301, -35.294113686024801 ], [ -71.614397820095945, -35.293614801981199 ], [ -71.613623866681436, -35.293378928303653 ], [ -71.612587479439824, -35.293171391072136 ], [ -71.611632222644801, -35.293108888499063 ], [ -71.610928875014991, -35.293267631522525 ], [ -71.609888095011641, -35.293167087858237 ], [ -71.609378062136045, -35.292867152772047 ], [ -71.608838058767617, -35.292245174178362 ], [ -71.608176423509704, -35.291405473352263 ], [ -71.607480254317352, -35.290350748427088 ], [ -71.606955136931504, -35.289372078846462 ], [ -71.606548546857496, -35.288682451515712 ], [ -71.605749192680022, -35.288017387570271 ], [ -71.604765329933088, -35.287597018800675 ], [ -71.603726007895432, -35.287460797815349 ], [ -71.602210056836043, -35.287275386324325 ], [ -71.600897928124724, -35.287416898846587 ], [ -71.599612883619201, -35.287951908389708 ], [ -71.598716272439177, -35.288569306347142 ], [ -71.598046077134939, -35.288978766660591 ], [ -71.597074321881394, -35.289308382548754 ], [ -71.595849229141322, -35.289452400679806 ], [ -71.59506643540611, -35.289430368881703 ], [ -71.593985212350361, -35.289257081728636 ], [ -71.592824470425654, -35.288903101957622 ], [ -71.591654797450403, -35.28876300060773 ], [ -71.590612611583651, -35.288697838061509 ], [ -71.590002321332435, -35.288716306458738 ], [ -71.58933503297645, -35.289054547146009 ], [ -71.588484815289277, -35.289601686906273 ], [ -71.587753121320688, -35.290437738799689 ], [ -71.587633115381877, -35.291219785669831 ], [ -71.587804058492239, -35.292331214463807 ], [ -71.587510245613942, -35.293108267469094 ], [ -71.586698995945483, -35.293763626677219 ], [ -71.585562189631517, -35.293874271690889 ], [ -71.584615977074776, -35.293597588485277 ], [ -71.58358860532536, -35.293175908383319 ], [ -71.582813345760428, -35.292975528252093 ], [ -71.581892587865582, -35.293127967388038 ], [ -71.580970258817288, -35.29331609961266 ], [ -71.579995504088998, -35.293716900952042 ], [ -71.57914960999328, -35.294156961806522 ], [ -71.57835178654507, -35.294491430915251 ], [ -71.57725256843753, -35.294745778637143 ], [ -71.5764682394815, -35.294759323707623 ], [ -71.575433568920403, -35.294515763579355 ], [ -71.574793202175172, -35.294212031842143 ], [ -71.573980429862303, -35.293867737373297 ], [ -71.573139217785851, -35.293165611171709 ], [ -71.572818392566973, -35.292513913205191 ], [ -71.572151185957679, -35.291816715716685 ], [ -71.571623420338355, -35.290909271640949 ], [ -71.571218803863047, -35.289148614747006 ], [ -71.57103752833028, -35.288286667843089 ], [ -71.570910275682067, -35.287176495329255 ], [ -71.571075374353214, -35.286360125987017 ], [ -71.571246403701835, -35.285401114362926 ], [ -71.571152032087966, -35.284541675739334 ], [ -71.570580974858473, -35.283633003971936 ], [ -71.569790861650347, -35.282753871274267 ], [ -71.569134247974887, -35.28180706254183 ], [ -71.568732555515808, -35.281010271529439 ], [ -71.568459809927546, -35.280252903718832 ], [ -71.568500443422806, -35.279290241078471 ], [ -71.568839415508734, -35.278478745227147 ], [ -71.569338792568445, -35.277993177773638 ], [ -71.570568316697816, -35.277742412635774 ], [ -71.572758920501897, -35.277411964973638 ], [ -71.573168234267854, -35.276995125793633 ], [ -71.572895463526763, -35.276237768834875 ], [ -71.572106885539441, -35.275322950631278 ], [ -71.571523841190796, -35.274699569244966 ], [ -71.57091526043358, -35.273647036605297 ], [ -71.570435621157301, -35.272633850967075 ], [ -71.570131509992592, -35.271590052755855 ], [ -71.5696908782609, -35.270685024481118 ], [ -71.568633978888101, -35.269941069732788 ], [ -71.568281825821984, -35.269002921164606 ], [ -71.568234015685945, -35.268073444905589 ], [ -71.567877420450742, -35.267242239744441 ], [ -71.567382738885044, -35.266585649305867 ], [ -71.56684322869171, -35.265963385214114 ], [ -71.566354686212634, -35.265164143324988 ], [ -71.566164348475311, -35.264516225468057 ], [ -71.566379023370317, -35.263558506480962 ], [ -71.566843807206766, -35.26285769445149 ], [ -71.567446495015702, -35.261982341854228 ], [ -71.568001371790288, -35.261212785061325 ], [ -71.568899337629773, -35.260559993736386 ], [ -71.569100337471227, -35.259923112159889 ], [ -71.568998521518594, -35.259241935042894 ], [ -71.568432051086944, -35.258226371607513 ], [ -71.56846368885293, -35.257477598310395 ], [ -71.568579127756848, -35.256802586582346 ], [ -71.568645195252742, -35.256268997538406 ], [ -71.568463954754264, -35.255407113690026 ], [ -71.567795624352556, -35.254745571195542 ], [ -71.566993772858595, -35.25415161905395 ], [ -71.566245946045825, -35.253309288786298 ], [ -71.56590142955794, -35.252192931771063 ], [ -71.565891056711351, -35.251407168747292 ], [ -71.565401047283444, -35.250643689884924 ], [ -71.564947036942215, -35.250059623040791 ], [ -71.564416676988358, -35.249223448512971 ], [ -71.563781180010281, -35.248812767499913 ], [ -71.562790563729052, -35.24857036621669 ], [ -71.562285627894354, -35.248163334580596 ], [ -71.56175066497299, -35.247434169088898 ], [ -71.561316229820122, -35.246386602585453 ], [ -71.561186139393939, -35.24534758050153 ], [ -71.561024538762538, -35.244022122763937 ], [ -71.561198698739915, -35.242991868493142 ], [ -71.561243892083553, -35.241922180802305 ], [ -71.561280067240048, -35.241066533330915 ], [ -71.56126817264736, -35.240316539884958 ], [ -71.5609910998744, -35.239666088781291 ], [ -71.560128188992252, -35.23846343328885 ], [ -71.559597872157525, -35.23762730719622 ], [ -71.559066076695856, -35.236826801972704 ], [ -71.558667711596584, -35.235958709535538 ], [ -71.558312776448062, -35.235091840485111 ], [ -71.55811081540925, -35.233693902716858 ], [ -71.55803622739289, -35.232370954754991 ], [ -71.557903055745285, -35.231403322108306 ], [ -71.557158870702665, -35.229454455195793 ], [ -71.557019753106189, -35.228629391391905 ], [ -71.556838623100518, -35.227767480842438 ], [ -71.556537240119326, -35.227088141791782 ], [ -71.556442146259968, -35.22687401168195 ], [ -71.556505162178823, -35.226843143191253 ], [ -71.551480852455413, -35.227023576860006 ], [ -71.536685471266878, -35.23385223901689 ], [ -71.515808384213742, -35.244828285294972 ], [ -71.515498674748187, -35.244214585364517 ], [ -71.515350407810544, -35.243809164983944 ], [ -71.515318022646241, -35.243457307168327 ], [ -71.515381867710119, -35.242738659763582 ], [ -71.515399398332889, -35.242539876035735 ], [ -71.515303072883285, -35.24217236421525 ], [ -71.51480989958894, -35.242242137165526 ], [ -71.514711050771695, -35.242256155431072 ], [ -71.514454968033661, -35.24240761593375 ], [ -71.514208517930399, -35.242553338128729 ], [ -71.513566824373484, -35.242859245229901 ], [ -71.512961888979703, -35.243210167285511 ], [ -71.51251585927146, -35.243469026664926 ], [ -71.512244633632676, -35.243725065768956 ], [ -71.512235017167555, -35.243731394305769 ], [ -71.511651923411577, -35.244113758507481 ], [ -71.511175440815208, -35.244304865099593 ], [ -71.509556859929532, -35.244954171190066 ], [ -71.509446427336727, -35.244998405705104 ], [ -71.508995768609822, -35.245081524915598 ], [ -71.508381614704575, -35.245143222327698 ], [ -71.507825413813265, -35.245154755968379 ], [ -71.507527977131119, -35.245177168833216 ], [ -71.507269714181888, -35.245182597074084 ], [ -71.507048287549196, -35.245089343381629 ], [ -71.506961327934732, -35.244846573679879 ], [ -71.506971013570123, -35.244822004530896 ], [ -71.506974269963024, -35.244813740714434 ], [ -71.507071897969794, -35.244567071567531 ], [ -71.507301749901544, -35.244285169445519 ], [ -71.507367160728961, -35.244255014088331 ], [ -71.50800726696275, -35.243960693016994 ], [ -71.50855232335465, -35.243590654309124 ], [ -71.508784677992779, -35.243390222665305 ], [ -71.509204369096878, -35.243178814923752 ], [ -71.509336657700587, -35.242894650485681 ], [ -71.50939901515433, -35.242616589906795 ], [ -71.509396472023766, -35.242583707616298 ], [ -71.509392514046624, -35.242534166622661 ], [ -71.509365935592328, -35.242197545315953 ], [ -71.509287818993513, -35.242066542171827 ], [ -71.509096182292282, -35.241745160316469 ], [ -71.508968221771639, -35.241261477651065 ], [ -71.508803995364659, -35.241026220406695 ], [ -71.508354900604658, -35.240580950037689 ], [ -71.507629597250997, -35.240378961404701 ], [ -71.506975250025008, -35.240277180384368 ], [ -71.506740422324896, -35.240204289761195 ], [ -71.506241894173144, -35.239874863651032 ], [ -71.505852885925862, -35.239831232372104 ], [ -71.50561552048508, -35.239868787937418 ], [ -71.505303240041172, -35.240054624155235 ], [ -71.504974586902918, -35.240354887609477 ], [ -71.504662893957203, -35.240557029643007 ], [ -71.504637257835626, -35.240569227922649 ], [ -71.504602213658089, -35.240585829788493 ], [ -71.504232014336239, -35.24076163782231 ], [ -71.503906177416383, -35.240820074358247 ], [ -71.5037180127037, -35.240853729199777 ], [ -71.503142551034387, -35.240881958433683 ], [ -71.502904366330071, -35.240881348742214 ], [ -71.502446901068254, -35.240880107348723 ], [ -71.501809796105803, -35.240844401870184 ], [ -71.501452324114908, -35.240851721105713 ], [ -71.501099769501892, -35.241022059691524 ], [ -71.500824228356464, -35.241109281325762 ], [ -71.500371362468925, -35.241249052768254 ], [ -71.500076443764499, -35.241353066623972 ], [ -71.499860038714246, -35.241422743433482 ], [ -71.499816777646799, -35.241420904833419 ], [ -71.499728181301904, -35.241417124184352 ], [ -71.499601372421452, -35.241411769793039 ], [ -71.499377782645539, -35.241253267030451 ], [ -71.499064945246161, -35.240770660682109 ], [ -71.498971198859735, -35.240132810693751 ], [ -71.498958113999322, -35.239753448340998 ], [ -71.498952354900027, -35.23958926353221 ], [ -71.499106687262483, -35.23841830082106 ], [ -71.499125090149377, -35.238278871543741 ], [ -71.499147521980333, -35.238247245803556 ], [ -71.499338547827193, -35.237978567386598 ], [ -71.499929395840709, -35.237745562654766 ], [ -71.500633444156421, -35.237467829267324 ], [ -71.500691071081917, -35.2374451494006 ], [ -71.500705693858094, -35.237405487683141 ], [ -71.500819317266817, -35.237098974503049 ], [ -71.500807803559809, -35.236727037164123 ], [ -71.500505012020255, -35.236257591873013 ], [ -71.500489321147185, -35.23623317860676 ], [ -71.500465207670018, -35.236218760153058 ], [ -71.499400325867612, -35.235581190604613 ], [ -71.499293968032902, -35.235517518780632 ], [ -71.498860060191106, -35.235233025933205 ], [ -71.498393089855284, -35.234926839128093 ], [ -71.498376464734321, -35.234915957793447 ], [ -71.498226013093912, -35.234817308119041 ], [ -71.497946588531505, -35.234806685045847 ], [ -71.497669316332548, -35.234863289324792 ], [ -71.497619550564124, -35.234895774124432 ], [ -71.497167808469001, -35.235191617577193 ], [ -71.496755322751767, -35.235394121002805 ], [ -71.496738703919021, -35.235401035709209 ], [ -71.496433851644198, -35.235526956049 ], [ -71.495970694656748, -35.235591600794123 ], [ -71.495049904422544, -35.235586967276774 ], [ -71.49480784708102, -35.235585757352709 ], [ -71.494294147282432, -35.235519551953679 ], [ -71.493637885746566, -35.235353492688368 ], [ -71.493552859306604, -35.235301487066167 ], [ -71.49325870866177, -35.235121535528229 ], [ -71.493061042468327, -35.234959238054962 ], [ -71.492286734219306, -35.23432366392737 ], [ -71.491497753786717, -35.233675906784157 ], [ -71.491283480438625, -35.233500066514956 ], [ -71.490713779665228, -35.232976572472573 ], [ -71.490650531082707, -35.232918429657957 ], [ -71.48991110261953, -35.232239069899201 ], [ -71.489668374236487, -35.231900615475759 ], [ -71.489608416182847, -35.231534915549084 ], [ -71.489437323952146, -35.230489621634725 ], [ -71.489380342915368, -35.230141730824414 ], [ -71.489031319579709, -35.229767358440817 ], [ -71.48842009867387, -35.229309247333738 ], [ -71.48809084725761, -35.229148760967057 ], [ -71.487650233492232, -35.228933998629927 ], [ -71.487415518979859, -35.228818975893006 ], [ -71.487406752321007, -35.228814799141986 ], [ -71.487232247390537, -35.228729257149787 ], [ -71.487113475736933, -35.22868879500394 ], [ -71.486838104373106, -35.228595061523166 ], [ -71.486826201695592, -35.228594271959494 ], [ -71.486447312071675, -35.228567574283069 ], [ -71.48636394302342, -35.228646086692137 ], [ -71.486348195556488, -35.228660882928487 ], [ -71.486215570084582, -35.228785674149229 ], [ -71.485564952663637, -35.229474648290299 ], [ -71.485253547178829, -35.229659971924839 ], [ -71.485224465119799, -35.229677258444106 ], [ -71.484861668814219, -35.229862529517227 ], [ -71.484431399149329, -35.229960200480299 ], [ -71.48408539954292, -35.22998517697819 ], [ -71.48353970534717, -35.229854082198081 ], [ -71.483383066111074, -35.229772967490291 ], [ -71.48304720309433, -35.229599089710995 ], [ -71.483011357619546, -35.229580477957008 ], [ -71.483002823624346, -35.229572161222457 ], [ -71.482667614581132, -35.229245484733568 ], [ -71.482564658666433, -35.229145100821341 ], [ -71.482101345372115, -35.228870157952841 ], [ -71.481916364288807, -35.228774410418147 ], [ -71.481805450199005, -35.228717019666092 ], [ -71.481639027411148, -35.228630712222731 ], [ -71.481371523492584, -35.228387342172958 ], [ -71.481321136089974, -35.228157242152612 ], [ -71.481335773239209, -35.227925807428953 ], [ -71.481336559265074, -35.227924978967309 ], [ -71.481503043138375, -35.227726835499972 ], [ -71.481970789618615, -35.227432789799479 ], [ -71.482412437344891, -35.227189123367175 ], [ -71.482468446404539, -35.227107484257139 ], [ -71.482493176125999, -35.227071457178091 ], [ -71.482621386378298, -35.226884362082529 ], [ -71.482629366112974, -35.226833171431942 ], [ -71.482638482216473, -35.226775016142653 ], [ -71.482652874125648, -35.226683227255656 ], [ -71.482628344728496, -35.226439452903058 ], [ -71.482519494967192, -35.225360082050443 ], [ -71.482482556242715, -35.225172683607752 ], [ -71.482437011657808, -35.224942040977986 ], [ -71.482246549952947, -35.224669104837048 ], [ -71.481742300431151, -35.224201600477443 ], [ -71.48070349222985, -35.223529576587985 ], [ -71.480520318556898, -35.223436521821824 ], [ -71.479559211034427, -35.222948466336895 ], [ -71.479297919864365, -35.222866980003637 ], [ -71.479077966468722, -35.22279838068814 ], [ -71.478294185485012, -35.222672213098974 ], [ -71.478033365032175, -35.222564720324556 ], [ -71.477639493305958, -35.222402427819517 ], [ -71.476911917214636, -35.221739060288407 ], [ -71.475784064409112, -35.220710741468366 ], [ -71.475751209425908, -35.220680841538929 ], [ -71.475182088964189, -35.21996275043427 ], [ -71.474874113247111, -35.219837015825924 ], [ -71.47484941945828, -35.219826886890445 ], [ -71.474461367018449, -35.219888139704068 ], [ -71.473863686418909, -35.220184886970607 ], [ -71.473310422120264, -35.220516168267224 ], [ -71.472810279695921, -35.220809956492936 ], [ -71.472714439336571, -35.220866191128984 ], [ -71.472184999257578, -35.221268167689502 ], [ -71.471934185138664, -35.221457461902318 ], [ -71.471831697246216, -35.221534878200849 ], [ -71.471676598620846, -35.221651915429526 ], [ -71.471519812959372, -35.221689677552732 ], [ -71.471343285022883, -35.221732200190729 ], [ -71.471031321684279, -35.221807321457582 ], [ -71.471000120499511, -35.221802198404426 ], [ -71.470552339974788, -35.221728193329824 ], [ -71.470322478161563, -35.22166487609492 ], [ -71.470071654161188, -35.221595783344249 ], [ -71.469716524078237, -35.221318582490291 ], [ -71.469713811166088, -35.221285480947849 ], [ -71.469683089681681, -35.22092810657184 ], [ -71.469719773284623, -35.220793476804666 ], [ -71.469761077821389, -35.220642064741938 ], [ -71.469867872237302, -35.220534507633651 ], [ -71.470013349905997, -35.220387982658451 ], [ -71.470132575208822, -35.220271974695102 ], [ -71.470423723683979, -35.219988372882305 ], [ -71.470495859299618, -35.219880415680237 ], [ -71.470565840755185, -35.219775602988946 ], [ -71.470574894874943, -35.21905033458652 ], [ -71.470561994169145, -35.218716891887873 ], [ -71.470359993604461, -35.218275214008273 ], [ -71.469391157875606, -35.217997248106919 ], [ -71.468783381110555, -35.217889727123854 ], [ -71.467455548949758, -35.217847546668203 ], [ -71.466828379354354, -35.217827547363491 ], [ -71.466448459362823, -35.217860105034241 ], [ -71.466179114796233, -35.217883243921371 ], [ -71.465828794293301, -35.218064289761713 ], [ -71.465721311767894, -35.218149186165356 ], [ -71.465610667172641, -35.218236658430257 ], [ -71.465424526364316, -35.21838363716239 ], [ -71.465215590805641, -35.218636826511073 ], [ -71.465070418564153, -35.218853122763676 ], [ -71.46481437086041, -35.218982768286565 ], [ -71.464469569606578, -35.219043108788561 ], [ -71.464079483380985, -35.218995595811698 ], [ -71.46396938406312, -35.218982183382479 ], [ -71.463794000580307, -35.218931552102788 ], [ -71.462911815445437, -35.218676803434121 ], [ -71.462876594299772, -35.21866666481332 ], [ -71.462373279025869, -35.218499089337115 ], [ -71.462043082581943, -35.218328064241049 ], [ -71.461930807544476, -35.218081711585391 ], [ -71.461889134698453, -35.217944395457025 ], [ -71.461593599749733, -35.21697254991183 ], [ -71.461503602931316, -35.216864868314801 ], [ -71.461157324847179, -35.216450108805965 ], [ -71.461057712461951, -35.216330880705478 ], [ -71.460189821319887, -35.215883749366469 ], [ -71.458991397763967, -35.215462158710793 ], [ -71.45861119120984, -35.21538954155924 ], [ -71.458360044714283, -35.21534162279039 ], [ -71.457486442981946, -35.215241364792071 ], [ -71.456376907723396, -35.21511413595379 ], [ -71.453344237545025, -35.215119911147482 ], [ -71.452480820911376, -35.215121612367248 ], [ -71.45175047711065, -35.215122972315562 ], [ -71.451004179230495, -35.215045638705199 ], [ -71.450629872811163, -35.214971472613186 ], [ -71.450348621973802, -35.214894756818445 ], [ -71.449548552737355, -35.214579095392224 ], [ -71.449489908918991, -35.214546978226672 ], [ -71.449207227065372, -35.214392604138283 ], [ -71.448848550433681, -35.213990980305752 ], [ -71.44842432643064, -35.213572886542671 ], [ -71.448222099490508, -35.213478690105596 ], [ -71.448094798333273, -35.213419456640842 ], [ -71.448000274005835, -35.213406009529379 ], [ -71.447115742471425, -35.213279311384355 ], [ -71.446640875944254, -35.213247930574312 ], [ -71.44629078990161, -35.213224879171904 ], [ -71.446163101570505, -35.213257590613075 ], [ -71.445688868355589, -35.213379273829197 ], [ -71.444978445594629, -35.213777258931344 ], [ -71.444964551352129, -35.213784998214592 ], [ -71.44452311832319, -35.214238393421624 ], [ -71.444235431955136, -35.214759868978568 ], [ -71.444063056031908, -35.21498188764879 ], [ -71.44410357723774, -35.215115907629716 ], [ -71.444116493214892, -35.215785229939115 ], [ -71.443831067008091, -35.216620683572664 ], [ -71.443743501929134, -35.216909375747029 ], [ -71.44364823110169, -35.21760318287636 ], [ -71.443573192131069, -35.218149636773617 ], [ -71.443492480299412, -35.218737407628069 ], [ -71.443426667026742, -35.219216689949889 ] ] ] } },
{ "type": "Feature", "properties": { "capa": "colegios", "popup": "<strong>ESCUELA PANGUE ABAJO</strong><br><br><strong>Dirección:</strong> PANGUE ABAJO 0", "etiqueta": "" }, "geometry": { "type": "Point", "coordinates": [ -71.478592, -35.355042 ] } },
{ "type": "Feature", "properties": { "capa": "colegios", "popup": "<strong>ESCUELA ALTO PANGUE</strong><br><br><strong>Dirección:</strong> ALTO PANGUE 0", "etiqueta": "" }, "geometry": { "type": "Point", "coordinates": [ -71.575073, -35.351479 ] } },
{ "type": "Feature", "properties": { "capa": "colegios", "popup": "<strong>ESCUELA PANGUE ARRIBA</strong><br><br><strong>Dirección:</strong> PANGUE ARRIBA 0", "etiqueta": "" }, "geometry": { "type": "Point", "coordinates": [ -71.439217, -35.338242 ] } },
{ "type": "Feature", "properties": { "capa": "colegios", "popup": "<strong>ESCUELA DANTE RONCAGLIOLO BAVESTRELLO</strong><br><br><strong>Dirección:</strong> PELARCO VIEJO 0", "etiqueta": "" }, "geometry": { "type": "Point", "coordinates": [ -71.514999, -35.33675 ] } },
{ "type": "Feature", "properties": { "capa": "colegios", "popup": "<strong>ESCUELA SAN RAFAEL</strong><br><br><strong>Dirección:</strong> AVENIDA SAN RAFAEL 9", "etiqueta": "" }, "geometry": { "type": "Point", "coordinates": [ -71.51664, -35.309441 ] } },
{ "type": "Feature", "properties": { "capa": "colegios", "popup": "<strong>COLEGIO SANTA MADRE DE DIOS</strong><br><br><strong>Dirección:</strong> CALLE ARTURO PRAT 0", "etiqueta": "" }, "geometry": { "type": "Point", "coordinates": [ -71.516693, -35.306782 ] } },
{ "type": "Feature", "properties": { "capa": "colegios", "popup": "<strong>ESCUELA EL MILAGRO</strong><br><br><strong>Dirección:</strong> EL MILAGRO 0", "etiqueta": "" }, "geometry": { "type": "Point", "coordinates": [ -71.425743, -35.294621 ] } },
{ "type": "Feature", "properties": { "capa": "jardines", "popup": "<strong>LUCERITO</strong><br><br><strong>Dirección:</strong> Escuela San Rafael, Población Manuel Carrera ", "etiqueta": "" }, "geometry": { "type": "MultiPoint", "coordinates": [ [ -71.517139, -35.30863 ] ] } },
{ "type": "Feature", "properties": { "capa": "jardines", "popup": "<strong>MIS PRIMEROS PASOS</strong><br><br><strong>Dirección:</strong> CALLE SANTA BLANCA #2307 SAN RAFAEL ", "etiqueta": "" }, "geometry": { "type": "MultiPoint", "coordinates": [ [ -71.517782, -35.308542 ] ] } },
{ "type": "Feature", "properties": { "capa": "jardines", "popup": "<strong>LOS DUENDECITOS</strong><br><br><strong>Dirección:</strong> Escuela Sector Pangue Abajo s/n ", "etiqueta": "" }, "geometry": { "type": "MultiPoint", "coordinates": [ [ -71.474333, -35.354506 ] ] } },
{ "type": "Feature", "properties": { "capa": "jardines", "popup": "<strong>LOS PEQUEÑOS DEL ALTO</strong><br><br><strong>Dirección:</strong> BERNARDO O`HIGGINS S/N SECTOR ALTO PANGUE ", "etiqueta": "" }, "geometry": { "type": "MultiPoint", "coordinates": [ [ -71.576371, -35.349322 ] ] } },
{ "type": "Feature", "properties": { "capa": "jardines", "popup": "<strong>LOS PUMITAS</strong><br><br><strong>Dirección:</strong> ESCUELA PANGUE ARRIBA S/N ", "etiqueta": "" }, "geometry": { "type": "MultiPoint", "coordinates": [ [ -71.435507, -35.337946 ] ] } },
{ "type": "Feature", "properties": { "capa": "jardines", "popup": "<strong>PASITOS ALEGRES</strong><br><br><strong>Dirección:</strong> DEMETRIO MUÑOZ #79 ", "etiqueta": "" }, "geometry": { "type": "MultiPoint", "coordinates": [ [ -71.42648, -35.355567 ] ] } },
{ "type": "Feature", "properties": { "capa": "bomberos", "popup": "<strong>Cuerpo de Bomberos</strong><br><br><strong>Dirección:</strong> Calle Ignacio Bascuñan 450", "etiqueta": "" }, "geometry": { "type": "Point", "coordinates": [ -71.514095313030467, -35.305428621747254 ] } },
{ "type": "Feature", "properties": { "capa": "comisarias", "popup": "<strong>TCIA. SAN RAFAEL</strong><br><br><strong>Dirección:</strong> AVENIDA PONIENTE S/N", "etiqueta": "" }, "geometry": { "type": "Point", "coordinates": [ -71.521478015999932, -35.308382045999913 ] } },
{ "type": "Feature", "properties": { "capa": "comisarias", "popup": "<strong>TCIA. CARRET. TALCA</strong><br><br><strong>Dirección:</strong> RUTA 5 SUR KM 237", "etiqueta": "" }, "geometry": { "type": "Point", "coordinates": [ -71.534699842999942, -35.315803923999923 ] } },
{ "type": "Feature", "properties": { "capa": "salud", "popup": "<strong>Posta de Salud Rural Pangue Arriba</strong><br><br><strong>Tipo de atención:</strong> Posta de Salud Rural (PSR)<br><strong>Dirección:</strong>  NA", "etiqueta": "" }, "geometry": { "type": "Point", "coordinates": [ -71.43611, -35.33695 ] } },
{ "type": "Feature", "properties": { "capa": "salud", "popup": "<strong>SUR San Rafael</strong><br><br><strong>Tipo de atención:</strong> Servicio de Urgencia Rural (SUR)<br><strong>Dirección:</strong>  NA", "etiqueta": "" }, "geometry": { "type": "Point", "coordinates": [ -71.517781, -35.306356 ] } },
{ "type": "Feature", "properties": { "capa": "salud", "popup": "<strong>Centro de Salud Familiar San Rafael (San Rafael)</strong><br><br><strong>Tipo de atención:</strong> Centro de Salud Familiar (CESFAM)<br><strong>Dirección:</strong>  NA", "etiqueta": "" }, "geometry": { "type": "Point", "coordinates": [ -71.51513, -35.30465 ] } }
]
}
