{
"type": "FeatureCollection",
"name": "7305",
"crs": { "type": "name", "properties": { "name": "urn:ogc:def:crs:OGC:1.3:CRS84" } },
"features": [
{ "type": "Feature", "properties": { "capa": "comuna", "popup": "", "etiqueta": "" }, "geometry": { "type": "Polygon", "coordinates": [ [ [ -71.360933284829613, -34.833230871605863 ], [ -71.36093330459255, -34.833230899625278 ], [ -71.361596159762613, -34.834242782665882 ], [ -71.362661441315325, -34.836472913859787 ], [ -71.363916694092737, -34.837710993837923 ], [ -71.364359892311214, -34.839577153171092 ], [ -71.36552544291763, -34.841042868753114 ], [ -71.365685058272248, -34.84422472501037 ], [ -71.364720142791285, -34.845574214886291 ], [ -71.364628899111253, -34.845922940339392 ], [ -71.364817177011645, -34.846748548118661 ], [ -71.364034771348642, -34.847787559213877 ], [ -71.362899289151414, -34.848065011157971 ], [ -71.361977600601918, -34.848494937149717 ], [ -71.361489350973642, -34.848227630790433 ], [ -71.36054653225203, -34.847272441442058 ], [ -71.358866172427639, -34.846723336243421 ], [ -71.357364209933849, -34.847123202840734 ], [ -71.356409508297645, -34.847589840183801 ], [ -71.354700697031603, -34.847880544364536 ], [ -71.354233933308279, -34.847753255482068 ], [ -71.353426533819132, -34.84666201100444 ], [ -71.351903799580995, -34.846053039457466 ], [ -71.340981550554048, -34.856218402019465 ], [ -71.340130617807887, -34.857600293537253 ], [ -71.340147383066025, -34.860743515422762 ], [ -71.338386322189805, -34.861001178858118 ], [ -71.336845377304243, -34.864079314421254 ], [ -71.335998694487714, -34.866997274016057 ], [ -71.332498988396495, -34.863825822915985 ], [ -71.331605212299493, -34.863555396178114 ], [ -71.330847206676239, -34.863066713218174 ], [ -71.32681447263478, -34.86342033615756 ], [ -71.323935554507187, -34.865365271630274 ], [ -71.321481788342297, -34.86598879794996 ], [ -71.320423934060344, -34.866747143622788 ], [ -71.31398109467176, -34.868456755972701 ], [ -71.313483376800392, -34.868454932541162 ], [ -71.310595827659554, -34.868444358995824 ], [ -71.288742312316771, -34.868362179963576 ], [ -71.263511133302359, -34.868548462588123 ], [ -71.259962801404811, -34.8869334180159 ], [ -71.270933586406585, -34.888356497418684 ], [ -71.272371536749873, -34.889523357569018 ], [ -71.267557541499073, -34.902057578832256 ], [ -71.271417440578176, -34.902834618518092 ], [ -71.270003816612785, -34.907752842257906 ], [ -71.270976717218318, -34.907906954491516 ], [ -71.270997204196689, -34.913782071986596 ], [ -71.266287026344955, -34.913581506924089 ], [ -71.265491280699976, -34.913895819568609 ], [ -71.26484225599205, -34.919924337398299 ], [ -71.263120459578559, -34.92962488714619 ], [ -71.263386604346081, -34.929644298051137 ], [ -71.264201211018772, -34.929703776876778 ], [ -71.264769890407706, -34.929745238217869 ], [ -71.265701933837477, -34.929937000330369 ], [ -71.265780723274418, -34.929961895773573 ], [ -71.266309638737297, -34.930128974838674 ], [ -71.267168103857102, -34.930559901890057 ], [ -71.267813255029537, -34.93088373256235 ], [ -71.268069467124974, -34.930981897632023 ], [ -71.268682919445979, -34.931313701178944 ], [ -71.26924146494018, -34.931921033653403 ], [ -71.269547206547131, -34.932430139495317 ], [ -71.269727064538372, -34.932907329914286 ], [ -71.269789827132328, -34.932985030789432 ], [ -71.269916663860556, -34.933142474515755 ], [ -71.269986024580277, -34.933228544263294 ], [ -71.270344882671665, -34.933393466962492 ], [ -71.270932749176737, -34.933554105378164 ], [ -71.271477606142653, -34.933663997474305 ], [ -71.272314037385158, -34.933768505959897 ], [ -71.272411837868461, -34.933773692054146 ], [ -71.272794061140388, -34.933793863468487 ], [ -71.27356272078292, -34.933710792412022 ], [ -71.274311714507235, -34.933662499529206 ], [ -71.274577774833148, -34.933684842033358 ], [ -71.274621187715894, -34.933688459488799 ], [ -71.274813002283537, -34.93370451120893 ], [ -71.275067849838067, -34.933765686085458 ], [ -71.275211476078979, -34.933800068810207 ], [ -71.275486989376617, -34.933966536905615 ], [ -71.275806078152058, -34.934200796206049 ], [ -71.276315431002985, -34.934534436683343 ], [ -71.276863150001375, -34.934747348560535 ], [ -71.276977374383023, -34.934804804360631 ], [ -71.277454829854847, -34.935045099342602 ], [ -71.278053246174636, -34.935583033457149 ], [ -71.279391576047843, -34.936501813502069 ], [ -71.280247131524447, -34.937292354910277 ], [ -71.281481741914945, -34.938230191822676 ], [ -71.282294227665261, -34.938970053381098 ], [ -71.283423392909398, -34.939858377129141 ], [ -71.284593697400297, -34.940728781529756 ], [ -71.28507670805385, -34.94085698167374 ], [ -71.285558907528682, -34.940907430882454 ], [ -71.286129851570436, -34.940785166848656 ], [ -71.28624627053631, -34.940775811026917 ], [ -71.286725459756624, -34.940737247062181 ], [ -71.288100028566717, -34.940520225470017 ], [ -71.288701074255343, -34.940467985118346 ], [ -71.289150636139269, -34.940521988390763 ], [ -71.289385135954319, -34.940550135469898 ], [ -71.289724109836882, -34.940590933731904 ], [ -71.290392026115256, -34.940859931645079 ], [ -71.290662693001934, -34.941011390367123 ], [ -71.291178059175365, -34.941428525967879 ], [ -71.291733973504108, -34.94193285113915 ], [ -71.292435647572532, -34.942434421378834 ], [ -71.293281352123728, -34.942864585704477 ], [ -71.294145385001656, -34.943208729825805 ], [ -71.295009510406061, -34.943552719339067 ], [ -71.295690420815021, -34.944054661841257 ], [ -71.296402755190911, -34.944933607563094 ], [ -71.296824364198159, -34.945910213179197 ], [ -71.297014310270029, -34.946613521451717 ], [ -71.297106693013859, -34.947111745148099 ], [ -71.29714799934726, -34.947335248881338 ], [ -71.297167919488672, -34.94804901029903 ], [ -71.297176764300957, -34.948365959480867 ], [ -71.297067774402478, -34.949435683835944 ], [ -71.297260003093513, -34.949844356167887 ], [ -71.2976000190218, -34.950036655179332 ], [ -71.298292492545087, -34.950037875974409 ], [ -71.298295271932588, -34.95003782296039 ], [ -71.298619772159299, -34.949973115642713 ], [ -71.299113383831497, -34.949874483658881 ], [ -71.299738848424496, -34.949862637946325 ], [ -71.300591181644151, -34.949678699316379 ], [ -71.301414129174262, -34.949685405618929 ], [ -71.302288959801899, -34.949892291985094 ], [ -71.302933253083239, -34.950139880038215 ], [ -71.303142124861523, -34.950417805953734 ], [ -71.303443345247658, -34.95075527621583 ], [ -71.303681556901438, -34.951004581652754 ], [ -71.303765456854009, -34.951092348961254 ], [ -71.304130220470086, -34.951463026213723 ], [ -71.304492014255828, -34.951730735293182 ], [ -71.304596687749367, -34.951765896107815 ], [ -71.304975988801658, -34.95189317777735 ], [ -71.305626530764116, -34.952052453902468 ], [ -71.305953488781455, -34.952052964149843 ], [ -71.306460384740092, -34.952053748296265 ], [ -71.307025484342589, -34.951974256426936 ], [ -71.307166202736923, -34.951954522422014 ], [ -71.307725380645067, -34.951823813418869 ], [ -71.308220447588042, -34.95164277281463 ], [ -71.308756414825908, -34.951426611361597 ], [ -71.309169158359609, -34.951281473824196 ], [ -71.309561672731419, -34.951153926138382 ], [ -71.310170176233513, -34.95091784212218 ], [ -71.310174166550013, -34.950916215640056 ], [ -71.310563626649881, -34.950932361915861 ], [ -71.310661419946641, -34.950936482974477 ], [ -71.311538818857684, -34.951230396311864 ], [ -71.312293480053157, -34.951283450775307 ], [ -71.31281281408522, -34.951209972955482 ], [ -71.313099135912353, -34.951089237372805 ], [ -71.313310955961398, -34.95106230806455 ], [ -71.313791887015043, -34.951001226346591 ], [ -71.314487226164104, -34.951002077506132 ], [ -71.315150347235473, -34.951286091127841 ], [ -71.315544787595272, -34.951695972796792 ], [ -71.315613556325189, -34.951832023785826 ], [ -71.315696812185735, -34.952250275769309 ], [ -71.315735737085319, -34.952709179430087 ], [ -71.31575967179775, -34.952992383120289 ], [ -71.315974708713824, -34.953465281424947 ], [ -71.316293001581926, -34.953817457953633 ], [ -71.316574177859124, -34.953978995107569 ], [ -71.317178946166266, -34.954231469209851 ], [ -71.317492354894171, -34.954489575704599 ], [ -71.317778656958367, -34.95482020404738 ], [ -71.318122558100271, -34.955125729743919 ], [ -71.318403206168071, -34.955252341354523 ], [ -71.318667803138382, -34.955331330125517 ], [ -71.318835476381111, -34.955360842296969 ], [ -71.318975473428253, -34.955385493684005 ], [ -71.319221477967119, -34.955380794150372 ], [ -71.319266930025549, -34.955379925366138 ], [ -71.319550903656534, -34.955458911069144 ], [ -71.319590138474894, -34.955469756135969 ], [ -71.319872924533072, -34.955605258977087 ], [ -71.320022997084436, -34.955793146092134 ], [ -71.320049553979175, -34.955939675257724 ], [ -71.320003992326264, -34.956254854172883 ], [ -71.319866270711756, -34.95720823639757 ], [ -71.319891770289402, -34.95754635309801 ], [ -71.31989940057943, -34.95764834266464 ], [ -71.319914870466931, -34.957703877773895 ], [ -71.319936720189602, -34.957782111748763 ], [ -71.319948498899592, -34.957824423235763 ], [ -71.320003979749856, -34.958023276624729 ], [ -71.320412532642777, -34.958225351283708 ], [ -71.320485308757199, -34.958261328002344 ], [ -71.321031936302532, -34.958514966880955 ], [ -71.321459216374166, -34.958674805869158 ], [ -71.32198751020286, -34.958796746525834 ], [ -71.322587003602663, -34.958857356403207 ], [ -71.322597810335537, -34.958858847998272 ], [ -71.323201787226921, -34.958941597616302 ], [ -71.323670025085605, -34.959004639874898 ], [ -71.324110910142224, -34.95912824390745 ], [ -71.324581949846277, -34.959287234307133 ], [ -71.325023854490738, -34.9594467809817 ], [ -71.32597745658903, -34.959848351909265 ], [ -71.326621489358928, -34.960084663461636 ], [ -71.327326303039271, -34.960420981506928 ], [ -71.330539715151119, -34.961500980537771 ], [ -71.33162071183142, -34.961711299434604 ], [ -71.333434080708344, -34.962064019918245 ], [ -71.334855698781453, -34.962337179764333 ], [ -71.337778105250266, -34.962483355635612 ], [ -71.337849073954331, -34.962486862863869 ], [ -71.337989306360072, -34.962493910448664 ], [ -71.33804576817063, -34.962488908010762 ], [ -71.340347482795565, -34.962284446075273 ], [ -71.340816705207828, -34.962075191718974 ], [ -71.341221944215647, -34.961742288335834 ], [ -71.341826847270084, -34.960743835843331 ], [ -71.341888807668496, -34.960689395330014 ], [ -71.34207259668743, -34.960528104780821 ], [ -71.342120385263897, -34.960486270282651 ], [ -71.342376023335873, -34.960261855634784 ], [ -71.34348167966904, -34.960021106682568 ], [ -71.344177278431204, -34.96002857633124 ], [ -71.344507969846859, -34.96009618670702 ], [ -71.344697723679246, -34.960134985253205 ], [ -71.344840919627131, -34.96016427114936 ], [ -71.345625853149343, -34.960432467894393 ], [ -71.345983403293687, -34.960570452396837 ], [ -71.346261068056421, -34.960788481793195 ], [ -71.347073423550995, -34.96151755319849 ], [ -71.347531133154575, -34.961817321875131 ], [ -71.347717203894319, -34.961893480258276 ], [ -71.348631669988933, -34.96226749001157 ], [ -71.349037852227795, -34.96243369418022 ], [ -71.349231457137819, -34.962512881427877 ], [ -71.350312575090683, -34.962571562675265 ], [ -71.35157617142049, -34.962640140518609 ], [ -71.35213540592251, -34.962743772815315 ], [ -71.352369408070871, -34.962820694503698 ], [ -71.352951666393622, -34.963120760250263 ], [ -71.353173663456516, -34.963311050716896 ], [ -71.353530096994973, -34.963678780246148 ], [ -71.354060702188889, -34.964123332150955 ], [ -71.35408956236401, -34.964147511956178 ], [ -71.354211763785386, -34.964192036790621 ], [ -71.354454802087176, -34.964280446648338 ], [ -71.354715067381193, -34.964375169128928 ], [ -71.355481464167525, -34.964435257348264 ], [ -71.356190075924886, -34.964391521091443 ], [ -71.356806574433023, -34.964304595487732 ], [ -71.357010205439934, -34.964222951135838 ], [ -71.357670495919862, -34.963958153228454 ], [ -71.358094337240587, -34.9635002489794 ], [ -71.358519701205708, -34.963098734965783 ], [ -71.359057077900232, -34.962858915322613 ], [ -71.360928134788082, -34.962319621503639 ], [ -71.361566029369655, -34.962231886830814 ], [ -71.361804997404903, -34.962256555292178 ], [ -71.362242085282801, -34.962301664957323 ], [ -71.362733817679427, -34.962725148635947 ], [ -71.363128131376783, -34.963214185436819 ], [ -71.363469145333355, -34.963636980484743 ], [ -71.363731749840369, -34.963962713868227 ], [ -71.364525583870432, -34.964396774449511 ], [ -71.364672600353188, -34.964461778838142 ], [ -71.365132363505495, -34.964664842498536 ], [ -71.365171163539245, -34.964682031433398 ], [ -71.365514743982587, -34.964753617724405 ], [ -71.36680351469991, -34.965022267653573 ], [ -71.367628854443595, -34.965169305206686 ], [ -71.368376195267814, -34.965302350874857 ], [ -71.369131998221988, -34.96552355012939 ], [ -71.369879137823574, -34.966023104710231 ], [ -71.370218027264514, -34.96632384851047 ], [ -71.370849232092169, -34.966884149382977 ], [ -71.371780893737949, -34.968222339951787 ], [ -71.372258372565966, -34.968829872390614 ], [ -71.372784199620895, -34.969499081498803 ], [ -71.37315552183685, -34.969971548143413 ], [ -71.373684625047602, -34.970644971785774 ], [ -71.373896861914943, -34.971069738087017 ], [ -71.374062345065028, -34.971400817023408 ], [ -71.374152499088623, -34.971947384185817 ], [ -71.374242658502112, -34.972208229142517 ], [ -71.374595870681929, -34.972630678182838 ], [ -71.374811814896461, -34.972792023670564 ], [ -71.375241939932579, -34.972975984036005 ], [ -71.375733890619856, -34.973088797132661 ], [ -71.376139232035598, -34.973150797232925 ], [ -71.376522906985016, -34.973195717611532 ], [ -71.376877665165466, -34.97331726860962 ], [ -71.376888901293029, -34.973321110298087 ], [ -71.3769092005235, -34.973328098063185 ], [ -71.377073342488842, -34.973447694531316 ], [ -71.377212922717703, -34.973549383853687 ], [ -71.377392852574147, -34.973743332034772 ], [ -71.377437029024875, -34.973791058808857 ], [ -71.377483594994274, -34.97400526951926 ], [ -71.377483207820376, -34.974013621937651 ], [ -71.377444000849806, -34.974944520754754 ], [ -71.377698600469316, -34.975871362794344 ], [ -71.377951126777134, -34.976450192929796 ], [ -71.378979102194435, -34.977065518873921 ], [ -71.379846598077791, -34.977201008820458 ], [ -71.380198009135469, -34.97732704605265 ], [ -71.380431956486575, -34.977365659048587 ], [ -71.380896787933736, -34.977442427156738 ], [ -71.381311190655765, -34.97755311940508 ], [ -71.38213088089465, -34.977936631539123 ], [ -71.383267652174311, -34.978270339131065 ], [ -71.383288196644841, -34.978276434378778 ], [ -71.384718820328672, -34.978687436746455 ], [ -71.385488810376131, -34.979082609880287 ], [ -71.38658315781818, -34.979626038093308 ], [ -71.387280779586362, -34.980015827743451 ], [ -71.387605742445444, -34.980231350715222 ], [ -71.388328128071052, -34.981028440586698 ], [ -71.388998407816942, -34.981859857298474 ], [ -71.389386293170105, -34.983214880795842 ], [ -71.389574283609605, -34.983875745344939 ], [ -71.389842694826612, -34.98392311440552 ], [ -71.392217176582832, -34.984665402993691 ], [ -71.394253907961883, -34.985772698025052 ], [ -71.396543577077182, -34.986588206987271 ], [ -71.399251951844747, -34.986821663098844 ], [ -71.402126205021062, -34.986764798684085 ], [ -71.404554476099861, -34.986358023110661 ], [ -71.406899931492617, -34.986096328267614 ], [ -71.409247293110397, -34.985906332134036 ], [ -71.411661555860675, -34.98599071112934 ], [ -71.412889952604374, -34.985989996490048 ], [ -71.415210433933908, -34.986311966975038 ], [ -71.41821408763029, -34.987049707669598 ], [ -71.422188233548908, -34.987829446999562 ], [ -71.424588654158953, -34.988333669896171 ], [ -71.426231653050678, -34.988919750161799 ], [ -71.427330849598619, -34.989337533162498 ], [ -71.428086462109974, -34.989557916838059 ], [ -71.42908258506391, -34.989924574011795 ], [ -71.430105857800683, -34.990453441029501 ], [ -71.430779389447892, -34.990801583107526 ], [ -71.430886796514841, -34.99084684263908 ], [ -71.432100186003382, -34.991358589542948 ], [ -71.435429841909638, -34.993308074490287 ], [ -71.436777964317756, -34.993894535666008 ], [ -71.437128065631768, -34.994046793447971 ], [ -71.438776213666671, -34.994285584964238 ], [ -71.439724884014055, -34.994610127190171 ], [ -71.440069140888824, -34.994915801798399 ], [ -71.440303532906, -34.995123990564203 ], [ -71.4406290841616, -34.995666870766563 ], [ -71.441045095766313, -34.996360646069988 ], [ -71.441066625688734, -34.996396620021663 ], [ -71.441535211195429, -34.99726177168678 ], [ -71.441874477928778, -34.997888114764777 ], [ -71.44254169262291, -34.998502980832193 ], [ -71.444129240308783, -34.999256305414441 ], [ -71.445596851226099, -34.999823568838288 ], [ -71.447246748280875, -35.000104373389043 ], [ -71.448664777584426, -35.000295678765056 ], [ -71.449628947463708, -35.000621748331234 ], [ -71.450330702380512, -35.001110182831134 ], [ -71.451234487506397, -35.001971524525622 ], [ -71.452658491504891, -35.003638948304179 ], [ -71.452896739091287, -35.00382103954221 ], [ -71.454584614221332, -35.005110911390986 ], [ -71.454945156653878, -35.005726888699222 ], [ -71.455585584484552, -35.006719138198449 ], [ -71.455620897258356, -35.006768492461013 ], [ -71.455840647634744, -35.007075827220746 ], [ -71.456147499559393, -35.007252461536993 ], [ -71.456313070744343, -35.007347694985143 ], [ -71.45733464386862, -35.00801061177652 ], [ -71.45776119810148, -35.008383908377567 ], [ -71.457972800758242, -35.008922399258154 ], [ -71.457976262865344, -35.008933110692553 ], [ -71.458215423140047, -35.009681433131192 ], [ -71.458493012444322, -35.009977401118881 ], [ -71.458955003418538, -35.010505497696528 ], [ -71.461260580799191, -35.012790099011376 ], [ -71.463508297692414, -35.01562798233482 ], [ -71.464885697093962, -35.01928120637028 ], [ -71.465526207569638, -35.02074055225674 ], [ -71.466039115054159, -35.021388102083719 ], [ -71.466650190432901, -35.022159488925674 ], [ -71.46903272019577, -35.024503802191745 ], [ -71.472227940524789, -35.026585960595796 ], [ -71.472929727780937, -35.026991916066585 ], [ -71.474277399234794, -35.027771279185352 ], [ -71.47548114441048, -35.028114767932394 ], [ -71.476023225582153, -35.028139074487832 ], [ -71.476974785809787, -35.028181674755992 ], [ -71.477833754884458, -35.028220178429365 ], [ -71.479028257294189, -35.028257060080847 ], [ -71.480304734566815, -35.028537794239568 ], [ -71.482257532755611, -35.028988625362828 ], [ -71.485356403380521, -35.030336219536373 ], [ -71.486882534148734, -35.031470603392641 ], [ -71.488179535230671, -35.032425640933653 ], [ -71.489454241025584, -35.032644872135251 ], [ -71.490119438103591, -35.032447190045538 ], [ -71.490779226425261, -35.032065514830464 ], [ -71.490886345133006, -35.031986071206006 ], [ -71.491235961356736, -35.031726843024657 ], [ -71.491339456260619, -35.031760325491192 ], [ -71.492263520854038, -35.031894850296069 ], [ -71.493040391996587, -35.032326445508403 ], [ -71.493701105583014, -35.033285556127538 ], [ -71.494488321724361, -35.034367978966159 ], [ -71.494881928447569, -35.035647205394007 ], [ -71.495226335340973, -35.037320038593663 ], [ -71.496751565997272, -35.039583285635963 ], [ -71.498227596823739, -35.041256118423767 ], [ -71.499939383310036, -35.042235638158594 ], [ -71.500000040252971, -35.042262594849163 ], [ -71.501278059034632, -35.042830550658927 ], [ -71.503541304205854, -35.043125756588822 ], [ -71.505755349547258, -35.043420962922951 ], [ -71.507132976222579, -35.043470163384626 ], [ -71.509248621006108, -35.042781349812046 ], [ -71.5111674583856, -35.042928952999254 ], [ -71.512594288483967, -35.043322560439805 ], [ -71.513676710790619, -35.043814570199409 ], [ -71.514513125863459, -35.044601786417594 ], [ -71.514871704578795, -35.044982624970814 ], [ -71.515184240144237, -35.045196934682345 ], [ -71.51578252171673, -35.045196933946897 ], [ -71.517071578996607, -35.044798590390052 ], [ -71.5183508042157, -35.04415897556224 ], [ -71.519433226522352, -35.043568565690016 ], [ -71.521598069339049, -35.042830550658927 ], [ -71.523074100165516, -35.042535345868735 ], [ -71.523959718661416, -35.042436942318858 ], [ -71.525189744050721, -35.042584546128282 ], [ -71.525933946161317, -35.042850981317123 ], [ -71.526451714429854, -35.042959985437371 ], [ -71.526761207401421, -35.042901034532733 ], [ -71.527066809769508, -35.042971471275635 ], [ -71.527808531631607, -35.042833279257884 ], [ -71.528320967500605, -35.04251584035822 ], [ -71.528812650489897, -35.042171952463683 ], [ -71.530219555056959, -35.041187851357307 ], [ -71.53192079352516, -35.040722927868877 ], [ -71.53496969266746, -35.040413835972501 ], [ -71.537060864647685, -35.040492758030368 ], [ -71.538117790071624, -35.04090004994606 ], [ -71.538578381470629, -35.041319967374797 ], [ -71.53889553527496, -35.041926835144672 ], [ -71.53950906395275, -35.042466129637845 ], [ -71.541248351463153, -35.043227219590861 ], [ -71.543652899831912, -35.043790308021158 ], [ -71.547791238919885, -35.044930432863787 ], [ -71.548775696351527, -35.045400518054507 ], [ -71.549467606631126, -35.046060842045769 ], [ -71.549782953025101, -35.046606351642147 ], [ -71.550019513575393, -35.046728981329608 ], [ -71.550237911987267, -35.04684217078583 ], [ -71.551214776858146, -35.047067007759622 ], [ -71.552434354840685, -35.047900306051112 ], [ -71.553271550549496, -35.048434818380812 ], [ -71.553909005854905, -35.048988079587126 ], [ -71.554529365322125, -35.049297934760112 ], [ -71.557167448715305, -35.050162578280499 ], [ -71.558507489879162, -35.050072942606931 ], [ -71.561246899643123, -35.049401597068133 ], [ -71.562623214778128, -35.048815427998953 ], [ -71.563823699069317, -35.048304222220288 ], [ -71.565613038012401, -35.048266296491327 ], [ -71.566815410562313, -35.048547673063396 ], [ -71.567943305588628, -35.048830539357255 ], [ -71.56906544331234, -35.048929424257544 ], [ -71.570118868001614, -35.049213848306934 ], [ -71.571915733030139, -35.049421129615602 ], [ -71.572659344049299, -35.049343987792504 ], [ -71.572715296515071, -35.049312819521909 ], [ -71.574492377047775, -35.048323533668189 ], [ -71.576097890141, -35.047185083694714 ], [ -71.576969417663349, -35.046430331121634 ], [ -71.579263142672147, -35.045829420810591 ], [ -71.58016733114161, -35.04611693347875 ], [ -71.581459720272875, -35.046887019089652 ], [ -71.582938052583131, -35.048818690311087 ], [ -71.58381022329921, -35.050456586952926 ], [ -71.584957521935692, -35.051352306288976 ], [ -71.585789243311169, -35.051702757882389 ], [ -71.586915302181069, -35.051924119998034 ], [ -71.587823454017538, -35.052334217777464 ], [ -71.589351349076964, -35.053467227002706 ], [ -71.591016809444042, -35.054229162345933 ], [ -71.59182965182552, -35.054466476542437 ], [ -71.593683543704898, -35.049596598016606 ], [ -71.59422984156852, -35.048298911001389 ], [ -71.594407800521253, -35.047537902864761 ], [ -71.594827090078439, -35.046026789587195 ], [ -71.595603952237838, -35.045328282291514 ], [ -71.595666549541775, -35.045277613521016 ], [ -71.596347556070455, -35.044725445808616 ], [ -71.596652864689446, -35.044337575815085 ], [ -71.59673299441279, -35.044267848496531 ], [ -71.596920366811375, -35.044097095450098 ], [ -71.59709026248612, -35.043913202289474 ], [ -71.597234909213157, -35.043711758351357 ], [ -71.597361739653181, -35.043506265179921 ], [ -71.597447550322386, -35.043352307132587 ], [ -71.597481281162985, -35.043291844390339 ], [ -71.597606442533205, -35.043081882187607 ], [ -71.597755303257259, -35.042880347207664 ], [ -71.597878427248403, -35.042696864643744 ], [ -71.597919192795999, -35.042583526026306 ], [ -71.598077970920784, -35.042142375236423 ], [ -71.598063484688524, -35.041529186854738 ], [ -71.598076574938844, -35.041392589869432 ], [ -71.598092451763165, -35.04129573534604 ], [ -71.598160957286723, -35.041068894465774 ], [ -71.598213887819895, -35.040837957015505 ], [ -71.598235821085879, -35.040612040112428 ], [ -71.598252091372302, -35.040377383451258 ], [ -71.598261450020942, -35.040142801136675 ], [ -71.59826126047642, -35.039912928275946 ], [ -71.598249805159924, -35.039678865361736 ], [ -71.598244399996858, -35.039635781978667 ], [ -71.598251675452332, -35.039559345086005 ], [ -71.598151193497898, -35.039096943203667 ], [ -71.59827590571048, -35.038334560726888 ], [ -71.5980972972758, -35.037508820145696 ], [ -71.598060711589227, -35.037311849302078 ], [ -71.598081269534504, -35.037136027941308 ], [ -71.598132852594745, -35.03690511909344 ], [ -71.598224518482965, -35.036686791514271 ], [ -71.598327577703941, -35.036468219156262 ], [ -71.598405051108998, -35.036241186139449 ], [ -71.598476318952052, -35.036005351106077 ], [ -71.598550924036402, -35.035755857241767 ], [ -71.598601141657412, -35.035515893708215 ], [ -71.598601106623121, -35.035509101021248 ], [ -71.598598600323484, -35.035316642302931 ], [ -71.598567126050867, -35.035232839352204 ], [ -71.59851219856283, -35.035122880488608 ], [ -71.598509130816126, -35.035116743135873 ], [ -71.598298407610045, -35.034986049188554 ], [ -71.598017481064502, -35.03488388748417 ], [ -71.597731714396204, -35.03478190144704 ], [ -71.597487309756858, -35.034656431540583 ], [ -71.59738851034696, -35.034604051157231 ], [ -71.595546461856273, -35.03355591346034 ], [ -71.595399475916224, -35.033461657928456 ], [ -71.59517810587738, -35.03331767349713 ], [ -71.59495901576274, -35.033169134970244 ], [ -71.594741003626439, -35.033020572635451 ], [ -71.594523621209163, -35.032871996790504 ], [ -71.594307584468169, -35.032723391252993 ], [ -71.594092928437746, -35.032570177873865 ], [ -71.593879228214817, -35.032421596061155 ], [ -71.593666675140511, -35.032263832637312 ], [ -71.593461391233461, -35.03210598652533 ], [ -71.593272367731373, -35.031934204745305 ], [ -71.593090687956746, -35.031753330945541 ], [ -71.592912468492571, -35.031576814278438 ], [ -71.592736033980884, -35.031391396780421 ], [ -71.592559826742956, -35.031210331265186 ], [ -71.592381466243296, -35.031029311690247 ], [ -71.592199843062517, -35.030852939104157 ], [ -71.592012263153094, -35.030681199560931 ], [ -71.591821759227429, -35.030505016003886 ], [ -71.591633549598996, -35.030333215411744 ], [ -71.591447174330341, -35.030156943569907 ], [ -71.591261069454617, -35.029980665463242 ], [ -71.591075411939926, -35.029804304590449 ], [ -71.590889540626165, -35.029632525328758 ], [ -71.590702092769078, -35.029456275514733 ], [ -71.590512724313939, -35.029284571287747 ], [ -71.590321738891262, -35.029112826977943 ], [ -71.590170679989711, -35.028982984812373 ], [ -71.590127488990873, -35.028945730541032 ], [ -71.589928306441237, -35.028778738217468 ], [ -71.589720258418055, -35.02862094495844 ], [ -71.589503611720986, -35.028472269901101 ], [ -71.589289247643052, -35.028319115492664 ], [ -71.589088020527825, -35.028161174961284 ], [ -71.588896950663525, -35.027989429762272 ], [ -71.588708526337754, -35.027813271298577 ], [ -71.588524224380791, -35.027636877060623 ], [ -71.588345973475597, -35.027455922396932 ], [ -71.588174308119733, -35.027270248385165 ], [ -71.588019289444418, -35.027088649248427 ], [ -71.588011833427572, -35.027079947680427 ], [ -71.587873871064559, -35.026875535230708 ], [ -71.587762359595075, -35.026661550422531 ], [ -71.587665780820572, -35.026442815898569 ], [ -71.587593010096029, -35.026218993970659 ], [ -71.587535080438286, -35.025990351628188 ], [ -71.587470692791996, -35.02576192124188 ], [ -71.587410072679987, -35.025533335735538 ], [ -71.587347302001206, -35.025304870233214 ], [ -71.587273546723111, -35.025081070201153 ], [ -71.587177110780729, -35.024866762902185 ], [ -71.587028713587358, -35.024667150085662 ], [ -71.586847101186379, -35.024481761051717 ], [ -71.586652868353951, -35.024314583791316 ], [ -71.58644887442766, -35.024156698052067 ], [ -71.586242138843133, -35.023994365794067 ], [ -71.586038721635248, -35.023831961856416 ], [ -71.585845838970698, -35.023664754577126 ], [ -71.585658772897602, -35.023488488217524 ], [ -71.585463829497812, -35.023321398674931 ], [ -71.585392254430928, -35.02326340539323 ], [ -71.585263556393429, -35.023158925720772 ], [ -71.585061488455096, -35.022996418603846 ], [ -71.584675006270416, -35.022684686348015 ], [ -71.584453366736994, -35.022664597140427 ], [ -71.583943137130333, -35.022716084001104 ], [ -71.583731331454345, -35.022743193525443 ], [ -71.583292810763552, -35.022788570748567 ], [ -71.582212236291426, -35.022593076196173 ], [ -71.581743481901455, -35.022522047342029 ], [ -71.581431869804121, -35.022412596635832 ], [ -71.581298993702248, -35.022400508348824 ], [ -71.581022522800509, -35.022352338361195 ], [ -71.580752301478213, -35.022285941725947 ], [ -71.580484311571084, -35.022210562665208 ], [ -71.580218421925082, -35.022130559926232 ], [ -71.579953824954771, -35.022046023981517 ], [ -71.579689998738971, -35.021965976206317 ], [ -71.579425622754229, -35.021877004061672 ], [ -71.579166218046254, -35.021783347132008 ], [ -71.57891925500499, -35.021671406692896 ], [ -71.578688000803083, -35.021536609051999 ], [ -71.578463064452578, -35.021397172825402 ], [ -71.578233017586399, -35.02125784450385 ], [ -71.577986287208788, -35.021150401946315 ], [ -71.57772089163619, -35.021065952532567 ], [ -71.577459298632178, -35.02097684257425 ], [ -71.577212699408605, -35.020864890731552 ], [ -71.576970789390785, -35.020739325894475 ], [ -71.576742450221971, -35.020599958196996 ], [ -71.576568336058671, -35.020466526405201 ], [ -71.576536420713239, -35.020442098389466 ], [ -71.576348983635967, -35.020270254578122 ], [ -71.576174940439557, -35.020084687104095 ], [ -71.576012864599363, -35.019894286541231 ], [ -71.575866258646684, -35.019699126423781 ], [ -71.5757419228282, -35.019489905497124 ], [ -71.575618524850896, -35.019276234621934 ], [ -71.575475278597381, -35.019076497803162 ], [ -71.575313475845022, -35.018886090478546 ], [ -71.575292738236698, -35.018860242850167 ], [ -71.574656898102177, -35.017573774124017 ], [ -71.573975781080719, -35.016832205571461 ], [ -71.571610680431007, -35.014743673126347 ], [ -71.570122197158057, -35.013355475608257 ], [ -71.570024475726498, -35.013215764243981 ], [ -71.569890351864686, -35.013011323017167 ], [ -71.569850083983766, -35.012940693439909 ], [ -71.569598740757158, -35.012085278908678 ], [ -71.569527608559682, -35.011240668097422 ], [ -71.569369307440326, -35.010891558629567 ], [ -71.568684483969989, -35.01041255614814 ], [ -71.568189460146172, -35.010124628711836 ], [ -71.567446238995856, -35.00949118861044 ], [ -71.56678285651472, -35.008815883024326 ], [ -71.565607400185669, -35.007983775494701 ], [ -71.564641836121069, -35.007540666910366 ], [ -71.563604953009417, -35.007210342609014 ], [ -71.562943546821927, -35.007125883214378 ], [ -71.562279434010463, -35.007107051333485 ], [ -71.561756339630648, -35.007212622092453 ], [ -71.561467327349234, -35.007445209270941 ], [ -71.561012437557338, -35.008143495131293 ], [ -71.560635047221638, -35.008581463972853 ], [ -71.560108711720261, -35.009398152466424 ], [ -71.559912702918524, -35.010267978561231 ], [ -71.55979635312292, -35.010822723946362 ], [ -71.559529332497988, -35.011165314906783 ], [ -71.559407311637983, -35.011204220959129 ], [ -71.559340573100599, -35.011225641757328 ], [ -71.559135317939649, -35.011044694181237 ], [ -71.558430865382036, -35.010083687752719 ], [ -71.558324335070822, -35.00980738945379 ], [ -71.558047024244289, -35.009088002527008 ], [ -71.557971912510126, -35.008659067348503 ], [ -71.556710490103313, -35.007660317148293 ], [ -71.55621163226985, -35.007503939995004 ], [ -71.555254801626461, -35.007224360180309 ], [ -71.55494385877401, -35.007133507498132 ], [ -71.554427733524136, -35.00661512669295 ], [ -71.553240324211913, -35.005422485481702 ], [ -71.552820249527187, -35.004918468670013 ], [ -71.552701433856129, -35.004765819795573 ], [ -71.552548810089348, -35.004570681705829 ], [ -71.552319923846525, -35.004278048751978 ], [ -71.551993827313581, -35.003909847375638 ], [ -71.551744744248225, -35.003602572097115 ], [ -71.551446296063048, -35.003234378718261 ], [ -71.551175331834017, -35.002927488685515 ], [ -71.550884427700623, -35.002631577604461 ], [ -71.550563699499776, -35.002291321032757 ], [ -71.550201100823557, -35.001960951989176 ], [ -71.549793033919229, -35.001518775473336 ], [ -71.549475259379037, -35.001241591721978 ], [ -71.549303380224146, -35.001096404834151 ], [ -71.548982478648469, -35.000828220561779 ], [ -71.548622308118439, -35.000569942917949 ], [ -71.547992927769144, -35.000222501717154 ], [ -71.547738678492578, -35.000115226526468 ], [ -71.547044490085426, -34.999842395037099 ], [ -71.546293980004904, -34.999301352757271 ], [ -71.546050922838475, -34.999248115253415 ], [ -71.544206757916982, -34.998930720494158 ], [ -71.542402203309621, -34.999457705852564 ], [ -71.540330985606786, -34.999044135827113 ], [ -71.539446192662652, -34.998605036407824 ], [ -71.5369388967883, -34.997329374141884 ], [ -71.535895526043689, -34.996621367635029 ], [ -71.535773282401507, -34.996521941857246 ], [ -71.535622678945799, -34.996439871162352 ], [ -71.534322004652665, -34.996629287988426 ], [ -71.534092191348478, -34.996664513425138 ], [ -71.533043842140557, -34.996981494576715 ], [ -71.531852322137581, -34.996988938042477 ], [ -71.530830199244392, -34.996995347590826 ], [ -71.530723290742415, -34.996985688379205 ], [ -71.53007708674447, -34.996875474236269 ], [ -71.52839378403921, -34.996588227684896 ], [ -71.527727145165187, -34.996490315589213 ], [ -71.526942897955848, -34.996452006703898 ], [ -71.526097437746415, -34.99650675827715 ], [ -71.524905288922753, -34.996598700098986 ], [ -71.524292195927842, -34.996710043464397 ], [ -71.523476027084882, -34.996976474376311 ], [ -71.522980754427721, -34.997482135498124 ], [ -71.522806691468375, -34.99750665352574 ], [ -71.519721323420498, -34.997940225792448 ], [ -71.518679213910531, -34.997994874083389 ], [ -71.513820480761964, -34.998603930396193 ], [ -71.512808424389817, -34.998822953522286 ], [ -71.51206298979065, -34.998895251725173 ], [ -71.511960151555243, -34.998889628231375 ], [ -71.509558886528822, -34.998615875026701 ], [ -71.507054808419838, -34.998551412855164 ], [ -71.506888258071214, -34.998554780195398 ], [ -71.506679558769449, -34.998559092392306 ], [ -71.501924884666749, -34.998608425821949 ], [ -71.501647878369127, -34.998635922310179 ], [ -71.501211061782442, -34.998726012502999 ], [ -71.50080098804176, -34.998919304261769 ], [ -71.500431906224108, -34.999129694852122 ], [ -71.500102879386674, -34.999352846232114 ], [ -71.499783471709321, -34.999429213283406 ], [ -71.498529618507121, -34.999404088009712 ], [ -71.496046184581658, -34.998764593330783 ], [ -71.495560498745192, -34.998605179902341 ], [ -71.495523267169943, -34.998590807636909 ], [ -71.495130936054423, -34.998432057625465 ], [ -71.494865614143677, -34.998321351660437 ], [ -71.494542270947065, -34.998271065103019 ], [ -71.494307406416027, -34.998193924304189 ], [ -71.492886586046893, -34.997805893113501 ], [ -71.492470835851933, -34.997667701271112 ], [ -71.490435478895265, -34.997309174946821 ], [ -71.488293028383666, -34.997215631172573 ], [ -71.482727928367623, -34.996715233670898 ], [ -71.481933569721448, -34.995572531818524 ], [ -71.481558637176363, -34.994930789187762 ], [ -71.481319935042436, -34.994687250025969 ], [ -71.480109159651363, -34.994320985819918 ], [ -71.479055689148012, -34.993906595786093 ], [ -71.478821462420825, -34.993763465271314 ], [ -71.478709895255776, -34.993703196191902 ], [ -71.478363440203537, -34.993465987402637 ], [ -71.47817195801251, -34.993451658389596 ], [ -71.477995764249314, -34.993438494328771 ], [ -71.477675842735621, -34.993414454899593 ], [ -71.477169359103698, -34.993604761825047 ], [ -71.47630197371312, -34.99372157047619 ], [ -71.4759590346669, -34.993824128019483 ], [ -71.475922961020018, -34.993827152619147 ], [ -71.47550633317104, -34.993813131280703 ], [ -71.475141732150036, -34.993676272058963 ], [ -71.474840324914339, -34.993385037387355 ], [ -71.474557165156995, -34.99308877829688 ], [ -71.474294188747464, -34.992801189497925 ], [ -71.474054526314504, -34.992495032320804 ], [ -71.473855220695654, -34.992170106385068 ], [ -71.473668243555807, -34.99184035145764 ], [ -71.473418057359282, -34.991557077461401 ], [ -71.473242150158654, -34.991413117119983 ], [ -71.473148949049616, -34.991280097674846 ], [ -71.47235029016818, -34.990689054199109 ], [ -71.471974946194706, -34.990504698682543 ], [ -71.471439725456833, -34.990473360786574 ], [ -71.471062305476735, -34.990336233984472 ], [ -71.470841483410226, -34.990124800031403 ], [ -71.469891678490654, -34.988370325196378 ], [ -71.46984348387565, -34.98828342798339 ], [ -71.469771002408649, -34.988152790181545 ], [ -71.469731628351425, -34.988081738779272 ], [ -71.468507764506668, -34.987131414642235 ], [ -71.468230081777605, -34.986902523928372 ], [ -71.465544607761601, -34.984072417295145 ], [ -71.46473385036991, -34.983764918858647 ], [ -71.462247647836747, -34.983739698983776 ], [ -71.461768951791541, -34.983646836696821 ], [ -71.461827356658034, -34.983206184864208 ], [ -71.462038573039194, -34.981612479165676 ], [ -71.462047778075927, -34.980508787422352 ], [ -71.462346892811027, -34.979792084127048 ], [ -71.462562637599547, -34.978916156846381 ], [ -71.46255612661038, -34.978378309815199 ], [ -71.462583799212709, -34.977735569728878 ], [ -71.462713073968601, -34.976986347164519 ], [ -71.462834263886961, -34.976284772404092 ], [ -71.461543150363383, -34.97397841619761 ], [ -71.461425678571999, -34.973938336783448 ], [ -71.460856158359974, -34.973743555070918 ], [ -71.460522790863081, -34.973795140441212 ], [ -71.460089631317913, -34.973812857446802 ], [ -71.459653422890682, -34.973767642233526 ], [ -71.459217166852739, -34.973690819154271 ], [ -71.458800503071146, -34.973573130261698 ], [ -71.458416607136144, -34.973414085875945 ], [ -71.458059073161493, -34.973191513757044 ], [ -71.458033384937622, -34.973169509582391 ], [ -71.457928885717251, -34.973080128833558 ], [ -71.457750088636359, -34.972927266732263 ], [ -71.457525389441088, -34.972625348798083 ], [ -71.457414963136472, -34.972271564469615 ], [ -71.457359587389092, -34.971907582763237 ], [ -71.457326361401684, -34.971552236248364 ], [ -71.457306937130298, -34.971187451923846 ], [ -71.457294021153146, -34.970827263038466 ], [ -71.457279305850477, -34.970466887802601 ], [ -71.457255807719278, -34.970106839293315 ], [ -71.457229349639206, -34.969746776687359 ], [ -71.457205940441213, -34.969386651399816 ], [ -71.457192754071173, -34.96902639349706 ], [ -71.45719426952904, -34.968665763732375 ], [ -71.457194777077191, -34.968583634929914 ], [ -71.457131592275047, -34.967991178378796 ], [ -71.457258452359454, -34.967850366322281 ], [ -71.458801606202314, -34.966138634983096 ], [ -71.460816719624063, -34.963919729736254 ], [ -71.461163896023479, -34.963659393593211 ], [ -71.461642676510351, -34.963300457727371 ], [ -71.462350889415731, -34.963542935176683 ], [ -71.462884483304606, -34.964424632848505 ], [ -71.463823810274718, -34.96458679104029 ], [ -71.464122013219779, -34.964638338006431 ], [ -71.465125130456528, -34.964261875823077 ], [ -71.465496223602088, -34.963911020713155 ], [ -71.465899762997381, -34.963529449011624 ], [ -71.466247637387795, -34.963044661166677 ], [ -71.466694269865584, -34.96285000594289 ], [ -71.467820314362442, -34.962359144149332 ], [ -71.46845030287119, -34.961629642191866 ], [ -71.469177816978771, -34.961732041157894 ], [ -71.470111914855593, -34.961478717024328 ], [ -71.471043613332313, -34.96115771640499 ], [ -71.47110005268496, -34.961095570293601 ], [ -71.471815003853308, -34.960308198083325 ], [ -71.472462944294691, -34.960177731364553 ], [ -71.472981906424238, -34.960581886492363 ], [ -71.473296744371737, -34.961413789779108 ], [ -71.473609692263892, -34.962182663260037 ], [ -71.473922289813089, -34.962951544250366 ], [ -71.474883171858437, -34.963585580125432 ], [ -71.475842212357449, -34.96416093618047 ], [ -71.47665444927442, -34.96468071957085 ], [ -71.477269964127316, -34.964863780144348 ], [ -71.477604787793268, -34.964963359948023 ], [ -71.478482377147159, -34.965242900077818 ], [ -71.479196991447253, -34.964930774035501 ], [ -71.480132717969681, -34.96473139558428 ], [ -71.4812766928396, -34.964230222369522 ], [ -71.482393632911055, -34.96425752501068 ], [ -71.48258143739929, -34.964262176919874 ], [ -71.482799171057863, -34.964319238796321 ], [ -71.484479563221612, -34.964759691156594 ], [ -71.485214470463958, -34.96510524220524 ], [ -71.486596843837248, -34.965315824969409 ], [ -71.48753977035669, -34.96535506348129 ], [ -71.488404720414536, -34.965215633101089 ], [ -71.48934233160243, -34.965079284830395 ], [ -71.490047791171463, -34.96506474030457 ], [ -71.490428179185272, -34.965056935421032 ], [ -71.491309492056004, -34.965458079853086 ], [ -71.492476521289376, -34.965731575854157 ], [ -71.493775822956749, -34.965583186972857 ], [ -71.495001311853883, -34.965382244279958 ], [ -71.495799274540985, -34.965424399456104 ], [ -71.496247877922514, -34.965737073533028 ], [ -71.496374423596578, -34.9651479025366 ], [ -71.49650314409196, -34.963462945746421 ], [ -71.496583281001818, -34.962615748245 ], [ -71.496684846324484, -34.961079560009431 ], [ -71.496631460345455, -34.957925318411235 ], [ -71.496674037794989, -34.95548866910444 ], [ -71.498187133110079, -34.955182014602279 ], [ -71.500122742035941, -34.955196293620055 ], [ -71.501729183987166, -34.955511976784678 ], [ -71.502308009847241, -34.955633561381994 ], [ -71.502734253263014, -34.955719371922797 ], [ -71.50316027209999, -34.95580075454194 ], [ -71.503586159782941, -34.955886642950531 ], [ -71.504012447216169, -34.955967944415789 ], [ -71.50443882987085, -34.956049388633289 ], [ -71.50486543081611, -34.956126174509031 ], [ -71.505301146068263, -34.956148789195815 ], [ -71.505685083325744, -34.956312042370193 ], [ -71.506112268175968, -34.956384381057134 ], [ -71.506546163441342, -34.956438486492324 ], [ -71.506980378506952, -34.956497163990804 ], [ -71.507399376111678, -34.956592190703489 ], [ -71.507831278913756, -34.956610295750259 ], [ -71.50826899740899, -34.956610261882894 ], [ -71.508707034806136, -34.956614797162985 ], [ -71.509144525129301, -34.956610258937907 ], [ -71.509579708578798, -34.956574160013709 ], [ -71.51001390208485, -34.956529145116654 ], [ -71.510448002166115, -34.956484058042584 ], [ -71.51088444685027, -34.95645701197072 ], [ -71.511238405530108, -34.956269428976213 ], [ -71.511506640677311, -34.955979938705362 ], [ -71.511700742355714, -34.955691981767508 ], [ -71.511928533552194, -34.955385308147029 ], [ -71.512183359547137, -34.955091588618657 ], [ -71.512478139012671, -34.954828573883255 ], [ -71.512748294757969, -34.954543545445269 ], [ -71.513061586704879, -34.954293587394396 ], [ -71.513379004613881, -34.954043690427959 ], [ -71.513696824968164, -34.953798214749646 ], [ -71.514003745164757, -34.953539524421117 ], [ -71.514290570048459, -34.953263156743347 ], [ -71.51458483927091, -34.952995643364865 ], [ -71.514972071548868, -34.95287042646487 ], [ -71.515306561041513, -34.952633611109654 ], [ -71.51563916766537, -34.952396906985548 ], [ -71.516004134300687, -34.952227101901983 ], [ -71.516348186359551, -34.952021617430283 ], [ -71.516666437905158, -34.951776125388342 ], [ -71.517022003671016, -34.9515659709581 ], [ -71.517296687823659, -34.951426907351518 ], [ -71.517315957584813, -34.951485068615007 ], [ -71.517388500137272, -34.95150505380871 ], [ -71.517824762463434, -34.951197443417449 ], [ -71.51791993088294, -34.951130263060556 ], [ -71.518229091477863, -34.950986568877518 ], [ -71.518619073498897, -34.950784630257985 ], [ -71.518836763140001, -34.950644383563791 ], [ -71.518951543578794, -34.950570369880268 ], [ -71.519195126259675, -34.950335504237827 ], [ -71.519194897189266, -34.950037979793514 ], [ -71.518930928141344, -34.949682938247477 ], [ -71.518711686211418, -34.949326967410407 ], [ -71.518792347737403, -34.949023260151151 ], [ -71.519081205508598, -34.948746914062937 ], [ -71.519453971317205, -34.948495704264467 ], [ -71.519812646152275, -34.948276468469821 ], [ -71.520175770342945, -34.948079586870733 ], [ -71.520548670898862, -34.947891584880082 ], [ -71.520927890204476, -34.947707881870294 ], [ -71.521309400214051, -34.947528781973929 ], [ -71.521688706656249, -34.947345075205895 ], [ -71.522061600025651, -34.947157068585575 ], [ -71.522410538021333, -34.946942457804596 ], [ -71.522789889379311, -34.946763323837423 ], [ -71.523203191665118, -34.946673650674683 ], [ -71.523596086922609, -34.946512252283163 ], [ -71.523988981281803, -34.946350852101297 ], [ -71.524399141260744, -34.946261166705987 ], [ -71.524759557929158, -34.946064402500056 ], [ -71.525173994787167, -34.945947597299458 ], [ -71.525592424656608, -34.945835285837347 ], [ -71.526001740219186, -34.945709501323606 ], [ -71.526356519959194, -34.945530869059823 ], [ -71.526782942139718, -34.945445341655969 ], [ -71.527204470298585, -34.945346473747982 ], [ -71.527626762025449, -34.945252020131989 ], [ -71.527890381628723, -34.945232869906377 ], [ -71.52790058289709, -34.945232140920901 ], [ -71.528060221607916, -34.945220471997665 ], [ -71.5305218112006, -34.943976194592757 ], [ -71.543171754080916, -34.937653872403018 ], [ -71.543614094408284, -34.937429491716806 ], [ -71.544831426602599, -34.936846219980708 ], [ -71.544862369970886, -34.936768033040472 ], [ -71.546080641803016, -34.936117160378586 ], [ -71.547380106963786, -34.93544212300651 ], [ -71.548660896149784, -34.934752473468137 ], [ -71.554373516603491, -34.931789270494285 ], [ -71.555229437694408, -34.931345390910742 ], [ -71.558995186145211, -34.929367646559882 ], [ -71.559213731880803, -34.92927051212083 ], [ -71.562970302244352, -34.9276004104523 ], [ -71.563071263899133, -34.927649381544079 ], [ -71.563095072847418, -34.927662466323802 ], [ -71.563807859075908, -34.92805290750097 ], [ -71.564256721172242, -34.928516708788493 ], [ -71.565004416830988, -34.929276225827905 ], [ -71.565082784059754, -34.929659087484303 ], [ -71.565175135362523, -34.930110919916864 ], [ -71.565700823178588, -34.930452575956721 ], [ -71.566061865074417, -34.930687086857397 ], [ -71.567108121207752, -34.931737732329246 ], [ -71.567418008539718, -34.932384717333072 ], [ -71.567507356774513, -34.932923749280562 ], [ -71.567531510675892, -34.933698400862362 ], [ -71.567844844843606, -34.93446700922037 ], [ -71.568229074951873, -34.93517105192106 ], [ -71.56853886077424, -34.935822613291663 ], [ -71.569063905396547, -34.936406407806757 ], [ -71.569880290733508, -34.937047171511807 ], [ -71.570845254723494, -34.937801976044902 ], [ -71.571002593747195, -34.938044771943559 ], [ -71.571377963771809, -34.938624488613698 ], [ -71.571965993770277, -34.938909556933829 ], [ -71.572643169882582, -34.938376886406907 ], [ -71.572743207170959, -34.938298114742508 ], [ -71.573596660589786, -34.937802318478205 ], [ -71.574529974237365, -34.937543638799362 ], [ -71.575106873211155, -34.937472771052931 ], [ -71.575231522541657, -34.93771079005591 ], [ -71.576010697862898, -34.937458397632248 ], [ -71.576678717447521, -34.937273342745677 ], [ -71.57700348896546, -34.937209441308902 ], [ -71.577174929742483, -34.937220423554912 ], [ -71.577588488946461, -34.937351655131977 ], [ -71.577626620633637, -34.937363768499537 ], [ -71.577680229394844, -34.937254372552644 ], [ -71.577827911529241, -34.936913244873367 ], [ -71.577968281377224, -34.936567695005373 ], [ -71.578107525636142, -34.936217736148585 ], [ -71.578637683469069, -34.934964023099631 ], [ -71.578866377472423, -34.934942108079866 ], [ -71.579086630007026, -34.934364461309073 ], [ -71.579327347960472, -34.933733135639478 ], [ -71.580226548983461, -34.931374744536711 ], [ -71.580452316275597, -34.926303242196035 ], [ -71.577425776200727, -34.921497608550901 ], [ -71.577408887873389, -34.921470791794611 ], [ -71.575162617267779, -34.918234887497228 ], [ -71.573453772764054, -34.916166426732012 ], [ -71.57124014064766, -34.913486770694668 ], [ -71.569452520181727, -34.911352124306937 ], [ -71.568712127826245, -34.910601189207611 ], [ -71.567847670045182, -34.911046817854654 ], [ -71.567682851648414, -34.911099852639296 ], [ -71.567451680091537, -34.911244530155365 ], [ -71.567059488214895, -34.911541189795123 ], [ -71.566392701118843, -34.911938470101802 ], [ -71.565818029966962, -34.912184926321899 ], [ -71.565711417010746, -34.912322390913921 ], [ -71.565108871135592, -34.912560496878328 ], [ -71.565071405100042, -34.912687418034224 ], [ -71.564904951769464, -34.912691007686405 ], [ -71.564377193336682, -34.91309420131121 ], [ -71.564198329780467, -34.913134015084367 ], [ -71.563439795049504, -34.914078496311575 ], [ -71.563413419614434, -34.914507287467238 ], [ -71.563420580085563, -34.914714423154663 ], [ -71.563428851772699, -34.914948636506075 ], [ -71.56343461266863, -34.915110754807984 ], [ -71.563071464223441, -34.915442973163664 ], [ -71.561757779630042, -34.915594605511302 ], [ -71.561739772001857, -34.91554019100306 ], [ -71.561720564224458, -34.915481814937685 ], [ -71.561455810048969, -34.914679521215376 ], [ -71.561191240926433, -34.913877223334786 ], [ -71.560920338681143, -34.913070035178301 ], [ -71.560173667101822, -34.912244889992131 ], [ -71.556800350377827, -34.909352718058209 ], [ -71.55535404390578, -34.908112554643246 ], [ -71.554760601557732, -34.907241761479085 ], [ -71.551678953433424, -34.902488496358494 ], [ -71.551565095564428, -34.902209828237382 ], [ -71.55045195536664, -34.89948492980141 ], [ -71.550384778451374, -34.899280751363598 ], [ -71.54950656566669, -34.896614195371129 ], [ -71.549125852462751, -34.895681747712615 ], [ -71.549122394847231, -34.895642386710172 ], [ -71.548262390015026, -34.892871977409847 ], [ -71.543656122987173, -34.888666343263615 ], [ -71.542832405600862, -34.888020811592213 ], [ -71.541384466889937, -34.888383716263419 ], [ -71.540494825738193, -34.888652442462309 ], [ -71.540103338140753, -34.889105778322765 ], [ -71.53856411891887, -34.887461845763795 ], [ -71.537230194383795, -34.886080340373667 ], [ -71.535223685025841, -34.883271139255044 ], [ -71.531067767704414, -34.882039320364157 ], [ -71.526846896798048, -34.876215625433424 ], [ -71.526718524849002, -34.876281213371321 ], [ -71.526694526356195, -34.876293454403395 ], [ -71.525593999403299, -34.87626862891041 ], [ -71.523741508895753, -34.876259488298487 ], [ -71.523134713091011, -34.876216630658107 ], [ -71.522697286548237, -34.876185761263294 ], [ -71.521598214866117, -34.876208500424006 ], [ -71.520614586579455, -34.876299655985193 ], [ -71.52061431977981, -34.876299734840686 ], [ -71.520270653098208, -34.876331454652899 ], [ -71.519518684153638, -34.876347049614772 ], [ -71.518651923092207, -34.876233349518138 ], [ -71.517949530371567, -34.876141048633734 ], [ -71.516318263477444, -34.875793271524742 ], [ -71.515621151054034, -34.875712294470574 ], [ -71.514873543430184, -34.875870886435905 ], [ -71.513842396061619, -34.876226088908112 ], [ -71.512825849011378, -34.877058109963087 ], [ -71.512283618719366, -34.878261887401102 ], [ -71.512116921047038, -34.878467233079078 ], [ -71.511998161969871, -34.878613617365822 ], [ -71.511566362474028, -34.879421575291317 ], [ -71.510947475345546, -34.880006832883957 ], [ -71.510754769649111, -34.880126312686876 ], [ -71.51042199324371, -34.880272170797291 ], [ -71.50967622536956, -34.880478251330793 ], [ -71.508871153415299, -34.880637920333847 ], [ -71.508008402433276, -34.88079877474248 ], [ -71.507031382153841, -34.881009539326698 ], [ -71.506405561828018, -34.881356168349242 ], [ -71.505727666165157, -34.881894542762929 ], [ -71.505448697946932, -34.882234014089292 ], [ -71.504244827905453, -34.884499371642136 ], [ -71.503980305495304, -34.885315302299809 ], [ -71.503639211588677, -34.885513007281574 ], [ -71.503137729776256, -34.886142996503054 ], [ -71.50233972397001, -34.886540858014826 ], [ -71.501599745737877, -34.886937446495899 ], [ -71.500811920538766, -34.887668659871771 ], [ -71.500478030222382, -34.88810458764722 ], [ -71.500274208772623, -34.889014598648139 ], [ -71.499724837772405, -34.889979277897133 ], [ -71.498990502756882, -34.890566483665694 ], [ -71.49813339678812, -34.890917829393629 ], [ -71.497109906659048, -34.891510895840661 ], [ -71.496199244929656, -34.892006297584821 ], [ -71.495340488755701, -34.892309952871095 ], [ -71.494364739592399, -34.892568371357484 ], [ -71.493323920961515, -34.892589811390316 ], [ -71.49250015237125, -34.892129953953166 ], [ -71.491676215796005, -34.891670167624959 ], [ -71.491437658290849, -34.891436679230601 ], [ -71.49102425629205, -34.891159143705956 ], [ -71.490447518116682, -34.891218600314758 ], [ -71.490058571853197, -34.891750966854268 ], [ -71.489562701816354, -34.892571536743112 ], [ -71.489055230037636, -34.893010991440683 ], [ -71.488596903291466, -34.893163424135572 ], [ -71.488134348175265, -34.893172825174062 ], [ -71.487660301809939, -34.892801256027681 ], [ -71.487297580962817, -34.892284214869946 ], [ -71.486767115007765, -34.891961429986452 ], [ -71.486303135163524, -34.891923294019065 ], [ -71.485613617995853, -34.892080299263938 ], [ -71.48491970986305, -34.892094568635038 ], [ -71.48438925468777, -34.891771772690824 ], [ -71.483746032198255, -34.891546469302035 ], [ -71.483110077079388, -34.891559469206619 ], [ -71.48248263529446, -34.891858305078998 ], [ -71.481755323307823, -34.892683647756513 ], [ -71.481353428727815, -34.893240548870594 ], [ -71.480853008724054, -34.893695555555624 ], [ -71.479789508530544, -34.894909841429467 ], [ -71.478607376820619, -34.896031054231891 ], [ -71.477704435212786, -34.896812767620645 ], [ -71.477452111025897, -34.896901953011231 ], [ -71.476845201135092, -34.897116450821073 ], [ -71.475920757452641, -34.897183001996268 ], [ -71.475539370512237, -34.89717999298572 ], [ -71.474241265400806, -34.89716951523296 ], [ -71.473302013889196, -34.897151865657676 ], [ -71.473024712045813, -34.897146580730869 ], [ -71.472392461579176, -34.897302642493912 ], [ -71.471401726720302, -34.897900000235673 ], [ -71.46986246437929, -34.898606647265041 ], [ -71.467599269513727, -34.899459655996672 ], [ -71.467580953763417, -34.899479597872087 ], [ -71.467183261502299, -34.89972591024668 ], [ -71.466669924623076, -34.899974791684784 ], [ -71.466040932345962, -34.900225943778018 ], [ -71.465412023612203, -34.900477017744414 ], [ -71.464722302526937, -34.900633984538416 ], [ -71.464087603252835, -34.900694568145958 ], [ -71.46327520104586, -34.90061570578677 ], [ -71.462464220871979, -34.900584442554987 ], [ -71.461711023930434, -34.900552076396529 ], [ -71.460600921834924, -34.900193214258948 ], [ -71.459652798561564, -34.89944963606262 ], [ -71.458817767792567, -34.898608422137833 ], [ -71.458442412140997, -34.897662561272618 ], [ -71.458129106719355, -34.896858488711423 ], [ -71.457827168579314, -34.89643561241045 ], [ -71.45729252366155, -34.895969735550885 ], [ -71.45652943177717, -34.895603741116219 ], [ -71.455597094598289, -34.895384282190371 ], [ -71.454722717619859, -34.895163570121092 ], [ -71.453787552544469, -34.894848740741445 ], [ -71.452901761572022, -34.894246965758981 ], [ -71.452651964346032, -34.893632197845875 ], [ -71.452619466892315, -34.892536423502477 ], [ -71.453050854061431, -34.891478915153854 ], [ -71.452913962490229, -34.890766603156671 ], [ -71.452777072715676, -34.890054290141727 ], [ -71.45240749682462, -34.889298969078133 ], [ -71.451490623245036, -34.887648935451978 ], [ -71.450822038620103, -34.886565992840417 ], [ -71.44968944630314, -34.885444768764309 ], [ -71.448738944290909, -34.884605807066727 ], [ -71.447968928192324, -34.884001584246228 ], [ -71.446670075682562, -34.883121990284828 ], [ -71.4460720716895, -34.882466584649741 ], [ -71.445537675605081, -34.882000648474886 ], [ -71.444946839269662, -34.881583549791614 ], [ -71.444127579323819, -34.881266309484651 ], [ -71.443484449360767, -34.881040860118858 ], [ -71.442786467368165, -34.880911849506163 ], [ -71.44162175848318, -34.880649242504205 ], [ -71.440569680368483, -34.880288949260809 ], [ -71.439809718214548, -34.880018267892183 ], [ -71.43916942602948, -34.879888077314789 ], [ -71.438533539182572, -34.879900841033745 ], [ -71.437728392668149, -34.880059968038275 ], [ -71.437165661923046, -34.880595658941061 ], [ -71.436837078853344, -34.881221990188031 ], [ -71.436739743697373, -34.881843682923005 ], [ -71.436471736722254, -34.882564138504435 ], [ -71.436251733919264, -34.882949906263178 ], [ -71.435634019990559, -34.883582105207211 ], [ -71.434900662342059, -34.884216471658952 ], [ -71.4345057530617, -34.88455810796696 ], [ -71.433762628929429, -34.88485901343865 ], [ -71.432317103093354, -34.884887959976417 ], [ -71.431043664821331, -34.884865813466291 ], [ -71.4302299429892, -34.884739046798352 ], [ -71.428898823892752, -34.884718031377368 ], [ -71.427859451549466, -34.884786437772476 ], [ -71.427158043382363, -34.884937367732782 ], [ -71.426712945227067, -34.885143065913738 ], [ -71.42609084302822, -34.885632186536959 ], [ -71.425640919123211, -34.886070233329562 ], [ -71.425372800756975, -34.886790668069757 ], [ -71.42533463852709, -34.887458805448752 ], [ -71.425419028061512, -34.888362954517341 ], [ -71.425606537004015, -34.888835907796889 ], [ -71.425678321378385, -34.889311171328892 ], [ -71.425638763166532, -34.889931776443646 ], [ -71.425135240381792, -34.89051386372406 ], [ -71.424396049972131, -34.89095768118213 ], [ -71.423704916735261, -34.891066809478886 ], [ -71.423303018561995, -34.891170166008912 ], [ -71.422848851015601, -34.891465242509362 ], [ -71.422631471293244, -34.891946274189081 ], [ -71.422244869632621, -34.892573725840045 ], [ -71.422095235459125, -34.893387130097565 ], [ -71.42195259826336, -34.894438852806388 ], [ -71.421914316557519, -34.895106991356485 ], [ -71.421639235349531, -34.895589171742451 ], [ -71.421193343083544, -34.896170169014589 ], [ -71.420684158217568, -34.896561672874846 ], [ -71.420351194962549, -34.89704500441605 ], [ -71.420312904273572, -34.897713216075928 ], [ -71.420353367987232, -34.89909486624768 ], [ -71.420609939408791, -34.899947880960227 ], [ -71.421090740206736, -34.900558041861174 ], [ -71.421684405336961, -34.901070611206762 ], [ -71.422340150341569, -34.90172498509309 ], [ -71.422585549415913, -34.902196787287608 ], [ -71.422599458929767, -34.902673205338317 ], [ -71.42238214478445, -34.903154309153933 ], [ -71.421658311074594, -34.904122133908352 ], [ -71.420974150560951, -34.904469494967437 ], [ -71.419765179885275, -34.904684263278902 ], [ -71.41831938096135, -34.904713055489076 ], [ -71.417389905814986, -34.904588511168406 ], [ -71.416505649165046, -34.90403406880322 ], [ -71.415735668999062, -34.903429641866659 ], [ -71.41525907411328, -34.902962348165474 ], [ -71.414608868120752, -34.902498652217339 ], [ -71.413950475781007, -34.901748948278289 ], [ -71.41339789869356, -34.900663413983054 ], [ -71.413028535703248, -34.899908035743238 ], [ -71.412365998536799, -34.899015432097301 ], [ -71.411892148004213, -34.898643483419676 ], [ -71.41123938450805, -34.898084330519453 ], [ -71.409953200040462, -34.897633082125509 ], [ -71.40912824208074, -34.897125113889629 ], [ -71.408598117485511, -34.896801899325695 ], [ -71.407729214840415, -34.896771417106791 ], [ -71.40687022779943, -34.897074531665005 ], [ -71.406359395423209, -34.897418302741947 ], [ -71.405442523640275, -34.897722480290263 ], [ -71.404515921306185, -34.897693191252763 ], [ -71.40357673177833, -34.897235079080268 ], [ -71.403207561027472, -34.896479590474186 ], [ -71.402315157556245, -34.895639182392749 ], [ -71.401369063577107, -34.894942728518686 ], [ -71.400544273602364, -34.894434696490123 ], [ -71.399847612133215, -34.894353047416246 ], [ -71.398458278613106, -34.894332850834964 ], [ -71.397534483514278, -34.894398791980258 ], [ -71.396792421190682, -34.894747160848347 ], [ -71.392603095523825, -34.897928399176983 ], [ -71.391647547674651, -34.898900688423346 ], [ -71.390525533918463, -34.900114559919743 ], [ -71.389567265072301, -34.900991548076995 ], [ -71.389065998855543, -34.901668860996224 ], [ -71.388617167301916, -34.902154386689027 ], [ -71.388456142490625, -34.902586546573779 ], [ -71.388471325815559, -34.903110654403555 ], [ -71.388319874350231, -34.903876426304883 ], [ -71.38781314996983, -34.904363088223008 ], [ -71.387755281397531, -34.90440159340325 ], [ -71.387201727841358, -34.905116335442763 ], [ -71.3863860647499, -34.906169286333082 ], [ -71.386379152213792, -34.906178210711765 ], [ -71.384976356540832, -34.907732309359531 ], [ -71.383773405475878, -34.908185285769775 ], [ -71.382801958344487, -34.908633709224183 ], [ -71.382001379763267, -34.908983286268359 ], [ -71.381426717594564, -34.909137674654794 ], [ -71.380812854743468, -34.9091920241598 ], [ -71.380503395907866, -34.909251187780264 ], [ -71.380218216737788, -34.909399898142567 ], [ -71.38005838129591, -34.909514986641781 ], [ -71.379877820822117, -34.909645103017084 ], [ -71.379655934252, -34.909983325215329 ], [ -71.379137855166391, -34.910088960755658 ], [ -71.378614178678248, -34.91000380377421 ], [ -71.37816861789058, -34.909717719339227 ], [ -71.377965203377656, -34.909587147817561 ], [ -71.377554541240457, -34.909404358683133 ], [ -71.37715350724649, -34.909555328869267 ], [ -71.37704355076076, -34.909594110075552 ], [ -71.376866855737632, -34.909656351943319 ], [ -71.376282644477442, -34.909476954591412 ], [ -71.375707966139046, -34.909631317002862 ], [ -71.37559632800712, -34.909776621800653 ], [ -71.37514299140237, -34.910119436558382 ], [ -71.374690933998551, -34.910509858067925 ], [ -71.374174126029089, -34.910663081872052 ], [ -71.373187491979508, -34.91058694883472 ], [ -71.372079607824432, -34.910322346772233 ], [ -71.371041958449837, -34.910485802410058 ], [ -71.370239847342773, -34.910787625818863 ], [ -71.369388164503363, -34.91137672778072 ], [ -71.369214057526563, -34.911491932846417 ], [ -71.368422074026, -34.912015687703729 ], [ -71.367563427446527, -34.912366377413228 ], [ -71.366974101179082, -34.912667578076118 ], [ -71.366593202922218, -34.912862283930721 ], [ -71.366163067106285, -34.912900277580881 ], [ -71.366041357961706, -34.912910993471009 ], [ -71.365899978407356, -34.912923569373255 ], [ -71.36531576265557, -34.912744045828738 ], [ -71.364833548807695, -34.912085608749408 ], [ -71.364697355227463, -34.911372726282053 ], [ -71.364825587937659, -34.911167659529184 ], [ -71.365029507303774, -34.910841481407623 ], [ -71.365747669050933, -34.909634964985479 ], [ -71.366192920818136, -34.909006098123804 ], [ -71.366334818700409, -34.908652694138048 ], [ -71.366377820154753, -34.90854551193538 ], [ -71.366392125825641, -34.908509859644617 ], [ -71.366463159208422, -34.908333007964508 ], [ -71.366322745342998, -34.90802601580468 ], [ -71.365913330965725, -34.907429528074339 ], [ -71.365806614703246, -34.906247493590776 ], [ -71.365703374022587, -34.905105196400932 ], [ -71.365635043670494, -34.904348455571977 ], [ -71.366060860386526, -34.902752753091164 ], [ -71.367134724443474, -34.901221523040981 ], [ -71.367830328595517, -34.900219630541827 ], [ -71.367995624896011, -34.899152228391124 ], [ -71.368033832939986, -34.899090556920271 ], [ -71.368429008121666, -34.898452689244372 ], [ -71.36844228252663, -34.898431161592654 ], [ -71.369251676275709, -34.897531836488426 ], [ -71.369342694478632, -34.896800052209073 ], [ -71.369265410618098, -34.895869644627084 ], [ -71.369179473286451, -34.895137175789635 ], [ -71.369551621054143, -34.894756309719305 ], [ -71.370565058136862, -34.894592900135507 ], [ -71.371741480154853, -34.894776794285946 ], [ -71.373958244696638, -34.895523324388918 ], [ -71.375614295211122, -34.895572778062515 ], [ -71.377036724462926, -34.895543108809093 ], [ -71.378390736226052, -34.894362554418585 ], [ -71.379874214086243, -34.892942465159784 ], [ -71.382785272138094, -34.891371259595516 ], [ -71.385572245001413, -34.888575185943886 ], [ -71.386903398233827, -34.886569347097407 ], [ -71.387352062700799, -34.880387636889154 ], [ -71.3873870978952, -34.874189012177624 ], [ -71.38691309824226, -34.868894484511117 ], [ -71.386209665272517, -34.86768401094622 ], [ -71.383305886269412, -34.862064863348095 ], [ -71.382226332283466, -34.860176408449938 ], [ -71.381518861386525, -34.858938805745481 ], [ -71.381455734974864, -34.858756745717827 ], [ -71.381337720601039, -34.858582038859623 ], [ -71.380939771421751, -34.857979979897543 ], [ -71.380352048647126, -34.857858781350529 ], [ -71.379383603685397, -34.857365887187797 ], [ -71.379220754395746, -34.857108752688148 ], [ -71.377734390248548, -34.855230651625114 ], [ -71.377906306234365, -34.854303123854095 ], [ -71.378398813877084, -34.853993433766703 ], [ -71.380076220939131, -34.853507232816952 ], [ -71.382085264444513, -34.851408929144512 ], [ -71.383274719220637, -34.850115315370566 ], [ -71.382650241876149, -34.84844768154634 ], [ -71.38171350385069, -34.847951154001549 ], [ -71.380284666915969, -34.846759721611171 ], [ -71.378590705699864, -34.842798378687213 ], [ -71.377922599876996, -34.841336728028772 ], [ -71.37678292703896, -34.838585924951609 ], [ -71.375400564445442, -34.835796278820695 ], [ -71.374447024330934, -34.834362114389023 ], [ -71.373868932394473, -34.833637554926646 ], [ -71.371580944925384, -34.832965409202423 ], [ -71.370083520720385, -34.832863961518314 ], [ -71.369057013150297, -34.832603879915624 ], [ -71.368451403121711, -34.832399325206971 ], [ -71.368381588752769, -34.832375743665942 ], [ -71.367168916119823, -34.832364886760836 ], [ -71.366058776295063, -34.832512163461914 ], [ -71.36444157522169, -34.832726709090757 ], [ -71.364441363219271, -34.832726737110377 ], [ -71.364365675665013, -34.83273677771264 ], [ -71.363310616940225, -34.832634203800026 ], [ -71.36297070162324, -34.83259003894814 ], [ -71.361926362494742, -34.832454348530604 ], [ -71.360730366186715, -34.832281157882974 ], [ -71.360586575554137, -34.832224092687078 ], [ -71.360134356453571, -34.832044622900604 ], [ -71.359939773278214, -34.831912400150294 ], [ -71.360149936927868, -34.832170159929845 ], [ -71.360354434768709, -34.832430971368481 ], [ -71.360553201015918, -34.832694750537257 ], [ -71.360746171728437, -34.832961412553054 ], [ -71.360933284829613, -34.833230871605863 ] ] ] } },
{ "type": "Feature", "properties": { "capa": "colegios", "popup": "<strong>ESCUELA LOS ALMENDROS</strong><br><br><strong>Dirección:</strong> CAMINO A ILOCA 38", "etiqueta": "" }, "geometry": { "type": "Point", "coordinates": [ -71.538567, -35.03619 ] } },
{ "type": "Feature", "properties": { "capa": "colegios", "popup": "<strong>ESCUELA LUIS LEYTON RUBIO</strong><br><br><strong>Dirección:</strong> RUTA J-60 14", "etiqueta": "" }, "geometry": { "type": "Point", "coordinates": [ -71.345718, -34.95623 ] } },
{ "type": "Feature", "properties": { "capa": "colegios", "popup": "<strong>ESCUELA RAUCO</strong><br><br><strong>Dirección:</strong> BALMACEDA 32", "etiqueta": "" }, "geometry": { "type": "Point", "coordinates": [ -71.316551, -34.925701 ] } },
{ "type": "Feature", "properties": { "capa": "colegios", "popup": "<strong>ESCUELA DE LENGUAJE RAYITO DE SOL</strong><br><br><strong>Dirección:</strong> AVENIDA DIEGO PORTALES 3", "etiqueta": "" }, "geometry": { "type": "Point", "coordinates": [ -71.31763, -34.924236 ] } },
{ "type": "Feature", "properties": { "capa": "colegios", "popup": "<strong>ESCUELA EL PARRON</strong><br><br><strong>Dirección:</strong> EL PARRON 0", "etiqueta": "" }, "geometry": { "type": "Point", "coordinates": [ -71.507599, -34.921749 ] } },
{ "type": "Feature", "properties": { "capa": "colegios", "popup": "<strong>ESCUELA LA ALBORADA</strong><br><br><strong>Dirección:</strong> CAMINO A LA PALMILLA 14", "etiqueta": "" }, "geometry": { "type": "Point", "coordinates": [ -71.299583, -34.910198 ] } },
{ "type": "Feature", "properties": { "capa": "colegios", "popup": "<strong>LICEO POLIVALENTE DE RAUCO</strong><br><br><strong>Dirección:</strong> LA PALMILLA 0", "etiqueta": "" }, "geometry": { "type": "Point", "coordinates": [ -71.315521, -34.885422 ] } },
{ "type": "Feature", "properties": { "capa": "colegios", "popup": "<strong>ESCUELA EL PLUMERO</strong><br><br><strong>Dirección:</strong> CAMINO PUBLICO A COMALLE 11", "etiqueta": "" }, "geometry": { "type": "Point", "coordinates": [ -71.266518, -34.8815 ] } },
{ "type": "Feature", "properties": { "capa": "jardines", "popup": "<strong>COPITO DE NIEVE</strong><br><br><strong>Dirección:</strong> Calle Nº2 S/N, Población Quicharco, Sector el Plumero ", "etiqueta": "" }, "geometry": { "type": "MultiPoint", "coordinates": [ [ -71.278503, -34.887927 ] ] } },
{ "type": "Feature", "properties": { "capa": "jardines", "popup": "<strong>PEPITAS</strong><br><br><strong>Dirección:</strong> POB.VILLA PALQUIBUDIS S/N SECTOR PALQUIBUDIS ", "etiqueta": "" }, "geometry": { "type": "MultiPoint", "coordinates": [ [ -71.542732, -35.033342 ] ] } },
{ "type": "Feature", "properties": { "capa": "jardines", "popup": "<strong>LOS PEQUES</strong><br><br><strong>Dirección:</strong> Población Don Sebastian II S/N ", "etiqueta": "" }, "geometry": { "type": "MultiPoint", "coordinates": [ [ -71.319201, -34.931322 ] ] } },
{ "type": "Feature", "properties": { "capa": "jardines", "popup": "<strong>NUESTRAS RAÍCES</strong><br><br><strong>Dirección:</strong> Calle 5 N° 1, Loteo Don Ignacio ", "etiqueta": "" }, "geometry": { "type": "MultiPoint", "coordinates": [ [ -71.300722, -34.91537 ] ] } },
{ "type": "Feature", "properties": { "capa": "jardines", "popup": "<strong>NA</strong><br><br><strong>Dirección:</strong> NA ", "etiqueta": "" }, "geometry": { "type": "MultiPoint", "coordinates": [ [ -71.316849000218582, -34.923474000077668 ] ] } },
{ "type": "Feature", "properties": { "capa": "bomberos", "popup": "<strong>Cuerpo de Bomberos</strong><br><br><strong>Dirección:</strong> Avenida Sta María S/n", "etiqueta": "" }, "geometry": { "type": "Point", "coordinates": [ -71.318618280401225, -34.927338306985789 ] } },
{ "type": "Feature", "properties": { "capa": "comisarias", "popup": "<strong>TCIA. RAUCO</strong><br><br><strong>Dirección:</strong> BALMACEDA 37", "etiqueta": "" }, "geometry": { "type": "Point", "coordinates": [ -71.316639398999939, -34.92516962499991 ] } },
{ "type": "Feature", "properties": { "capa": "salud", "popup": "<strong>Posta de Salud Rural Palquibudi</strong><br><br><strong>Tipo de atención:</strong> Posta de Salud Rural (PSR)<br><strong>Dirección:</strong>  NA", "etiqueta": "" }, "geometry": { "type": "Point", "coordinates": [ -71.52889, -35.03344 ] } },
{ "type": "Feature", "properties": { "capa": "salud", "popup": "<strong>SUR Rauco</strong><br><br><strong>Tipo de atención:</strong> Servicio de Urgencia Rural (SUR)<br><strong>Dirección:</strong>  NA", "etiqueta": "" }, "geometry": { "type": "Point", "coordinates": [ -71.317285, -34.923461 ] } },
{ "type": "Feature", "properties": { "capa": "salud", "popup": "<strong>Centro de Salud Familiar Rauco</strong><br><br><strong>Tipo de atención:</strong> Centro de Salud Familiar (CESFAM)<br><strong>Dirección:</strong>  NA", "etiqueta": "" }, "geometry": { "type": "Point", "coordinates": [ -71.31737, -34.92345 ] } },
{ "type": "Feature", "properties": { "capa": "salud", "popup": "<strong>Posta de Salud Rural El Parrón</strong><br><br><strong>Tipo de atención:</strong> Posta de Salud Rural (PSR)<br><strong>Dirección:</strong>  NA", "etiqueta": "" }, "geometry": { "type": "Point", "coordinates": [ -71.50868, -34.92166 ] } },
{ "type": "Feature", "properties": { "capa": "salud", "popup": "<strong>Posta de Salud Rural El Plumero</strong><br><br><strong>Tipo de atención:</strong> Posta de Salud Rural (PSR)<br><strong>Dirección:</strong>  NA", "etiqueta": "" }, "geometry": { "type": "Point", "coordinates": [ -71.278953, -34.884253 ] } },
{ "type": "Feature", "properties": { "capa": "municipios", "popup": "<strong>Municipalidad de Rauco</strong><br><br><strong>Dirección:</strong> Balmaceda Nº 35<br><strong>Región:</strong> Maule", "etiqueta": "" }, "geometry": { "type": "Point", "coordinates": [ -71.316, -34.924954000999954 ] } }
]
}
