{
"type": "FeatureCollection",
"name": "7408",
"crs": { "type": "name", "properties": { "name": "urn:ogc:def:crs:OGC:1.3:CRS84" } },
"features": [
{ "type": "Feature", "properties": { "capa": "comuna", "popup": "", "etiqueta": "" }, "geometry": { "type": "Polygon", "coordinates": [ [ [ -71.575671789557333, -35.585955454771977 ], [ -71.575902900927119, -35.586789444438445 ], [ -71.574951600312602, -35.586996250212025 ], [ -71.573325617308996, -35.5870016773898 ], [ -71.57205633554176, -35.587161693131307 ], [ -71.571373880030535, -35.587182374659292 ], [ -71.570779427976106, -35.587510915100694 ], [ -71.570174414428891, -35.587864829212492 ], [ -71.569469958278006, -35.588020152494934 ], [ -71.569016308161224, -35.588175035697716 ], [ -71.568375214678937, -35.588340479833924 ], [ -71.567940924154826, -35.588733409017756 ], [ -71.56750663542735, -35.589229739130836 ], [ -71.567042536107152, -35.589756920906147 ], [ -71.566286487014594, -35.590160361031224 ], [ -71.565468803612063, -35.590348097661327 ], [ -71.563635908954112, -35.59038593728404 ], [ -71.560870000685895, -35.590642040032336 ], [ -71.558462635200385, -35.591205465824608 ], [ -71.557233341938044, -35.590539599615745 ], [ -71.555543064712907, -35.590488378627782 ], [ -71.553494242010117, -35.591000584841218 ], [ -71.55185518492587, -35.591871333069641 ], [ -71.549652701800483, -35.592537199889598 ], [ -71.54796242457536, -35.592998185300004 ], [ -71.54616970437354, -35.594073816122823 ], [ -71.544172103608261, -35.596327519411098 ], [ -71.542686707844922, -35.597659253725446 ], [ -71.541354974300845, -35.598120238855607 ], [ -71.539664696177397, -35.598120238855607 ], [ -71.538076860132335, -35.598939767831524 ], [ -71.537718317349629, -35.599708076248753 ], [ -71.536950008948367, -35.599912956858105 ], [ -71.535464613185042, -35.601039809824755 ], [ -71.533876776241655, -35.601500795204117 ], [ -71.53239138047833, -35.601654455920198 ], [ -71.530598661174835, -35.601449573925983 ], [ -71.529779132632726, -35.601244692868043 ], [ -71.528601059511232, -35.601961779388809 ], [ -71.526808341106062, -35.602781308468082 ], [ -71.524810741239094, -35.603139851490106 ], [ -71.52281313957549, -35.60339595433458 ], [ -71.521225302632104, -35.603600837188644 ], [ -71.520508214371731, -35.603549615793924 ], [ -71.519370825949466, -35.603915207241947 ], [ -71.519168816401645, -35.604088844426336 ], [ -71.516562485758783, -35.605822392395531 ], [ -71.513339447300353, -35.607173637914073 ], [ -71.51068660368874, -35.607426572722787 ], [ -71.507432488013038, -35.607790694521661 ], [ -71.506457449417155, -35.608090552187626 ], [ -71.504677341561916, -35.608638123589465 ], [ -71.502383868081395, -35.608784602306372 ], [ -71.499957367582013, -35.608538677970721 ], [ -71.497992824819178, -35.607591752850666 ], [ -71.495786522955513, -35.606649804883155 ], [ -71.493927560984659, -35.605206849279192 ], [ -71.493224997584107, -35.604844882748772 ], [ -71.490977969698719, -35.603687555375608 ], [ -71.487200737185304, -35.602778001967785 ], [ -71.480290416319505, -35.602229069896794 ], [ -71.473815319327372, -35.602895011239085 ], [ -71.472042686353646, -35.603157732949526 ], [ -71.471213406599119, -35.603334323285317 ], [ -71.469660965972878, -35.603519241854357 ], [ -71.466878953606525, -35.603533431114798 ], [ -71.466043624596878, -35.603516424014636 ], [ -71.465348833420151, -35.60364480726308 ], [ -71.464936972930388, -35.603720877092762 ], [ -71.46432654613524, -35.603778855912658 ], [ -71.46427790415926, -35.603796613063643 ], [ -71.463499354963758, -35.604080362482065 ], [ -71.463299746612677, -35.604591440199464 ], [ -71.463110271258017, -35.605076244546588 ], [ -71.462539663186163, -35.605996899689501 ], [ -71.462258251550367, -35.606721499193917 ], [ -71.461263404204146, -35.607330499102972 ], [ -71.460547336429912, -35.607571455648312 ], [ -71.459438703978208, -35.607716530393603 ], [ -71.457753213875236, -35.607827071042379 ], [ -71.457661440189185, -35.607833079626666 ], [ -71.457432942018556, -35.607892015875535 ], [ -71.457274959801111, -35.607932824104608 ], [ -71.456614707948773, -35.608181184546375 ], [ -71.45617271796435, -35.608287227817911 ], [ -71.454623017199737, -35.60836800395596 ], [ -71.454116921640022, -35.608394415398315 ], [ -71.453108044405681, -35.608606072524644 ], [ -71.453066178421878, -35.608614899441008 ], [ -71.452930328896386, -35.608658132766593 ], [ -71.451467779087366, -35.6091238733054 ], [ -71.451073570492909, -35.609296786378493 ], [ -71.450808741757271, -35.609412938198304 ], [ -71.449879310628333, -35.609959077866606 ], [ -71.449100709330565, -35.609974988832995 ], [ -71.448429387538951, -35.609861632805355 ], [ -71.447867659313687, -35.609691918348268 ], [ -71.447528861500928, -35.609532218599654 ], [ -71.447078971731898, -35.60937972255919 ], [ -71.446406789354256, -35.609237868692517 ], [ -71.446085404484947, -35.609269725234817 ], [ -71.44590744822716, -35.609287443189743 ], [ -71.445625778774883, -35.609376382736144 ], [ -71.44552153108279, -35.609409366130116 ], [ -71.445467015023141, -35.609439345643999 ], [ -71.445209006297134, -35.609580821571058 ], [ -71.445124605084601, -35.609627136379821 ], [ -71.444690522969651, -35.610314553487498 ], [ -71.444611764075432, -35.610543287828143 ], [ -71.444529738008526, -35.611044935269433 ], [ -71.444470536336354, -35.612091438309058 ], [ -71.444405676176203, -35.612450073987965 ], [ -71.44439631483263, -35.612501953533567 ], [ -71.444160954431553, -35.612951183654118 ], [ -71.443798109616949, -35.613127718050798 ], [ -71.443247014749701, -35.613304969942192 ], [ -71.442361060283901, -35.613455266875889 ], [ -71.441609109305645, -35.613525084796407 ], [ -71.439794468414277, -35.613693597817992 ], [ -71.439308615491171, -35.613738736660913 ], [ -71.43764101893035, -35.613809573825542 ], [ -71.435859332735191, -35.613783230627845 ], [ -71.435571935624637, -35.61374688018482 ], [ -71.434909453255443, -35.613663101388198 ], [ -71.434060618973803, -35.613454602304657 ], [ -71.434012241102494, -35.613442731309441 ], [ -71.432379024864204, -35.6128096786329 ], [ -71.431659676442564, -35.612564727023084 ], [ -71.431591788061596, -35.612541582157327 ], [ -71.431013892856171, -35.612243557453056 ], [ -71.430996892239421, -35.612183793317513 ], [ -71.430829592695844, -35.611594958566499 ], [ -71.430774382238496, -35.611186990421118 ], [ -71.430520054808525, -35.610692287784332 ], [ -71.430399335607362, -35.610608550338284 ], [ -71.430252111613783, -35.61050651889731 ], [ -71.429865695904411, -35.610323139207587 ], [ -71.429601645109798, -35.610056729492321 ], [ -71.429399436135981, -35.609852722038454 ], [ -71.429206789728354, -35.60956131436388 ], [ -71.428780456481022, -35.609062398578367 ], [ -71.42845943003951, -35.608912032773041 ], [ -71.428444027525671, -35.608911013949445 ], [ -71.428715422946041, -35.616314906507782 ], [ -71.428816796927535, -35.617056301402194 ], [ -71.429291411028132, -35.617424871210453 ], [ -71.429587908072477, -35.617851231949786 ], [ -71.429665444359586, -35.618536692143898 ], [ -71.429591066549023, -35.619518442239745 ], [ -71.429631213157379, -35.619903677174335 ], [ -71.430029757021387, -35.620533996668556 ], [ -71.429969733390735, -35.621186123090908 ], [ -71.43050431093485, -35.621511977654308 ], [ -71.430833463536416, -35.621857189058979 ], [ -71.431012122276741, -35.622151386647417 ], [ -71.431228008100774, -35.622507078994381 ], [ -71.432365480066352, -35.625406169837369 ], [ -71.433490208531325, -35.628442848745415 ], [ -71.434570287133397, -35.631358283815729 ], [ -71.435585598101795, -35.63414860046683 ], [ -71.436758798761176, -35.637372778008086 ], [ -71.437697316349215, -35.639878047007528 ], [ -71.438748827626938, -35.642708799035837 ], [ -71.439147058877225, -35.643780512895361 ], [ -71.439457868779002, -35.644535445997136 ], [ -71.439734024372072, -35.645206678050315 ], [ -71.440449584598156, -35.646538448320605 ], [ -71.440741370877177, -35.646964724610484 ], [ -71.441626884270178, -35.648258630714075 ], [ -71.443695366602967, -35.649685357573574 ], [ -71.446498373495785, -35.651219474539353 ], [ -71.446691205854677, -35.651449114527473 ], [ -71.447204840076253, -35.652060931546224 ], [ -71.447218265398178, -35.652076903479646 ], [ -71.447950351032247, -35.652719794324305 ], [ -71.44808348315398, -35.653014739649571 ], [ -71.448292317203013, -35.653477758306124 ], [ -71.449341621320087, -35.654680326086016 ], [ -71.450565572301443, -35.656078182041604 ], [ -71.45088613072069, -35.656516325309383 ], [ -71.452561780678039, -35.658806632594981 ], [ -71.453017059440441, -35.659592842699141 ], [ -71.453725487941497, -35.660067966104734 ], [ -71.45479686456342, -35.661377027162565 ], [ -71.457939300784645, -35.664785698791512 ], [ -71.458002002293171, -35.664856338917424 ], [ -71.460736715664851, -35.66794126923606 ], [ -71.46229719890782, -35.669649627926717 ], [ -71.463597696232853, -35.671073168142584 ], [ -71.463919460191207, -35.671425445633581 ], [ -71.463970178173852, -35.671482741188449 ], [ -71.46524150450665, -35.672920888323084 ], [ -71.466523279144525, -35.674370621921639 ], [ -71.468137013619227, -35.676183546194025 ], [ -71.469612457845827, -35.67784119317723 ], [ -71.472878360316358, -35.681753378304464 ], [ -71.473040375969447, -35.681947276515857 ], [ -71.47319587793838, -35.682117751832713 ], [ -71.47526546699558, -35.684973870099959 ], [ -71.475790882622107, -35.685723984162827 ], [ -71.476314591449594, -35.686415648456006 ], [ -71.476977966744201, -35.686987324211664 ], [ -71.477714887111134, -35.687615963916613 ], [ -71.478086023375809, -35.688018059585424 ], [ -71.478604242598593, -35.68853416028049 ], [ -71.480050488883535, -35.69005551797985 ], [ -71.485477436992028, -35.696148154655418 ], [ -71.485727428254123, -35.696494247304564 ], [ -71.480215358484259, -35.698007062901908 ], [ -71.479071539022868, -35.698375915865228 ], [ -71.479130992223332, -35.698547698391209 ], [ -71.479275564390207, -35.699182106444582 ], [ -71.479583165509794, -35.700532208279348 ], [ -71.480412352737858, -35.705812471451914 ], [ -71.480863299823952, -35.708519744613845 ], [ -71.481105687745483, -35.709974634548082 ], [ -71.481467209341702, -35.713425322300644 ], [ -71.481475701116068, -35.713506445098872 ], [ -71.482131118235571, -35.715549066032388 ], [ -71.482276666871172, -35.71600290904297 ], [ -71.483412153559968, -35.719067745892453 ], [ -71.483562676167296, -35.719474226683779 ], [ -71.483950984626944, -35.720522338252671 ], [ -71.484213681660435, -35.721213812301635 ], [ -71.485747846062225, -35.725251642051362 ], [ -71.487111394340417, -35.729001457147319 ], [ -71.487425609755434, -35.72986537916811 ], [ -71.48828919078079, -35.732502121355424 ], [ -71.488483474817173, -35.733084977154768 ], [ -71.489374931464098, -35.735759380623129 ], [ -71.490085935435062, -35.738139717294096 ], [ -71.490899248533751, -35.740973592420339 ], [ -71.49094557375463, -35.741134783652896 ], [ -71.491011528961096, -35.7413649778427 ], [ -71.492015273221909, -35.744305434951528 ], [ -71.492343183453443, -35.7452066408283 ], [ -71.492505756061988, -35.745653469456336 ], [ -71.493076114402172, -35.74722114218509 ], [ -71.493558840289765, -35.748545777627442 ], [ -71.49427954247254, -35.75052330774772 ], [ -71.494632181527223, -35.751153002878624 ], [ -71.494751732020177, -35.75146566875847 ], [ -71.494983926758181, -35.752072903760556 ], [ -71.494994772118616, -35.752101107022668 ], [ -71.495135868703656, -35.752387185196334 ], [ -71.495144379342662, -35.752404434712822 ], [ -71.495288477199068, -35.752696727460169 ], [ -71.495693549120247, -35.753148411600357 ], [ -71.497067480126489, -35.754033494393802 ], [ -71.497438232810538, -35.754247458505596 ], [ -71.497612488907663, -35.7543478774382 ], [ -71.499482964585525, -35.755426854459117 ], [ -71.499496681859924, -35.755436758647058 ], [ -71.50214717727539, -35.757039310144982 ], [ -71.506263734912636, -35.760108993635342 ], [ -71.506971436676622, -35.760608155375493 ], [ -71.50810001981246, -35.761637336544823 ], [ -71.509066519921589, -35.762630679508725 ], [ -71.51142337583363, -35.765137763365665 ], [ -71.512656508495496, -35.766335649706406 ], [ -71.513440770077878, -35.76815857767258 ], [ -71.515338173654683, -35.772128034869468 ], [ -71.516572913402612, -35.775699238687558 ], [ -71.517117527823402, -35.777691888387537 ], [ -71.517890261325732, -35.779512659037536 ], [ -71.51819927010537, -35.780747928174442 ], [ -71.518174165786434, -35.781396756750659 ], [ -71.518125979256283, -35.783192117204294 ], [ -71.518211035340642, -35.783153710868461 ], [ -71.518365247328859, -35.783084172485346 ], [ -71.518709694646432, -35.782886376692531 ], [ -71.518792026140559, -35.782839166200283 ], [ -71.518868704536558, -35.782833941074244 ], [ -71.5194242721156, -35.782796377727685 ], [ -71.520083401073848, -35.782827230758421 ], [ -71.520294674048898, -35.782837198579649 ], [ -71.520859311019038, -35.782943276583069 ], [ -71.520996090300841, -35.783024804430688 ], [ -71.521266043925181, -35.783185499469383 ], [ -71.521598322663934, -35.783511835274503 ], [ -71.521882408584347, -35.783993429665507 ], [ -71.522030823744004, -35.784245131658579 ], [ -71.522119367088294, -35.784526369862476 ], [ -71.522377822277022, -35.784973796765058 ], [ -71.522789451001444, -35.785373261575394 ], [ -71.523063094904984, -35.785638799102145 ], [ -71.523358387308548, -35.785826646106194 ], [ -71.52388925121727, -35.786007330084303 ], [ -71.524306312054222, -35.786028105869811 ], [ -71.524424037170519, -35.786002595594645 ], [ -71.524620067531828, -35.785960154966766 ], [ -71.524683970087892, -35.785946334066495 ], [ -71.524990738469199, -35.785769321977526 ], [ -71.525082836447069, -35.785681438842794 ], [ -71.526480721030381, -35.784349771447438 ], [ -71.526786052107241, -35.783918781374183 ], [ -71.526870636576064, -35.783376284006181 ], [ -71.526848530833547, -35.783236234694307 ], [ -71.526797369981495, -35.782911239382337 ], [ -71.526764375759427, -35.78270201126449 ], [ -71.526793388648173, -35.782585179494355 ], [ -71.526827782445451, -35.782529520410819 ], [ -71.526836575155443, -35.782515306117048 ], [ -71.52703975790304, -35.782186883440978 ], [ -71.527090173153397, -35.782165000402074 ], [ -71.52757429681958, -35.781954865933315 ], [ -71.527689691706058, -35.781924675003864 ], [ -71.527825128006484, -35.781889263976119 ], [ -71.52823108836148, -35.781849194715079 ], [ -71.529486819042631, -35.782014086849586 ], [ -71.530068994720381, -35.782161618252083 ], [ -71.530152216444932, -35.782182755776191 ], [ -71.531707419390685, -35.782972340482559 ], [ -71.531967973942201, -35.783104634216649 ], [ -71.532601261064698, -35.783274703662286 ], [ -71.53310868433438, -35.783262163427899 ], [ -71.533295480014559, -35.783257487803034 ], [ -71.533476467188123, -35.78321542392807 ], [ -71.533862922423353, -35.782940572201341 ], [ -71.53394475625079, -35.782792352119344 ], [ -71.534047245041549, -35.782606924683741 ], [ -71.534184085408782, -35.782353284122138 ], [ -71.534280957932395, -35.781982419482503 ], [ -71.534399124121492, -35.781714331474859 ], [ -71.534554920737861, -35.781489826111645 ], [ -71.534804922779742, -35.781381253803588 ], [ -71.535170149926486, -35.78147684906795 ], [ -71.535267867764787, -35.781626230330353 ], [ -71.535287871449512, -35.78165689433785 ], [ -71.535322350586753, -35.781709625879856 ], [ -71.535369255220999, -35.78204792298083 ], [ -71.535418595187991, -35.782460006987982 ], [ -71.535457043082133, -35.782546399015985 ], [ -71.535516088447451, -35.782679243665065 ], [ -71.535738862553075, -35.782851533788055 ], [ -71.536032030441007, -35.78296341478687 ], [ -71.536136250285324, -35.782955160995193 ], [ -71.536284941227763, -35.782943383708961 ], [ -71.536419814284528, -35.782858945157592 ], [ -71.536480144240684, -35.782821196720711 ], [ -71.536554672069926, -35.782691366417829 ], [ -71.536583095663829, -35.782641959356738 ], [ -71.536792282750781, -35.782386788526608 ], [ -71.537180052221274, -35.78205401027639 ], [ -71.537517147726575, -35.781840368004282 ], [ -71.537770051326845, -35.781820260123837 ], [ -71.538043319734584, -35.781873485654863 ], [ -71.538372239672498, -35.781969838233898 ], [ -71.539179569991376, -35.782306837046747 ], [ -71.539989723715195, -35.782732303923602 ], [ -71.540959391284019, -35.783388900740619 ], [ -71.541493465771566, -35.783996887526293 ], [ -71.542115142168996, -35.784925174506526 ], [ -71.542405069833677, -35.785233443873317 ], [ -71.543063416359331, -35.785440807080604 ], [ -71.543518958328107, -35.785534465616678 ], [ -71.543916205024843, -35.785496521694874 ], [ -71.544347612855205, -35.785398856584628 ], [ -71.544722266922548, -35.785092987559779 ], [ -71.544722875980312, -35.785092162639998 ], [ -71.544895913961909, -35.784866318666431 ], [ -71.54495535278933, -35.784351885506311 ], [ -71.54496637242292, -35.784256991827782 ], [ -71.545189918181364, -35.78381351211582 ], [ -71.545485166567474, -35.783495810231642 ], [ -71.545621713185611, -35.783208493563492 ], [ -71.545648205401662, -35.783152701555949 ], [ -71.545579481587467, -35.782981153950217 ], [ -71.545559891127766, -35.782932319136044 ], [ -71.545555622333538, -35.782926355066088 ], [ -71.545436459912764, -35.782761561747499 ], [ -71.545349550603987, -35.782727221625407 ], [ -71.545280265342754, -35.782699967121715 ], [ -71.544982010295371, -35.782582383277848 ], [ -71.544585811034267, -35.782649842975871 ], [ -71.544491598422212, -35.782679157672582 ], [ -71.544281015353306, -35.782744828209111 ], [ -71.543810197533119, -35.782740027208916 ], [ -71.543419978356837, -35.782548849805778 ], [ -71.543226071612878, -35.782387187154256 ], [ -71.543088596136727, -35.782142368925982 ], [ -71.542703892616316, -35.781706077553494 ], [ -71.542681231714951, -35.781680270743841 ], [ -71.542629366583725, -35.781608120654759 ], [ -71.542345739702426, -35.781212810550564 ], [ -71.542294471052529, -35.781014310486924 ], [ -71.54229106104772, -35.781001166478376 ], [ -71.542280218382245, -35.780959455589539 ], [ -71.542294969617529, -35.780623253439202 ], [ -71.542388523764473, -35.78033441345945 ], [ -71.542603649613767, -35.77999906716208 ], [ -71.543495777302212, -35.779380402323838 ], [ -71.543645424052116, -35.77927659409179 ], [ -71.543715894191223, -35.779218911780504 ], [ -71.544033621120704, -35.77895862701795 ], [ -71.544152915593799, -35.77891179826252 ], [ -71.544263617681196, -35.778868326991059 ], [ -71.54439123324876, -35.778818221564052 ], [ -71.544645914614989, -35.778857058519989 ], [ -71.544847982553293, -35.778950909924312 ], [ -71.545062947604166, -35.779025807751886 ], [ -71.545267934168848, -35.7790491557802 ], [ -71.545786560328466, -35.778971199997699 ], [ -71.545922552686051, -35.778916706625182 ], [ -71.546620478084805, -35.778636471791764 ], [ -71.548461764804145, -35.777897382963175 ], [ -71.548837135727069, -35.777686442098116 ], [ -71.550604597099721, -35.777014601938106 ], [ -71.5512100786692, -35.77683960259278 ], [ -71.551435123715876, -35.776796134561117 ], [ -71.551846576370494, -35.776716587775745 ], [ -71.551949145111337, -35.776696689223861 ], [ -71.552957038690437, -35.776712128949647 ], [ -71.554525743314898, -35.776903928210338 ], [ -71.556491938977857, -35.777544751714984 ], [ -71.556609928198853, -35.777573475053714 ], [ -71.557717499740193, -35.777843193490604 ], [ -71.559303086403787, -35.778162014796067 ], [ -71.55930864697541, -35.778163076644908 ], [ -71.560097905885712, -35.778418359418701 ], [ -71.560311465971466, -35.778576179956985 ], [ -71.561439781409362, -35.779206265961776 ], [ -71.562233005483321, -35.779717149753864 ], [ -71.562324419843279, -35.779775969323694 ], [ -71.562425507262205, -35.779828453600729 ], [ -71.563128245834221, -35.780193436891153 ], [ -71.563441046402687, -35.780300697574958 ], [ -71.564077443492678, -35.780402751776258 ], [ -71.564717146382918, -35.780441304466486 ], [ -71.565596678792744, -35.780357849284762 ], [ -71.566287483246242, -35.780232786959772 ], [ -71.567003715412156, -35.779934913124457 ], [ -71.567521526799808, -35.779719542328714 ], [ -71.567758712577543, -35.779656364627442 ], [ -71.567831488691965, -35.779637088458735 ], [ -71.568872641496156, -35.779606494363598 ], [ -71.570544355934246, -35.779741536086085 ], [ -71.571366352148459, -35.779948270111596 ], [ -71.572278517657622, -35.780177656775763 ], [ -71.573652092931013, -35.780241284444003 ], [ -71.575206713768438, -35.780476159358884 ], [ -71.575610247773852, -35.780628699527483 ], [ -71.575677027633773, -35.780653922934988 ], [ -71.576130005810739, -35.780825116280795 ], [ -71.576932728670513, -35.781250783481397 ], [ -71.577424092757894, -35.781406748800357 ], [ -71.577731100091071, -35.781448971773564 ], [ -71.578095609483924, -35.781442333488194 ], [ -71.578777349037864, -35.781359628524648 ], [ -71.579782592586895, -35.780960596107718 ], [ -71.580801371052303, -35.780100593389776 ], [ -71.581425152202428, -35.779181875821436 ], [ -71.581770771821468, -35.778642083450748 ], [ -71.582331677189913, -35.77772707462961 ], [ -71.582755466408372, -35.777035635883252 ], [ -71.583433277629581, -35.776608981175535 ], [ -71.584466204560727, -35.776213968347427 ], [ -71.585212878834994, -35.776064780253698 ], [ -71.585237056990849, -35.776067140141969 ], [ -71.586098055359756, -35.77615221049701 ], [ -71.587381927563825, -35.776444144151746 ], [ -71.587737482549912, -35.776533733430689 ], [ -71.587972632745192, -35.776593056045165 ], [ -71.5889103957484, -35.77682929512595 ], [ -71.589198898685041, -35.776902012916615 ], [ -71.589523491438229, -35.776983920106346 ], [ -71.591104661085552, -35.77737580693676 ], [ -71.591701993138798, -35.777655839964396 ], [ -71.592367209081431, -35.778014371025058 ], [ -71.592961000874112, -35.778187926236114 ], [ -71.593450860283383, -35.778177355850488 ], [ -71.593939763885189, -35.778140149597832 ], [ -71.594394430894894, -35.778050442607018 ], [ -71.59503802618525, -35.777743635770939 ], [ -71.595445586439766, -35.777434242704715 ], [ -71.595665942280647, -35.777266894491326 ], [ -71.596145156653776, -35.776957133711171 ], [ -71.596929320319802, -35.776596111198337 ], [ -71.597855257002294, -35.776393130560521 ], [ -71.597919855752679, -35.776379034694024 ], [ -71.598171959852323, -35.776352171570231 ], [ -71.59831694524425, -35.77635811937084 ], [ -71.598526435961759, -35.77636658520165 ], [ -71.598710074962042, -35.776374206343547 ], [ -71.60057145070607, -35.776588534534866 ], [ -71.601458117535884, -35.776996270385006 ], [ -71.601983833199725, -35.777140833220066 ], [ -71.603148101910236, -35.777294601984323 ], [ -71.603887129724797, -35.777583981385511 ], [ -71.604574216051319, -35.777750363278116 ], [ -71.606068906682893, -35.777783379872425 ], [ -71.606420685151534, -35.777914712217424 ], [ -71.606704575239178, -35.778098094675798 ], [ -71.60706504221325, -35.778370485989932 ], [ -71.607349517104154, -35.778585531028327 ], [ -71.609197514238659, -35.779981994162021 ], [ -71.609799881349062, -35.780576960580824 ], [ -71.610497674695466, -35.781266134871252 ], [ -71.611027022247995, -35.781725270870837 ], [ -71.611276122381327, -35.781941295028894 ], [ -71.612516623923469, -35.782605225237553 ], [ -71.614278026159539, -35.782998717481597 ], [ -71.615391405309197, -35.783017611700672 ], [ -71.617186076651805, -35.782805835428675 ], [ -71.6185098358511, -35.782776998109227 ], [ -71.619721982071297, -35.782577876683206 ], [ -71.620489548464136, -35.782389249523874 ], [ -71.621456570494459, -35.78215152208535 ], [ -71.622063115669235, -35.782076192864309 ], [ -71.622310300594378, -35.782045546508662 ], [ -71.622723176180443, -35.781994301852002 ], [ -71.624058112218506, -35.781876039948912 ], [ -71.624755033300772, -35.781881789114315 ], [ -71.625099353057593, -35.781851083654367 ], [ -71.62545601566643, -35.781746565922759 ], [ -71.626724917446268, -35.781092555043053 ], [ -71.627667708320104, -35.780893260323978 ], [ -71.629023029826925, -35.781141538197737 ], [ -71.630293966290907, -35.78188088909922 ], [ -71.630464790823652, -35.781980373134971 ], [ -71.630969657488038, -35.78212496771777 ], [ -71.631293490266515, -35.782217704643109 ], [ -71.631634058658705, -35.782405765968896 ], [ -71.632187461297917, -35.782884288829621 ], [ -71.632612382393603, -35.783264098973284 ], [ -71.633029634571713, -35.783414148049609 ], [ -71.633354396208176, -35.783389311751868 ], [ -71.633653839726676, -35.7832947361142 ], [ -71.633655095571442, -35.783294339677376 ], [ -71.633656236431847, -35.783293207208871 ], [ -71.633878626058532, -35.783060473657571 ], [ -71.634066042474586, -35.782833379937941 ], [ -71.634476294081679, -35.782469529587928 ], [ -71.634624658037367, -35.782077970298644 ], [ -71.634627729377328, -35.7810677478993 ], [ -71.634954101693097, -35.780924584876175 ], [ -71.635135054730682, -35.780845008698051 ], [ -71.635140147280026, -35.78084282968571 ], [ -71.635173537659114, -35.780844164786238 ], [ -71.636251641764204, -35.780887932313966 ], [ -71.637209434503305, -35.780926798138275 ], [ -71.63844696891006, -35.781048488105618 ], [ -71.639347665627994, -35.78123220221056 ], [ -71.640548425701965, -35.781570427738409 ], [ -71.641437932106413, -35.781927665821563 ], [ -71.642296257089029, -35.782462199073542 ], [ -71.642633627478816, -35.782856597859613 ], [ -71.642880092853432, -35.783332368455945 ], [ -71.643114642075787, -35.783921591389685 ], [ -71.643252075331119, -35.784484080022914 ], [ -71.643425133075638, -35.785191832854586 ], [ -71.643452415809151, -35.785470998132091 ], [ -71.643541384056562, -35.78575212924892 ], [ -71.643661557980337, -35.785919382356674 ], [ -71.644331782928973, -35.786212311281496 ], [ -71.644599824040085, -35.786329570578104 ], [ -71.644702624546269, -35.786374489371774 ], [ -71.64496292846782, -35.786438756993157 ], [ -71.645345205638677, -35.786533122663812 ], [ -71.646413042898359, -35.78662006845974 ], [ -71.647454561316863, -35.786602000001082 ], [ -71.648397371953649, -35.78641671699345 ], [ -71.64842095901804, -35.7864120626869 ], [ -71.648429228908554, -35.78640730271632 ], [ -71.649613812120904, -35.785717476339613 ], [ -71.650054064763552, -35.785366497548303 ], [ -71.650152318896062, -35.785288131858096 ], [ -71.650223339702421, -35.785167393539787 ], [ -71.650367944208654, -35.78492128382095 ], [ -71.650434671067956, -35.784807729498041 ], [ -71.65045303263237, -35.784651234505155 ], [ -71.650513370673366, -35.784135340293858 ], [ -71.650527705988665, -35.78401312088711 ], [ -71.650495577742547, -35.7832423889434 ], [ -71.650605148851014, -35.782621004871082 ], [ -71.650807918373587, -35.782192048122965 ], [ -71.651079903088771, -35.781885462050312 ], [ -71.651807920252907, -35.781586384666028 ], [ -71.652392898674336, -35.781555827759057 ], [ -71.652959578413444, -35.781631701127736 ], [ -71.653355893557247, -35.781799862192628 ], [ -71.653799016317222, -35.782073016948303 ], [ -71.654181242284096, -35.782471264745872 ], [ -71.654612729166189, -35.783045406825352 ], [ -71.654949862400755, -35.783558724720848 ], [ -71.655057834508, -35.783622865631756 ], [ -71.655417910714931, -35.783837081003504 ], [ -71.655457662064549, -35.783860716928203 ], [ -71.655528093576095, -35.783875035191073 ], [ -71.655912443160304, -35.783952707058241 ], [ -71.65624925659462, -35.78392805894326 ], [ -71.656942945538461, -35.783762836287238 ], [ -71.657487977675871, -35.783696958171966 ], [ -71.658886969881905, -35.783563158385753 ], [ -71.660095950439043, -35.783497711520411 ], [ -71.661075240761193, -35.783555181578222 ], [ -71.661360863699031, -35.783615087047842 ], [ -71.661431037394081, -35.783629777012933 ], [ -71.663167878791953, -35.783994145286016 ], [ -71.664146517835505, -35.783983011629267 ], [ -71.664870565344415, -35.783821131086363 ], [ -71.665623700302206, -35.783209088948162 ], [ -71.666063104036922, -35.782339006395361 ], [ -71.666188483697738, -35.781798479010106 ], [ -71.666012555835877, -35.781051250124158 ], [ -71.665995689068097, -35.780104384469361 ], [ -71.66591055662694, -35.779766627866508 ], [ -71.66553683680749, -35.77889737926219 ], [ -71.665313484186825, -35.778012979759964 ], [ -71.66518148843393, -35.777489973862544 ], [ -71.665053370708108, -35.777294714219408 ], [ -71.664671440286966, -35.777020096374457 ], [ -71.664627453380746, -35.776945537008153 ], [ -71.664490111753594, -35.776712750619929 ], [ -71.664141453133951, -35.776267571510701 ], [ -71.664019293035096, -35.776044340761189 ], [ -71.663971141539221, -35.775956288723044 ], [ -71.663887141873644, -35.775622197197983 ], [ -71.663883378830917, -35.77535743082646 ], [ -71.663883324932002, -35.775355807751062 ], [ -71.66367618241064, -35.775349840197457 ], [ -71.663461172444016, -35.775694546583978 ], [ -71.663310746854748, -35.77598177890021 ], [ -71.662484970529803, -35.776166798350182 ], [ -71.661910179902023, -35.776477016255917 ], [ -71.661564310551327, -35.777079499523026 ], [ -71.661214625157314, -35.777564961250796 ], [ -71.661011249271922, -35.778047109839875 ], [ -71.660881122014814, -35.778527709745958 ], [ -71.660305681905058, -35.778968624475581 ], [ -71.660170798068521, -35.778673386297562 ], [ -71.660071619569578, -35.778443515750133 ], [ -71.659972973771602, -35.778213264109361 ], [ -71.65987255020768, -35.777984083856097 ], [ -71.659768042902456, -35.777757357523683 ], [ -71.659657408188693, -35.777534386035811 ], [ -71.659537978069991, -35.777316627750871 ], [ -71.659407619047528, -35.777105315114134 ], [ -71.659223552449177, -35.7769273082003 ], [ -71.65896887108299, -35.776791843364371 ], [ -71.658728558269758, -35.776644318759487 ], [ -71.658530881296528, -35.776465652701049 ], [ -71.658347147074849, -35.776275750200583 ], [ -71.658174773846568, -35.776078728227382 ], [ -71.658009376036446, -35.775878894737488 ], [ -71.6578447759303, -35.775678526524644 ], [ -71.657681067851243, -35.775477694280042 ], [ -71.657518246409367, -35.775276252965348 ], [ -71.657356225366399, -35.775074349068781 ], [ -71.657195095452195, -35.774871983315563 ], [ -71.657035120771454, -35.774668926851724 ], [ -71.6568761324409, -35.774465479219046 ], [ -71.656718391870271, -35.77426141302054 ], [ -71.656561811922984, -35.774056804778517 ], [ -71.656406483328908, -35.773851651573416 ], [ -71.656253834409284, -35.773645330249103 ], [ -71.656113762801994, -35.77343304579388 ], [ -71.655981628708531, -35.773216895022777 ], [ -71.655849496411705, -35.773000817276852 ], [ -71.65570924873461, -35.772788609815812 ], [ -71.65555722773739, -35.772581979619559 ], [ -71.655400301938712, -35.772377671713144 ], [ -71.655240076628019, -35.772174913537576 ], [ -71.655078070856419, -35.771973080481978 ], [ -71.65491561592718, -35.77177133073188 ], [ -71.65475396229516, -35.771569194178518 ], [ -71.654594721538018, -35.771365970390761 ], [ -71.654437623262808, -35.771161739534378 ], [ -71.654281587694584, -35.770956820112183 ], [ -71.654126357016864, -35.770751513137796 ], [ -71.653971663531678, -35.770545973126666 ], [ -71.653816970046492, -35.770340432584355 ], [ -71.653660936274903, -35.770135438159457 ], [ -71.653503741879973, -35.769930912596294 ], [ -71.653346189955528, -35.769726541756192 ], [ -71.653188730557602, -35.769522169662039 ], [ -71.653032164983358, -35.769317407096025 ], [ -71.652877206495177, -35.769111945741329 ], [ -71.65272448211708, -35.768905473633581 ], [ -71.652574705111434, -35.768697756066267 ], [ -71.652428414467423, -35.768488557601323 ], [ -71.652290247288519, -35.768275709803611 ], [ -71.652163692631291, -35.76805787951519 ], [ -71.652044369412096, -35.767836788323741 ], [ -71.651928359179678, -35.767614517177016 ], [ -71.651811466801647, -35.767392929836824 ], [ -71.651695292177521, -35.767171104260512 ], [ -71.651581895144261, -35.766948331961089 ], [ -71.651471456263238, -35.766724607828387 ], [ -71.651364336657181, -35.76649985021772 ], [ -71.65127090827437, -35.766269991128212 ], [ -71.651185540474614, -35.766037296673126 ], [ -71.651087759754247, -35.765809970647794 ], [ -71.650958433794358, -35.765595744608994 ], [ -71.650801379536617, -35.765392244608378 ], [ -71.650627084811944, -35.765196066718218 ], [ -71.650443356878441, -35.765004969588816 ], [ -71.650257555633289, -35.764816870021853 ], [ -71.65006745055959, -35.764630121419053 ], [ -71.649865589233784, -35.764452121567857 ], [ -71.649646395812894, -35.764292373436469 ], [ -71.649402793369092, -35.764158708647244 ], [ -71.649141750134049, -35.764042706840712 ], [ -71.648877658915239, -35.763930388835284 ], [ -71.648618249715696, -35.763814423141966 ], [ -71.64835720019245, -35.763700929789124 ], [ -71.648096321349101, -35.763587063064826 ], [ -71.647837866160401, -35.763469745442393 ], [ -71.64758287307879, -35.763347551854167 ], [ -71.647330729453273, -35.763221160180983 ], [ -71.647081982357832, -35.763090558010958 ], [ -71.646834951044596, -35.762957038446316 ], [ -71.646592100490693, -35.762818478822723 ], [ -71.6463631342978, -35.762666912602683 ], [ -71.646166670948531, -35.762484652836548 ], [ -71.645968660700362, -35.762304938828358 ], [ -71.645729212964724, -35.762167778358581 ], [ -71.645470234058223, -35.762050836962331 ], [ -71.645205381068052, -35.76193978304218 ], [ -71.644946547688605, -35.761821728946785 ], [ -71.644704822723753, -35.761684100391925 ], [ -71.644479418350969, -35.761527726084935 ], [ -71.644255833066666, -35.761368802349374 ], [ -71.64402175815475, -35.761221405128353 ], [ -71.643782879951033, -35.761079356653411 ], [ -71.643541984131176, -35.76093927025584 ], [ -71.643300127113974, -35.760800239131704 ], [ -71.643058536896405, -35.760661053226919 ], [ -71.642818082149361, -35.760520513412985 ], [ -71.642581626701968, -35.760374938463897 ], [ -71.642347859912206, -35.760225684938341 ], [ -71.642112106947351, -35.760079354979311 ], [ -71.641869513311619, -35.759942551506747 ], [ -71.641615134677664, -35.759821881857455 ], [ -71.641348368275956, -35.759718317808904 ], [ -71.641075452906122, -35.759623307256184 ], [ -71.640802790861187, -35.759527698841097 ], [ -71.640535146805433, -35.759424891073181 ], [ -71.640269125107096, -35.759319168045693 ], [ -71.640002597657229, -35.759214488026508 ], [ -71.639734012167054, -35.759113323671784 ], [ -71.639465697069795, -35.759009346834695 ], [ -71.639195508086843, -35.758908955653908 ], [ -71.638920250809065, -35.75882240745922 ], [ -71.638637091950045, -35.758757149444406 ], [ -71.638347549662626, -35.758707020411443 ], [ -71.638054218281312, -35.758668343464834 ], [ -71.637759792751993, -35.758637665489637 ], [ -71.637465891838801, -35.75861465408461 ], [ -71.637170444925005, -35.758605186945594 ], [ -71.636866375082803, -35.758581437083834 ], [ -71.636549671334436, -35.758518017336932 ], [ -71.636709376520599, -35.758320471707265 ], [ -71.636854175961261, -35.758110479068783 ], [ -71.637031278819521, -35.757918606053678 ], [ -71.637221766575522, -35.757734339466417 ], [ -71.637417880480143, -35.75755312469223 ], [ -71.637612601097743, -35.757370905697442 ], [ -71.637799643814645, -35.75718390852758 ], [ -71.637987178808288, -35.756995349431932 ], [ -71.638169621252601, -35.756803504345179 ], [ -71.638333136193893, -35.756603584516121 ], [ -71.638463595827645, -35.756390212848153 ], [ -71.638560431520318, -35.75616266388522 ], [ -71.638641471237051, -35.755928595598526 ], [ -71.638725374782908, -35.755696236121572 ], [ -71.638824176887752, -35.755465174313784 ], [ -71.638898475646585, -35.755232729648419 ], [ -71.638873979487101, -35.754998540527666 ], [ -71.638801286017681, -35.754761349401299 ], [ -71.63876218145505, -35.754520909108784 ], [ -71.638744454101229, -35.754280443303436 ], [ -71.638804776870856, -35.754041734420092 ], [ -71.63884104006226, -35.753809608550142 ], [ -71.638721668334057, -35.75359071875527 ], [ -71.638586788090763, -35.753371210150711 ], [ -71.638485432075569, -35.753143729101758 ], [ -71.638383637682523, -35.752916700125525 ], [ -71.638258443074633, -35.752699709899808 ], [ -71.638090465303023, -35.752498205063254 ], [ -71.637878542846039, -35.752331997070605 ], [ -71.637642033499731, -35.752186485874873 ], [ -71.637390970547486, -35.752055544817615 ], [ -71.637131114885236, -35.751940817207881 ], [ -71.636859838042483, -35.751845095309989 ], [ -71.636581911869996, -35.751759190458586 ], [ -71.636305724835879, -35.751671032070355 ], [ -71.636038478733795, -35.751568352667746 ], [ -71.635775687377219, -35.751435967101912 ], [ -71.635609510727761, -35.751255904444605 ], [ -71.635622691707923, -35.75100471844577 ], [ -71.635695589094922, -35.750768097920194 ], [ -71.635833701476599, -35.750556111828125 ], [ -71.63602389368684, -35.750374290179579 ], [ -71.636234077005454, -35.750202663115907 ], [ -71.636454740070164, -35.750038484375722 ], [ -71.636677470158347, -35.74987928033709 ], [ -71.63690653336927, -35.749725401703749 ], [ -71.63714516812955, -35.749581649321726 ], [ -71.637394730895267, -35.749453383982477 ], [ -71.637652337176036, -35.749332842779097 ], [ -71.637915854371371, -35.749218520245087 ], [ -71.638185009393425, -35.749115887983336 ], [ -71.638459982803568, -35.749030330863022 ], [ -71.638742908998935, -35.748968965282067 ], [ -71.639036181091427, -35.748932919150882 ], [ -71.639334195390319, -35.748914267630084 ], [ -71.639631138897357, -35.748904351694499 ], [ -71.63992649148804, -35.74890657969982 ], [ -71.640222607646734, -35.748920972058727 ], [ -71.640518801958848, -35.748937725108235 ], [ -71.640814390806455, -35.748947106639442 ], [ -71.641109638294239, -35.748940694565661 ], [ -71.641413506913821, -35.74892656102633 ], [ -71.641712245254837, -35.74889149546091 ], [ -71.641985318728146, -35.748814390094402 ], [ -71.642228432488437, -35.748688619824705 ], [ -71.642456125768561, -35.748532102598496 ], [ -71.642668956422327, -35.748356197787125 ], [ -71.642868115615741, -35.748172248072564 ], [ -71.643045145710474, -35.74798199295482 ], [ -71.643184822957366, -35.747768783353614 ], [ -71.64331846352556, -35.747551053665681 ], [ -71.643465832147925, -35.747340406333223 ], [ -71.643612032062094, -35.747127275211746 ], [ -71.643774017172433, -35.746925904269119 ], [ -71.643974404362865, -35.746754627018241 ], [ -71.644229636396332, -35.74662585332878 ], [ -71.644485527793222, -35.746497878504172 ], [ -71.644685649980644, -35.746326899985391 ], [ -71.644853815500156, -35.746131743194724 ], [ -71.645008127201336, -35.745925813671342 ], [ -71.64515490922382, -35.74571406986319 ], [ -71.645300758795031, -35.745501534428563 ], [ -71.645452267752546, -35.745293082802334 ], [ -71.645619968843022, -35.745092248936594 ], [ -71.645790432253037, -35.7448928304688 ], [ -71.645929242625684, -35.744683845736162 ], [ -71.645974288645604, -35.744438675946732 ], [ -71.645858259548575, -35.744225109801839 ], [ -71.645653661954398, -35.744041920474089 ], [ -71.645423034776556, -35.743893120439481 ], [ -71.645177583599903, -35.743756163733643 ], [ -71.64494073918199, -35.743611043701272 ], [ -71.644719083478904, -35.743451411943454 ], [ -71.644502069370873, -35.743286951693953 ], [ -71.644291310232177, -35.74311718535423 ], [ -71.644088520048371, -35.742941853325867 ], [ -71.643899724718352, -35.742756984079165 ], [ -71.643724200200054, -35.742562592130014 ], [ -71.643549285637818, -35.742367448713431 ], [ -71.643363840125502, -35.742179698105168 ], [ -71.643169341391754, -35.741997537237388 ], [ -71.642965666367402, -35.741822665007874 ], [ -71.642745423714246, -35.741661669844603 ], [ -71.64250886496059, -35.741513953947624 ], [ -71.642286919999961, -35.741356169242003 ], [ -71.642107318028579, -35.74116695944668 ], [ -71.641958344116816, -35.740956328760433 ], [ -71.641811395007679, -35.740743881243894 ], [ -71.641731667729587, -35.740515631322765 ], [ -71.641721236492501, -35.74027404553631 ], [ -71.641738577570734, -35.74003155342416 ], [ -71.64177013897995, -35.739791777359599 ], [ -71.641813948019717, -35.739552691073264 ], [ -71.641870875157593, -35.739315900882573 ], [ -71.641943374590909, -35.739081722529704 ], [ -71.642040673814265, -35.738852610361398 ], [ -71.642171590690523, -35.738637748837853 ], [ -71.642342049608956, -35.738438261702655 ], [ -71.642543468963638, -35.738263124263042 ], [ -71.642780184922472, -35.738117410162147 ], [ -71.643028942797699, -35.737985312846696 ], [ -71.643288599033937, -35.737867889667051 ], [ -71.64351365396206, -35.737711944702703 ], [ -71.643712722425647, -35.737531541834279 ], [ -71.643868851418659, -35.737328897558342 ], [ -71.643998956217899, -35.73711161473333 ], [ -71.644116474721685, -35.736888923066232 ], [ -71.644220680192959, -35.736663496383443 ], [ -71.644312250859741, -35.736433918606643 ], [ -71.644430797036236, -35.736212237869132 ], [ -71.64455350331076, -35.735993123948859 ], [ -71.644580015289762, -35.735751611941836 ], [ -71.644417254933316, -35.735548374686488 ], [ -71.644171195597224, -35.735422283034154 ], [ -71.643886254480663, -35.735352718233251 ], [ -71.643599399952549, -35.735282826697087 ], [ -71.64332253199548, -35.735197208041541 ], [ -71.643050180767631, -35.735102999486344 ], [ -71.642787021101782, -35.734993746240121 ], [ -71.642530315831237, -35.734874234630105 ], [ -71.642275926417511, -35.734750758969575 ], [ -71.64202041410968, -35.734628931816388 ], [ -71.641760589888463, -35.734513621987546 ], [ -71.641498604320716, -35.734401386995174 ], [ -71.641240176081453, -35.734284420839018 ], [ -71.640986902375303, -35.734158998044137 ], [ -71.64073855682679, -35.734026451540203 ], [ -71.640504093842708, -35.733881048345516 ], [ -71.640299583385115, -35.733704712288812 ], [ -71.640146346069002, -35.733498749891822 ], [ -71.640026836898556, -35.733274769099935 ], [ -71.639967005507373, -35.733042537457543 ], [ -71.63998906633411, -35.732800163329948 ], [ -71.639997623685517, -35.732557496051875 ], [ -71.639998813054959, -35.732313807867811 ], [ -71.639965164859362, -35.732076422988719 ], [ -71.639863952574601, -35.731852483407962 ], [ -71.639730064969726, -35.731634502363207 ], [ -71.639616207100701, -35.731411504420727 ], [ -71.639567935230602, -35.731301661275253 ], [ -71.639516432120416, -35.731184431692732 ], [ -71.639419156253254, -35.730956195934766 ], [ -71.639315627213364, -35.730727875661756 ], [ -71.639244032383559, -35.730495753998312 ], [ -71.639232980410611, -35.730256986913815 ], [ -71.639255131068893, -35.730014537219546 ], [ -71.639274598459423, -35.729773106986386 ], [ -71.639291642195289, -35.729532319937462 ], [ -71.639310319068358, -35.729291644463366 ], [ -71.63932963284698, -35.729051030247589 ], [ -71.639348945727278, -35.728810414575655 ], [ -71.639368623323577, -35.728569865267438 ], [ -71.639388569516143, -35.728329235744773 ], [ -71.639408608235172, -35.728088678420136 ], [ -71.639428646954229, -35.727848121827513 ], [ -71.639448415280356, -35.727607570342478 ], [ -71.639468904055377, -35.727366929161654 ], [ -71.639490663048193, -35.727126333926364 ], [ -71.639511606370718, -35.726885756925213 ], [ -71.639530013749209, -35.726645162424397 ], [ -71.639543890025394, -35.726404443951054 ], [ -71.639554929421919, -35.726162829938907 ], [ -71.639557545316038, -35.72592117727195 ], [ -71.639542104174609, -35.72568110420432 ], [ -71.639504289592722, -35.725440782459991 ], [ -71.639441055383244, -35.725203972915018 ], [ -71.639339319380696, -35.724980264883428 ], [ -71.639181212297416, -35.724774260234476 ], [ -71.639021079513185, -35.72456719175937 ], [ -71.638837789957563, -35.724380049702411 ], [ -71.638564058917453, -35.7242948678361 ], [ -71.638301364578908, -35.724187440480499 ], [ -71.638069456403485, -35.724038798791831 ], [ -71.637843592991601, -35.7238812383574 ], [ -71.637614773224101, -35.723727360525409 ], [ -71.637366928935535, -35.723589627445513 ], [ -71.637147766057353, -35.723434724394188 ], [ -71.637099121386399, -35.723197962124445 ], [ -71.637175850986395, -35.722962954568757 ], [ -71.637281926750077, -35.722736459427125 ], [ -71.63741859014921, -35.722523174928874 ], [ -71.637590631000847, -35.722328385707634 ], [ -71.637778870273692, -35.722141510422091 ], [ -71.637967288311259, -35.721954631051652 ], [ -71.638146107850048, -35.721762276328768 ], [ -71.638323453253435, -35.721569141509427 ], [ -71.638509230244068, -35.721381875720041 ], [ -71.638712591756416, -35.721206185876198 ], [ -71.638926873189348, -35.721037639280979 ], [ -71.639135632678233, -35.720866408446078 ], [ -71.639323421895114, -35.720682642459643 ], [ -71.639481261280409, -35.72046925911026 ], [ -71.639544541303977, -35.720238533376694 ], [ -71.639533785775086, -35.72000042329902 ], [ -71.639493369672124, -35.719758017507687 ], [ -71.639429582998758, -35.719517971085722 ], [ -71.639348151616545, -35.719286507432223 ], [ -71.639235052823977, -35.719063935129768 ], [ -71.639093250163114, -35.718849522730238 ], [ -71.63893680855638, -35.718644145503276 ], [ -71.63872176984367, -35.718471212355027 ], [ -71.638541001859053, -35.71828866613501 ], [ -71.638473930046672, -35.718056000601905 ], [ -71.638458807807183, -35.717808905047598 ], [ -71.638504567987752, -35.717568520901061 ], [ -71.63857298637474, -35.717331553756274 ], [ -71.638503323821098, -35.717105369354833 ], [ -71.638399074332369, -35.716881937617316 ], [ -71.638277402018701, -35.716659993866074 ], [ -71.638148511741747, -35.716438800733982 ], [ -71.638023145555636, -35.716217381616076 ], [ -71.637908869970033, -35.715994537441532 ], [ -71.63779826220572, -35.715770357180673 ], [ -71.637682030987747, -35.715548589757169 ], [ -71.637550715259508, -35.715333356113362 ], [ -71.637391256211743, -35.715129518273386 ], [ -71.637212344146491, -35.714937035479949 ], [ -71.637016709942245, -35.714753557049278 ], [ -71.636786858908806, -35.714605976503755 ], [ -71.636524308300707, -35.714493593113957 ], [ -71.636253053915837, -35.714394543277095 ], [ -71.635976799508086, -35.714308596560059 ], [ -71.635697218638839, -35.714228851641828 ], [ -71.635412099655866, -35.714167834869478 ], [ -71.63511739654713, -35.714148449474592 ], [ -71.634822159839104, -35.714129296017155 ], [ -71.634526733586569, -35.71410719368005 ], [ -71.634235583314776, -35.714069194538347 ], [ -71.633952764917254, -35.714001035565637 ], [ -71.633673663748354, -35.713919207231321 ], [ -71.633392258400775, -35.713844443591455 ], [ -71.633109163322132, -35.713773334809815 ], [ -71.63283321703652, -35.713688334889731 ], [ -71.632569876809313, -35.713579208358873 ], [ -71.632309849568841, -35.713463438450781 ], [ -71.632035103432472, -35.713365341368849 ], [ -71.631839552771524, -35.713192190348281 ], [ -71.631678253075734, -35.712986834280478 ], [ -71.631527086376352, -35.712778525112441 ], [ -71.631386115555458, -35.712566374421449 ], [ -71.631247105756813, -35.712353293917786 ], [ -71.631098925057429, -35.712144844508614 ], [ -71.630934981619774, -35.71194434499008 ], [ -71.630762495203754, -35.711748314727728 ], [ -71.630590542386997, -35.711551977634642 ], [ -71.630425594632854, -35.71135112942877 ], [ -71.630254269738501, -35.711154556488857 ], [ -71.63005835076828, -35.710975429742867 ], [ -71.629839608301666, -35.710812528279291 ], [ -71.629626156912067, -35.710645302542581 ], [ -71.629423187963511, -35.710469208273523 ], [ -71.629231739010152, -35.710285477391842 ], [ -71.629056572021312, -35.710090316158833 ], [ -71.628897016853827, -35.709885286900935 ], [ -71.62877464924415, -35.709668590795843 ], [ -71.628731779842141, -35.709427416202722 ], [ -71.628749712011839, -35.709187938976591 ], [ -71.628793900140678, -35.708948478537181 ], [ -71.628822216835061, -35.708708184372327 ], [ -71.628831670705111, -35.708466898917763 ], [ -71.628806398401224, -35.7082267426226 ], [ -71.628724903238634, -35.707994754534461 ], [ -71.628633894917215, -35.707765264089502 ], [ -71.628604870350372, -35.707526591546028 ], [ -71.628599095081412, -35.70728467884323 ], [ -71.628598667483331, -35.707042945578628 ], [ -71.62860885527698, -35.706801939566859 ], [ -71.628621943730678, -35.70656101817179 ], [ -71.628635114829365, -35.70631987283712 ], [ -71.628621875458705, -35.706079453306579 ], [ -71.628593435695123, -35.705839291277542 ], [ -71.62860940414761, -35.705597863648592 ], [ -71.628589607075384, -35.705358989121038 ], [ -71.62852284158852, -35.7051232833822 ], [ -71.620887188622973, -35.692018209531952 ], [ -71.613424957219635, -35.69236345044812 ], [ -71.61039919598413, -35.69272951773852 ], [ -71.608059684743608, -35.692845681814767 ], [ -71.607588977416199, -35.691710735447025 ], [ -71.60673260806594, -35.691106472192082 ], [ -71.605475522725342, -35.691079508059346 ], [ -71.605213543445785, -35.690174318336346 ], [ -71.605076765960618, -35.690054192300231 ], [ -71.6045480660934, -35.690139551575896 ], [ -71.603353700227615, -35.690189918576358 ], [ -71.600919677236064, -35.684708705175723 ], [ -71.596670974725555, -35.685044368319851 ], [ -71.593112237642075, -35.685913702855551 ], [ -71.588792653564113, -35.68637252431553 ], [ -71.585595221582835, -35.686868069658345 ], [ -71.574513024824583, -35.688507997121953 ], [ -71.571605352523065, -35.671038541931964 ], [ -71.572713557376659, -35.664693891348648 ], [ -71.573949006793654, -35.656999616356067 ], [ -71.578935370781181, -35.651771563881738 ], [ -71.585169730056933, -35.645518955890502 ], [ -71.596574921465489, -35.633650685722273 ], [ -71.59652333211703, -35.625340006664402 ], [ -71.596858773823911, -35.624739404563819 ], [ -71.597836433703819, -35.624173456909261 ], [ -71.599978032612512, -35.623782179662683 ], [ -71.598258202611191, -35.621055010648597 ], [ -71.593582154452051, -35.612681204196001 ], [ -71.596670435736399, -35.611212446406583 ], [ -71.595556965856886, -35.609102510928921 ], [ -71.592132558349419, -35.602469779591907 ], [ -71.582907931173338, -35.584985482915414 ], [ -71.582274849765057, -35.583874853406535 ], [ -71.577902880431267, -35.585252496981518 ], [ -71.575671789557333, -35.585955454771977 ] ] ] } },
{ "type": "Feature", "properties": { "capa": "colegios", "popup": "<strong>ESCUELA COIRONAL</strong><br><br><strong>Dirección:</strong> COIRONAL 0", "etiqueta": "" }, "geometry": { "type": "Point", "coordinates": [ -71.638153, -35.769718 ] } },
{ "type": "Feature", "properties": { "capa": "colegios", "popup": "<strong>ESCUELA LAS TOSCAS</strong><br><br><strong>Dirección:</strong> CAMINO EL EMBOQUE 18", "etiqueta": "" }, "geometry": { "type": "Point", "coordinates": [ -71.59021, -35.760429 ] } },
{ "type": "Feature", "properties": { "capa": "colegios", "popup": "<strong>CLARO DE LUNA CENTRO DE DESARROLLO COGNITIVO</strong><br><br><strong>Dirección:</strong> CAMINO A YERBAS BUENAS 10", "etiqueta": "" }, "geometry": { "type": "Point", "coordinates": [ -71.59183, -35.758396 ] } },
{ "type": "Feature", "properties": { "capa": "colegios", "popup": "<strong>ESCUELA SILVANO FERNANDEZ</strong><br><br><strong>Dirección:</strong> ABRANQUIL 218", "etiqueta": "" }, "geometry": { "type": "Point", "coordinates": [ -71.545738, -35.747478 ] } },
{ "type": "Feature", "properties": { "capa": "colegios", "popup": "<strong>LICEO JUAN DE DIOS PUGA</strong><br><br><strong>Dirección:</strong> CENTENARIO 12", "etiqueta": "" }, "geometry": { "type": "Point", "coordinates": [ -71.579399, -35.747101 ] } },
{ "type": "Feature", "properties": { "capa": "colegios", "popup": "<strong>ESCUELA AGRICOLA MARTA MARTINEZ CRUZ</strong><br><br><strong>Dirección:</strong> CAMINO ABRANQUIL 0", "etiqueta": "" }, "geometry": { "type": "Point", "coordinates": [ -71.574738, -35.743931 ] } },
{ "type": "Feature", "properties": { "capa": "colegios", "popup": "<strong>ESCUELA BERNARDO OHIGGINS</strong><br><br><strong>Dirección:</strong> GUMERA 0", "etiqueta": "" }, "geometry": { "type": "Point", "coordinates": [ -71.610809, -35.741161 ] } },
{ "type": "Feature", "properties": { "capa": "colegios", "popup": "<strong>ESCUELA PARTICULAR ARTURO PRAT</strong><br><br><strong>Dirección:</strong> SECTOR BAJO ESMERALDA/CAMINO PUBLICO 0", "etiqueta": "" }, "geometry": { "type": "Point", "coordinates": [ -71.522346, -35.715641 ] } },
{ "type": "Feature", "properties": { "capa": "colegios", "popup": "<strong>ESCUELA LUIS AMBROSIO CONCHA</strong><br><br><strong>Dirección:</strong> LLANO BLANCO 0", "etiqueta": "" }, "geometry": { "type": "Point", "coordinates": [ -71.576103, -35.714291 ] } },
{ "type": "Feature", "properties": { "capa": "colegios", "popup": "<strong>ESCUELA SANTA ELENA</strong><br><br><strong>Dirección:</strong> SANTA ELENA 0", "etiqueta": "" }, "geometry": { "type": "Point", "coordinates": [ -71.548737, -35.699459 ] } },
{ "type": "Feature", "properties": { "capa": "colegios", "popup": "<strong>ESCUELA PROFESOR RAMON LEIVA NARVAEZ</strong><br><br><strong>Dirección:</strong> ESPERANZA 0", "etiqueta": "" }, "geometry": { "type": "Point", "coordinates": [ -71.608856, -35.69696 ] } },
{ "type": "Feature", "properties": { "capa": "colegios", "popup": "<strong>ESCUELA JORGE SALGADO PICA</strong><br><br><strong>Dirección:</strong> SEMILLERO 0", "etiqueta": "" }, "geometry": { "type": "Point", "coordinates": [ -71.468323, -35.676041 ] } },
{ "type": "Feature", "properties": { "capa": "colegios", "popup": "<strong>ESCUELA MAITENCILLO</strong><br><br><strong>Dirección:</strong> MAITENCILLO 0", "etiqueta": "" }, "geometry": { "type": "Point", "coordinates": [ -71.506943, -35.672981 ] } },
{ "type": "Feature", "properties": { "capa": "colegios", "popup": "<strong>ESCUELA SANTA ANA DE QUERI</strong><br><br><strong>Dirección:</strong> SANTA ANA DE QUERI 0", "etiqueta": "" }, "geometry": { "type": "Point", "coordinates": [ -71.479507, -35.621769 ] } },
{ "type": "Feature", "properties": { "capa": "colegios", "popup": "<strong>LICEO JUAN GOMEZ MILLAS</strong><br><br><strong>Dirección:</strong> ORILLA DE MAULE 16", "etiqueta": "" }, "geometry": { "type": "Point", "coordinates": [ -71.54937, -35.610378 ] } },
{ "type": "Feature", "properties": { "capa": "jardines", "popup": "<strong>ARCOIRIS</strong><br><br><strong>Dirección:</strong> Abranquil S/N ", "etiqueta": "" }, "geometry": { "type": "MultiPoint", "coordinates": [ [ -71.545338, -35.747167 ] ] } },
{ "type": "Feature", "properties": { "capa": "jardines", "popup": "<strong>SUEÑOS MIOS</strong><br><br><strong>Dirección:</strong> Loteo Don Sebastian, La Faja camino Putagán ", "etiqueta": "" }, "geometry": { "type": "MultiPoint", "coordinates": [ [ -71.590193, -35.750698 ] ] } },
{ "type": "Feature", "properties": { "capa": "jardines", "popup": "<strong>RAYITO DE LUZ</strong><br><br><strong>Dirección:</strong> Ruta L-25 Quilipin ", "etiqueta": "" }, "geometry": { "type": "MultiPoint", "coordinates": [ [ -71.576892, -35.71382 ] ] } },
{ "type": "Feature", "properties": { "capa": "jardines", "popup": "<strong>NA</strong><br><br><strong>Dirección:</strong> NA ", "etiqueta": "" }, "geometry": { "type": "MultiPoint", "coordinates": [ [ -71.54015600002991, -35.617534999706244 ] ] } },
{ "type": "Feature", "properties": { "capa": "jardines", "popup": "<strong>NA</strong><br><br><strong>Dirección:</strong> NA ", "etiqueta": "" }, "geometry": { "type": "MultiPoint", "coordinates": [ [ -71.588404000232842, -35.751447999977927 ] ] } },
{ "type": "Feature", "properties": { "capa": "jardines", "popup": "<strong>NA</strong><br><br><strong>Dirección:</strong> NA ", "etiqueta": "" }, "geometry": { "type": "MultiPoint", "coordinates": [ [ -71.465110000380349, -35.669148999796867 ] ] } },
{ "type": "Feature", "properties": { "capa": "jardines", "popup": "<strong>NA</strong><br><br><strong>Dirección:</strong> NA ", "etiqueta": "" }, "geometry": { "type": "MultiPoint", "coordinates": [ [ -71.506170000103737, -35.650832000097736 ] ] } },
{ "type": "Feature", "properties": { "capa": "jardines", "popup": "<strong>NA</strong><br><br><strong>Dirección:</strong> NA ", "etiqueta": "" }, "geometry": { "type": "MultiPoint", "coordinates": [ [ -71.447778000196848, -35.623901000214858 ] ] } },
{ "type": "Feature", "properties": { "capa": "bomberos", "popup": "<strong>Cuerpo de Bomberos</strong><br><br><strong>Dirección:</strong> Centenario 66", "etiqueta": "" }, "geometry": { "type": "Point", "coordinates": [ -71.584049429715449, -35.748297276346129 ] } },
{ "type": "Feature", "properties": { "capa": "comisarias", "popup": "<strong>RETEN SANTA ANA QUERI</strong><br><br><strong>Dirección:</strong> SANTA ANA DE QUERI S/N", "etiqueta": "" }, "geometry": { "type": "Point", "coordinates": [ -71.468022783999913, -35.621657789999922 ] } },
{ "type": "Feature", "properties": { "capa": "comisarias", "popup": "<strong>RETEN SEMILLEROS</strong><br><br><strong>Dirección:</strong> CRUCE SEMILLEROS S/N", "etiqueta": "" }, "geometry": { "type": "Point", "coordinates": [ -71.469004, -35.67545 ] } },
{ "type": "Feature", "properties": { "capa": "comisarias", "popup": "<strong>RETEN YERBAS BUENAS</strong><br><br><strong>Dirección:</strong> CENTENARIO 51", "etiqueta": "" }, "geometry": { "type": "Point", "coordinates": [ -71.584906571999895, -35.749193261999956 ] } },
{ "type": "Feature", "properties": { "capa": "salud", "popup": "<strong>SUR Yerbas Buenas</strong><br><br><strong>Tipo de atención:</strong> Servicio de Urgencia Rural (SUR)<br><strong>Dirección:</strong>  48", "etiqueta": "" }, "geometry": { "type": "Point", "coordinates": [ -71.588084, -35.75062 ] } },
{ "type": "Feature", "properties": { "capa": "salud", "popup": "<strong>Centro de Salud Familiar Ignacio Carrera Pinto</strong><br><br><strong>Tipo de atención:</strong> Centro de Salud Familiar (CESFAM)<br><strong>Dirección:</strong>  48", "etiqueta": "" }, "geometry": { "type": "Point", "coordinates": [ -71.58814, -35.75061 ] } },
{ "type": "Feature", "properties": { "capa": "salud", "popup": "<strong>Posta de Salud Rural Puipuyén</strong><br><br><strong>Tipo de atención:</strong> Posta de Salud Rural (PSR)<br><strong>Dirección:</strong>  NA", "etiqueta": "" }, "geometry": { "type": "Point", "coordinates": [ -71.52812, -35.75013 ] } },
{ "type": "Feature", "properties": { "capa": "salud", "popup": "<strong>Posta de Salud Rural Semillero</strong><br><br><strong>Tipo de atención:</strong> Posta de Salud Rural (PSR)<br><strong>Dirección:</strong>  NA", "etiqueta": "" }, "geometry": { "type": "Point", "coordinates": [ -71.46342, -35.67004 ] } },
{ "type": "Feature", "properties": { "capa": "salud", "popup": "<strong>Posta de Salud Rural Maitencillo (Yerbas Buenas)</strong><br><br><strong>Tipo de atención:</strong> Posta de Salud Rural (PSR)<br><strong>Dirección:</strong>  NA", "etiqueta": "" }, "geometry": { "type": "Point", "coordinates": [ -71.5062, -35.65061 ] } },
{ "type": "Feature", "properties": { "capa": "salud", "popup": "<strong>Posta de Salud Rural Orilla de Maule</strong><br><br><strong>Tipo de atención:</strong> Posta de Salud Rural (PSR)<br><strong>Dirección:</strong>  NA", "etiqueta": "" }, "geometry": { "type": "Point", "coordinates": [ -71.539769, -35.617693 ] } },
{ "type": "Feature", "properties": { "capa": "salud", "popup": "<strong>Centro Médico San Mateo</strong><br><br><strong>Tipo de atención:</strong> Centro de Salud Privado<br><strong>Dirección:</strong>  205", "etiqueta": "" }, "geometry": { "type": "Point", "coordinates": [ -71.589503259999958, -35.750660009999947 ] } },
{ "type": "Feature", "properties": { "capa": "salud", "popup": "<strong>Consulta medica Yerbas Buenas SPA</strong><br><br><strong>Tipo de atención:</strong> Centro de Salud Privado<br><strong>Dirección:</strong>  116", "etiqueta": "" }, "geometry": { "type": "Point", "coordinates": [ -71.582436079999965, -35.746875039999978 ] } }
]
}
