{
"type": "FeatureCollection",
"name": "8103",
"crs": { "type": "name", "properties": { "name": "urn:ogc:def:crs:OGC:1.3:CRS84" } },
"features": [
{ "type": "Feature", "properties": { "capa": "comuna", "popup": "", "etiqueta": "" }, "geometry": { "type": "Polygon", "coordinates": [ [ [ -73.040309305756367, -36.852881439338454 ], [ -73.040222770146727, -36.85293131986198 ], [ -73.038586724215321, -36.852658908393416 ], [ -73.038545919141853, -36.852675720740649 ], [ -73.038340091754065, -36.852777774319129 ], [ -73.038138067833174, -36.852920654850578 ], [ -73.03794224228777, -36.853036536585677 ], [ -73.03777734214431, -36.8531625087953 ], [ -73.037576224623564, -36.85329650198031 ], [ -73.03743971124311, -36.853382618049316 ], [ -73.037287580651409, -36.85345465331465 ], [ -73.037120216429145, -36.853521671244643 ], [ -73.03693004128688, -36.853610645030379 ], [ -73.036708369414114, -36.853680469037435 ], [ -73.036552689578727, -36.853702590250549 ], [ -73.036343309353981, -36.853732072013401 ], [ -73.03626272777808, -36.853729426094851 ], [ -73.036149713427122, -36.853743896342742 ], [ -73.035946661833563, -36.853741872909012 ], [ -73.035711861082902, -36.853707129501167 ], [ -73.035504714968283, -36.853632554934997 ], [ -73.035222546052708, -36.85357366679581 ], [ -73.034962468506578, -36.853501849440967 ], [ -73.034699588216768, -36.853502374888471 ], [ -73.034437062761526, -36.853516613723706 ], [ -73.03416840630446, -36.853548696917223 ], [ -73.033899411182517, -36.85359879695983 ], [ -73.033710173881389, -36.853651573799574 ], [ -73.033607901584602, -36.853679993188649 ], [ -73.033517066638026, -36.853749497264545 ], [ -73.033484071517634, -36.853834451237091 ], [ -73.033488261260118, -36.853907071900764 ], [ -73.033495737039914, -36.853993307321822 ], [ -73.033493540659038, -36.854070203982388 ], [ -73.033484446115111, -36.854124236960097 ], [ -73.033463744439388, -36.854168849305239 ], [ -73.033352599482555, -36.85441430982241 ], [ -73.033226693408949, -36.854518879025242 ], [ -73.033055493380417, -36.854626535313251 ], [ -73.032909806404291, -36.854699010027808 ], [ -73.032742803304743, -36.8547032099479 ], [ -73.032386588056937, -36.854670003042891 ], [ -73.032279357059764, -36.854628631321965 ], [ -73.031984035910128, -36.854546713710221 ], [ -73.031779167923062, -36.854463052208231 ], [ -73.031640689927073, -36.854340901118654 ], [ -73.031545177452799, -36.854274408630289 ], [ -73.031445521948456, -36.854130865019975 ], [ -73.031233527626227, -36.853852326435657 ], [ -73.031142062062301, -36.853663710102701 ], [ -73.031093825226492, -36.853521814287085 ], [ -73.030788822933033, -36.853208577290353 ], [ -73.03062994240031, -36.853117448044159 ], [ -73.030475171660001, -36.853085289194539 ], [ -73.030274879690992, -36.853083309590815 ], [ -73.030079088281568, -36.853149437959921 ], [ -73.029927811089379, -36.853239588869094 ], [ -73.029750743265424, -36.853333493287515 ], [ -73.029599207358459, -36.853432729701666 ], [ -73.029466695972573, -36.853546226380963 ], [ -73.029321154523515, -36.853654703476607 ], [ -73.02923984710884, -36.853805942773789 ], [ -73.02915159302205, -36.853952547654117 ], [ -73.029090128493692, -36.854063778619185 ], [ -73.029049495896757, -36.854125819758963 ], [ -73.028991224879221, -36.854173773086188 ], [ -73.02888122347774, -36.854201933513174 ], [ -73.028653538282455, -36.854162802758026 ], [ -73.028401008381366, -36.854091231786605 ], [ -73.028099051376714, -36.854000011586038 ], [ -73.027857864502693, -36.853969527916526 ], [ -73.02761530590125, -36.85401606027105 ], [ -73.027332886355723, -36.854120104575443 ], [ -73.027103873450443, -36.854130828361136 ], [ -73.027028250574872, -36.854121217997594 ], [ -73.026990372212609, -36.854099405271135 ], [ -73.02687880145433, -36.854001572823435 ], [ -73.026707585256119, -36.853939563928911 ], [ -73.026667798872182, -36.853925121032546 ], [ -73.026449730142019, -36.853964105273761 ], [ -73.026234774074311, -36.854002908357046 ], [ -73.026177432813085, -36.854028395624304 ], [ -73.025963011242979, -36.854021426843616 ], [ -73.025771656612747, -36.854028803184761 ], [ -73.025400028969585, -36.854139116130703 ], [ -73.025168120794163, -36.854253840189287 ], [ -73.024896093858132, -36.854435233306312 ], [ -73.024700929472772, -36.854600884359911 ], [ -73.024529935158441, -36.854803646407774 ], [ -73.024299461592506, -36.855164356609244 ], [ -73.024291956168298, -36.855170073152308 ], [ -73.024083927009769, -36.855318152528419 ], [ -73.023906631912027, -36.855491903844182 ], [ -73.023775703357686, -36.855691756039761 ], [ -73.02364650945016, -36.855828454608933 ], [ -73.023580789602278, -36.855941008280972 ], [ -73.023530436335648, -36.856066398521783 ], [ -73.023464715589469, -36.856178952562182 ], [ -73.023445355996785, -36.856317461585547 ], [ -73.023425486161003, -36.856481225360568 ], [ -73.023469693154468, -36.856595587233919 ], [ -73.023592048187723, -36.856723903976125 ], [ -73.023745490319726, -36.856865335269106 ], [ -73.023868281035931, -36.85698094364016 ], [ -73.023912744049227, -36.857082677366968 ], [ -73.024004362326735, -36.85718524760874 ], [ -73.024092432258868, -36.857426602171792 ], [ -73.024179991947918, -36.857612773315324 ], [ -73.024171873872703, -36.857788684338431 ], [ -73.024171458851043, -36.857964408077926 ], [ -73.024176174107978, -36.858139883440195 ], [ -73.024147560071228, -36.858336488537482 ], [ -73.024143664976151, -36.858487904010936 ], [ -73.02414011663079, -36.858626688446925 ], [ -73.024088723115071, -36.858789972175842 ], [ -73.024067557010341, -36.859004256249484 ], [ -73.024094059107838, -36.85919412153374 ], [ -73.024042054737748, -36.859382517219025 ], [ -73.024037816486214, -36.85954663667642 ], [ -73.023986436445242, -36.859732944248982 ], [ -73.023895346377103, -36.859845104766599 ], [ -73.023662512936937, -36.859991515502053 ], [ -73.023326914024892, -36.860157203388162 ], [ -73.0230299696195, -36.860333239365815 ], [ -73.022658655488385, -36.86043445616783 ], [ -73.022352780930788, -36.860456188743576 ], [ -73.022073136281151, -36.860456221805642 ], [ -73.021907823810992, -36.860450902403073 ], [ -73.021627663528378, -36.860500616988972 ], [ -73.021414063018454, -36.860525419286148 ], [ -73.021235803130097, -36.860560387435299 ], [ -73.021117377327869, -36.860592739355781 ], [ -73.021008099968498, -36.860620941979647 ], [ -73.020763957637215, -36.860699025797388 ], [ -73.02059729949076, -36.860766071874885 ], [ -73.020420941335871, -36.860783042717486 ], [ -73.020186719998591, -36.860775406845015 ], [ -73.019992583285912, -36.860805376058885 ], [ -73.019801555642417, -36.860826312167937 ], [ -73.019678424464743, -36.860849522356204 ], [ -73.019567379220888, -36.860868560268393 ], [ -73.019408571451706, -36.860876964461504 ], [ -73.019271510997228, -36.860904262809548 ], [ -73.019150445944703, -36.860954634025539 ], [ -73.019022605798298, -36.861077184942999 ], [ -73.018945948961857, -36.861110997832732 ], [ -73.01882876283473, -36.861247579617888 ], [ -73.018754465872519, -36.861371934083976 ], [ -73.018716707884494, -36.861452248796255 ], [ -73.018680972004177, -36.861586882930865 ], [ -73.018679497868803, -36.861592025446711 ], [ -73.018631132573915, -36.861757270719451 ], [ -73.018563799351796, -36.862049424073746 ], [ -73.018528876446794, -36.862306386172676 ], [ -73.018497712092966, -36.862477395488945 ], [ -73.018475222769823, -36.862612466955802 ], [ -73.018457565484582, -36.862797630040617 ], [ -73.018470149085104, -36.862920223281726 ], [ -73.018501377219309, -36.862971045242084 ], [ -73.018708234076428, -36.863186979261947 ], [ -73.018935746795165, -36.863486784313835 ], [ -73.018957837266328, -36.863626029708804 ], [ -73.018971029026261, -36.86370941525788 ], [ -73.018987623604517, -36.863785896790702 ], [ -73.018187898422823, -36.865199767557101 ], [ -73.017815435346463, -36.865477531718824 ], [ -73.017403364650903, -36.865583286001751 ], [ -73.016934412631571, -36.865579900958544 ], [ -73.015877856415202, -36.865391098678074 ], [ -73.015253386257228, -36.865331127900745 ], [ -73.014106846697175, -36.865181220875073 ], [ -73.013444700297882, -36.865192695583993 ], [ -73.013023043679922, -36.865154117384343 ], [ -73.012415124981075, -36.864968191720983 ], [ -73.011731529507756, -36.864564757823082 ], [ -73.010879817922259, -36.86393756882665 ], [ -73.010323240636822, -36.863477659539008 ], [ -73.009848197141537, -36.863280439511556 ], [ -73.009319224186484, -36.863267096576237 ], [ -73.008974458865282, -36.863288338901917 ], [ -73.008346987435942, -36.863372484499742 ], [ -73.007864507686747, -36.863350775033503 ], [ -73.007360170130042, -36.863306261480716 ], [ -73.007005079572963, -36.863133611753682 ], [ -73.006709502403453, -36.862853791442362 ], [ -73.006678622815556, -36.862447695732932 ], [ -73.00657659755548, -36.862247682241218 ], [ -73.006258742166935, -36.862044032909445 ], [ -73.005747663652329, -36.861828235811771 ], [ -73.005454573917845, -36.861755696703369 ], [ -73.005278904770762, -36.861712182692457 ], [ -73.004653505754817, -36.861688199413301 ], [ -73.004396017153354, -36.861778433685963 ], [ -73.0039322609896, -36.862144691870995 ], [ -73.003520905353014, -36.862624525651661 ], [ -73.003352234082001, -36.862910054860755 ], [ -73.003137491813348, -36.86353726882146 ], [ -73.003031650509925, -36.864211507594121 ], [ -73.003145297274841, -36.864799303832427 ], [ -73.003073147286159, -36.864879151381274 ], [ -73.002843734630602, -36.865181783614474 ], [ -73.002545633195126, -36.865185787473095 ], [ -73.002452199422436, -36.865085032618623 ], [ -73.002237781445587, -36.86475700400262 ], [ -73.002145005239669, -36.864417420097261 ], [ -73.001959734898833, -36.864130398736435 ], [ -73.001192096640793, -36.863590260161686 ], [ -73.000946552937648, -36.86324814981969 ], [ -73.000761330207553, -36.862956623457755 ], [ -73.000432368947131, -36.862721230890124 ], [ -73.000102668373231, -36.862517374391111 ], [ -72.999955409345347, -36.862330170890161 ], [ -72.999762517697647, -36.86193034473029 ], [ -72.99951482881761, -36.861696416646645 ], [ -72.999143538940999, -36.861527905328941 ], [ -72.998788393586707, -36.861517364420031 ], [ -72.996487073322157, -36.862086306210806 ], [ -72.996473513252937, -36.862604598400587 ], [ -72.996665220022791, -36.8631035047407 ], [ -72.996922055549035, -36.863711726630584 ], [ -72.997111605463871, -36.864318818187641 ], [ -72.997433567051601, -36.865036203576324 ], [ -72.997554549459124, -36.865642136139918 ], [ -72.997337061040639, -36.866129734220905 ], [ -72.996847631026071, -36.866563100938812 ], [ -72.99649707157127, -36.866940204789209 ], [ -72.996135715265083, -36.867700236062205 ], [ -72.995624830786596, -36.868953469861843 ], [ -72.995611177292588, -36.869473535108632 ], [ -72.995607609184276, -36.86961113968384 ], [ -72.995596232919524, -36.870048107935894 ], [ -72.995523023817128, -36.870213516739604 ], [ -72.995378585499211, -36.870540137097599 ], [ -72.995232002004428, -36.870920699547881 ], [ -72.995087375040313, -36.871247252204718 ], [ -72.994874166195828, -36.871572644305019 ], [ -72.994655867496959, -36.872064693111355 ], [ -72.994655202743644, -36.87208892106139 ], [ -72.994641449536644, -36.872614230340758 ], [ -72.994695931460299, -36.873160414840505 ], [ -72.99461283819484, -36.873708795119612 ], [ -72.994325831851455, -36.874253781772573 ], [ -72.993846444103454, -36.874299733354917 ], [ -72.993637656766793, -36.8742962071316 ], [ -72.993505820914024, -36.874294003152059 ], [ -72.993438642202136, -36.874238776449694 ], [ -72.993105522640263, -36.874447468816278 ], [ -72.99267518290678, -36.874717140898852 ], [ -72.992124718656868, -36.874874549419452 ], [ -72.992070285242235, -36.87494752160778 ], [ -72.990888275703185, -36.875153770944308 ], [ -72.990648136264795, -36.875310179709281 ], [ -72.990082918982978, -36.875678250005194 ], [ -72.988978477172068, -36.876002014296532 ], [ -72.988003347846316, -36.876034424352241 ], [ -72.986666971808845, -36.875913953327547 ], [ -72.9862007048539, -36.875123381945329 ], [ -72.985993989930606, -36.874840302115317 ], [ -72.985730503277992, -36.874479427526495 ], [ -72.984969910506706, -36.874018206989106 ], [ -72.984914945289404, -36.873952232495824 ], [ -72.984518400176924, -36.873680248078834 ], [ -72.98419574059821, -36.873394712408505 ], [ -72.983926868545467, -36.873154304401396 ], [ -72.983602255131046, -36.872942408470877 ], [ -72.983185223938477, -36.872758483010799 ], [ -72.982875551303849, -36.872614788713697 ], [ -72.982377417512495, -36.872335506166088 ], [ -72.982299399728376, -36.872257095046365 ], [ -72.982105740919422, -36.87213282512856 ], [ -72.981899876700723, -36.87194867206837 ], [ -72.981619385838087, -36.871611751773059 ], [ -72.981117161118959, -36.871175780595351 ], [ -72.980682525641768, -36.870962107004807 ], [ -72.980283712283168, -36.870778445549419 ], [ -72.980085502608986, -36.87064244349974 ], [ -72.979777003174121, -36.870519290606254 ], [ -72.979487474361406, -36.870367015035882 ], [ -72.979106285948703, -36.870213089143292 ], [ -72.978817190123976, -36.870046111523912 ], [ -72.978344347501121, -36.869890607542956 ], [ -72.977980697795999, -36.86976656877507 ], [ -72.977571835882642, -36.869673932131882 ], [ -72.977139721976471, -36.869616388739232 ], [ -72.976738710440372, -36.869476772654835 ], [ -72.97634912098313, -36.869300611135337 ], [ -72.975935979495759, -36.869183832739793 ], [ -72.975498093015574, -36.869126477266761 ], [ -72.975067743400615, -36.869046212303061 ], [ -72.974640236055208, -36.868956994175839 ], [ -72.97417351994261, -36.868981259763217 ], [ -72.973756807651981, -36.868953150776314 ], [ -72.973260257590482, -36.868986604443762 ], [ -72.972763228726933, -36.869040956021884 ], [ -72.972373672507345, -36.868971491724366 ], [ -72.971930378169134, -36.86896389691519 ], [ -72.971555776204085, -36.868920643571322 ], [ -72.97124821550868, -36.869111077829821 ], [ -72.971289087057485, -36.869539803806987 ], [ -72.971228730151864, -36.869853176529084 ], [ -72.971207922474932, -36.86993726459157 ], [ -72.971141035715519, -36.870207979546876 ], [ -72.971026669400061, -36.87058337946349 ], [ -72.97086300803339, -36.870853052971057 ], [ -72.970620067647943, -36.871163310030894 ], [ -72.970245535751474, -36.871513246103127 ], [ -72.969975345870225, -36.871864929726833 ], [ -72.969706287866217, -36.872174731376859 ], [ -72.969448271055356, -36.87234667797626 ], [ -72.969326185516678, -36.87268853486519 ], [ -72.969190539010469, -36.873039922754458 ], [ -72.968807995039967, -36.873584726620564 ], [ -72.968362965156629, -36.873639904929874 ], [ -72.967902258773293, -36.87369036548187 ], [ -72.967865904852047, -36.873694311405202 ], [ -72.967476986436324, -36.873603851905379 ], [ -72.967063566471211, -36.87345000511548 ], [ -72.966732544475533, -36.873140124558837 ], [ -72.966425007136323, -36.872936022062824 ], [ -72.966064383855425, -36.872762179619308 ], [ -72.965896408778747, -36.872725433425416 ], [ -72.965688252059437, -36.872572618252036 ], [ -72.965343218141967, -36.872566732696178 ], [ -72.964775329270495, -36.87255700104712 ], [ -72.963378167830996, -36.872435269812591 ], [ -72.962378934011213, -36.87178283584106 ], [ -72.96235986996426, -36.871776535572202 ], [ -72.961897757717495, -36.871496034744361 ], [ -72.96169857067629, -36.87113635167178 ], [ -72.961695201095665, -36.870914923098411 ], [ -72.961691498240057, -36.870678154409703 ], [ -72.961629111141889, -36.87032438267984 ], [ -72.961629261160525, -36.869968523784884 ], [ -72.961581157275376, -36.869667114257943 ], [ -72.961433624261318, -36.869329247489077 ], [ -72.961287228514422, -36.86894942523702 ], [ -72.961165715202554, -36.8686120173953 ], [ -72.96112243257555, -36.868275910288894 ], [ -72.96105427649664, -36.867897461211065 ], [ -72.961011565198135, -36.867540375732858 ], [ -72.96094226825879, -36.867203807551668 ], [ -72.960978932098811, -36.866806213963663 ], [ -72.96103185454713, -36.866470806098491 ], [ -72.960914701657686, -36.866132366773797 ], [ -72.960724759179058, -36.865805434345376 ], [ -72.960446195202707, -36.865535479259691 ], [ -72.960070583531277, -36.865340789319497 ], [ -72.959700792942897, -36.865141402198667 ], [ -72.959198879040827, -36.865077856423781 ], [ -72.958755608058809, -36.865070283507158 ], [ -72.958183600411758, -36.864997559177397 ], [ -72.957660477285842, -36.86505146368853 ], [ -72.957192328360364, -36.865001468896175 ], [ -72.95651550528595, -36.864947876265042 ], [ -72.956179244315535, -36.864837319469252 ], [ -72.955460594783176, -36.864500107640815 ], [ -72.955251823616209, -36.864402125360648 ], [ -72.955163065574567, -36.864324938676667 ], [ -72.954489579741448, -36.863737956681398 ], [ -72.952802023513314, -36.864077786529378 ], [ -72.952362319741312, -36.864187336798437 ], [ -72.951992190488042, -36.864347702205542 ], [ -72.951752900855936, -36.864564299290961 ], [ -72.951644139129542, -36.864832857061899 ], [ -72.951254243346753, -36.864992920698306 ], [ -72.950996478064184, -36.865141645836943 ], [ -72.950859443660875, -36.865337567409306 ], [ -72.950792958448361, -36.865551508273796 ], [ -72.950736686182339, -36.865731974056665 ], [ -72.950525618023192, -36.866025781009377 ], [ -72.950143988537647, -36.866271541228436 ], [ -72.949590187944793, -36.866455799246722 ], [ -72.949211865157821, -36.866548387328166 ], [ -72.948852958557424, -36.866677375138295 ], [ -72.948466643459369, -36.866702258797822 ], [ -72.947972495492934, -36.866572062204021 ], [ -72.947607757029701, -36.866552241628931 ], [ -72.947097591203445, -36.866624487273377 ], [ -72.946662324210621, -36.866567452567828 ], [ -72.946356004088628, -36.86645675869066 ], [ -72.94603417904483, -36.866649521154805 ], [ -72.946125212519092, -36.866746048096914 ], [ -72.946260252662469, -36.866889154772316 ], [ -72.946537810525712, -36.867177848194828 ], [ -72.947099208170954, -36.867475919954586 ], [ -72.94766129931557, -36.867769536939669 ], [ -72.947794430539005, -36.868114322765152 ], [ -72.947780527313355, -36.868632334032952 ], [ -72.947763747682146, -36.869258481963612 ], [ -72.948033674357049, -36.869835460302014 ], [ -72.948090653597205, -36.870354655729813 ], [ -72.948083056544846, -36.87063851538484 ], [ -72.948204512364512, -36.871442714720764 ], [ -72.948548391048533, -36.871903804208074 ], [ -72.948540656553945, -36.872192095651023 ], [ -72.948529910906515, -36.87259303156965 ], [ -72.948516242141153, -36.873106532578987 ], [ -72.948364014531435, -36.873446421363433 ], [ -72.948207978064872, -36.873961929473658 ], [ -72.947982032007985, -36.874413197606557 ], [ -72.947539815648128, -36.874977856062785 ], [ -72.947189733198769, -36.8754624015912 ], [ -72.947170016076598, -36.875489773055541 ], [ -72.947018600543885, -36.875829559254704 ], [ -72.946934878457711, -36.876283325677228 ], [ -72.946992504484868, -36.876802573570949 ], [ -72.947166458748072, -36.876983792441536 ], [ -72.947269367052058, -36.877091213721592 ], [ -72.947214406326353, -36.877614649753561 ], [ -72.947173500641583, -36.87800441137815 ], [ -72.947161172162623, -36.878463847344044 ], [ -72.947151994973666, -36.878806208595414 ], [ -72.946791394150651, -36.878971188132354 ], [ -72.946644566314077, -36.879139903852398 ], [ -72.946635252581217, -36.879486771049812 ], [ -72.947059782011436, -36.879606741350365 ], [ -72.947178020964088, -36.879858224310951 ], [ -72.947194417912968, -36.879892954391792 ], [ -72.947193396528476, -36.879931954127578 ], [ -72.947189691876247, -36.880068604302018 ], [ -72.94717907738287, -36.880465033069832 ], [ -72.947244447786076, -36.88069598780794 ], [ -72.94737751253416, -36.881040774209694 ], [ -72.947369776242951, -36.881329067093176 ], [ -72.947227625934076, -36.881326637693576 ], [ -72.947015424101025, -36.881264400200578 ], [ -72.946584718753215, -36.881374148572853 ], [ -72.946577111819394, -36.881657861650922 ], [ -72.946710269992266, -36.882002719156233 ], [ -72.947275392052674, -36.882183692881547 ], [ -72.947549959424322, -36.882589526323891 ], [ -72.947611450003848, -36.882937579952319 ], [ -72.947604301210802, -36.883206960512958 ], [ -72.947602364443043, -36.88327986366518 ], [ -72.947438528803218, -36.884079237255783 ], [ -72.946986441755016, -36.884986277782893 ], [ -72.946976448895796, -36.884997385950726 ], [ -72.946325968018783, -36.885718409644333 ], [ -72.945884614041589, -36.886224513120005 ], [ -72.945516233808192, -36.88667778308853 ], [ -72.945505472889423, -36.887078644400269 ], [ -72.945703921515445, -36.887654461408623 ], [ -72.946112205812071, -36.888296064516382 ], [ -72.946182383100407, -36.888406273385037 ], [ -72.946455527540621, -36.888866101561668 ], [ -72.946803847495417, -36.889160557401226 ], [ -72.947221537153069, -36.889510265882457 ], [ -72.94763996792085, -36.889860020898844 ], [ -72.947838529734625, -36.89043575657832 ], [ -72.947830797934969, -36.890724048475072 ], [ -72.948029271713835, -36.891299786977918 ], [ -72.948153285935447, -36.891986927515532 ], [ -72.947857097013227, -36.89238289710687 ], [ -72.947644159459941, -36.892422822998704 ], [ -72.947570996171649, -36.892436548798919 ], [ -72.947421039502942, -36.892717839150656 ], [ -72.947134200246211, -36.892771440316636 ], [ -72.946914964604488, -36.892997472473446 ], [ -72.946834243789681, -36.893338596798834 ], [ -72.946679654509083, -36.893795607048745 ], [ -72.946670476421815, -36.894137893809543 ], [ -72.946282176046992, -36.894353312981444 ], [ -72.946186687827236, -36.894406303059014 ], [ -72.945874574469983, -36.894579336143345 ], [ -72.945506067574129, -36.895032611105357 ], [ -72.944856169703726, -36.895363881209803 ], [ -72.944633167426019, -36.895702503515444 ], [ -72.944550950916266, -36.896102198880413 ], [ -72.944399490467816, -36.896441983877537 ], [ -72.94446162963095, -36.896790090735117 ], [ -72.944524833297706, -36.897075064784723 ], [ -72.944542981961391, -36.897090254558506 ], [ -72.945013273368829, -36.897484640199977 ], [ -72.945141775573589, -36.898000644795019 ], [ -72.944807062400415, -36.898560834339847 ], [ -72.944768744761973, -36.898624985151649 ], [ -72.944757991928014, -36.899025993492415 ], [ -72.944819620848094, -36.899369467976506 ], [ -72.944945711974626, -36.900002597872835 ], [ -72.944857324937189, -36.900631937461746 ], [ -72.944696588485087, -36.901314160163494 ], [ -72.944499446907784, -36.901685943268973 ], [ -72.94439593942748, -36.901881260348048 ], [ -72.944159197417505, -36.902124843526558 ], [ -72.943956661456909, -36.902333268597417 ], [ -72.943588247985858, -36.902782106996078 ], [ -72.943216675139922, -36.903348020352475 ], [ -72.943204842531017, -36.903412618973775 ], [ -72.943121682790206, -36.90386732411045 ], [ -72.943320320960794, -36.903916585903701 ], [ -72.94373725783025, -36.904036374149001 ], [ -72.944164026760475, -36.904129414472138 ], [ -72.944579502070951, -36.904249321625912 ], [ -72.944976508917506, -36.904404895714045 ], [ -72.945332158226705, -36.904613798708212 ], [ -72.945701057686335, -36.904822997079727 ], [ -72.94596513004052, -36.905075385386858 ], [ -72.946065911133914, -36.905424049784607 ], [ -72.946097724071393, -36.905780691627214 ], [ -72.945988887784836, -36.906125703062266 ], [ -72.945845796939849, -36.906465802583241 ], [ -72.945685400050934, -36.906796440512316 ], [ -72.945512449205907, -36.907122477721565 ], [ -72.945324865703228, -36.907448115599884 ], [ -72.94511860622579, -36.907764485354079 ], [ -72.944908895421023, -36.9080763213681 ], [ -72.944718594514597, -36.908397472327962 ], [ -72.944593434042687, -36.9087468635337 ], [ -72.944505051496833, -36.909087724960997 ], [ -72.944410794867338, -36.909437637349882 ], [ -72.944380095840813, -36.909797538645137 ], [ -72.944418384733169, -36.910149759900207 ], [ -72.944532639657524, -36.910494139610741 ], [ -72.944706264239002, -36.910817137112481 ], [ -72.944911024428237, -36.911136146880871 ], [ -72.945131964174053, -36.911446351588324 ], [ -72.945443984106532, -36.911690651218862 ], [ -72.945812582630538, -36.911886206286624 ], [ -72.946085116216381, -36.912161337023498 ], [ -72.946208538448218, -36.912501499418518 ], [ -72.946272772482615, -36.912854035709344 ], [ -72.946356605959878, -36.91320702861082 ], [ -72.946436072726527, -36.9135644449631 ], [ -72.946536134269394, -36.913913059789614 ], [ -72.946678313324355, -36.914235476126741 ], [ -72.947021010723788, -36.914457717797845 ], [ -72.947407606994517, -36.914640122143247 ], [ -72.947797233282685, -36.914813569013155 ], [ -72.948203122670776, -36.914951270716983 ], [ -72.948612092381964, -36.915084514856026 ], [ -72.949017940447547, -36.915226717190521 ], [ -72.94945033193315, -36.915297335970337 ], [ -72.949892582428987, -36.915259879813277 ], [ -72.949947026623406, -36.915242789640999 ], [ -72.950409685045869, -36.915255277425594 ], [ -72.950964375869205, -36.915264844904449 ], [ -72.951773649244032, -36.915350942823103 ], [ -72.952284459162357, -36.91542727783051 ], [ -72.953484795231518, -36.915344396925519 ], [ -72.954576053367319, -36.915304549821087 ], [ -72.955800732882366, -36.915438317646164 ], [ -72.956325749656912, -36.915744779446456 ], [ -72.956521236537455, -36.916252851391626 ], [ -72.956619691892598, -36.916903415781583 ], [ -72.956792085782141, -36.918249273761148 ], [ -72.957138086286875, -36.919607123213943 ], [ -72.957268492920022, -36.919798632571343 ], [ -72.957580731143125, -36.920056395027345 ], [ -72.957896180843335, -36.920305120499997 ], [ -72.958282407906481, -36.920473995504032 ], [ -72.95868164347327, -36.920629593957656 ], [ -72.959086757615268, -36.920776212055095 ], [ -72.959504592800002, -36.92089155706698 ], [ -72.959857980151298, -36.921109491865991 ], [ -72.960090222500014, -36.921401873468696 ], [ -72.960248302633829, -36.921733482249337 ], [ -72.960390623622601, -36.922078457438893 ], [ -72.960521252139628, -36.922414155340881 ], [ -72.96064121765427, -36.922758695839953 ], [ -72.960742234106277, -36.923102909459558 ], [ -72.960796480671334, -36.923459828437814 ], [ -72.960794189069048, -36.923468835450109 ], [ -72.96088959015222, -36.923862533200371 ], [ -72.960874950308039, -36.92441200349689 ], [ -72.960730897367384, -36.924711489166583 ], [ -72.960453120315236, -36.924895961630796 ], [ -72.960115169613772, -36.925412909012216 ], [ -72.960129839102365, -36.926152094231206 ], [ -72.960349328069, -36.926629099271189 ], [ -72.960415825857893, -36.926661785131927 ], [ -72.960864192982513, -36.927057052708825 ], [ -72.961214716504685, -36.927671371766507 ], [ -72.961477786339003, -36.927937259546624 ], [ -72.961774396571101, -36.928208225544331 ], [ -72.962519154738857, -36.928644579059593 ], [ -72.963354962550568, -36.929136627666956 ], [ -72.964022840201366, -36.92958970881012 ], [ -72.964323469496037, -36.929815591680217 ], [ -72.964971157510846, -36.930471105708357 ], [ -72.965459195136717, -36.931087896159056 ], [ -72.965624906458856, -36.931771182087921 ], [ -72.965858612163174, -36.932455587814928 ], [ -72.966444504171264, -36.932853170532944 ], [ -72.966666541658341, -36.93313185683828 ], [ -72.96723430207075, -36.933362373590093 ], [ -72.967670855451047, -36.93333382013703 ], [ -72.967927085512812, -36.933171453359712 ], [ -72.968074932038888, -36.932809031398847 ], [ -72.96826682745494, -36.932478786282701 ], [ -72.96866125074672, -36.932318803812649 ], [ -72.969141694015207, -36.932349585799543 ], [ -72.969799505144934, -36.932653678246162 ], [ -72.97024454041815, -36.932940684709905 ], [ -72.970271939034319, -36.932963750907263 ], [ -72.970617679925923, -36.933181464503654 ], [ -72.970999590584142, -36.933359221329603 ], [ -72.971382976276033, -36.933537000718687 ], [ -72.971755981934834, -36.933732617524988 ], [ -72.972077192530975, -36.933976976445337 ], [ -72.972462871621786, -36.934145746489563 ], [ -72.972866013961735, -36.934287880246671 ], [ -72.973246375026079, -36.934474536087755 ], [ -72.973623197626523, -36.934656735299619 ], [ -72.973863306522176, -36.934944690649814 ], [ -72.973974026575874, -36.935293657939852 ], [ -72.974083364122379, -36.935642523825436 ], [ -72.974130221145927, -36.935990235675909 ], [ -72.974195958960095, -36.936347426764357 ], [ -72.974356386391747, -36.936674579823027 ], [ -72.974666259350684, -36.936923222359816 ], [ -72.975091992523389, -36.937011530302108 ], [ -72.975538543254501, -36.93702814601 ], [ -72.975975959915786, -36.937017612652539 ], [ -72.97635762084235, -36.93683486046357 ], [ -72.976718270174402, -36.936624693683811 ], [ -72.977010866733821, -36.936359320874736 ], [ -72.977222801767212, -36.936038501637718 ], [ -72.977382236560459, -36.935712282881084 ], [ -72.977455609156252, -36.93535751362333 ], [ -72.977462782203787, -36.935006072262318 ], [ -72.977350448775823, -36.934661737902069 ], [ -72.977322288388294, -36.934611688885632 ], [ -72.977299740674667, -36.934431050595279 ], [ -72.977456670964912, -36.933694677840215 ], [ -72.977747215772197, -36.933109314155445 ], [ -72.977829482587609, -36.932596983683943 ], [ -72.977847491114119, -36.931916854605817 ], [ -72.977950555724973, -36.93149503996441 ], [ -72.978175322293893, -36.930795872682104 ], [ -72.978351087560696, -36.929347830478122 ], [ -72.978435274974174, -36.927911788327094 ], [ -72.978480983052464, -36.927110439451376 ], [ -72.978427111983194, -36.926974320167368 ], [ -72.978423278871873, -36.926960722659715 ], [ -72.978501093636737, -36.926511342876807 ], [ -72.978594476205458, -36.926030816138976 ], [ -72.978870982141501, -36.925467764043944 ], [ -72.979143574117828, -36.925080333110003 ], [ -72.979535741739937, -36.924766966608537 ], [ -72.979845257169416, -36.924497404548248 ], [ -72.979872480614077, -36.924236429062219 ], [ -72.979744028714975, -36.923734121000109 ], [ -72.97951361803112, -36.92329309223279 ], [ -72.979072294596676, -36.922442921868132 ], [ -72.97878463877133, -36.921883742182771 ], [ -72.978600184100785, -36.921218153091829 ], [ -72.978650267872808, -36.92086298386107 ], [ -72.978775961045685, -36.920671396023003 ], [ -72.979226820995208, -36.920417682571681 ], [ -72.979823875469009, -36.920013238854636 ], [ -72.980111394750438, -36.919752311220513 ], [ -72.980769749360903, -36.919263226334259 ], [ -72.98157148856545, -36.918709105981762 ], [ -72.982475600678114, -36.918075531624872 ], [ -72.98296715700495, -36.917795495360402 ], [ -72.984310022472044, -36.917363177832925 ], [ -72.985425330304608, -36.917125197925841 ], [ -72.985979277322869, -36.916922827553471 ], [ -72.986101915325477, -36.916902323384456 ], [ -72.986512258560722, -36.916769644780537 ], [ -72.986909452256853, -36.916605157034319 ], [ -72.987279289557648, -36.916413100996337 ], [ -72.987605517244646, -36.916170853353904 ], [ -72.987917459023706, -36.915991296095996 ], [ -72.988290616497778, -36.915889454097353 ], [ -72.989017770380926, -36.915739545053782 ], [ -72.989652653809671, -36.915660259905067 ], [ -72.99059785396507, -36.91578432107724 ], [ -72.990892339681523, -36.915816403254631 ], [ -72.991158161953877, -36.915843397549764 ], [ -72.991507480835253, -36.915844851226602 ], [ -72.991926813511569, -36.915824835157345 ], [ -72.992368419915337, -36.915814250749165 ], [ -72.992811258807706, -36.915830781300095 ], [ -72.993252468156129, -36.91583371235545 ], [ -72.993696026599011, -36.915800697217357 ], [ -72.994120524588212, -36.915717697493484 ], [ -72.994516863986533, -36.915553139965546 ], [ -72.995018258662341, -36.915430944362399 ], [ -72.995399858503461, -36.915833935721835 ], [ -72.995534349776221, -36.916133595853786 ], [ -72.995526274820136, -36.916439903317077 ], [ -72.995353855777779, -36.916811006544009 ], [ -72.995282076793302, -36.917224400300881 ], [ -72.995247324568211, -36.918147663164753 ], [ -72.994967105895128, -36.919152328037903 ], [ -72.994778161444785, -36.92017657375451 ], [ -72.994701467777404, -36.921148627103733 ], [ -72.994749951649908, -36.921149503270904 ], [ -72.99503124111483, -36.921280390324021 ], [ -72.995280229857087, -36.92147383668388 ], [ -72.995635318617545, -36.921871890339659 ], [ -72.995941572264201, -36.922205982627517 ], [ -72.996299860823683, -36.922401352739008 ], [ -72.99630832924187, -36.922586223624023 ], [ -72.996429547906317, -36.922993851626842 ], [ -72.996661334809176, -36.923466384411057 ], [ -72.996821658934579, -36.924338868896236 ], [ -72.996784055456786, -36.924996190163533 ], [ -72.996726603702783, -36.925639569064309 ], [ -72.996555223112878, -36.925965695924134 ], [ -72.9963941120633, -36.926305425478944 ], [ -72.996388849732369, -36.926503673362262 ], [ -72.996505889434104, -36.926699349869331 ], [ -72.996667932934926, -36.926832774553951 ], [ -72.996844391701146, -36.926979955933248 ], [ -72.997076103145531, -36.927167707558091 ], [ -72.997231597927964, -36.927209254699484 ], [ -72.997339629324017, -36.927376747846694 ], [ -72.997625414856941, -36.927819783798384 ], [ -72.997890305576348, -36.928153271231764 ], [ -72.998427978714915, -36.928491213739079 ], [ -72.998897030447267, -36.928828147257533 ], [ -72.999561595111302, -36.929551377139944 ], [ -73.000301293967382, -36.930001014747873 ], [ -73.000484802711952, -36.930156143519909 ], [ -73.000768828445217, -36.930396437350879 ], [ -73.001373955180171, -36.930789651963977 ], [ -73.001636830978384, -36.931177142924476 ], [ -73.002029210602899, -36.931841650548868 ], [ -73.002017801100493, -36.932278542638144 ], [ -73.002010734952478, -36.932294574155108 ], [ -73.001800060255405, -36.932770661854249 ], [ -73.001443342849342, -36.933368497160878 ], [ -73.00143621920914, -36.933643261017536 ], [ -73.001717647912912, -36.934456819060948 ], [ -73.001817302518972, -36.934744804606133 ], [ -73.001878085226039, -36.93502074611164 ], [ -73.001465660594263, -36.935121965150017 ], [ -73.001305726337705, -36.935076737347245 ], [ -73.00105891870497, -36.935006914522383 ], [ -73.001053100316881, -36.93522761577966 ], [ -73.000999980239172, -36.935308665620745 ], [ -73.000839671385137, -36.935553028104465 ], [ -73.000597315802963, -36.935548953978724 ], [ -73.000498129219196, -36.935547281677117 ], [ -73.000091425059139, -36.935427725302091 ], [ -72.999477736481211, -36.935363337612856 ], [ -72.999199102436279, -36.935579439549137 ], [ -72.998853269018198, -36.935735891790181 ], [ -72.998483780263726, -36.935837350419312 ], [ -72.99809626321985, -36.935943916982112 ], [ -72.997977792501871, -36.93591278389377 ], [ -72.997417506072637, -36.935765703771708 ], [ -72.996865224530893, -36.935977224971076 ], [ -72.996853654230037, -36.936418624816838 ], [ -72.996503476559241, -36.936741775310182 ], [ -72.996426840384046, -36.937069359641967 ], [ -72.996761298435672, -36.937345526086546 ], [ -72.996996946297642, -36.937389979238816 ], [ -72.997101405093829, -36.937409777114013 ], [ -72.997225394162612, -36.937903061560398 ], [ -72.997626406597007, -36.938238749374378 ], [ -72.998230758085867, -36.938632003945592 ], [ -72.998711076488505, -36.938640160483295 ], [ -72.998913967283627, -36.938643576033208 ], [ -72.998916090002652, -36.938562918179933 ], [ -72.998923989787258, -36.938260675206628 ], [ -72.998999305438986, -36.937987080404547 ], [ -72.999346550110388, -36.937776634623205 ], [ -72.999747571527948, -36.938112314377967 ], [ -72.999877176863876, -36.938389403272538 ], [ -72.999989496817122, -36.938482066379542 ], [ -73.000011109384531, -36.938499786060639 ], [ -73.000092218271533, -36.938493213430114 ], [ -73.000138447372692, -36.938489439588253 ], [ -73.000558247172947, -36.938454983168441 ], [ -73.000664644533515, -36.938332654818311 ], [ -73.000840418783469, -36.938130719844438 ], [ -73.001195006283993, -36.937640996069398 ], [ -73.001473642125561, -36.937424889208572 ], [ -73.001952016573924, -36.937432951097286 ], [ -73.002286356047946, -36.937713458771661 ], [ -73.002277748390881, -36.938042291137251 ], [ -73.002531915920756, -36.93876311874719 ], [ -73.002147251027878, -36.939141911523492 ], [ -73.002041467216657, -36.939246066731641 ], [ -73.001835905730175, -36.939242599512774 ], [ -73.001417732778904, -36.939564517437518 ], [ -73.001407724648317, -36.939947416738597 ], [ -73.001603847536103, -36.94027967289059 ], [ -73.001938382842852, -36.940560174394129 ], [ -73.001993129769531, -36.940590871201977 ], [ -73.002544265959273, -36.940899408112607 ], [ -73.0026057924714, -36.941175323743252 ], [ -73.00259867422109, -36.941450086737163 ], [ -73.002390954981308, -36.94155473204092 ], [ -73.002052275746152, -36.941440930355995 ], [ -73.001916140556418, -36.941325531714156 ], [ -73.001851769079792, -36.941270807278926 ], [ -73.001510109234516, -36.941265069180531 ], [ -73.00123565235566, -36.941318977994825 ], [ -73.001091921011891, -36.941586913225116 ], [ -73.001078459757352, -36.941635335033062 ], [ -73.00101596935292, -36.941860531001154 ], [ -73.000741649916307, -36.941910080572725 ], [ -73.000264640008851, -36.941847875978112 ], [ -73.000164184105586, -36.941678137209067 ], [ -73.000003223972953, -36.941406387677333 ], [ -72.999527620827266, -36.941290186999446 ], [ -72.999251899120466, -36.94139372539906 ], [ -72.999031317802448, -36.94199389899206 ], [ -72.998810635873141, -36.942594003240494 ], [ -72.99886880268609, -36.942978071959146 ], [ -72.999130864610663, -36.943419615051667 ], [ -72.999710903196359, -36.944745289384528 ], [ -72.999834793450461, -36.945243075230131 ], [ -72.999662174083781, -36.946610077071703 ], [ -72.999653561036823, -36.946938984476425 ], [ -73.000056127556675, -36.94722066398699 ], [ -73.000326181792332, -36.947333317695133 ], [ -73.000455715263058, -36.947610407517786 ], [ -73.000243744297023, -36.947881750835414 ], [ -73.000033169312971, -36.948099027676633 ], [ -72.999882022376525, -36.948641735709252 ], [ -72.999591798267787, -36.949299312594221 ], [ -72.999508844241177, -36.949843262656444 ], [ -72.999567572501206, -36.950227310623859 ], [ -73.000102581236646, -36.950677870058897 ], [ -73.000916328221606, -36.950907963302654 ], [ -73.001266611893612, -36.950984476637991 ], [ -73.002547312146405, -36.95126432996301 ], [ -73.003089374453467, -36.951440262100334 ], [ -73.003593003239402, -36.95175821818821 ], [ -73.003895890000379, -36.951949528321343 ], [ -73.004567829832908, -36.95239795122226 ], [ -73.004970440370201, -36.952679538041714 ], [ -73.005841363326354, -36.953352140189807 ], [ -73.006304149309599, -36.95396377282615 ], [ -73.007315711608328, -36.954471989179666 ], [ -73.007517431898634, -36.954557416130562 ], [ -73.007991872624373, -36.954758265962234 ], [ -73.009138694255427, -36.955327277309728 ], [ -73.00960656919473, -36.955718145858896 ], [ -73.009579464327686, -36.956758705452394 ], [ -73.009016447918299, -36.957407154706473 ], [ -73.008388207531084, -36.957892355477263 ], [ -73.007756425985036, -36.958539729119146 ], [ -73.007472822459931, -36.958918003645437 ], [ -73.007188562266364, -36.959350390561418 ], [ -73.006286010527376, -36.960153321974609 ], [ -73.006278807835429, -36.960159763532054 ], [ -73.006247228459941, -36.960304513238349 ], [ -73.006220609581419, -36.960426364144219 ], [ -73.006124117045189, -36.960869230924239 ], [ -73.005971477108744, -36.961470589756978 ], [ -73.006028117684039, -36.961908575980644 ], [ -73.006152089684818, -36.962406422647817 ], [ -73.006348392235651, -36.962738662672336 ], [ -73.006824139111814, -36.962854827043884 ], [ -73.007308898785197, -36.962592551659533 ], [ -73.008210179408081, -36.962111924409712 ], [ -73.008493147824268, -36.961733670056915 ], [ -73.009122812041213, -36.96119447487338 ], [ -73.009675045972202, -36.960982895198725 ], [ -73.010566953573417, -36.960835609373731 ], [ -73.010977453115544, -36.960842458581496 ], [ -73.011933758244496, -36.960858510647114 ], [ -73.012414320090599, -36.960758413261416 ], [ -73.014064432741037, -36.961088802109877 ], [ -73.0142684194808, -36.961475670991284 ], [ -73.019483399318247, -36.966208765622824 ], [ -73.020758763578243, -36.96551005827822 ], [ -73.02142328871642, -36.965144955729635 ], [ -73.021449068568444, -36.965128068382704 ], [ -73.023609088330346, -36.963710579447323 ], [ -73.025495254881278, -36.961867473404617 ], [ -73.026205401859471, -36.961088573133758 ], [ -73.026821652432588, -36.960412703696598 ], [ -73.028160422480283, -36.958898830832851 ], [ -73.029699365021074, -36.956941343811273 ], [ -73.030562149240765, -36.955725008448169 ], [ -73.031368873196826, -36.954586361475847 ], [ -73.032293156979165, -36.953092074696627 ], [ -73.033174428527403, -36.95159703066652 ], [ -73.034204653326171, -36.949392457786885 ], [ -73.03516842704839, -36.947335517411531 ], [ -73.037012849786407, -36.94377901923864 ], [ -73.038354841192714, -36.941498416730838 ], [ -73.039423070117863, -36.939141229423186 ], [ -73.039423645937973, -36.93913995497261 ], [ -73.040198294648505, -36.937473157851848 ], [ -73.040282341924794, -36.937287575611244 ], [ -73.040826026589258, -36.936086547134039 ], [ -73.041381471099101, -36.934239109107537 ], [ -73.041979582890008, -36.932392354415732 ], [ -73.042433130598852, -36.930953301274805 ], [ -73.043070625430119, -36.92899000410339 ], [ -73.043314916881755, -36.926817395374243 ], [ -73.043368590321663, -36.924497495751801 ], [ -73.043464624717103, -36.922606527335553 ], [ -73.043696310110349, -36.920487775867116 ], [ -73.044091830245108, -36.918570065167138 ], [ -73.044439731584973, -36.916047745167361 ], [ -73.04482630539782, -36.915193364223505 ], [ -73.044826629689638, -36.915192541854829 ], [ -73.045210090840015, -36.914230819809625 ], [ -73.045439251068998, -36.912477070253125 ], [ -73.045551131746066, -36.911857577273814 ], [ -73.045814989402871, -36.910396867095344 ], [ -73.046054614106623, -36.907633899774744 ], [ -73.046089463349745, -36.904727815558836 ], [ -73.046353743214752, -36.902285238466128 ], [ -73.046637478792192, -36.900010915147803 ], [ -73.046637596471484, -36.900009656565572 ], [ -73.046776921578797, -36.899151971767488 ], [ -73.046816510333372, -36.898908497631773 ], [ -73.047193973432613, -36.897332994549203 ], [ -73.047622484196168, -36.896010638744784 ], [ -73.047851555491931, -36.893792787221329 ], [ -73.048103488013382, -36.892300821684422 ], [ -73.04834421494995, -36.890916759036806 ], [ -73.048549221277568, -36.889725930897185 ], [ -73.049018344875137, -36.8883456575211 ], [ -73.049561094393383, -36.886556550723213 ], [ -73.050383454425273, -36.883699442363955 ], [ -73.050623401624208, -36.881846725042443 ], [ -73.050854829200958, -36.880602300963282 ], [ -73.051131309085832, -36.879435153848853 ], [ -73.051281782285812, -36.878784229021562 ], [ -73.051993632469774, -36.877371820473122 ], [ -73.052559280942958, -36.876304159098048 ], [ -73.053488312321576, -36.874561837576344 ], [ -73.054001416537119, -36.873628427896548 ], [ -73.055017057187243, -36.87190099507022 ], [ -73.055512664916009, -36.870877187881781 ], [ -73.056455453094912, -36.868675440213984 ], [ -73.057204035390839, -36.867101464922754 ], [ -73.057783106490973, -36.865993325023126 ], [ -73.058504131168931, -36.864432313794204 ], [ -73.059463576808142, -36.862312036058917 ], [ -73.060026918407644, -36.861185532759244 ], [ -73.060524016441491, -36.860211247156364 ], [ -73.06158248247614, -36.85849351536654 ], [ -73.062375179239041, -36.856942796871863 ], [ -73.0628081384599, -36.85531399145669 ], [ -73.063568789621669, -36.853099243458651 ], [ -73.050577654020032, -36.851727990684701 ], [ -73.04393127884596, -36.851025856855046 ], [ -73.043839062290459, -36.851145523219841 ], [ -73.043626135517002, -36.851349519313935 ], [ -73.043446220033573, -36.851488260643279 ], [ -73.043102316196709, -36.851639452471453 ], [ -73.042936852809589, -36.851707520756094 ], [ -73.042743842584272, -36.851871355507711 ], [ -73.042428618361185, -36.852129384052709 ], [ -73.04226305526106, -36.852202546887909 ], [ -73.04202819522159, -36.852274601235756 ], [ -73.041939362619786, -36.85230352934088 ], [ -73.041753888361384, -36.852411832089913 ], [ -73.041511596559573, -36.852529302459985 ], [ -73.041320948903461, -36.852596972447628 ], [ -73.041092720227439, -36.852658983868913 ], [ -73.040814529051943, -36.852699967777532 ], [ -73.040640727502335, -36.852724924275911 ], [ -73.040494095498516, -36.852798399943573 ], [ -73.040309305756367, -36.852881439338454 ] ] ] } },
{ "type": "Feature", "properties": { "capa": "ds19", "popup": "<strong>PARQUE VERDE</strong><br><br><strong>Programa:</strong> DS19<br><strong>Comuna:</strong> Chiguayante<br><strong>Región:</strong> Biobío<br><strong>Año de inicio:</strong> 2020", "etiqueta": "PARQUE VERDE" }, "geometry": { "type": "Polygon", "coordinates": [ [ [ -73.015846084800231, -36.945714821074581 ], [ -73.016145157314526, -36.944859721516714 ], [ -73.015863366589684, -36.944740668674228 ], [ -73.015703036176063, -36.944694661862975 ], [ -73.015599928446079, -36.944666954809122 ], [ -73.015519704399637, -36.944648454716372 ], [ -73.015405059606437, -36.94461153061993 ], [ -73.01536845056367, -36.944572318401718 ], [ -73.015297586064179, -36.944542802070842 ], [ -73.015278891224781, -36.944574566300446 ], [ -73.015255955438946, -36.944592879026494 ], [ -73.015221564336613, -36.944657063635454 ], [ -73.015187173234267, -36.944712067074107 ], [ -73.015175713426203, -36.944739577393932 ], [ -73.015164278770953, -36.94481296308701 ], [ -73.015164287754104, -36.944831311653047 ], [ -73.015164320991758, -36.944895525496953 ], [ -73.015164347941223, -36.944950557481285 ], [ -73.015141368137947, -36.94500544009329 ], [ -73.015118382046438, -36.945032834000102 ], [ -73.015060878190155, -36.945105909258857 ], [ -73.014991825592602, -36.94519731784861 ], [ -73.014980309190662, -36.94521561104051 ], [ -73.014980238223728, -36.945270567409651 ], [ -73.01499166209922, -36.945325552456829 ], [ -73.015026108897089, -36.94535309199069 ], [ -73.015049060852618, -36.945380611412297 ], [ -73.015117969719725, -36.945408193284806 ], [ -73.015429332085418, -36.945547926783092 ], [ -73.015846084800231, -36.945714821074581 ] ] ] } },
{ "type": "Feature", "properties": { "capa": "ds19", "popup": "<strong>MIRADOR DEL RIO</strong><br><br><strong>Programa:</strong> DS19<br><strong>Comuna:</strong> Chiguayante<br><strong>Región:</strong> Biobío<br><strong>Año de inicio:</strong> 2020", "etiqueta": "MIRADOR DEL RIO" }, "geometry": { "type": "Polygon", "coordinates": [ [ [ -73.034527727028191, -36.90501429142855 ], [ -73.033481397233047, -36.905284135698189 ], [ -73.033533678284257, -36.905928657093718 ], [ -73.034442447263345, -36.905919509375366 ], [ -73.034527727028191, -36.90501429142855 ] ] ] } },
{ "type": "Feature", "properties": { "capa": "ds19", "popup": "<strong>CONDOMINIO ING. ENRIQUE TIRAPEGUI</strong><br><br><strong>Programa:</strong> DS19<br><strong>Comuna:</strong> Chiguayante<br><strong>Región:</strong> Biobío<br><strong>Año de inicio:</strong> 2021", "etiqueta": "CONDOMINIO ING. ENRIQUE TIRAPEGUI" }, "geometry": { "type": "Polygon", "coordinates": [ [ [ -73.023830953340919, -36.948871346207788 ], [ -73.023321710982756, -36.948684484413313 ], [ -73.02249673954833, -36.949683797634222 ], [ -73.022195076292775, -36.950311286444546 ], [ -73.022387306780416, -36.950402588283261 ], [ -73.022596273780124, -36.950484293931694 ], [ -73.022847414885803, -36.950623766139046 ], [ -73.023436484235035, -36.949732072869764 ], [ -73.023198507041542, -36.949596894954169 ], [ -73.023830953340919, -36.948871346207788 ] ] ] } },
{ "type": "Feature", "properties": { "capa": "ds19", "popup": "<strong>MIRADOR DEL RIO II</strong><br><br><strong>Programa:</strong> DS19<br><strong>Comuna:</strong> Chiguayante<br><strong>Región:</strong> Biobío<br><strong>Año de inicio:</strong> 2021", "etiqueta": "MIRADOR DEL RIO II" }, "geometry": { "type": "Polygon", "coordinates": [ [ [ -73.03171621578457, -36.908100012819681 ], [ -73.031734871098081, -36.908432859589588 ], [ -73.033989303796361, -36.908312974094855 ], [ -73.03397788531079, -36.907993065427391 ], [ -73.03171621578457, -36.908100012819681 ] ] ] } },
{ "type": "Feature", "properties": { "capa": "ds19", "popup": "<strong>CONDOMINIO ALTO CHIGUAYANTE</strong><br><br><strong>Programa:</strong> DS19<br><strong>Comuna:</strong> Chiguayante<br><strong>Región:</strong> Biobío<br><strong>Año de inicio:</strong> 2017", "etiqueta": "CONDOMINIO ALTO CHIGUAYANTE" }, "geometry": { "type": "Polygon", "coordinates": [ [ [ -73.033148860677784, -36.905136264518383 ], [ -73.033044019199295, -36.904836061228941 ], [ -73.03151739795095, -36.905110232575488 ], [ -73.031587240167653, -36.905470341048506 ], [ -73.033148860677784, -36.905136264518383 ] ] ] } },
{ "type": "Feature", "properties": { "capa": "ds19", "popup": "<strong>CONDOMINIO ALTO CHIGUAYANTE II</strong><br><br><strong>Programa:</strong> DS19<br><strong>Comuna:</strong> Chiguayante<br><strong>Región:</strong> Biobío<br><strong>Año de inicio:</strong> 2018", "etiqueta": "CONDOMINIO ALTO CHIGUAYANTE II" }, "geometry": { "type": "Polygon", "coordinates": [ [ [ -73.033171925821023, -36.905136025317617 ], [ -73.034812147121897, -36.904805392404228 ], [ -73.034707294863608, -36.904505188531246 ], [ -73.033066983731217, -36.904829674615115 ], [ -73.033171925821023, -36.905136025317617 ] ] ] } },
{ "type": "Feature", "properties": { "capa": "ds19", "popup": "<strong>AIRES DE CHIGUAYANTE</strong><br><br><strong>Programa:</strong> DS19<br><strong>Comuna:</strong> Chiguayante<br><strong>Región:</strong> Biobío<br><strong>Año de inicio:</strong> 2018", "etiqueta": "AIRES DE CHIGUAYANTE" }, "geometry": { "type": "Polygon", "coordinates": [ [ [ -73.02212096618014, -36.946221635780248 ], [ -73.020874363280583, -36.945759790567365 ], [ -73.020419089009764, -36.946572649220975 ], [ -73.021750563839049, -36.947079057617444 ], [ -73.02212096618014, -36.946221635780248 ] ] ] } },
{ "type": "Feature", "properties": { "capa": "ds19", "popup": "<strong>AIRES DE CHIGUAYANTE II</strong><br><br><strong>Programa:</strong> DS19<br><strong>Comuna:</strong> Chiguayante<br><strong>Región:</strong> Biobío<br><strong>Año de inicio:</strong> 2019", "etiqueta": "AIRES DE CHIGUAYANTE II" }, "geometry": { "type": "Polygon", "coordinates": [ [ [ -73.020347433094486, -36.946478967875471 ], [ -73.020714800028244, -36.945725637533393 ], [ -73.019484095512581, -36.945233161157077 ], [ -73.019065789610636, -36.945982427108632 ], [ -73.020347433094486, -36.946478967875471 ] ] ] } },
{ "type": "Feature", "properties": { "capa": "ds19", "popup": "<strong>O'HIGGINS ORIENTE</strong><br><br><strong>Programa:</strong> DS19<br><strong>Comuna:</strong> Chiguayante<br><strong>Región:</strong> Biobío<br><strong>Año de inicio:</strong> 2022", "etiqueta": "O'HIGGINS ORIENTE" }, "geometry": { "type": "Polygon", "coordinates": [ [ [ -73.009333141785191, -36.944424400632215 ], [ -73.010429373892705, -36.944365731845686 ], [ -73.010328232574864, -36.944076295775886 ], [ -73.009488117341391, -36.944098461160827 ], [ -73.009333141785191, -36.944424400632215 ] ] ] } },
{ "type": "Feature", "properties": { "capa": "ds19", "popup": "<strong>CONDOMINIO FUENTES DE PORVENIR</strong><br><br><strong>Programa:</strong> DS19<br><strong>Comuna:</strong> Chiguayante<br><strong>Región:</strong> Biobío<br><strong>Año de inicio:</strong> 2023", "etiqueta": "CONDOMINIO FUENTES DE PORVENIR" }, "geometry": { "type": "Polygon", "coordinates": [ [ [ -73.015744694649058, -36.946846743744381 ], [ -73.016146996165915, -36.945973482345288 ], [ -73.015213528906401, -36.945605639799886 ], [ -73.014813623196417, -36.94652318165403 ], [ -73.015744694649058, -36.946846743744381 ] ] ] } },
{ "type": "Feature", "properties": { "capa": "ds19", "popup": "<strong>FUENTES DE PORVENIR 1</strong><br><br><strong>Programa:</strong> DS19<br><strong>Comuna:</strong> Chiguayante<br><strong>Región:</strong> Biobío<br><strong>Año de inicio:</strong> 2023", "etiqueta": "FUENTES DE PORVENIR 1" }, "geometry": { "type": "Polygon", "coordinates": [ [ [ -73.015744694649058, -36.946846743744381 ], [ -73.016146996165915, -36.945973482345288 ], [ -73.015213528906401, -36.945605639799886 ], [ -73.014813623196417, -36.94652318165403 ], [ -73.015744694649058, -36.946846743744381 ] ] ] } },
{ "type": "Feature", "properties": { "capa": "ds19", "popup": "<strong>INGENIERO ENRIQUE TIRAPEGUI II</strong><br><br><strong>Programa:</strong> DS19<br><strong>Comuna:</strong> Chiguayante<br><strong>Región:</strong> Biobío<br><strong>Año de inicio:</strong> 2023", "etiqueta": "INGENIERO ENRIQUE TIRAPEGUI II" }, "geometry": { "type": "Polygon", "coordinates": [ [ [ -73.022000160740731, -36.950277114632122 ], [ -73.022670395570856, -36.949453531985341 ], [ -73.021649800711941, -36.949064525841976 ], [ -73.021250325294986, -36.949927851268065 ], [ -73.021332089053843, -36.950006804287256 ], [ -73.022000160740731, -36.950277114632122 ] ] ] } },
{ "type": "Feature", "properties": { "capa": "ds19", "popup": "<strong>MIRADOR MANQUIMAVIDA</strong><br><br><strong>Programa:</strong> DS19<br><strong>Comuna:</strong> Chiguayante<br><strong>Región:</strong> Biobío<br><strong>Año de inicio:</strong> 2023", "etiqueta": "MIRADOR MANQUIMAVIDA" }, "geometry": { "type": "Polygon", "coordinates": [ [ [ -73.01262525619741, -36.938459686830761 ], [ -73.011564995328797, -36.938058866411822 ], [ -73.011190594586381, -36.938857052983131 ], [ -73.012304962781158, -36.939232587010991 ], [ -73.01262525619741, -36.938459686830761 ] ] ] } },
{ "type": "Feature", "properties": { "capa": "ds19", "popup": "<strong>MIRADOR DEL RÍO III</strong><br><br><strong>Programa:</strong> DS19<br><strong>Comuna:</strong> Chiguayante<br><strong>Región:</strong> Biobío<br><strong>Año de inicio:</strong> 2023", "etiqueta": "MIRADOR DEL RÍO III" }, "geometry": { "type": "Polygon", "coordinates": [ [ [ -73.034897544566064, -36.896788990866 ], [ -73.033336888846549, -36.896248196727456 ], [ -73.032731373141075, -36.898124288569491 ], [ -73.033638689544333, -36.898384507151775 ], [ -73.033629738730852, -36.898602071639289 ], [ -73.034950363708134, -36.898925031846254 ], [ -73.035313470830815, -36.897084350777135 ], [ -73.035218813552689, -36.897010340826007 ], [ -73.034897544566064, -36.896788990866 ] ] ] } },
{ "type": "Feature", "properties": { "capa": "colegios", "popup": "<strong>ESCUELA BASICA REPUBLICA DE GRECIA</strong><br><br><strong>Dirección:</strong> LEONERA ESCOCIA 82", "etiqueta": "" }, "geometry": { "type": "Point", "coordinates": [ -73.015778, -36.955891 ] } },
{ "type": "Feature", "properties": { "capa": "colegios", "popup": "<strong>ESCUELA BALMACEDA SAAVEDRA L.</strong><br><br><strong>Dirección:</strong> LOS ANDES 377", "etiqueta": "" }, "geometry": { "type": "Point", "coordinates": [ -73.017731, -36.955601 ] } },
{ "type": "Feature", "properties": { "capa": "colegios", "popup": "<strong>COLEGIO PORVENIR SCHOOL</strong><br><br><strong>Dirección:</strong> PORVENIR 787", "etiqueta": "" }, "geometry": { "type": "Point", "coordinates": [ -73.022293, -36.951279 ] } },
{ "type": "Feature", "properties": { "capa": "colegios", "popup": "<strong>ESCUELA DE LENGUAJE Y JARDÍN INFANTIL PORVENIR</strong><br><br><strong>Dirección:</strong> CALLE PORVENIR 787", "etiqueta": "" }, "geometry": { "type": "Point", "coordinates": [ -73.02175, -36.95046 ] } },
{ "type": "Feature", "properties": { "capa": "colegios", "popup": "<strong>ESCUELA DE LENGUAJE BELEN</strong><br><br><strong>Dirección:</strong> CALLE ESPERANZA 673", "etiqueta": "" }, "geometry": { "type": "Point", "coordinates": [ -73.02241, -36.94835 ] } },
{ "type": "Feature", "properties": { "capa": "colegios", "popup": "<strong>ESCUELA ESPECIAL DE LENGUAJE DESCUBRE PALABRAS</strong><br><br><strong>Dirección:</strong> COQUIMBO 681", "etiqueta": "" }, "geometry": { "type": "Point", "coordinates": [ -73.02544, -36.94735 ] } },
{ "type": "Feature", "properties": { "capa": "colegios", "popup": "<strong>COLEGIO LICANRAY</strong><br><br><strong>Dirección:</strong> BERNARDO O'HIGGINS 6355", "etiqueta": "" }, "geometry": { "type": "Point", "coordinates": [ -73.010483, -36.945042 ] } },
{ "type": "Feature", "properties": { "capa": "colegios", "popup": "<strong>ESCUELA ESPECIAL DE LENGUAJE MANQUIMAVIDA</strong><br><br><strong>Dirección:</strong> MANQUIMAVIDA 799", "etiqueta": "" }, "geometry": { "type": "Point", "coordinates": [ -73.02692, -36.943822 ] } },
{ "type": "Feature", "properties": { "capa": "colegios", "popup": "<strong>ESCUELA DIFERENCIAL ASPAUT CHIGUAYANTE</strong><br><br><strong>Dirección:</strong> CALLE MANQUIMAVIDA 317", "etiqueta": "" }, "geometry": { "type": "Point", "coordinates": [ -73.024254, -36.94297 ] } },
{ "type": "Feature", "properties": { "capa": "colegios", "popup": "<strong>INSTITUTO HUMANIDADES MONSEÑOR JOSE MANUEL SANTO ASCARZA</strong><br><br><strong>Dirección:</strong> AVENIDA MANUEL RODRIGUEZ 2340", "etiqueta": "" }, "geometry": { "type": "Point", "coordinates": [ -73.018173, -36.942719 ] } },
{ "type": "Feature", "properties": { "capa": "colegios", "popup": "<strong>ESCUELA DE LENGUAJE CHILEDUCA</strong><br><br><strong>Dirección:</strong> LOS AROMOS 201", "etiqueta": "" }, "geometry": { "type": "Point", "coordinates": [ -73.01535, -36.941437 ] } },
{ "type": "Feature", "properties": { "capa": "colegios", "popup": "<strong>ESCUELA PARTICULAR PRESIDENTE GABRIEL GONZÁLEZ VIDELA</strong><br><br><strong>Dirección:</strong> AVENIDA MANUEL RODRIGUEZ 2040", "etiqueta": "" }, "geometry": { "type": "Point", "coordinates": [ -73.019524, -36.940159 ] } },
{ "type": "Feature", "properties": { "capa": "colegios", "popup": "<strong>ESCUELA BASICA MANQUIMAVIDA</strong><br><br><strong>Dirección:</strong> MANQUIMAVIDA 80", "etiqueta": "" }, "geometry": { "type": "Point", "coordinates": [ -73.016632, -36.940041 ] } },
{ "type": "Feature", "properties": { "capa": "colegios", "popup": "<strong>COLEGIO MADRE PAULINA</strong><br><br><strong>Dirección:</strong> CALLE BERNARDO O'HIGGINS 5433", "etiqueta": "" }, "geometry": { "type": "Point", "coordinates": [ -73.010696, -36.93927 ] } },
{ "type": "Feature", "properties": { "capa": "colegios", "popup": "<strong>ESCUELA PARTICULAR MANQUIMAVIDA</strong><br><br><strong>Dirección:</strong> PASAJE CARRIEL 12", "etiqueta": "" }, "geometry": { "type": "Point", "coordinates": [ -73.019791, -36.93644 ] } },
{ "type": "Feature", "properties": { "capa": "colegios", "popup": "<strong>COLEGIO OLIMPIA GUZMAN BELLO</strong><br><br><strong>Dirección:</strong> PROGRESO 226", "etiqueta": "" }, "geometry": { "type": "Point", "coordinates": [ -73.022202, -36.9356 ] } },
{ "type": "Feature", "properties": { "capa": "colegios", "popup": "<strong>COLEGIO PARTICULAR KENNEDY SCHOOL</strong><br><br><strong>Dirección:</strong> LIBERTAD 244", "etiqueta": "" }, "geometry": { "type": "Point", "coordinates": [ -73.024643, -36.93449 ] } },
{ "type": "Feature", "properties": { "capa": "colegios", "popup": "<strong>COLEGIO AURORA DE CHILE SUR</strong><br><br><strong>Dirección:</strong> AVENIDA MANUEL RODRIGUEZ 1249", "etiqueta": "" }, "geometry": { "type": "Point", "coordinates": [ -73.02166, -36.932941 ] } },
{ "type": "Feature", "properties": { "capa": "colegios", "popup": "<strong>COLEGIO PARTICULAR ANDRÉS BELLO</strong><br><br><strong>Dirección:</strong> PINARES 503", "etiqueta": "" }, "geometry": { "type": "Point", "coordinates": [ -73.024117, -36.932499 ] } },
{ "type": "Feature", "properties": { "capa": "colegios", "popup": "<strong>ESCUELA BELGICA</strong><br><br><strong>Dirección:</strong> AVENIDA LOS HEROES 360", "etiqueta": "" }, "geometry": { "type": "Point", "coordinates": [ -73.02829, -36.93042 ] } },
{ "type": "Feature", "properties": { "capa": "colegios", "popup": "<strong>ESCUELA LA ESPERANZA</strong><br><br><strong>Dirección:</strong> BLANCO ENCALADA 835", "etiqueta": "" }, "geometry": { "type": "Point", "coordinates": [ -73.02716064, -36.92992783 ] } },
{ "type": "Feature", "properties": { "capa": "colegios", "popup": "<strong>ESCUELA MIGUEL DE CERVANTES</strong><br><br><strong>Dirección:</strong> VILLA SAN GUILLERMO 0", "etiqueta": "" }, "geometry": { "type": "Point", "coordinates": [ -73.035606, -36.926891 ] } },
{ "type": "Feature", "properties": { "capa": "colegios", "popup": "<strong>COLEGIO PARTICULAR AURORA DE CHILE</strong><br><br><strong>Dirección:</strong> AVENIDA MANUEL RODRIGUEZ 604", "etiqueta": "" }, "geometry": { "type": "Point", "coordinates": [ -73.025398, -36.926361 ] } },
{ "type": "Feature", "properties": { "capa": "colegios", "popup": "<strong>COLEGIO AURORA DE CHILE CHIGUAYANTE</strong><br><br><strong>Dirección:</strong> MANUEL RODRIGUEZ 586", "etiqueta": "" }, "geometry": { "type": "Point", "coordinates": [ -73.025383, -36.92593 ] } },
{ "type": "Feature", "properties": { "capa": "colegios", "popup": "<strong>LICEO CHIGUAYANTE</strong><br><br><strong>Dirección:</strong> LA MARINA 350", "etiqueta": "" }, "geometry": { "type": "Point", "coordinates": [ -73.030617, -36.922901 ] } },
{ "type": "Feature", "properties": { "capa": "colegios", "popup": "<strong>COLEGIO SAN PATRICIO</strong><br><br><strong>Dirección:</strong> COCHRANE 567", "etiqueta": "" }, "geometry": { "type": "Point", "coordinates": [ -73.029694, -36.922371 ] } },
{ "type": "Feature", "properties": { "capa": "colegios", "popup": "<strong>COLEGIO GOLDEN SCHOOL</strong><br><br><strong>Dirección:</strong> COCHRANE 162", "etiqueta": "" }, "geometry": { "type": "Point", "coordinates": [ -73.028442, -36.921589 ] } },
{ "type": "Feature", "properties": { "capa": "colegios", "popup": "<strong>LICEO JOSE HIPOLITO SALAS Y TORO</strong><br><br><strong>Dirección:</strong> AVENIDA MANUEL RODRIGUEZ 226", "etiqueta": "" }, "geometry": { "type": "Point", "coordinates": [ -73.027458, -36.92054 ] } },
{ "type": "Feature", "properties": { "capa": "colegios", "popup": "<strong>ESCUELA DE LENGUAJE ALTOS DE CHIGUAYANTE</strong><br><br><strong>Dirección:</strong> CALLE CORNELIO SAAVEDRA 21", "etiqueta": "" }, "geometry": { "type": "Point", "coordinates": [ -73.030556, -36.916084 ] } },
{ "type": "Feature", "properties": { "capa": "colegios", "popup": "<strong>COLEGIO DE LENGUAJE SENDEROS DEL BIOBÍO</strong><br><br><strong>Dirección:</strong> CALLE NUEVA 37", "etiqueta": "" }, "geometry": { "type": "Point", "coordinates": [ -73.02256, -36.915012 ] } },
{ "type": "Feature", "properties": { "capa": "colegios", "popup": "<strong>ESCUELA BASICA JOHN F. KENNEDY</strong><br><br><strong>Dirección:</strong> PRAT 200", "etiqueta": "" }, "geometry": { "type": "Point", "coordinates": [ -73.02565, -36.91293 ] } },
{ "type": "Feature", "properties": { "capa": "colegios", "popup": "<strong>COLEGIO PARTICULAR SANTA INES</strong><br><br><strong>Dirección:</strong> PRAT 147", "etiqueta": "" }, "geometry": { "type": "Point", "coordinates": [ -73.027359, -36.91246 ] } },
{ "type": "Feature", "properties": { "capa": "colegios", "popup": "<strong>COLEGIO PACIFIC SCHOOL</strong><br><br><strong>Dirección:</strong> LAUTARO 185", "etiqueta": "" }, "geometry": { "type": "Point", "coordinates": [ -73.029083, -36.911518 ] } },
{ "type": "Feature", "properties": { "capa": "colegios", "popup": "<strong>ESCUELA ESPECIAL CENTRO DE CAPACITACIÓN E INTEGRACIÓN LABORAL KRIES</strong><br><br><strong>Dirección:</strong> CALLE 8 ORIENTE 0", "etiqueta": "" }, "geometry": { "type": "Point", "coordinates": [ -73.03047, -36.91145 ] } },
{ "type": "Feature", "properties": { "capa": "colegios", "popup": "<strong>LICEO OBISPO SAN MIGUEL</strong><br><br><strong>Dirección:</strong> CALLE 8 ORIENTE 1338", "etiqueta": "" }, "geometry": { "type": "Point", "coordinates": [ -73.031609, -36.90461 ] } },
{ "type": "Feature", "properties": { "capa": "colegios", "popup": "<strong>COLEGIO CHILENO ARABE</strong><br><br><strong>Dirección:</strong> AVENIDA LA ALHAMBRA 201", "etiqueta": "" }, "geometry": { "type": "Point", "coordinates": [ -73.027344, -36.903419 ] } },
{ "type": "Feature", "properties": { "capa": "colegios", "popup": "<strong>COLEGIO CONCEPCION CHIGUAYANTE</strong><br><br><strong>Dirección:</strong> COLON 180", "etiqueta": "" }, "geometry": { "type": "Point", "coordinates": [ -73.028137, -36.902611 ] } },
{ "type": "Feature", "properties": { "capa": "colegios", "popup": "<strong>CENTRO DE NIVELACIÓN Y DE CAPACITACIÓN PARA ADULTOS MADRE MARIA M Y S</strong><br><br><strong>Dirección:</strong> CALLE GILBERTO FUENZALIDA 13", "etiqueta": "" }, "geometry": { "type": "Point", "coordinates": [ -73.02916, -36.90105 ] } },
{ "type": "Feature", "properties": { "capa": "colegios", "popup": "<strong>COLEGIO PINARES</strong><br><br><strong>Dirección:</strong> CAMINO A CHIGUAYANTE 5583", "etiqueta": "" }, "geometry": { "type": "Point", "coordinates": [ -73.03553, -36.8886 ] } },
{ "type": "Feature", "properties": { "capa": "colegios", "popup": "<strong>COLEGIO ITAHUE DE CHIGUAYANTE</strong><br><br><strong>Dirección:</strong> VIA DEL CERRO VERDE 100", "etiqueta": "" }, "geometry": { "type": "Point", "coordinates": [ -73.03325, -36.876333 ] } },
{ "type": "Feature", "properties": { "capa": "colegios", "popup": "<strong>COLEGIO CONCEPCION</strong><br><br><strong>Dirección:</strong> AVENIDA PEDRO DE VALDIVIA 1945", "etiqueta": "" }, "geometry": { "type": "Point", "coordinates": [ -73.04931, -36.857386 ] } },
{ "type": "Feature", "properties": { "capa": "jardines", "popup": "<strong>CHIGUAY</strong><br><br><strong>Dirección:</strong> LA MARINA 519 ", "etiqueta": "" }, "geometry": { "type": "MultiPoint", "coordinates": [ [ -73.029666, -36.926456 ] ] } },
{ "type": "Feature", "properties": { "capa": "jardines", "popup": "<strong>LA LEONERA</strong><br><br><strong>Dirección:</strong> LOS ANDES ESQ.ESCOCIA S/N, LEONERA ", "etiqueta": "" }, "geometry": { "type": "MultiPoint", "coordinates": [ [ -73.015718, -36.955341 ] ] } },
{ "type": "Feature", "properties": { "capa": "jardines", "popup": "<strong>HÉROES DEL SOL</strong><br><br><strong>Dirección:</strong> LA MARINA S/N ESQUINA LOS HEROES ", "etiqueta": "" }, "geometry": { "type": "MultiPoint", "coordinates": [ [ -73.028503, -36.931023 ] ] } },
{ "type": "Feature", "properties": { "capa": "jardines", "popup": "<strong>LA ESPERANZA</strong><br><br><strong>Dirección:</strong> BLANCO ENCALADA #835 ", "etiqueta": "" }, "geometry": { "type": "MultiPoint", "coordinates": [ [ -73.026138, -36.930264 ] ] } },
{ "type": "Feature", "properties": { "capa": "jardines", "popup": "<strong>LA ARAUCANA</strong><br><br><strong>Dirección:</strong> O'HIGGINS # 1480 ", "etiqueta": "" }, "geometry": { "type": "MultiPoint", "coordinates": [ [ -73.030438, -36.904705 ] ] } },
{ "type": "Feature", "properties": { "capa": "jardines", "popup": "<strong>BALMACEDA SAAVEDRA</strong><br><br><strong>Dirección:</strong> LOS ANDES #377, VILLA FUTURO ", "etiqueta": "" }, "geometry": { "type": "MultiPoint", "coordinates": [ [ -73.018294, -36.955625 ] ] } },
{ "type": "Feature", "properties": { "capa": "jardines", "popup": "<strong>FUTURA ESPERANZA</strong><br><br><strong>Dirección:</strong> CALLE ITALIA N 600, VILLA LA LEONERA, CHIGUAYANTE ", "etiqueta": "" }, "geometry": { "type": "MultiPoint", "coordinates": [ [ -73.019472, -36.953514 ] ] } },
{ "type": "Feature", "properties": { "capa": "jardines", "popup": "<strong>NA</strong><br><br><strong>Dirección:</strong> NA ", "etiqueta": "" }, "geometry": { "type": "MultiPoint", "coordinates": [ [ -73.016150000672241, -36.953181000414183 ] ] } },
{ "type": "Feature", "properties": { "capa": "jardines", "popup": "<strong>NA</strong><br><br><strong>Dirección:</strong> NA ", "etiqueta": "" }, "geometry": { "type": "MultiPoint", "coordinates": [ [ -73.020289999873143, -36.946762000351882 ] ] } },
{ "type": "Feature", "properties": { "capa": "bomberos", "popup": "<strong>Cuerpo de Bomberos</strong><br><br><strong>Dirección:</strong> Pedro Angulo Novoa 714", "etiqueta": "" }, "geometry": { "type": "Point", "coordinates": [ -73.029227655884597, -36.912117015559012 ] } },
{ "type": "Feature", "properties": { "capa": "comisarias", "popup": "<strong>7MA. COM. CHIGUAYANTE</strong><br><br><strong>Dirección:</strong> CIENTO UNO 27", "etiqueta": "" }, "geometry": { "type": "Point", "coordinates": [ -73.02689972355256, -36.939713710686419 ] } },
{ "type": "Feature", "properties": { "capa": "salud", "popup": "<strong>SAPU Leonera</strong><br><br><strong>Tipo de atención:</strong> Servicio de Atención Primaria de Urgencia (SAPU)<br><strong>Dirección:</strong>  NA", "etiqueta": "" }, "geometry": { "type": "Point", "coordinates": [ -73.012869, -36.954675 ] } },
{ "type": "Feature", "properties": { "capa": "salud", "popup": "<strong>Centro de Salud Familiar La Leonera</strong><br><br><strong>Tipo de atención:</strong> Centro de Salud Familiar (CESFAM)<br><strong>Dirección:</strong>  NA", "etiqueta": "" }, "geometry": { "type": "Point", "coordinates": [ -73.01309, -36.95443 ] } },
{ "type": "Feature", "properties": { "capa": "salud", "popup": "<strong>Centro de Salud Familiar Pinares Dra. Eloísa Díaz Insunza</strong><br><br><strong>Tipo de atención:</strong> Centro de Salud Familiar (CESFAM)<br><strong>Dirección:</strong>  1295", "etiqueta": "" }, "geometry": { "type": "Point", "coordinates": [ -73.02741, -36.93344 ] } },
{ "type": "Feature", "properties": { "capa": "salud", "popup": "<strong>SAR Chiguayante</strong><br><br><strong>Tipo de atención:</strong> Servicio de Atención Primaria de Urgencia de Alta Resolutividad (SAR)<br><strong>Dirección:</strong>  511", "etiqueta": "" }, "geometry": { "type": "Point", "coordinates": [ -73.029039, -36.92623 ] } },
{ "type": "Feature", "properties": { "capa": "salud", "popup": "<strong>SAPU Dental Chiguayante</strong><br><br><strong>Tipo de atención:</strong> Servicio de Atención Primaria de Urgencia (SAPU)<br><strong>Dirección:</strong>  511", "etiqueta": "" }, "geometry": { "type": "Point", "coordinates": [ -73.02921, -36.925655 ] } },
{ "type": "Feature", "properties": { "capa": "salud", "popup": "<strong>Centro de Salud Familiar Chiguayante</strong><br><br><strong>Tipo de atención:</strong> Centro de Salud Familiar (CESFAM)<br><strong>Dirección:</strong>  NA", "etiqueta": "" }, "geometry": { "type": "Point", "coordinates": [ -73.0288, -36.92542 ] } },
{ "type": "Feature", "properties": { "capa": "salud", "popup": "<strong>Centro de Salud Familiar Dr. Virginio Gómez G. Valle La Piedra</strong><br><br><strong>Tipo de atención:</strong> Centro de Salud Familiar (CESFAM)<br><strong>Dirección:</strong>  3973", "etiqueta": "" }, "geometry": { "type": "Point", "coordinates": [ -73.021435, -36.924206 ] } },
{ "type": "Feature", "properties": { "capa": "municipios", "popup": "<strong>Municipalidad de Chiguayante</strong><br><br><strong>Dirección:</strong> Orozimbo Barbosa Nº 104<br><strong>Región:</strong> Biobío", "etiqueta": "" }, "geometry": { "type": "Point", "coordinates": [ -73.035738312999968, -36.916868701999917 ] } }
]
}
