{
"type": "FeatureCollection",
"name": "8303",
"crs": { "type": "name", "properties": { "name": "urn:ogc:def:crs:OGC:1.3:CRS84" } },
"features": [
{ "type": "Feature", "properties": { "capa": "comuna", "popup": "", "etiqueta": "" }, "geometry": { "type": "Polygon", "coordinates": [ [ [ -72.471645304970039, -36.911028492662588 ], [ -72.469766952863765, -36.91319179751423 ], [ -72.457287944110661, -36.904765110236454 ], [ -72.45136489689493, -36.908269891007251 ], [ -72.451725520175856, -36.909530256639179 ], [ -72.451878657778963, -36.909799415502157 ], [ -72.452039673607132, -36.909933492502972 ], [ -72.453034213729538, -36.910756909673353 ], [ -72.45566286301559, -36.912894970802526 ], [ -72.45769034623882, -36.914510940986453 ], [ -72.45816397488754, -36.91522394053036 ], [ -72.459208055301232, -36.916796352890373 ], [ -72.460091119886769, -36.918004773932246 ], [ -72.460352380514109, -36.918204189641735 ], [ -72.461232919935384, -36.91885829171504 ], [ -72.461549865330568, -36.927191869188327 ], [ -72.453913665290997, -36.927483510793152 ], [ -72.453707781309348, -36.926122846524756 ], [ -72.44845666404467, -36.926546252802545 ], [ -72.444906449278292, -36.926767265086646 ], [ -72.440646300434437, -36.927054007904694 ], [ -72.431658592236445, -36.926810338443815 ], [ -72.422396318463441, -36.926055388896259 ], [ -72.42021053322253, -36.931045401834261 ], [ -72.407628661081191, -36.928802312260132 ], [ -72.407413435518905, -36.928756973710669 ], [ -72.407291182893573, -36.927934250682966 ], [ -72.407167707661145, -36.92671054819332 ], [ -72.407145669292277, -36.925912551106173 ], [ -72.407073973851126, -36.925172001268393 ], [ -72.406689647623125, -36.924194860910902 ], [ -72.406256980354726, -36.923797856383324 ], [ -72.405818185677802, -36.923581049577294 ], [ -72.405780249823351, -36.923377387870083 ], [ -72.405381873045997, -36.923165988262426 ], [ -72.404767646377195, -36.922661405212928 ], [ -72.404155162440077, -36.922102813867262 ], [ -72.403481824828972, -36.92135819020411 ], [ -72.403417403945014, -36.921230573826435 ], [ -72.403143733990333, -36.920674879168303 ], [ -72.402380544189569, -36.919910239491131 ], [ -72.401967303887517, -36.919477673968963 ], [ -72.401624750218531, -36.91892498365614 ], [ -72.401580496512693, -36.918248153373611 ], [ -72.401691098887099, -36.9180252476405 ], [ -72.401005998735656, -36.917771417654876 ], [ -72.400054449287822, -36.917390145725207 ], [ -72.399578420340674, -36.917672603820776 ], [ -72.398819111261915, -36.917908334052655 ], [ -72.398136365594837, -36.917996975722509 ], [ -72.39754914318182, -36.917939020592065 ], [ -72.396207635069132, -36.917391515342537 ], [ -72.39558522744305, -36.917193062060093 ], [ -72.395341359996252, -36.917205724049673 ], [ -72.394455129747641, -36.917587291364704 ], [ -72.394052326072568, -36.917510904653966 ], [ -72.393245809627317, -36.917051617510737 ], [ -72.392722934436421, -36.916895991646548 ], [ -72.391311800601002, -36.916603592049029 ], [ -72.390123096816438, -36.91634770395487 ], [ -72.389489932763169, -36.916302240929973 ], [ -72.38947573938168, -36.916243301992139 ], [ -72.389116889375131, -36.91576233994072 ], [ -72.388965375926048, -36.915452600957408 ], [ -72.389072491938848, -36.914986303724845 ], [ -72.389119190858892, -36.91450077009781 ], [ -72.389044659436408, -36.914401556279465 ], [ -72.389012522207125, -36.914358777570534 ], [ -72.388551087290054, -36.914190896708689 ], [ -72.388334245658584, -36.914010347213441 ], [ -72.387915086357097, -36.913510066899512 ], [ -72.387442674027298, -36.913067105814548 ], [ -72.38710600881501, -36.912820887123694 ], [ -72.386836489975252, -36.912702289163711 ], [ -72.386383490238728, -36.912575124445432 ], [ -72.385941649374644, -36.912268055913522 ], [ -72.385351428385206, -36.911850296299107 ], [ -72.385098031609871, -36.912353609188344 ], [ -72.384761076241745, -36.912807047915358 ], [ -72.384122689383418, -36.913388877154318 ], [ -72.383540582875909, -36.913919498074371 ], [ -72.382848044673921, -36.914478655718334 ], [ -72.382284058982364, -36.914689741123318 ], [ -72.381629827639046, -36.914824419305106 ], [ -72.381063336546148, -36.915109972405119 ], [ -72.380499341871428, -36.915321050317054 ], [ -72.379078643673168, -36.915753306162223 ], [ -72.378133119225922, -36.915913604937245 ], [ -72.377065623326033, -36.916342940752664 ], [ -72.376275633187078, -36.916718017597724 ], [ -72.375322788368578, -36.917442051834627 ], [ -72.374738336359897, -36.918248752350017 ], [ -72.374027973786042, -36.92002138158481 ], [ -72.373237455437717, -36.921419626565488 ], [ -72.372171419300145, -36.922737272565577 ], [ -72.371275438737442, -36.924505714125736 ], [ -72.370245298380325, -36.925521320659676 ], [ -72.369910586105476, -36.926412799609771 ], [ -72.369641774239852, -36.927149616850173 ], [ -72.369398223898344, -36.927817144755195 ], [ -72.369422334680564, -36.928673188126695 ], [ -72.369325504377755, -36.929305032148072 ], [ -72.369027755980227, -36.930491369261709 ], [ -72.368729818038148, -36.931314631251936 ], [ -72.368447084082248, -36.931882075673819 ], [ -72.368090213064278, -36.932417596511947 ], [ -72.367773980033121, -36.932863462479943 ], [ -72.367451462388232, -36.93349027052534 ], [ -72.367364868388123, -36.933820524183844 ], [ -72.367538307018336, -36.934247029160083 ], [ -72.367747175203363, -36.934734750585015 ], [ -72.367688851185235, -36.935337304498319 ], [ -72.367336831069778, -36.936100318930926 ], [ -72.367151508626662, -36.936744342242129 ], [ -72.366940751284602, -36.937403849168462 ], [ -72.366202739464626, -36.938082007887282 ], [ -72.365391636221545, -36.938698020897476 ], [ -72.364779972446271, -36.938986258230791 ], [ -72.364364488152617, -36.939037456766457 ], [ -72.363580454742333, -36.938869108252469 ], [ -72.362871620202768, -36.938702386364696 ], [ -72.3622533439287, -36.938537375120454 ], [ -72.361379641585046, -36.938337082773131 ], [ -72.360227179432329, -36.93794922756301 ], [ -72.359407556567078, -36.937719635125909 ], [ -72.358732123186428, -36.937674395940462 ], [ -72.357864666828945, -36.937745673888784 ], [ -72.357172505021055, -36.937828298525773 ], [ -72.356332554179261, -36.937958573918785 ], [ -72.355770937345113, -36.938095143884567 ], [ -72.355111303533661, -36.938378488841224 ], [ -72.35454706002561, -36.938589454950495 ], [ -72.354080824511684, -36.938653493117734 ], [ -72.353240022965309, -36.938789898133287 ], [ -72.352782705027224, -36.938960854605604 ], [ -72.352478227349877, -36.939362874363276 ], [ -72.352259735513201, -36.93994551764785 ], [ -72.35220439569845, -36.940457488549477 ], [ -72.352228348377167, -36.940850597407547 ], [ -72.352203271906021, -36.941574585554321 ], [ -72.352213708532986, -36.942359793173601 ], [ -72.352168941889104, -36.942932581018113 ], [ -72.351390819393387, -36.943958478027568 ], [ -72.3504450811471, -36.944458914660544 ], [ -72.349617586345033, -36.944915188602124 ], [ -72.349548282219175, -36.944941133727042 ], [ -72.349113900066911, -36.944977608947909 ], [ -72.348575101339264, -36.945327923819349 ], [ -72.348378765550791, -36.945565086981823 ], [ -72.348260020846638, -36.945900369150102 ], [ -72.34841416815614, -36.946713112871066 ], [ -72.348566616751413, -36.947743058293206 ], [ -72.348723160766085, -36.948652278946405 ], [ -72.348735616805811, -36.949377200177672 ], [ -72.348579270420529, -36.950080093015607 ], [ -72.348251878516905, -36.951488508225232 ], [ -72.348164164317609, -36.952836421070209 ], [ -72.34817563760042, -36.953591411145027 ], [ -72.3481546242093, -36.95419482309886 ], [ -72.348249683932664, -36.954710223625447 ], [ -72.348398421587518, -36.955291941244496 ], [ -72.348417826994279, -36.955755668278428 ], [ -72.348170393235804, -36.956036272162628 ], [ -72.347898342943594, -36.956323918443488 ], [ -72.347424716989806, -36.956973319656235 ], [ -72.346947218398853, -36.957549239329509 ], [ -72.34625659181178, -36.958149991263888 ], [ -72.345872622214955, -36.958513937214192 ], [ -72.345573581141707, -36.959103416912228 ], [ -72.345457603248619, -36.959771361909368 ], [ -72.345145603079104, -36.960732995362306 ], [ -72.345128878245134, -36.961161795210657 ], [ -72.34500031405662, -36.961611759513353 ], [ -72.344757002666967, -36.962119506359898 ], [ -72.3442528142306, -36.962618444825367 ], [ -72.34408958764854, -36.96291976930965 ], [ -72.343809592655944, -36.963396588705365 ], [ -72.343607047712212, -36.963814683838372 ], [ -72.343477404647018, -36.964294940022015 ], [ -72.343312331128729, -36.964713897274905 ], [ -72.34322560238131, -36.965044065834363 ], [ -72.34328714416479, -36.965472800491519 ], [ -72.343117910548415, -36.965977497001703 ], [ -72.343034303446615, -36.966217230709212 ], [ -72.342807147359025, -36.966567152901504 ], [ -72.34242556548422, -36.966856619781076 ], [ -72.342358448756087, -36.96725879161766 ], [ -72.342399649986604, -36.967601149868493 ], [ -72.342750157339083, -36.968205088867208 ], [ -72.342822226479385, -36.968802849958571 ], [ -72.342992273969415, -36.969253695673551 ], [ -72.34329455616421, -36.969804297065693 ], [ -72.343435151489317, -36.970279886972762 ], [ -72.343307196358566, -36.970561468673075 ], [ -72.343035805429764, -36.970670314172793 ], [ -72.34237856473024, -36.970879125307015 ], [ -72.34191314488659, -36.971004360468818 ], [ -72.34099475854407, -36.971362979234421 ], [ -72.340402215409625, -36.971412884969034 ], [ -72.339945268475745, -36.971420735128888 ], [ -72.33912305756418, -36.971029730441316 ], [ -72.338393766588979, -36.97064082876922 ], [ -72.337470947958835, -36.970471126172853 ], [ -72.336635954919103, -36.970452326605454 ], [ -72.33459188610081, -36.970480955860069 ], [ -72.333298369583858, -36.970684575650445 ], [ -72.332507946456943, -36.970761704281898 ], [ -72.331709865192209, -36.971059739614844 ], [ -72.331257495174711, -36.971543588087876 ], [ -72.33110932615341, -36.971818417370457 ], [ -72.331041497061264, -36.972150851721651 ], [ -72.330902846588728, -36.972409840184639 ], [ -72.330706834193748, -36.972703505545596 ], [ -72.330322719069827, -36.973067408481775 ], [ -72.330126701284954, -36.973361073458548 ], [ -72.330023502825085, -36.973656783393615 ], [ -72.329843775987882, -36.974374629376364 ], [ -72.32970991084089, -36.974975525567544 ], [ -72.3292042572523, -36.975447133172118 ], [ -72.32855613265626, -36.975784561622511 ], [ -72.327978508742063, -36.97636764754256 ], [ -72.327596916985755, -36.976657143175395 ], [ -72.327338261472761, -36.977156282027359 ], [ -72.327279440686269, -36.97776761795614 ], [ -72.327150915125301, -36.978208706748795 ], [ -72.327067723045161, -36.978507912078065 ], [ -72.326861200361336, -36.979099402033064 ], [ -72.326848167603202, -36.979471631790659 ], [ -72.326739756219766, -36.979916289456519 ], [ -72.326811716663912, -36.980513991580501 ], [ -72.326615760862779, -36.98080764935029 ], [ -72.326035439307788, -36.981465130733397 ], [ -72.325375412034248, -36.981748330138046 ], [ -72.324070931579229, -36.981867866912005 ], [ -72.323294108945717, -36.981955997167212 ], [ -72.322671063515799, -36.982059815399737 ], [ -72.321915535446081, -36.982415350241965 ], [ -72.321441148619272, -36.982702702389126 ], [ -72.321141829068296, -36.983292058649155 ], [ -72.320179784602971, -36.984238989656156 ], [ -72.319323615577034, -36.984815661734828 ], [ -72.318756273779556, -36.985100880817704 ], [ -72.317834202547758, -36.985129340238863 ], [ -72.317390969294991, -36.985022903484747 ], [ -72.316976293485112, -36.984898172163419 ], [ -72.316634862710259, -36.984680381780628 ], [ -72.315820478819759, -36.984065863685181 ], [ -72.315279486406197, -36.983606525598724 ], [ -72.315014165393777, -36.983227979796865 ], [ -72.314529995015192, -36.9829052260149 ], [ -72.313787394600737, -36.982616633201111 ], [ -72.313073993026279, -36.982570283300682 ], [ -72.31228012126698, -36.9826731362541 ], [ -72.311707642004407, -36.982901704094132 ], [ -72.311309796131383, -36.982920563733963 ], [ -72.311026163860205, -36.983063190595622 ], [ -72.31092553637869, -36.983284410637395 ], [ -72.310271641903611, -36.984137111135261 ], [ -72.309766802188662, -36.984578574890449 ], [ -72.308924665745778, -36.984982135578058 ], [ -72.308248277455974, -36.985459011945295 ], [ -72.307420933570867, -36.986004753750613 ], [ -72.306218958076329, -36.98700395746927 ], [ -72.305413265386193, -36.987438511851231 ], [ -72.304923840761518, -36.987544418548296 ], [ -72.303980003350389, -36.987969969739339 ], [ -72.303221653672367, -36.98839979578149 ], [ -72.30280498180592, -36.988828367301714 ], [ -72.301045009687812, -36.989542423695745 ], [ -72.299863457391226, -36.990059666442072 ], [ -72.298281072323306, -36.991170869047522 ], [ -72.297728015535498, -36.991404219374274 ], [ -72.295856009128386, -36.991808646470908 ], [ -72.293795612531483, -36.99228323355257 ], [ -72.292477771433269, -36.992774664449158 ], [ -72.290958431928615, -36.99370864374864 ], [ -72.289338259228259, -36.994863813012806 ], [ -72.288858396271479, -36.995299921733043 ], [ -72.288741702421135, -36.995967838942612 ], [ -72.288728487304979, -36.996340072978583 ], [ -72.288434129149309, -36.996780409098264 ], [ -72.287821534719399, -36.997423252034785 ], [ -72.287167233307471, -36.997830976077587 ], [ -72.286367778518695, -36.99808439154976 ], [ -72.285318117770458, -36.998199323211573 ], [ -72.284286549092045, -36.998473771390948 ], [ -72.283628889777589, -36.998682275210186 ], [ -72.282989370143667, -36.998882596088819 ], [ -72.282274816929018, -36.998866210542751 ], [ -72.281411936589592, -36.998786092137998 ], [ -72.28073496798811, -36.998770576106118 ], [ -72.279916023350907, -36.998597186189407 ], [ -72.279459913646875, -36.998363195016609 ], [ -72.278818192242213, -36.998124959441569 ], [ -72.278128017507726, -36.997986156824872 ], [ -72.277376983709388, -36.997938715727273 ], [ -72.276434562043121, -36.997977530259845 ], [ -72.275797376232319, -36.997902501200244 ], [ -72.275069587240267, -36.997736229256795 ], [ -72.274651046878049, -36.9976180992251 ], [ -72.273685332794784, -36.997334973967604 ], [ -72.272804580472766, -36.997277429302912 ], [ -72.27164459672619, -36.99723208559459 ], [ -72.27064045810495, -36.99737670668258 ], [ -72.269278677711256, -36.997774025117316 ], [ -72.268519167409892, -36.998222340947095 ], [ -72.267903657946874, -36.998543636469755 ], [ -72.266634784014812, -36.998943015024132 ], [ -72.265839533341548, -36.999092396627013 ], [ -72.265273712391846, -36.999321519926141 ], [ -72.264615713514232, -36.999530002767528 ], [ -72.263597162322583, -36.999700205888423 ], [ -72.263114762523443, -36.999797260381506 ], [ -72.262923948678988, -36.999869460188911 ], [ -72.262699072515616, -36.999954332557891 ], [ -72.262353466371295, -37.000054484571983 ], [ -72.261667016950298, -37.000146812933828 ], [ -72.261112418653468, -37.000354794185817 ], [ -72.260424959526077, -37.000451572353199 ], [ -72.259945298690241, -37.00049450790894 ], [ -72.259877610633581, -37.000510614744499 ], [ -72.259324164875238, -37.00064237988083 ], [ -72.259053138662452, -37.000582069908972 ], [ -72.258749553012194, -37.000494162111607 ], [ -72.25844429110559, -37.000405782148533 ], [ -72.257212380152509, -37.000431363283887 ], [ -72.25657332315096, -37.00061654628437 ], [ -72.256521237932461, -37.000631706098979 ], [ -72.256349249183131, -37.000627720110451 ], [ -72.25556484566691, -37.000609548562863 ], [ -72.254809388564126, -37.000704692123605 ], [ -72.253989887869764, -37.000685775912423 ], [ -72.253443337579554, -37.000673094077783 ], [ -72.253173304903456, -37.000702869159788 ], [ -72.253081317418349, -37.000712478280697 ], [ -72.253048978966447, -37.000741857331711 ], [ -72.252983328288849, -37.000801454062398 ], [ -72.252874071590739, -37.000904615963826 ], [ -72.252711460354632, -37.00102776854672 ], [ -72.252548091838747, -37.001171978510641 ], [ -72.252341589816169, -37.001312573868894 ], [ -72.252277824702375, -37.001356026911111 ], [ -72.252060915697228, -37.00152023196619 ], [ -72.251844851108473, -37.001663228571836 ], [ -72.251631716824164, -37.001721702550711 ], [ -72.251542848289731, -37.001726796880639 ], [ -72.251367586977793, -37.001736770316484 ], [ -72.251130559303562, -37.001731312260254 ], [ -72.250919691468724, -37.001726390826505 ], [ -72.25068039285344, -37.001784252088953 ], [ -72.250492942301435, -37.001864532338523 ], [ -72.250247411174698, -37.002091448432374 ], [ -72.250025291042604, -37.00240349246706 ], [ -72.249880517653096, -37.002759696970422 ], [ -72.249765951911655, -37.002893929649169 ], [ -72.249632802721919, -37.003049929375237 ], [ -72.249361768424293, -37.003255177299316 ], [ -72.248396516973401, -37.003734543945534 ], [ -72.248019244317007, -37.003921883982045 ], [ -72.247401142316107, -37.004245951075063 ], [ -72.246970491765524, -37.004489666938149 ], [ -72.246514160177597, -37.004711719237982 ], [ -72.246004555798393, -37.004953681049152 ], [ -72.245601671274926, -37.005155811848532 ], [ -72.245304265135488, -37.005360296538214 ], [ -72.244896833340079, -37.005689287285598 ], [ -72.244622025219925, -37.006005348171421 ], [ -72.244374147693705, -37.006290332840265 ], [ -72.244129004639177, -37.006557454064087 ], [ -72.244127159499598, -37.006559497835859 ], [ -72.243773930251777, -37.006847438110228 ], [ -72.243371878466576, -37.007028429012038 ], [ -72.243153108152185, -37.007078258267285 ], [ -72.242866701883401, -37.007143519319911 ], [ -72.242309588303769, -37.007236334049971 ], [ -72.241754079115211, -37.007286806638788 ], [ -72.241277433025473, -37.00733918019084 ], [ -72.239238129769731, -37.007587787823176 ], [ -72.238629824795311, -37.007637031350555 ], [ -72.2380999014227, -37.007709301187141 ], [ -72.237595861208334, -37.007814595013052 ], [ -72.237462210758693, -37.007842529441064 ], [ -72.236769536012787, -37.008037854944689 ], [ -72.23626671660891, -37.008089594559067 ], [ -72.235579357194538, -37.008136994172666 ], [ -72.234597685438558, -37.0083043954318 ], [ -72.23405764703584, -37.0084291830564 ], [ -72.233932871941192, -37.00845812584798 ], [ -72.233371836317019, -37.008656484138278 ], [ -72.232892314720047, -37.008793346229048 ], [ -72.232490983383713, -37.008953097025334 ], [ -72.232008320378185, -37.00917448279052 ], [ -72.231662732200178, -37.009251000682802 ], [ -72.231240377591249, -37.00926229016607 ], [ -72.23122550418509, -37.009260998238396 ], [ -72.231200904719358, -37.009260413607031 ], [ -72.230841133939649, -37.009252060192765 ], [ -72.230797095829473, -37.009251045157797 ], [ -72.23070982809287, -37.009222495770175 ], [ -72.230441950475154, -37.009134648894936 ], [ -72.230130442582393, -37.00905537199197 ], [ -72.229726539369395, -37.009045928914027 ], [ -72.22932006966964, -37.00910844875385 ], [ -72.228953243521687, -37.009316038212333 ], [ -72.228586324847257, -37.009523629973287 ], [ -72.228123198402542, -37.0099089987242 ], [ -72.227843442361802, -37.010190611651964 ], [ -72.227382877912262, -37.010504014056977 ], [ -72.226740263582187, -37.010885185079864 ], [ -72.226282212618827, -37.011136363471351 ], [ -72.226236063467724, -37.011161608876279 ], [ -72.225689738654651, -37.011364920373964 ], [ -72.225056152393194, -37.01149420557924 ], [ -72.224760901312123, -37.011577453158679 ], [ -72.224466194610116, -37.011660537098777 ], [ -72.22387365956051, -37.011898756082587 ], [ -72.223327141609644, -37.012102135187675 ], [ -72.222961406914749, -37.012397220387911 ], [ -72.22263305561043, -37.012662205529686 ], [ -72.222348122578694, -37.013087735951885 ], [ -72.22215540879742, -37.013443440644082 ], [ -72.222137126284778, -37.013947346976558 ], [ -72.22170699945201, -37.014657609030174 ], [ -72.221363056987599, -37.014917700140451 ], [ -72.221337461290219, -37.01493714360155 ], [ -72.221321522482143, -37.014960753768058 ], [ -72.221099865880717, -37.015291778059826 ], [ -72.220993068769857, -37.015757492167204 ], [ -72.220840162932063, -37.01625826373521 ], [ -72.220552446919612, -37.016755760542203 ], [ -72.220268732003447, -37.017145379713192 ], [ -72.220245657877044, -37.017165714164037 ], [ -72.219711772934005, -37.017636605446043 ], [ -72.219540254003562, -37.017823361082016 ], [ -72.219290852036295, -37.018094976981502 ], [ -72.218653286238109, -37.018332180247917 ], [ -72.217978758359266, -37.018352410379478 ], [ -72.217513931403701, -37.018366281339411 ], [ -72.217341369529194, -37.018371481424595 ], [ -72.217304225988826, -37.018372563759513 ], [ -72.216362940691411, -37.018314473409369 ], [ -72.216362377447709, -37.018314193680453 ], [ -72.215829706128645, -37.018157839397901 ], [ -72.2155167411685, -37.018114436843724 ], [ -72.215112882871253, -37.018105017126295 ], [ -72.214901245180215, -37.018137477239613 ], [ -72.21470625776297, -37.018167492216655 ], [ -72.214584449803695, -37.018212795465239 ], [ -72.214342016068073, -37.018302999502019 ], [ -72.212842529331198, -37.019066061850758 ], [ -72.21278575311031, -37.019094912370321 ], [ -72.212470750771089, -37.019260966894358 ], [ -72.212327746164377, -37.019336294047811 ], [ -72.211733680385521, -37.019610442856383 ], [ -72.211225535768662, -37.019994752740644 ], [ -72.210681687610816, -37.020126035113073 ], [ -72.210401973790894, -37.020164095977741 ], [ -72.210334790587424, -37.020173222807614 ], [ -72.210004462091149, -37.020218188476754 ], [ -72.209885085871363, -37.020247034255462 ], [ -72.209324648525154, -37.020382302579321 ], [ -72.208279137095232, -37.020717888510902 ], [ -72.207433796361727, -37.021041627942417 ], [ -72.206684484633783, -37.021328662721615 ], [ -72.206107564100435, -37.021731125396997 ], [ -72.206097281085377, -37.021738341361008 ], [ -72.206085208626277, -37.021746787358801 ], [ -72.206076100607618, -37.021755670143335 ], [ -72.205619303692373, -37.022204041777449 ], [ -72.20538554408914, -37.022450700883446 ], [ -72.2049320026685, -37.022827825008221 ], [ -72.20492222001505, -37.022835988303783 ], [ -72.204671421167504, -37.022970909192011 ], [ -72.204280729477404, -37.023181136686269 ], [ -72.203685354853164, -37.023491228691192 ], [ -72.203242285093779, -37.023677550373002 ], [ -72.202955344327421, -37.023798165176629 ], [ -72.202561267785327, -37.023956513861613 ], [ -72.202412484316383, -37.023964887892795 ], [ -72.202016534786935, -37.024004223450241 ], [ -72.20170889234484, -37.024118603125871 ], [ -72.201491290738616, -37.024259485950978 ], [ -72.201241639039694, -37.024448252103248 ], [ -72.200899208439907, -37.024683517759399 ], [ -72.200529098949573, -37.024845050365847 ], [ -72.200254414796959, -37.024887232718207 ], [ -72.199981646750828, -37.024880792337413 ], [ -72.199771061885301, -37.024827131321864 ], [ -72.199501856557575, -37.024723528540669 ], [ -72.199170914511967, -37.024642701548302 ], [ -72.198868647588526, -37.024611146444521 ], [ -72.198564560678335, -37.024628356951759 ], [ -72.198316629253185, -37.024768428403753 ], [ -72.198096372226985, -37.024982231139859 ], [ -72.198061491542816, -37.02510311998995 ], [ -72.198060738754606, -37.025107125493548 ], [ -72.197988437848963, -37.025441977671598 ], [ -72.197803631038838, -37.025561670242325 ], [ -72.197770825462953, -37.025582853739373 ], [ -72.197247382536801, -37.025789479484118 ], [ -72.197122779020361, -37.025845469228827 ], [ -72.196475906675857, -37.026136173596839 ], [ -72.196137931719875, -37.026249954804079 ], [ -72.195954919743656, -37.026353282975926 ], [ -72.195816474087025, -37.026412893332797 ], [ -72.195571817021076, -37.026576417444531 ], [ -72.195184858729291, -37.026835011177731 ], [ -72.194901779820327, -37.027103204077804 ], [ -72.194730126142588, -37.027301887346056 ], [ -72.194703950133515, -37.027336325783743 ], [ -72.194609207515455, -37.027461262882817 ], [ -72.194538192997285, -37.027640551624913 ], [ -72.194440107748065, -37.027887814859689 ], [ -72.194391788267225, -37.027993564094899 ], [ -72.194250643173149, -37.02820412049217 ], [ -72.194104238443103, -37.028557206361619 ], [ -72.193913319495763, -37.028909203384792 ], [ -72.193544906923023, -37.029257049345006 ], [ -72.19325701933235, -37.029498722168718 ], [ -72.193131884013269, -37.029603734802549 ], [ -72.192766003791306, -37.029880354414473 ], [ -72.192704901284003, -37.029920604853132 ], [ -72.192401293175834, -37.030121214884232 ], [ -72.192079828356469, -37.03039885094968 ], [ -72.191844564973451, -37.030749749390893 ], [ -72.191694245385392, -37.031209747150321 ], [ -72.191635394056192, -37.031600479044513 ], [ -72.191622233737263, -37.031956692283408 ], [ -72.19172379995824, -37.032227364119024 ], [ -72.191743699438405, -37.032280417524433 ], [ -72.191819476824193, -37.032638738053656 ], [ -72.191826286054066, -37.032691405362222 ], [ -72.191888626439834, -37.033175127816619 ], [ -72.191962951249806, -37.033569065118783 ], [ -72.192036101063394, -37.033998687144077 ], [ -72.192160200624954, -37.034251110750454 ], [ -72.192237251821808, -37.034573817251186 ], [ -72.192226820584736, -37.034858799479146 ], [ -72.191943133516318, -37.035315597778954 ], [ -72.191536157166752, -37.03602734665904 ], [ -72.191420261020369, -37.036230134837851 ], [ -72.190825594268588, -37.036679506693567 ], [ -72.190230828702113, -37.037128878758232 ], [ -72.189941418467029, -37.037330724628227 ], [ -72.189637422286694, -37.037542705776396 ], [ -72.189091061540978, -37.037886175361614 ], [ -72.188769552704173, -37.038163804551843 ], [ -72.188084103108082, -37.038937434041983 ], [ -72.187562976937045, -37.039525650255158 ], [ -72.18738522729177, -37.039639158284103 ], [ -72.18730639563401, -37.039689478846327 ], [ -72.187039869082483, -37.039969905822119 ], [ -72.187007016794226, -37.040117826468524 ], [ -72.186951459587164, -37.040517548000103 ], [ -72.186999452979521, -37.041063810230341 ], [ -72.187118098868993, -37.041562261011485 ], [ -72.187244828697715, -37.04184015927023 ], [ -72.187499796626497, -37.042337304984677 ], [ -72.187962292453875, -37.042789820690992 ], [ -72.188015394565284, -37.042932109378135 ], [ -72.188013763224717, -37.042976736047066 ], [ -72.187960158955079, -37.043225012687785 ], [ -72.187730112987225, -37.043433451092497 ], [ -72.187634624767483, -37.043609482014062 ], [ -72.187447639542782, -37.043854554407709 ], [ -72.187171800156676, -37.044097586116258 ], [ -72.186909921488436, -37.044183609364545 ], [ -72.186766673438285, -37.044230642296803 ], [ -72.18645421961952, -37.044258898179436 ], [ -72.18605045295044, -37.044356262874253 ], [ -72.185645226519057, -37.044489170181102 ], [ -72.185572514185026, -37.044536224434246 ], [ -72.18532622398186, -37.044695565953909 ], [ -72.18509489432148, -37.044939611679112 ], [ -72.184639960512158, -37.045214023711587 ], [ -72.184140596028854, -37.045487413748283 ], [ -72.183645136522117, -37.045653887376716 ], [ -72.183241359073264, -37.045751243112342 ], [ -72.182881824550478, -37.045849623307028 ], [ -72.182429609941479, -37.046052797522073 ], [ -72.182196810637308, -37.046332529891437 ], [ -72.182157529106561, -37.046822677814845 ], [ -72.187237227153787, -37.053143363119958 ], [ -72.196842351039805, -37.059427662270217 ], [ -72.211741632272421, -37.070924333691153 ], [ -72.216563081743459, -37.075439503574337 ], [ -72.228498867566145, -37.079814697999424 ], [ -72.227146583263291, -37.083410874113476 ], [ -72.230888393408435, -37.083704382238757 ], [ -72.231642617124336, -37.080893388791871 ], [ -72.243807175103811, -37.085479316703548 ], [ -72.24323735305785, -37.089413186389081 ], [ -72.253584136822226, -37.089701150029455 ], [ -72.253922033624775, -37.090233578703518 ], [ -72.261394685485399, -37.092647685142104 ], [ -72.259358093345213, -37.098049955915741 ], [ -72.257004624081787, -37.1060436710343 ], [ -72.264871484536883, -37.11377641932782 ], [ -72.264879378033257, -37.113784246900487 ], [ -72.265170963089659, -37.114070866452778 ], [ -72.265275752465854, -37.114171536306671 ], [ -72.2675700074807, -37.116510026852737 ], [ -72.271515897790366, -37.120531775586265 ], [ -72.261620375522426, -37.123324817397155 ], [ -72.261925543105917, -37.124820612385861 ], [ -72.262330287142021, -37.127807529884926 ], [ -72.26450575523188, -37.141880912424334 ], [ -72.265322346283028, -37.148185754325311 ], [ -72.266830000502452, -37.148103421330148 ], [ -72.266645143386654, -37.146983853827905 ], [ -72.268539124382244, -37.146927375652986 ], [ -72.268591025446099, -37.148472369628308 ], [ -72.267201588619741, -37.148698423528103 ], [ -72.267339340776971, -37.150834936323719 ], [ -72.26867025595584, -37.150835621536487 ], [ -72.268672712848144, -37.150903313651661 ], [ -72.268925914689063, -37.154626315306018 ], [ -72.280005566520131, -37.155341048931362 ], [ -72.276625697484448, -37.177485392067133 ], [ -72.275175687258468, -37.189504337376292 ], [ -72.274436175251964, -37.194753135612103 ], [ -72.271337416916467, -37.195384372449233 ], [ -72.270993706217382, -37.195454398237651 ], [ -72.271673898872436, -37.197498616148508 ], [ -72.271782100948414, -37.197967794372289 ], [ -72.272100898669692, -37.199524734948227 ], [ -72.272493183072797, -37.200200404429921 ], [ -72.272810630626225, -37.200640986926153 ], [ -72.273211395125628, -37.201083470862095 ], [ -72.273531137874585, -37.201457411745515 ], [ -72.274136394865238, -37.202004582406673 ], [ -72.274490665260473, -37.202579289822879 ], [ -72.274848649291087, -37.203054099698825 ], [ -72.275650140560614, -37.203939053140637 ], [ -72.277321079752625, -37.204977365468139 ], [ -72.278521124767622, -37.205204895974305 ], [ -72.279720035210445, -37.205465735121564 ], [ -72.28050624793363, -37.205617102592456 ], [ -72.28146024169736, -37.205739010567505 ], [ -72.282914912383035, -37.205839049713404 ], [ -72.283831996168374, -37.205826815010454 ], [ -72.284707414294232, -37.20581351567148 ], [ -72.285710091356478, -37.205736594389499 ], [ -72.286379859960959, -37.205651933666999 ], [ -72.28717688211195, -37.205503579164201 ], [ -72.287638353859919, -37.205414143042404 ], [ -72.288097551971902, -37.205391345582626 ], [ -72.288724334393422, -37.205339015072745 ], [ -72.289520026139485, -37.205223970819553 ], [ -72.290064808545225, -37.205136416095435 ], [ -72.290943904373833, -37.205023249687805 ], [ -72.291619525502398, -37.204772101751637 ], [ -72.292588928068213, -37.204461034781993 ], [ -72.293050477969601, -37.204371575959911 ], [ -72.29351193534454, -37.204282117747326 ], [ -72.293931918401128, -37.204191745025732 ], [ -72.294688383413671, -37.204009113923348 ], [ -72.295153424168262, -37.20381975812171 ], [ -72.295665975021606, -37.203464848422641 ], [ -72.296014532131622, -37.203039586372746 ], [ -72.296445172800745, -37.202649532891805 ], [ -72.297261102691849, -37.201968262805948 ], [ -72.298201892119224, -37.201289780687361 ], [ -72.298926185766504, -37.200839792798099 ], [ -72.29960654640648, -37.200455387797085 ], [ -72.300326106830553, -37.200138528679751 ], [ -72.301122944826901, -37.199990086777326 ], [ -72.301706972830786, -37.199970028894917 ], [ -72.302371775548366, -37.200018572224046 ], [ -72.302910572479377, -37.200097495673802 ], [ -72.30365519589985, -37.200247653927853 ], [ -72.304145283481191, -37.200525521935454 ], [ -72.304718590092151, -37.200805197773356 ], [ -72.305538170736554, -37.201190478940497 ], [ -72.306820399921975, -37.201452921134404 ], [ -72.308018198250466, -37.201746791569867 ], [ -72.309214877278094, -37.202073969538617 ], [ -72.310159275237979, -37.202461999664962 ], [ -72.311344054283055, -37.203122151448376 ], [ -72.312316056573309, -37.20391069867857 ], [ -72.312923949221016, -37.204391161878057 ], [ -72.313517776946298, -37.205271106988064 ], [ -72.313866451735635, -37.206012287885827 ], [ -72.314456740997031, -37.206992118634375 ], [ -72.314855340556591, -37.207501092775729 ], [ -72.315337171722163, -37.208011940848785 ], [ -72.316070183519258, -37.20849508092553 ], [ -72.316673455233172, -37.209108732310312 ], [ -72.317280196240688, -37.209622343991349 ], [ -72.317807278242057, -37.21003426176793 ], [ -72.31845813012329, -37.210482268885464 ], [ -72.31915420768749, -37.210831351297259 ], [ -72.320065426372352, -37.21098521916813 ], [ -72.320689975582056, -37.210999356795931 ], [ -72.321190757606871, -37.210977403801031 ], [ -72.321649873972163, -37.210954404124031 ], [ -72.32231374513681, -37.211036072691577 ], [ -72.323102419243881, -37.211120579995317 ], [ -72.323767510320664, -37.211168993098902 ], [ -72.32426585970768, -37.211213523540003 ], [ -72.325878527882153, -37.211566629698083 ], [ -72.329772299735666, -37.212500859951113 ], [ -72.332409997751625, -37.212913891650054 ], [ -72.334867157751631, -37.213070224157789 ], [ -72.339929229954649, -37.212780039270768 ], [ -72.342847546393998, -37.212391019116701 ], [ -72.344577972024098, -37.211854235145459 ], [ -72.345632850187513, -37.211478024217421 ], [ -72.347385832514419, -37.210826231663468 ], [ -72.348670947088522, -37.210396241279845 ], [ -72.3502590427467, -37.210265223290996 ], [ -72.351760203044961, -37.210232155038661 ], [ -72.353630304125346, -37.210374020536236 ], [ -72.356167799562897, -37.210497296609248 ], [ -72.358123624175903, -37.210574290305566 ], [ -72.3599497697911, -37.210781664506712 ], [ -72.36247918128943, -37.211137975663334 ], [ -72.363594083083498, -37.211429496843891 ], [ -72.36474485550518, -37.21188834505719 ], [ -72.365559042664614, -37.212439717571939 ], [ -72.366373336723584, -37.212991155452407 ], [ -72.367188742896886, -37.213509194830152 ], [ -72.367719598720754, -37.213820984977218 ], [ -72.368626423745567, -37.214107677564179 ], [ -72.36932274565153, -37.214456451320572 ], [ -72.369646497581627, -37.214730288701112 ], [ -72.369886010894248, -37.215035605223612 ], [ -72.370178140329685, -37.215448881301619 ], [ -72.370572917557709, -37.21580667988021 ], [ -72.370791372563446, -37.215918772063283 ], [ -72.371239114460636, -37.216054592615166 ], [ -72.371727800670143, -37.216144072640986 ], [ -72.372313689983272, -37.216267241994792 ], [ -72.372920938538925, -37.216343594545712 ], [ -72.373685922275314, -37.216407844946374 ], [ -72.374724021705845, -37.216541061356629 ], [ -72.375134686537976, -37.216613045535588 ], [ -72.375586795145765, -37.216623027197059 ], [ -72.376289315427172, -37.216644093627629 ], [ -72.3769162694269, -37.216735880042961 ], [ -72.377305124960557, -37.216722343690904 ], [ -72.377663691099485, -37.216774550415664 ], [ -72.378321954980109, -37.216988770157805 ], [ -72.378992458406501, -37.217247586277807 ], [ -72.379470320815145, -37.217447760542463 ], [ -72.379830353004607, -37.217476889670529 ], [ -72.380135121736103, -37.217483683532471 ], [ -72.380469982232995, -37.217424515319898 ], [ -72.380849040740173, -37.217288726564625 ], [ -72.38117047232187, -37.217218205250298 ], [ -72.38154299648366, -37.217270812239846 ], [ -72.382007274568593, -37.217480739072627 ], [ -72.382277031461896, -37.217697406226755 ], [ -72.382655787236828, -37.217971921454847 ], [ -72.383105451528706, -37.218203665608492 ], [ -72.383325977151173, -37.218241792269012 ], [ -72.383356872010424, -37.218552971970695 ], [ -72.383372627562196, -37.218897060340815 ], [ -72.383399442273429, -37.219344016916558 ], [ -72.383429417257815, -37.2196634893997 ], [ -72.383501033647221, -37.219997786779857 ], [ -72.383602746293576, -37.220266198915667 ], [ -72.3837853414515, -37.220409479090399 ], [ -72.384065000474166, -37.220531456876238 ], [ -72.384409161229186, -37.220605680552445 ], [ -72.384907610329194, -37.220627733754611 ], [ -72.385434874688585, -37.220617223271809 ], [ -72.385937135340342, -37.220528523265472 ], [ -72.386316198339117, -37.220392716491439 ], [ -72.386651400195802, -37.220322450594779 ], [ -72.386943269119811, -37.220306788173197 ], [ -72.388064883125679, -37.220353647381927 ], [ -72.388510950563173, -37.220285958828519 ], [ -72.388931577711801, -37.220151019329975 ], [ -72.389502022290273, -37.220097034449608 ], [ -72.389865695351574, -37.220005203480483 ], [ -72.390286378195754, -37.21976449011099 ], [ -72.390998364025322, -37.219192955969589 ], [ -72.391427981513317, -37.218900538400788 ], [ -72.391997436148344, -37.21881239650002 ], [ -72.392522602043229, -37.218790400711008 ], [ -72.393132423373842, -37.218849229488754 ], [ -72.393666692795819, -37.219067213256139 ], [ -72.393864679687809, -37.219197341798846 ], [ -72.393990915443098, -37.219334768135241 ], [ -72.394337720838337, -37.219685963502151 ], [ -72.394884172313866, -37.220021021909929 ], [ -72.395464843313519, -37.220100455226699 ], [ -72.396108528435406, -37.220043673311409 ], [ -72.397099381871897, -37.219897722054 ], [ -72.397837684746023, -37.21977975634266 ], [ -72.398370322827432, -37.219539785502029 ], [ -72.399119598622761, -37.219103309305929 ], [ -72.399587608309375, -37.218912278103886 ], [ -72.400176851033478, -37.218858071291891 ], [ -72.400840921624109, -37.218885556702837 ], [ -72.40147180844815, -37.219020719509807 ], [ -72.401932708867605, -37.219141798196013 ], [ -72.402426300776881, -37.21932688567469 ], [ -72.402983431424502, -37.219599083679725 ], [ -72.40352026823156, -37.219744173520915 ], [ -72.403822978024422, -37.219762477122771 ], [ -72.404397033830321, -37.219696803890251 ], [ -72.404819197098107, -37.219539325532146 ], [ -72.405363910333563, -37.219451316002299 ], [ -72.405924614479403, -37.219224452241328 ], [ -72.406287963248886, -37.218886134710409 ], [ -72.406729306446294, -37.218636208247503 ], [ -72.407317102882786, -37.218394312310352 ], [ -72.407652582318903, -37.218334976702188 ], [ -72.407993761565493, -37.218109186205552 ], [ -72.408295440092417, -37.217815818006208 ], [ -72.408679360281923, -37.217557573269112 ], [ -72.40885397301021, -37.217328164962133 ], [ -72.409067797200649, -37.217166121161185 ], [ -72.409368480394235, -37.216906139416288 ], [ -72.409497989610443, -37.216775679278925 ], [ -72.40991895003404, -37.216651505650397 ], [ -72.410252070494209, -37.21665880607361 ], [ -72.410668515985193, -37.21666790996148 ], [ -72.410962230947121, -37.216607703096258 ], [ -72.41117496997272, -37.216479048058815 ], [ -72.411428290391257, -37.216384649479956 ], [ -72.411555442428153, -37.216320756034285 ], [ -72.412185704024751, -37.216167880548127 ], [ -72.413154948487062, -37.215855761007703 ], [ -72.414171347315303, -37.215378049934628 ], [ -72.415271056801274, -37.214902131474787 ], [ -72.416288697101209, -37.214391153345289 ], [ -72.417300550454087, -37.214046623050812 ], [ -72.417675316810858, -37.214054765753957 ], [ -72.417838448171494, -37.21415833010176 ], [ -72.418022933384762, -37.214317887196998 ], [ -72.418179300431333, -37.21449442105672 ], [ -72.418360493319085, -37.214736294444783 ], [ -72.418606945218968, -37.214841583388086 ], [ -72.418894972946816, -37.214947883750575 ], [ -72.419393466962603, -37.214992080734483 ], [ -72.419689601087569, -37.214865207849961 ], [ -72.419858407105878, -37.214802241699722 ], [ -72.420066624012321, -37.214806776586336 ], [ -72.420315332480214, -37.214845568849583 ], [ -72.420523550284969, -37.214850104448978 ], [ -72.420853330808924, -37.214957258978913 ], [ -72.421144779321381, -37.214963593069974 ], [ -72.421311333263276, -37.214967190781934 ], [ -72.421437400135304, -37.214936679260177 ], [ -72.42160503205551, -37.214906957520654 ], [ -72.422429586671669, -37.21450048834334 ], [ -72.422429826521835, -37.21449966921319 ], [ -72.427856351523857, -37.195180713453276 ], [ -72.43073783344326, -37.184364721121085 ], [ -72.451336853288382, -37.187875366843748 ], [ -72.450504063816055, -37.185991210298326 ], [ -72.450443236193195, -37.185828393557941 ], [ -72.449484861345823, -37.183599961101166 ], [ -72.448731902457823, -37.181961678556398 ], [ -72.447146639187736, -37.178327519006913 ], [ -72.445590824489287, -37.174698381862335 ], [ -72.445046833499305, -37.173276368091756 ], [ -72.441785031838052, -37.166587070980938 ], [ -72.441575975905124, -37.16452350176413 ], [ -72.441603132874491, -37.164177070159099 ], [ -72.442257591491583, -37.149520666084321 ], [ -72.446441976424367, -37.148827056593667 ], [ -72.446559247891443, -37.147288511309682 ], [ -72.446833597870793, -37.147163758688045 ], [ -72.447240364912901, -37.147118479450889 ], [ -72.447789353230803, -37.147238520638176 ], [ -72.448212195624947, -37.147279125530702 ], [ -72.448696630108202, -37.147226486239745 ], [ -72.448701359738166, -37.147231146195061 ], [ -72.448900341065183, -37.147235387269667 ], [ -72.449027138267539, -37.147296644027541 ], [ -72.449208998603538, -37.147431284846483 ], [ -72.449372829751809, -37.14753847849228 ], [ -72.449654464169797, -37.147576032929031 ], [ -72.449898887673754, -37.147567803576962 ], [ -72.450291449656277, -37.147463585804715 ], [ -72.450415206061408, -37.147403221359546 ], [ -72.450666728951063, -37.14739500416119 ], [ -72.450794404705761, -37.147424864894234 ], [ -72.450883929908656, -37.14762950830108 ], [ -72.450870415653526, -37.147822908778913 ], [ -72.450881196335246, -37.147899798114388 ], [ -72.451226629104724, -37.147943238839467 ], [ -72.451451714575555, -37.147943614754261 ], [ -72.45169375664571, -37.147818169380827 ], [ -72.451974138812204, -37.147702530552856 ], [ -72.452297374211, -37.147754585948043 ], [ -72.452380600427119, -37.147751864318195 ], [ -72.45256895648096, -37.147692786809984 ], [ -72.452790530437369, -37.147611999189749 ], [ -72.453060650250023, -37.147613273009433 ], [ -72.453244787815279, -37.147680307112772 ], [ -72.453298906819583, -37.147789588348004 ], [ -72.453349605937575, -37.147997944087379 ], [ -72.453330582314805, -37.148376026503605 ], [ -72.453400049934046, -37.148611808564638 ], [ -72.453599804710521, -37.148782825173917 ], [ -72.453827203343224, -37.148904837067967 ], [ -72.454032414486733, -37.149017459621817 ], [ -72.454224940520106, -37.149021584601343 ], [ -72.454581939997155, -37.148930126140876 ], [ -72.454639250715658, -37.148751093299438 ], [ -72.454676354730154, -37.148612210968928 ], [ -72.455016033790216, -37.148448261124912 ], [ -72.455865812201239, -37.148412459947373 ], [ -72.456128256808114, -37.148350475896571 ], [ -72.456500194370037, -37.148376520560234 ], [ -72.456852769644328, -37.148604920434288 ], [ -72.457111184408845, -37.148768090192512 ], [ -72.457404943388212, -37.149008760002729 ], [ -72.45760912596073, -37.149256473926094 ], [ -72.457825063887029, -37.149531447094702 ], [ -72.458160091470575, -37.149696290320875 ], [ -72.458410723231452, -37.149692658710137 ], [ -72.45887550347463, -37.149639519174592 ], [ -72.459216644991969, -37.149453150302868 ], [ -72.459548900374543, -37.149320624612123 ], [ -72.459932958904588, -37.149175660767639 ], [ -72.460375350435925, -37.149013860915311 ], [ -72.460803290769292, -37.148820300946596 ], [ -72.460987633150438, -37.148693571053535 ], [ -72.461322533173188, -37.148673742279783 ], [ -72.461505232535671, -37.14878582816263 ], [ -72.461652381969117, -37.148991729510882 ], [ -72.461915636856375, -37.149200066185912 ], [ -72.462396315483431, -37.149426694301859 ], [ -72.462938226873533, -37.149487824698454 ], [ -72.463214792996695, -37.149484753000316 ], [ -72.46347442587674, -37.149589419075184 ], [ -72.463637156588774, -37.149732567038107 ], [ -72.463732534315739, -37.149761662148485 ], [ -72.464465988982298, -37.149754812787464 ], [ -72.464759440737851, -37.149711608670749 ], [ -72.465111407852689, -37.149768618910528 ], [ -72.465339226896944, -37.149877164650015 ], [ -72.465627246539952, -37.149914862559349 ], [ -72.466008542750515, -37.149850926464431 ], [ -72.466321469981423, -37.149731495169299 ], [ -72.466725101903194, -37.149591398133914 ], [ -72.467002810683383, -37.149345014947293 ], [ -72.467225341345568, -37.149043341519757 ], [ -72.467276745641072, -37.148850748252933 ], [ -72.467524802830368, -37.148734394983173 ], [ -72.467813378530565, -37.148754061920428 ], [ -72.468080265306526, -37.148849943446926 ], [ -72.468337507769604, -37.148859899698515 ], [ -72.468581443488361, -37.148865152417237 ], [ -72.468977004047318, -37.148756430516165 ], [ -72.469333575027974, -37.14848470312613 ], [ -72.469619517766077, -37.147823938429042 ], [ -72.470083188589882, -37.147315689821092 ], [ -72.470246646038959, -37.147224618104538 ], [ -72.470500172171711, -37.147135333503726 ], [ -72.470686909461392, -37.147125873237989 ], [ -72.470937616680786, -37.147140221880065 ], [ -72.471196452755166, -37.147289916885107 ], [ -72.471352411068267, -37.147423880348775 ], [ -72.47149001230855, -37.147539486665316 ], [ -72.471792751745824, -37.147721695821247 ], [ -72.471899256904223, -37.147800498490504 ], [ -72.471987709518672, -37.147847502949368 ], [ -72.472095171382847, -37.147894836036201 ], [ -72.472254361834345, -37.147952312347819 ], [ -72.472561690764394, -37.147976879983162 ], [ -72.4729255866079, -37.14786752455155 ], [ -72.473243886662516, -37.147396668222697 ], [ -72.473471041851795, -37.147122156295538 ], [ -72.473787798600767, -37.146885536121779 ], [ -72.474219107616435, -37.146863209332089 ], [ -72.474716649418014, -37.146797310858418 ], [ -72.47503800284629, -37.146614873922616 ], [ -72.475347254171041, -37.14639168083059 ], [ -72.475702306100573, -37.146250543640363 ], [ -72.475914572612311, -37.146255013904096 ], [ -72.476400910625671, -37.146314983293628 ], [ -72.47670727835839, -37.14638909305171 ], [ -72.476943071747414, -37.146448225281439 ], [ -72.477187251807948, -37.14644895134834 ], [ -72.477529794697148, -37.146411137860518 ], [ -72.477795581036887, -37.14624560365133 ], [ -72.477845351296892, -37.146102431902975 ], [ -72.477922756429976, -37.145892315908917 ], [ -72.477980337541382, -37.145704335284265 ], [ -72.47818172545503, -37.145654576281821 ], [ -72.4785677548888, -37.145640281061638 ], [ -72.47886824135135, -37.145682674071956 ], [ -72.479105168414264, -37.145710252715951 ], [ -72.479279973382035, -37.145677954589146 ], [ -72.479648515312192, -37.14561811501563 ], [ -72.480259327484575, -37.145527459428735 ], [ -72.480515917770745, -37.145537481994403 ], [ -72.480914281971707, -37.145554922845122 ], [ -72.481167050824666, -37.145483720870715 ], [ -72.481365849793661, -37.145303247048268 ], [ -72.481519675506291, -37.145117231246388 ], [ -72.481753900436843, -37.144842864998068 ], [ -72.481797946631843, -37.144830276705861 ], [ -72.482215482677589, -37.144695034063382 ], [ -72.482569020047549, -37.144513327450767 ], [ -72.482810760283769, -37.144396759850096 ], [ -72.483200812373397, -37.143877859634458 ], [ -72.48373523271232, -37.143461213673504 ], [ -72.484609951050587, -37.143263499162849 ], [ -72.485137391479739, -37.143058435780119 ], [ -72.485775372299585, -37.142999871611906 ], [ -72.485993470674146, -37.142936839086978 ], [ -72.48607703465683, -37.142726906923663 ], [ -72.486123312267011, -37.142498069675632 ], [ -72.48597634519156, -37.142283191034167 ], [ -72.485735026265218, -37.141985251746618 ], [ -72.485497040088589, -37.141799916659771 ], [ -72.485254120364402, -37.141384743708116 ], [ -72.485258145715179, -37.141046883695104 ], [ -72.485527434586231, -37.140777752382192 ], [ -72.485854057531952, -37.140239528417794 ], [ -72.485888166563271, -37.140123089574146 ], [ -72.486235516337558, -37.140130427472968 ], [ -72.486440915228968, -37.140130284252571 ], [ -72.48691688937889, -37.140117889955903 ], [ -72.487175372415379, -37.140087248650694 ], [ -72.487312071747112, -37.140040635373971 ], [ -72.487371151248396, -37.139807583597722 ], [ -72.487425063640174, -37.139538370536108 ], [ -72.487539807248027, -37.139365086588754 ], [ -72.487850766270157, -37.139110295161274 ], [ -72.488098111095425, -37.139011930698807 ], [ -72.48841427046473, -37.138982613754713 ], [ -72.48852068938487, -37.139061477089115 ], [ -72.488703492053617, -37.139173517779788 ], [ -72.488876589324022, -37.139190705878526 ], [ -72.489036678090812, -37.139117495664919 ], [ -72.489256828217492, -37.138860801404391 ], [ -72.489437871086579, -37.138643860041888 ], [ -72.489644662366672, -37.13840948057581 ], [ -72.489943005448936, -37.13834363274254 ], [ -72.490314592667914, -37.138383014982828 ], [ -72.490546888915546, -37.138356459865733 ], [ -72.490743239975401, -37.138247931249509 ], [ -72.49101722613706, -37.138109583194378 ], [ -72.491716272633269, -37.137966668888616 ], [ -72.493123608391684, -37.137843745626775 ], [ -72.493212564062688, -37.137881640738975 ], [ -72.494131764278833, -37.13818945215592 ], [ -72.494915220970725, -37.1382600608882 ], [ -72.4952071455903, -37.138095046647599 ], [ -72.495644564946545, -37.137820411446157 ], [ -72.496443849055424, -37.137436262225378 ], [ -72.496727263035979, -37.137500813226225 ], [ -72.49722221140135, -37.137682520213282 ], [ -72.498146507760097, -37.137814635905919 ], [ -72.498725662403558, -37.137597136545708 ], [ -72.499161894187012, -37.137381053777865 ], [ -72.499453135188631, -37.137211471576791 ], [ -72.500037774046902, -37.136827221869929 ], [ -72.500904236867669, -37.13655715459435 ], [ -72.501265099100451, -37.136452084486955 ], [ -72.501707134000625, -37.136060382344702 ], [ -72.502073719400087, -37.135779774999968 ], [ -72.502372257416781, -37.135385080895475 ], [ -72.502748234702523, -37.134820701924227 ], [ -72.503186438288012, -37.134546092076995 ], [ -72.503402793032606, -37.134492083945581 ], [ -72.503755993534341, -37.134616698480279 ], [ -72.503814877202899, -37.134797923261836 ], [ -72.503885692295071, -37.135015919083834 ], [ -72.50407292904805, -37.13508197033542 ], [ -72.504238988018216, -37.135140529891196 ], [ -72.504665148789002, -37.135208069191023 ], [ -72.505097860074827, -37.135100048821663 ], [ -72.505233054728464, -37.135332670371994 ], [ -72.505219310504614, -37.135751635575659 ], [ -72.505217947760329, -37.13579197450025 ], [ -72.505063989995364, -37.136131172098999 ], [ -72.505033010694461, -37.136258816065769 ], [ -72.504981086274427, -37.136471883522489 ], [ -72.50475981774521, -37.136697050190783 ], [ -72.504680466861217, -37.136925100054455 ], [ -72.50474661251053, -37.137097768705239 ], [ -72.505313796204518, -37.13722239112257 ], [ -72.505883369417148, -37.137292912673509 ], [ -72.506308537549543, -37.137414501251939 ], [ -72.50658650055297, -37.137650200755495 ], [ -72.50695781288745, -37.137809252801269 ], [ -72.507150528465345, -37.1378918906127 ], [ -72.50740200643925, -37.137839713133701 ], [ -72.508157825563103, -37.137683286467372 ], [ -72.508960588847089, -37.137186468618296 ], [ -72.509620105877559, -37.136682157453627 ], [ -72.509703172193554, -37.136341438383397 ], [ -72.510069471928759, -37.136065244223438 ], [ -72.510430479688608, -37.135955713302863 ], [ -72.511080536560812, -37.135739521289985 ], [ -72.511631376306511, -37.135407365239821 ], [ -72.508316606382834, -37.134094600845138 ], [ -72.503081377620589, -37.132251962224508 ], [ -72.495434449899903, -37.129485537353524 ], [ -72.484250791125234, -37.124672208005101 ], [ -72.482322202533354, -37.123795280631917 ], [ -72.480609568037437, -37.12311634427941 ], [ -72.479571615032299, -37.122601413067606 ], [ -72.477823636321531, -37.122282622269488 ], [ -72.476096913547011, -37.121330575314197 ], [ -72.474887880887579, -37.120671164310522 ], [ -72.472930393492987, -37.118728553058297 ], [ -72.470706327444574, -37.116175802887923 ], [ -72.470847755507961, -37.116178890981438 ], [ -72.47191511845719, -37.116314259810672 ], [ -72.472198531539433, -37.116378944873823 ], [ -72.473054264882464, -37.116451276664513 ], [ -72.473338128020671, -37.116457269449384 ], [ -72.473411196087568, -37.116458890495487 ], [ -72.473441951707954, -37.116424036922517 ], [ -72.473707977897874, -37.116122700697304 ], [ -72.473934089244779, -37.115909849585861 ], [ -72.474002742092054, -37.115845172717925 ], [ -72.474300329691175, -37.115504528888039 ], [ -72.474588424792671, -37.115341227214913 ], [ -72.474591296706635, -37.115339519468165 ], [ -72.474684686461885, -37.115354271705456 ], [ -72.474901923352107, -37.11538871316116 ], [ -72.475018062941928, -37.115407151654509 ], [ -72.475510240004624, -37.115647417563139 ], [ -72.475786074899133, -37.115937209140121 ], [ -72.476178667424378, -37.117036046597384 ], [ -72.476387347861518, -37.117211634501601 ], [ -72.476740681313913, -37.117331826291476 ], [ -72.477099637321658, -37.117280913980572 ], [ -72.477323446286491, -37.117001844425928 ], [ -72.477764767026017, -37.116610177709866 ], [ -72.478195400508596, -37.116560774210868 ], [ -72.478689429897415, -37.116742515719793 ], [ -72.478968993698658, -37.116924209515254 ], [ -72.479604623627409, -37.117162974218381 ], [ -72.479741545741334, -37.117337195810144 ], [ -72.479942603973285, -37.117742468732523 ], [ -72.480151298783454, -37.117918123048071 ], [ -72.480581221698642, -37.1178732331731 ], [ -72.480799472786813, -37.117760683162714 ], [ -72.481447459042286, -37.117603244382622 ], [ -72.482455223263983, -37.117394850061821 ], [ -72.482605311086729, -37.11717270470163 ], [ -72.482900298063086, -37.116890645536216 ], [ -72.483334699079975, -37.116728556006905 ], [ -72.483691726404814, -37.116736209207779 ], [ -72.483898409887047, -37.116970372139541 ], [ -72.48403350842095, -37.117203096694702 ], [ -72.484313243800429, -37.117380196357601 ], [ -72.484586010049924, -37.117787042074397 ], [ -72.484702354455649, -37.118587084902458 ], [ -72.484825971621888, -37.119161949093979 ], [ -72.48524322829158, -37.119517746212175 ], [ -72.485526912665051, -37.119577815588173 ], [ -72.486171801529423, -37.119537500970196 ], [ -72.486545984879541, -37.119027251517018 ], [ -72.48663919497173, -37.118347398503872 ], [ -72.486639604603511, -37.118344286144328 ], [ -72.486666121074066, -37.117542770154024 ], [ -72.486677417388762, -37.11720063613852 ], [ -72.486890060294613, -37.116960183900943 ], [ -72.486974788493896, -37.116864470407265 ], [ -72.4873375030528, -37.11670093384776 ], [ -72.488122583898715, -37.116717592673496 ], [ -72.488408570654258, -37.116723634147313 ], [ -72.488705449482609, -37.116382976361514 ], [ -72.48899887967859, -37.116163906814258 ], [ -72.489203390136169, -37.115806853963143 ], [ -72.489225828255343, -37.115767665561101 ], [ -72.489528939595147, -37.115255884959083 ], [ -72.489564535338275, -37.115238302452461 ], [ -72.48974700922362, -37.115147899865278 ], [ -72.490323365614969, -37.114988907641212 ], [ -72.490761575488662, -37.114709767316704 ], [ -72.491133625339998, -37.114262525315006 ], [ -72.491289620484025, -37.113864828515787 ], [ -72.491586866723338, -37.11352865585377 ], [ -72.492453105863603, -37.113258661599836 ], [ -72.493039520691184, -37.112815866790278 ], [ -72.493334451073693, -37.112533784947281 ], [ -72.493345714150735, -37.112191577435624 ], [ -72.493358891537639, -37.111790785069125 ], [ -72.493374081150776, -37.111331550908915 ], [ -72.493670660840138, -37.110995319003067 ], [ -72.494037003694473, -37.110719247974366 ], [ -72.494543021100753, -37.110558694768102 ], [ -72.495042718858997, -37.110569263550445 ], [ -72.495606663228074, -37.110806441453597 ], [ -72.496247064109298, -37.110878613800352 ], [ -72.496748675279093, -37.110830590606724 ], [ -72.497471996050933, -37.110562049584765 ], [ -72.497503642800083, -37.110470775307846 ], [ -72.497629858792436, -37.11010568784593 ], [ -72.497496488617145, -37.109819048270417 ], [ -72.49706220977113, -37.109611927760213 ], [ -72.496863684788295, -37.109517339026091 ], [ -72.496728401201452, -37.109289136368233 ], [ -72.497023209413072, -37.109006974763268 ], [ -72.497451962721783, -37.109016087327987 ], [ -72.497729692163219, -37.109251742742771 ], [ -72.498223714365523, -37.109433404365475 ], [ -72.498932110527221, -37.109619504310174 ], [ -72.499294765797288, -37.109456008698047 ], [ -72.499595871199077, -37.109002717217912 ], [ -72.499609017144934, -37.10860192516796 ], [ -72.499411636615775, -37.108084096956681 ], [ -72.499282086077059, -37.107680362051312 ], [ -72.499514625768128, -37.107113072741946 ], [ -72.499593778124463, -37.106884884332089 ], [ -72.499605106778489, -37.106542674935937 ], [ -72.49947740317603, -37.106084932785642 ], [ -72.499272519019286, -37.105792141794993 ], [ -72.499283760536755, -37.105450008418273 ], [ -72.499580383345247, -37.105113761146605 ], [ -72.499866325185025, -37.105119777038176 ], [ -72.500069457626978, -37.105466572284705 ], [ -72.500561454128302, -37.10570673862734 ], [ -72.500772158469758, -37.105823767744127 ], [ -72.501190674577487, -37.106121016918834 ], [ -72.502026771646712, -37.106764987601402 ], [ -72.502374270541324, -37.107060714998802 ], [ -72.502874679765284, -37.10707123053821 ], [ -72.503308241755704, -37.106909094198258 ], [ -72.503956912527414, -37.106751588437206 ], [ -72.504034782987816, -37.106699685369875 ], [ -72.504540636900728, -37.106362844717459 ], [ -72.504559412588478, -37.105791022735936 ], [ -72.504209911349093, -37.105553816230056 ], [ -72.504000030762739, -37.105436768068948 ], [ -72.503719812987953, -37.105255153458074 ], [ -72.503658096931318, -37.10496994343935 ], [ -72.50367131384408, -37.10456914939239 ], [ -72.503470080440664, -37.104163923461208 ], [ -72.503449983331123, -37.104071816847203 ], [ -72.503407722986907, -37.103878732259815 ], [ -72.503920592742162, -37.103488546629322 ], [ -72.504430350733287, -37.103210783203629 ], [ -72.505805367802708, -37.10266753551327 ], [ -72.506213600895364, -37.102632126786659 ], [ -72.506306757986977, -37.102624055182346 ], [ -72.506934718099799, -37.102597712486229 ], [ -72.507236923937796, -37.102584998950974 ], [ -72.507746024362149, -37.102307389116866 ], [ -72.507966025368475, -37.102140786188535 ], [ -72.508048890461865, -37.101800073547629 ], [ -72.508051137148385, -37.101790854794388 ], [ -72.508131107869929, -37.101459307072176 ], [ -72.50814230716658, -37.101117101822503 ], [ -72.507935506903337, -37.100882985159593 ], [ -72.507731252465604, -37.100590190540316 ], [ -72.507595315803542, -37.100362094250336 ], [ -72.507598543450371, -37.100264350769748 ], [ -72.507604771470227, -37.100073892411473 ], [ -72.507896430188467, -37.099908782736463 ], [ -72.508183612601641, -37.099856288180568 ], [ -72.50854055278991, -37.099863796924055 ], [ -72.509036370724459, -37.099991407475947 ], [ -72.509320545578078, -37.100051406364209 ], [ -72.509534894384643, -37.100055904433972 ], [ -72.509740960724287, -37.100290039415405 ], [ -72.509728673567835, -37.100664383052809 ], [ -72.509727866880709, -37.100690830310199 ], [ -72.509786344510758, -37.10109304271348 ], [ -72.509991409228874, -37.101381233510473 ], [ -72.510199963003558, -37.101561415161441 ], [ -72.510278458691388, -37.101583075390657 ], [ -72.510411925884725, -37.101619860939813 ], [ -72.510840542649504, -37.101628928539462 ], [ -72.511197487329341, -37.101636356146543 ], [ -72.511766888963749, -37.101706934498097 ], [ -72.512345729196838, -37.101489309165075 ], [ -72.512574662152062, -37.101416536067973 ], [ -72.51335616860149, -37.1011680221349 ], [ -72.513397920499244, -37.100947060072521 ], [ -72.513442809314014, -37.100710210964557 ], [ -72.513443571983672, -37.100688857853669 ], [ -72.513455977717754, -37.100309491820219 ], [ -72.513304432827638, -37.10023243089222 ], [ -72.513104578338158, -37.10013089634559 ], [ -72.512825939801658, -37.099899732126481 ], [ -72.512976156981793, -37.099673043799989 ], [ -72.513262075465349, -37.09967902859831 ], [ -72.51361910728177, -37.09968651944726 ], [ -72.514045234814887, -37.099749602325083 ], [ -72.514398375129502, -37.099874190943986 ], [ -72.514680656334477, -37.099992761626744 ], [ -72.514962223378831, -37.100115781469441 ], [ -72.515755296535829, -37.099902631015794 ], [ -72.516183159614073, -37.099911554807953 ], [ -72.516747017744876, -37.100153210414 ], [ -72.517166036010835, -37.100329343298675 ], [ -72.517310942351017, -37.100390285521037 ], [ -72.517775276131474, -37.100259437154307 ], [ -72.517923809868762, -37.100217604061172 ], [ -72.51824842867309, -37.100126036457574 ], [ -72.518384062602891, -37.099779764870988 ], [ -72.518404163305689, -37.099728314859952 ], [ -72.518490864205333, -37.099270498571691 ], [ -72.518860776964615, -37.09888169138074 ], [ -72.519288638246223, -37.098890676911516 ], [ -72.519852651785556, -37.099127737340709 ], [ -72.520346650631666, -37.099309307173975 ], [ -72.520842480244312, -37.099436867072782 ], [ -72.521624479868805, -37.099565879790319 ], [ -72.522757212322944, -37.099967946988507 ], [ -72.522824946193694, -37.099991986393334 ], [ -72.5230654934672, -37.099933535060131 ], [ -72.523473507370952, -37.099834305756531 ], [ -72.524192995929781, -37.099678200341799 ], [ -72.524559319919476, -37.099397387903515 ], [ -72.524857539034244, -37.099007080314657 ], [ -72.525212742779047, -37.099068616854929 ], [ -72.525560380912538, -37.099364271126042 ], [ -72.525909726743379, -37.099601345119531 ], [ -72.526118558995805, -37.09977691326494 ], [ -72.526475496489098, -37.099784367563515 ], [ -72.52669733814345, -37.099559220769699 ], [ -72.527210049795244, -37.099168866009776 ], [ -72.527463843625938, -37.099129939831187 ], [ -72.527855872907509, -37.09906969803928 ], [ -72.528277772070581, -37.098827222175181 ], [ -72.528438510319319, -37.098734899139565 ], [ -72.528795442422734, -37.098742347808709 ], [ -72.529295054841029, -37.098752775657708 ], [ -72.529657579855424, -37.098589044506163 ], [ -72.53008978898302, -37.098485380480007 ], [ -72.530732172446051, -37.098498780389953 ], [ -72.530905622754375, -37.098400539405958 ], [ -72.531023682043951, -37.098333693792569 ], [ -72.531025555929631, -37.098274887229877 ], [ -72.531034775339393, -37.097991417104105 ], [ -72.531468380448942, -37.097824749513386 ], [ -72.532254080234097, -37.097841100813021 ], [ -72.532297706017559, -37.097847992131356 ], [ -72.532495977675495, -37.097879424359213 ], [ -72.532680046070482, -37.09790854943887 ], [ -72.532678798310542, -37.097907479701945 ], [ -72.532196553919931, -37.097501461505331 ], [ -72.532054444933564, -37.097381852288002 ], [ -72.531847585381527, -37.097147780686328 ], [ -72.530802185342665, -37.096380511943096 ], [ -72.530242622955541, -37.095969778744305 ], [ -72.529746739443993, -37.095846835285919 ], [ -72.52895997335861, -37.095884451918316 ], [ -72.528904633543831, -37.095899090435921 ], [ -72.527950761950976, -37.096151806835685 ], [ -72.52768757084408, -37.096216329274462 ], [ -72.527086752429241, -37.096363532660042 ], [ -72.526769981307226, -37.096452899376843 ], [ -72.526149258022315, -37.096627924535802 ], [ -72.52578845956991, -37.096737493735169 ], [ -72.525146274634551, -37.096724060554131 ], [ -72.524576999662585, -37.096653616564012 ], [ -72.524150217257628, -37.096586162521909 ], [ -72.523725907016313, -37.096464680321759 ], [ -72.522808856468629, -37.096102999747991 ], [ -72.522768187040768, -37.096068412666519 ], [ -72.522695957102044, -37.096006939609225 ], [ -72.522461247979564, -37.095807409418093 ], [ -72.522117357617432, -37.095399152290362 ], [ -72.521916144875263, -37.094993885188778 ], [ -72.521574090669588, -37.094531619280062 ], [ -72.521300043422485, -37.094178925600104 ], [ -72.521025197573096, -37.093830757379493 ], [ -72.520546007454456, -37.093194395378305 ], [ -72.520059566134847, -37.092783209962732 ], [ -72.519644047705228, -37.09237345685704 ], [ -72.519163145397656, -37.091791166395467 ], [ -72.518610588073145, -37.091207237691528 ], [ -72.518193838053264, -37.090856118603732 ], [ -72.517639471521775, -37.090326339175469 ], [ -72.517227617320188, -37.089804060768081 ], [ -72.517100167940953, -37.089255769653562 ], [ -72.517040244023278, -37.088998043534097 ], [ -72.516839077993495, -37.088592765129384 ], [ -72.516706220756234, -37.088522902617314 ], [ -72.516277049730945, -37.088297101074588 ], [ -72.516268748399412, -37.088292919040633 ], [ -72.516258475265829, -37.088287909342036 ], [ -72.515433688884329, -37.087878407103531 ], [ -72.515042429458958, -37.087669410025562 ], [ -72.514871926523085, -37.087578298779704 ], [ -72.514506260100177, -37.087346914963774 ], [ -72.514032311651206, -37.087047001601611 ], [ -72.513932285142644, -37.08687807269461 ], [ -72.513829173819389, -37.08670023096294 ], [ -72.513626040479139, -37.086353533265275 ], [ -72.513280503505101, -37.08599932386506 ], [ -72.513385691733291, -37.084974198854191 ], [ -72.513338298415533, -37.084229710379113 ], [ -72.513130339325585, -37.083933859462299 ], [ -72.513129742844214, -37.083932917805548 ], [ -72.512724281952529, -37.083356110714618 ], [ -72.512243496425938, -37.08277385846813 ], [ -72.511704152420933, -37.081789173632977 ], [ -72.51122338216571, -37.081206842701825 ], [ -72.510822813499061, -37.080342256131352 ], [ -72.510909455109896, -37.079884446703595 ], [ -72.511006558500526, -37.079693138746933 ], [ -72.511007656241816, -37.079690965075152 ], [ -72.511137941602428, -37.079434241313756 ], [ -72.511433321142562, -37.079152030150347 ], [ -72.511779291104574, -37.078632874738403 ], [ -72.511883442676918, -37.078476562960276 ], [ -72.512043715598338, -37.077961731015343 ], [ -72.512051094360089, -37.077736547334901 ], [ -72.512127272394494, -37.077584903685555 ], [ -72.512279633853197, -37.077281763116488 ], [ -72.512422921429206, -37.077284821260982 ], [ -72.512711843879117, -37.077178163830624 ], [ -72.512862026024933, -37.076951551590533 ], [ -72.513159039600581, -37.076615334806213 ], [ -72.513435643452979, -37.076050699799346 ], [ -72.513464846784558, -37.075990935623267 ], [ -72.513479825293601, -37.075531558987343 ], [ -72.513282364814373, -37.075013754167159 ], [ -72.513012168644906, -37.074548442166389 ], [ -72.512529535283775, -37.074024625890637 ], [ -72.51241415656699, -37.073975570183208 ], [ -72.512106628210944, -37.073844602383872 ], [ -72.511828899667805, -37.073608902778922 ], [ -72.511419179863367, -37.073028082254055 ], [ -72.511289412830678, -37.072687249468714 ], [ -72.511287737472657, -37.072682870903556 ], [ -72.511284504435949, -37.072680678395542 ], [ -72.510938378167097, -37.072445676146927 ], [ -72.5107372049508, -37.072040458329489 ], [ -72.510715206107804, -37.071915046997503 ], [ -72.510676761806891, -37.071696757691377 ], [ -72.510344342032639, -37.070946320917187 ], [ -72.510359342101268, -37.070486943824818 ], [ -72.51051936169776, -37.069976622713412 ], [ -72.510673182918808, -37.069637421915083 ], [ -72.510887290078585, -37.069474901563964 ], [ -72.511112164445336, -37.069304236901175 ], [ -72.511474597831537, -37.069140566848041 ], [ -72.511618522313114, -37.069030018061341 ], [ -72.511914377960352, -37.068802852489419 ], [ -72.512935577385463, -37.068139309975741 ], [ -72.513450623758658, -37.06769056734089 ], [ -72.514111277157951, -37.067132106993803 ], [ -72.514473696171123, -37.066968501782327 ], [ -72.515331721116425, -37.066932490037793 ], [ -72.515906558456635, -37.066827380660698 ], [ -72.516272607561859, -37.066551107124198 ], [ -72.516498097274592, -37.066208886174927 ], [ -72.516528700181382, -37.065970319278918 ], [ -72.516593319593014, -37.065467398929108 ], [ -72.516608122930592, -37.065012528942589 ], [ -72.51648246479202, -37.064491711913128 ], [ -72.516347222527671, -37.064263676866233 ], [ -72.515860907870533, -37.063852464264066 ], [ -72.515584462121609, -37.063558206190812 ], [ -72.515310502011104, -37.063210067930214 ], [ -72.515179153943521, -37.062864857051153 ], [ -72.515259388769763, -37.062578171382789 ], [ -72.515779854679053, -37.061962749757662 ], [ -72.51593519674789, -37.061932307647361 ], [ -72.516569983158575, -37.061807997159313 ], [ -72.517005902328293, -37.061587364071734 ], [ -72.517370186243994, -37.061365166182242 ], [ -72.517888151243554, -37.060803763181809 ], [ -72.518186429647116, -37.060408969336578 ], [ -72.518340844654588, -37.060069742239456 ], [ -72.518350175455438, -37.05978154346564 ], [ -72.518240507328912, -37.059712174129913 ], [ -72.518069942409298, -37.059604461135237 ], [ -72.518147195727096, -37.059434847411431 ], [ -72.518811475625185, -37.058763846340312 ], [ -72.519102864848847, -37.058598720514198 ], [ -72.519541811341057, -37.058260930545899 ], [ -72.519833197869772, -37.058095804342159 ], [ -72.520188133916633, -37.058161797229815 ], [ -72.520424886706394, -37.058569558106967 ], [ -72.520458306729921, -37.058627094350008 ], [ -72.521016234183193, -37.059039776183148 ], [ -72.521438429790322, -37.059219791818961 ], [ -72.521793350565815, -37.059281351342051 ], [ -72.523081541869757, -37.059195594675316 ], [ -72.52416136624862, -37.058929807677536 ], [ -72.524461980271923, -37.058480902312908 ], [ -72.524473118483144, -37.058138771126679 ], [ -72.524484409407933, -37.057791985124453 ], [ -72.524136821580115, -37.057500896543431 ], [ -72.523908207526816, -37.05738458567965 ], [ -72.523785602761905, -37.057322249664644 ], [ -72.523507168142956, -37.057086597644663 ], [ -72.52346820641246, -37.056119703828948 ], [ -72.523467967460604, -37.056112551351042 ], [ -72.523460541088141, -37.056105317863135 ], [ -72.523052558625437, -37.055702876049423 ], [ -72.52290806191705, -37.055758394242019 ], [ -72.523034542912413, -37.055421099913225 ], [ -72.523142826735082, -37.055132393835031 ], [ -72.523224764767093, -37.054791773849743 ], [ -72.523384117813649, -37.054281383708876 ], [ -72.523542378508836, -37.053825051529387 ], [ -72.523766902532614, -37.053487276155685 ], [ -72.523815325319688, -37.053423321713524 ], [ -72.524065768434383, -37.053092451409533 ], [ -72.524439235827245, -37.052586614532764 ], [ -72.524812855035378, -37.05207619593866 ], [ -72.52518060554975, -37.051741390224315 ], [ -72.526935199454286, -37.051137763323709 ], [ -72.52705756167407, -37.051095667246649 ], [ -72.52709542476498, -37.05088537148329 ], [ -72.527232342387336, -37.05012602931189 ], [ -72.527327360788192, -37.049384539741979 ], [ -72.527413123846685, -37.049119012333314 ], [ -72.527565699104429, -37.048646017624982 ], [ -72.527655930383148, -37.048075534699592 ], [ -72.527604647360192, -37.047443723616269 ], [ -72.527475260314873, -37.047039939564662 ], [ -72.527211606575619, -37.046349573436835 ], [ -72.526870165020966, -37.046058973688496 ], [ -72.526864221767056, -37.046053909576223 ], [ -72.5268546502177, -37.046034119168546 ], [ -72.526529701731647, -37.045362034520132 ], [ -72.526500243278534, -37.04520909792388 ], [ -72.526407644040745, -37.044728639215037 ], [ -72.526355307293983, -37.04415523944936 ], [ -72.526208227030821, -37.043259760826842 ], [ -72.526176402415246, -37.043065636532496 ], [ -72.526050476578732, -37.042549338121141 ], [ -72.525787100418896, -37.04185431060273 ], [ -72.525102518595389, -37.041115867232222 ], [ -72.525028871115126, -37.041036501084164 ], [ -72.524829451410255, -37.040577152259111 ], [ -72.524834236735771, -37.040429912983136 ], [ -72.524846269668998, -37.040059338293176 ], [ -72.524867195025223, -37.039415413258773 ], [ -72.524883372785183, -37.038915553702864 ], [ -72.525117927397446, -37.038294205801641 ], [ -72.526086879907297, -37.037600893286225 ], [ -72.526360099806027, -37.037405293126817 ], [ -72.52665815902067, -37.037010485832724 ], [ -72.526971865989225, -37.036156427838705 ], [ -72.527047600255884, -37.035938952083633 ], [ -72.527129089130256, -37.035704625539687 ], [ -72.527285256750829, -37.035506380165295 ], [ -72.527352647465108, -37.035420899245956 ], [ -72.527646911297694, -37.035143186883154 ], [ -72.527656299590717, -37.034854912810893 ], [ -72.527669315280875, -37.034454121671523 ], [ -72.527608749966106, -37.034110507483206 ], [ -72.527393345639069, -37.033675626099026 ], [ -72.527207108711011, -37.03329995491562 ], [ -72.527221864437863, -37.032845234168377 ], [ -72.5273058380523, -37.032445947697497 ], [ -72.5273526169224, -37.032366687943444 ], [ -72.527608396928201, -37.031934093524875 ], [ -72.527844703255269, -37.031254012103723 ], [ -72.527870737330517, -37.030452503726373 ], [ -72.527248715980022, -37.029808673641575 ], [ -72.526863516589557, -37.029483872182574 ], [ -72.526832380083491, -37.02945756359658 ], [ -72.526492333612467, -37.028936787976548 ], [ -72.526508982089638, -37.028423406990278 ], [ -72.526505236114886, -37.028410085058297 ], [ -72.526380711650205, -37.027961205009511 ], [ -72.526106746149793, -37.027612941461598 ], [ -72.525980855347569, -37.027096641965912 ], [ -72.526211811308812, -37.026583305916269 ], [ -72.526162389595129, -37.025897335852783 ], [ -72.525907197985845, -37.02540355512015 ], [ -72.525894145464775, -37.025378111482723 ], [ -72.525612111296482, -37.025255051424608 ], [ -72.525503916407033, -37.025146895076134 ], [ -72.524852071887409, -37.024495669484551 ], [ -72.524222802929216, -37.024081504571967 ], [ -72.523941445192349, -37.023962995201188 ], [ -72.523886938115837, -37.023904979410958 ], [ -72.523665130597465, -37.023668822011849 ], [ -72.523674287125147, -37.02338512964652 ], [ -72.523687327069823, -37.022984337507722 ], [ -72.523700365217849, -37.022583546123322 ], [ -72.524517578801493, -37.022002519333604 ], [ -72.524796157150874, -37.021804401719137 ], [ -72.524890029301432, -37.021121476164957 ], [ -72.524634660724033, -37.020201387229342 ], [ -72.524444880840491, -37.019449472914154 ], [ -72.5241289927624, -37.018854531922258 ], [ -72.524108530936871, -37.01881609599765 ], [ -72.52414074003137, -37.018752255080244 ], [ -72.524337578876427, -37.018361201752427 ], [ -72.524363564442666, -37.017559693613102 ], [ -72.523900978783729, -37.016405521184183 ], [ -72.523355160620468, -37.015650608378699 ], [ -72.523033340068253, -37.015378746321637 ], [ -72.522868406687124, -37.015239428636981 ], [ -72.522453885387478, -37.014829718542465 ], [ -72.522117575009744, -37.01419633324403 ], [ -72.521846837156147, -37.013731050706774 ], [ -72.521777869898514, -37.013385762559857 ], [ -72.521692420352068, -37.012958594048996 ], [ -72.521663213427232, -37.012812512040107 ], [ -72.521683697710657, -37.012182104704941 ], [ -72.521771322078408, -37.011670230195293 ], [ -72.522004003703316, -37.011102823667557 ], [ -72.522105432482036, -37.010913741016225 ], [ -72.522307429453463, -37.010536856883128 ], [ -72.522543740272098, -37.009856933244208 ], [ -72.522633390340815, -37.009540440037632 ], [ -72.522704833355377, -37.009288035461324 ], [ -72.522705325632145, -37.009272817116361 ], [ -72.52270716358521, -37.009216963648065 ], [ -72.522707788812653, -37.009196647873154 ], [ -72.522708962910727, -37.009162292315146 ], [ -72.522729102241072, -37.008540531719397 ], [ -72.522668868404651, -37.008324442439715 ], [ -72.522601377977338, -37.008082735974007 ], [ -72.522587198070596, -37.007650350468893 ], [ -72.52256967463434, -37.007115693673612 ], [ -72.522565713063955, -37.006996095430551 ], [ -72.522585005282991, -37.006401741308295 ], [ -72.522589984644611, -37.006248590670388 ], [ -72.522501273315356, -37.005959835347106 ], [ -72.522421348407889, -37.005699898663309 ], [ -72.522396222529395, -37.005618202781619 ], [ -72.522200818293854, -37.005041815403587 ], [ -72.521925230436054, -37.004747688764162 ], [ -72.521513767899933, -37.004225398668744 ], [ -72.521036903519573, -37.003707633160339 ], [ -72.521031472305353, -37.003701594875849 ], [ -72.520967333492393, -37.003470489704071 ], [ -72.52112644129889, -37.002960182869188 ], [ -72.521421413003878, -37.002677890318871 ], [ -72.52182371541906, -37.002326572392036 ], [ -72.521935436195989, -37.002229001008693 ], [ -72.52201807311728, -37.001888286460627 ], [ -72.521961294201446, -37.001431997395841 ], [ -72.52140371888774, -37.001019298006241 ], [ -72.521197084812826, -37.000785191608507 ], [ -72.52071117978744, -37.000373975208433 ], [ -72.520442980572852, -36.999854659653707 ], [ -72.52045785128405, -36.999395356648151 ], [ -72.520468298690815, -36.999073467100878 ], [ -72.520480090875537, -36.998710943346516 ], [ -72.520491255137898, -36.998368735820435 ], [ -72.520361737836865, -36.997965016573218 ], [ -72.520085534633097, -36.99767075422087 ], [ -72.52002767863722, -36.997268523568586 ], [ -72.520042488262987, -36.996813798815857 ], [ -72.520345974200254, -36.996247835416817 ], [ -72.520387920134141, -36.996229614752536 ], [ -72.5208523473394, -36.996028646906993 ], [ -72.521151022798307, -36.995633762330201 ], [ -72.52108878931206, -36.995344071287782 ], [ -72.520891437528988, -36.994826268257157 ], [ -72.520981603230666, -36.99425593639333 ], [ -72.521281185089734, -36.993807071980385 ], [ -72.521440431236769, -36.993292184407899 ], [ -72.521536124272416, -36.992550675203027 ], [ -72.521693402210673, -36.992098877626319 ], [ -72.52213445076066, -36.991707070112142 ], [ -72.522503931430279, -36.991313695693655 ], [ -72.52265747597022, -36.990974490670986 ], [ -72.522743989121977, -36.990516674535392 ], [ -72.522687287461238, -36.990055880805031 ], [ -72.522424651513205, -36.989365465285658 ], [ -72.521949148080481, -36.988611992384683 ], [ -72.521603807837508, -36.988262364566516 ], [ -72.521112356613543, -36.988022251119375 ], [ -72.520626449791521, -36.987611106340303 ], [ -72.520067085932098, -36.987256905301997 ], [ -72.519586822326701, -36.986674649799042 ], [ -72.519524696638271, -36.98638495333352 ], [ -72.519541314572706, -36.985871571185456 ], [ -72.519348452569417, -36.985236792917171 ], [ -72.518926035078422, -36.985056619116932 ], [ -72.518366796983116, -36.984702553286446 ], [ -72.517816816925162, -36.984060212050061 ], [ -72.517757082552023, -36.98371641661236 ], [ -72.517631344463396, -36.983200098037898 ], [ -72.517077737906618, -36.982670344111575 ], [ -72.516726899974103, -36.982491802494955 ], [ -72.515949868033118, -36.982250245692079 ], [ -72.515747107493709, -36.981898954666121 ], [ -72.515327110962389, -36.981664889154828 ], [ -72.51511690338927, -36.981543286089888 ], [ -72.514694522729215, -36.981363242757247 ], [ -72.514267234572742, -36.981354282056834 ], [ -72.513774469113528, -36.981245995780583 ], [ -72.513700490154932, -36.981229735603335 ], [ -72.513684043798719, -36.981072348476026 ], [ -72.513645852822719, -36.980710419925479 ], [ -72.513591698784126, -36.980195591527369 ], [ -72.513602903470684, -36.979853454978645 ], [ -72.513475363361579, -36.97939113773262 ], [ -72.513167549341262, -36.978947595057733 ], [ -72.513294867566501, -36.978359928894015 ], [ -72.513596599992326, -36.977848062061838 ], [ -72.513764828393889, -36.977054071083202 ], [ -72.513674234195818, -36.976754733014118 ], [ -72.513572127189036, -36.976419128823181 ], [ -72.513309054659771, -36.975724198926571 ], [ -72.512898463489492, -36.975201847288822 ], [ -72.512772133411076, -36.974685539113551 ], [ -72.512078015970829, -36.974098734970958 ], [ -72.511588598532683, -36.973800135963806 ], [ -72.510549273800095, -36.972863508710702 ], [ -72.510200313346502, -36.972626435578938 ], [ -72.509845719557774, -36.972564894809651 ], [ -72.509493197284101, -36.972440333252379 ], [ -72.509227007600785, -36.971862544669229 ], [ -72.509033464674502, -36.971232120782638 ], [ -72.508761715317917, -36.97082536157604 ], [ -72.508560866393424, -36.970420119578243 ], [ -72.508292204546464, -36.96989628104344 ], [ -72.508097571963745, -36.969319915756827 ], [ -72.507900389063934, -36.968802081279648 ], [ -72.507633580441393, -36.968224232062752 ], [ -72.50757948209835, -36.967709397425033 ], [ -72.507314496157534, -36.967072963979625 ], [ -72.507185206130274, -36.966669220026603 ], [ -72.507125543622351, -36.966325488846586 ], [ -72.507574566517121, -36.96583828689888 ], [ -72.507642904954039, -36.96576415562447 ], [ -72.50804417520493, -36.965336820791777 ], [ -72.508381697410002, -36.964977502532477 ], [ -72.508471205544922, -36.964407196675133 ], [ -72.508482428197766, -36.964064911627815 ], [ -72.508780971604352, -36.963670136756164 ], [ -72.509073209735945, -36.963446487460772 ], [ -72.509157783424982, -36.963047192424455 ], [ -72.509102947565111, -36.962532380197558 ], [ -72.509260163519613, -36.962080598881599 ], [ -72.509367764622652, -36.961938286562273 ], [ -72.509558690756521, -36.961685749120079 ], [ -72.510070532839109, -36.961295508403801 ], [ -72.510364664619331, -36.961013270101176 ], [ -72.510661277546347, -36.960677004318249 ], [ -72.510723775137294, -36.960567984460624 ], [ -72.510888262954012, -36.960280726031812 ], [ -72.510967092815164, -36.960002792943477 ], [ -72.510968368422866, -36.959998547852209 ], [ -72.511056749172099, -36.959482227712634 ], [ -72.51127800781984, -36.959261560104096 ], [ -72.511643749701236, -36.958980815210012 ], [ -72.512001936751091, -36.958929835371627 ], [ -72.512276646954888, -36.958723600003097 ], [ -72.512293983541554, -36.958710613279138 ], [ -72.512491375748823, -36.958229074299346 ], [ -72.512526604080989, -36.958143151145634 ], [ -72.512539630550947, -36.957742431410026 ], [ -72.512696976761148, -36.957286140265182 ], [ -72.513012897178584, -36.957210207524405 ], [ -72.513128424117383, -36.957182502151461 ], [ -72.513416975563061, -36.957071435060506 ], [ -72.513642030491184, -36.956733665234815 ], [ -72.51364949099964, -36.956503975786596 ], [ -72.513439289714711, -36.956386869972597 ], [ -72.513575379090383, -36.95595047072139 ], [ -72.513598375063324, -36.955876572450499 ], [ -72.514037435641598, -36.955538808810687 ], [ -72.514406803123507, -36.955145538852378 ], [ -72.514416004566939, -36.954861769547499 ], [ -72.514420921046508, -36.954710760579921 ], [ -72.514431019906922, -36.954402534441648 ], [ -72.514730500256334, -36.953953615815387 ], [ -72.514953708248242, -36.953669926059383 ], [ -72.515396329748299, -36.953224071998946 ], [ -72.515767584590606, -36.952772286424988 ], [ -72.515864387943921, -36.951972216185382 ], [ -72.515810348889701, -36.951457382923877 ], [ -72.515749930000325, -36.951113679267444 ], [ -72.515724674764414, -36.950874625945794 ], [ -72.515695130971366, -36.950594293072641 ], [ -72.515760918192882, -36.950147428157152 ], [ -72.51578705108281, -36.949969882787912 ], [ -72.515802055642993, -36.94951057439394 ], [ -72.515749002938946, -36.948937182708043 ], [ -72.515769469256071, -36.948306772155256 ], [ -72.51584066523391, -36.947803579580857 ], [ -72.515849869372303, -36.947519957376684 ], [ -72.515862877875946, -36.947119163080195 ], [ -72.515871845757431, -36.94684440473587 ], [ -72.515875889074508, -36.946718442775492 ], [ -72.516027547152362, -36.94643310713618 ], [ -72.516230752357828, -36.946033022185262 ], [ -72.516256213307926, -36.94598281694779 ], [ -72.516224479422206, -36.945942646990474 ], [ -72.51598197741464, -36.94563460075203 ], [ -72.51613811718741, -36.945236870768021 ], [ -72.5164320764911, -36.944954623924922 ], [ -72.516621959680919, -36.944838651221843 ], [ -72.516795832197417, -36.944732453199912 ], [ -72.517100815626264, -36.944112427511094 ], [ -72.51732598194549, -36.943770146012284 ], [ -72.517414239625523, -36.943258327319761 ], [ -72.517067144074474, -36.942967187621626 ], [ -72.516937853148889, -36.942563452269226 ], [ -72.516945305572492, -36.942333762449167 ], [ -72.516815282519943, -36.941930050305324 ], [ -72.516976871473261, -36.941361217452673 ], [ -72.517056932924646, -36.941078890197666 ], [ -72.51706994052995, -36.940678168995952 ], [ -72.51687095381304, -36.940214429148426 ], [ -72.516952422924476, -36.939477106360123 ], [ -72.516944992958756, -36.939467510327553 ], [ -72.516046338111479, -36.93830524988644 ], [ -72.515734274161559, -36.937901543683061 ], [ -72.51547364055827, -36.937152586712244 ], [ -72.514416142907493, -36.936787941298299 ], [ -72.513872133951224, -36.935974526613805 ], [ -72.512752524985061, -36.935320164255252 ], [ -72.51167637741068, -36.934971028347221 ], [ -72.511624205055611, -36.934954120666674 ], [ -72.510753686341317, -36.934685833969269 ], [ -72.510618026360362, -36.934408565740291 ], [ -72.510644779087841, -36.934062130543779 ], [ -72.510395603496022, -36.933633371285062 ], [ -72.510043171952177, -36.933058204984611 ], [ -72.509868340034942, -36.932716626358406 ], [ -72.509923465152369, -36.932447440668192 ], [ -72.510275588574075, -36.932080823190574 ], [ -72.510424810420844, -36.931786561704413 ], [ -72.510012618452734, -36.931129096487524 ], [ -72.510153301812764, -36.930622816178328 ], [ -72.510011303319175, -36.93022328658931 ], [ -72.510083295204325, -36.929904962010127 ], [ -72.510360451520626, -36.929473691179638 ], [ -72.510993806016771, -36.929027304152513 ], [ -72.512067947653122, -36.928355960797148 ], [ -72.512747965136683, -36.927897111672962 ], [ -72.512907395438361, -36.927265093688703 ], [ -72.513135097701635, -36.926454284686173 ], [ -72.513527084762387, -36.925813682472253 ], [ -72.514092015481623, -36.92481161022156 ], [ -72.513787334785022, -36.924625042747479 ], [ -72.512662865034869, -36.923867042428007 ], [ -72.511772697470377, -36.923348247539721 ], [ -72.511661735769849, -36.922683492802335 ], [ -72.511574752799206, -36.922100472662919 ], [ -72.511497241664912, -36.921139051745023 ], [ -72.511512050392369, -36.920382372687911 ], [ -72.511618115376294, -36.91996553800854 ], [ -72.511688251342093, -36.919881387262969 ], [ -72.511220310825763, -36.916582275495514 ], [ -72.51069600551692, -36.912664614820855 ], [ -72.510162619138882, -36.90868374263583 ], [ -72.509709760437858, -36.905312872052583 ], [ -72.509555066952657, -36.903340487147439 ], [ -72.509536770965269, -36.903105873448055 ], [ -72.507036608612609, -36.90004344360073 ], [ -72.502278353825176, -36.895739357190578 ], [ -72.482372827989494, -36.896918044703533 ], [ -72.482316577283029, -36.896940066471487 ], [ -72.474671907028664, -36.907033255235916 ], [ -72.471645304970039, -36.911028492662588 ] ] ] } },
{ "type": "Feature", "properties": { "capa": "colegios", "popup": "<strong>ESCUELA EL PARAISO</strong><br><br><strong>Dirección:</strong> CHILLANCITO KM 2,5 - SECTOR SALTO DEL LAJA - CABRERO 0", "etiqueta": "" }, "geometry": { "type": "Point", "coordinates": [ -72.354469, -37.204262 ] } },
{ "type": "Feature", "properties": { "capa": "colegios", "popup": "<strong>ESCUELA SALTO EL LAJA</strong><br><br><strong>Dirección:</strong> RUTA 5 SUR 480", "etiqueta": "" }, "geometry": { "type": "Point", "coordinates": [ -72.389526, -37.20034 ] } },
{ "type": "Feature", "properties": { "capa": "colegios", "popup": "<strong>ESCUELA PILLANCO</strong><br><br><strong>Dirección:</strong> SECTOR PILLANCO 0", "etiqueta": "" }, "geometry": { "type": "Point", "coordinates": [ -72.35083, -37.151272 ] } },
{ "type": "Feature", "properties": { "capa": "colegios", "popup": "<strong>ESCUELA EL MANZANO</strong><br><br><strong>Dirección:</strong> SECTOR EL MANZANO 0", "etiqueta": "" }, "geometry": { "type": "Point", "coordinates": [ -72.323418, -37.150829 ] } },
{ "type": "Feature", "properties": { "capa": "colegios", "popup": "<strong>HACIENDA MONTE ÁGUILA</strong><br><br><strong>Dirección:</strong> HACIENDA MONTE AGUILA 0", "etiqueta": "" }, "geometry": { "type": "Point", "coordinates": [ -72.44133, -37.112141 ] } },
{ "type": "Feature", "properties": { "capa": "colegios", "popup": "<strong>ESCUELA CHARRUA</strong><br><br><strong>Dirección:</strong> ALFONSO OLEA 0", "etiqueta": "" }, "geometry": { "type": "Point", "coordinates": [ -72.323517, -37.10183 ] } },
{ "type": "Feature", "properties": { "capa": "colegios", "popup": "<strong>COLEGIO ESPERANZA</strong><br><br><strong>Dirección:</strong> LOS PINOS 10", "etiqueta": "" }, "geometry": { "type": "Point", "coordinates": [ -72.42704, -37.08873 ] } },
{ "type": "Feature", "properties": { "capa": "colegios", "popup": "<strong>COLEGIO ABEL INOSTROZA GUTIERREZ</strong><br><br><strong>Dirección:</strong> AHUMADA 219", "etiqueta": "" }, "geometry": { "type": "Point", "coordinates": [ -72.438362, -37.087372 ] } },
{ "type": "Feature", "properties": { "capa": "colegios", "popup": "<strong>ESCUELA ORLANDO VERA VILLARROEL</strong><br><br><strong>Dirección:</strong> CARLOS VIEL 25", "etiqueta": "" }, "geometry": { "type": "Point", "coordinates": [ -72.440559, -37.086948 ] } },
{ "type": "Feature", "properties": { "capa": "colegios", "popup": "<strong>ESCUELA ESPECIAL DE LENGUAJE ESPERANZA</strong><br><br><strong>Dirección:</strong> LOS PINOS 10", "etiqueta": "" }, "geometry": { "type": "Point", "coordinates": [ -72.43351, -37.08414 ] } },
{ "type": "Feature", "properties": { "capa": "colegios", "popup": "<strong>LICEO BICENTENARIO POLITÉCNICO MONTE ÁGUILA</strong><br><br><strong>Dirección:</strong> CARLOS VIEL 299", "etiqueta": "" }, "geometry": { "type": "Point", "coordinates": [ -72.436996, -37.083931 ] } },
{ "type": "Feature", "properties": { "capa": "colegios", "popup": "<strong>ESCUELA LAS OBRAS</strong><br><br><strong>Dirección:</strong> SECTOR LAS OBRAS RIO CLARO 0", "etiqueta": "" }, "geometry": { "type": "Point", "coordinates": [ -72.509987, -37.079971 ] } },
{ "type": "Feature", "properties": { "capa": "colegios", "popup": "<strong>ESCUELA EL PROGRESO</strong><br><br><strong>Dirección:</strong> SECTOR EL PROGRESO 0", "etiqueta": "" }, "geometry": { "type": "Point", "coordinates": [ -72.286713, -37.073608 ] } },
{ "type": "Feature", "properties": { "capa": "colegios", "popup": "<strong>ESCUELA BASICA ENRIQUE ZANARTU PRIETO</strong><br><br><strong>Dirección:</strong> MANUEL PALACIOS 301", "etiqueta": "" }, "geometry": { "type": "Point", "coordinates": [ -72.404984, -37.035938 ] } },
{ "type": "Feature", "properties": { "capa": "colegios", "popup": "<strong>COLEGIO SAN JOSE</strong><br><br><strong>Dirección:</strong> MEMBRILLAR 300", "etiqueta": "" }, "geometry": { "type": "Point", "coordinates": [ -72.40564, -37.03524 ] } },
{ "type": "Feature", "properties": { "capa": "colegios", "popup": "<strong>CENTRO DE EDUCACION INTEGRADA DE ADULTOS NAHUELQUIN</strong><br><br><strong>Dirección:</strong> LOS GUINDOS 140", "etiqueta": "" }, "geometry": { "type": "Point", "coordinates": [ -72.3968143, -37.03516846 ] } },
{ "type": "Feature", "properties": { "capa": "colegios", "popup": "<strong>LICEO MANUEL ARÍSTIDES ZAÑARTU</strong><br><br><strong>Dirección:</strong> AVENIDA LAS VIOLETAS 569", "etiqueta": "" }, "geometry": { "type": "Point", "coordinates": [ -72.397346, -37.03413 ] } },
{ "type": "Feature", "properties": { "capa": "colegios", "popup": "<strong>ESCUELA COLICHEU</strong><br><br><strong>Dirección:</strong> SECTOR COLICHEU 0", "etiqueta": "" }, "geometry": { "type": "Point", "coordinates": [ -72.27771, -37.03392 ] } },
{ "type": "Feature", "properties": { "capa": "colegios", "popup": "<strong>ESCUELA ALTO CABRERO</strong><br><br><strong>Dirección:</strong> TUCAPEL 120", "etiqueta": "" }, "geometry": { "type": "Point", "coordinates": [ -72.399002, -37.032902 ] } },
{ "type": "Feature", "properties": { "capa": "colegios", "popup": "<strong>ESCUELA ESPECIAL DE LENGUAJE ESMERALDA BARQUITO DE SUEÑOS</strong><br><br><strong>Dirección:</strong> FLORIDA 500", "etiqueta": "" }, "geometry": { "type": "Point", "coordinates": [ -72.40285, -37.03127 ] } },
{ "type": "Feature", "properties": { "capa": "colegios", "popup": "<strong>COLEGIO Y ESCUELA DE LENGUAJE CENTRO EDUCACIONAL PEUMAYEN</strong><br><br><strong>Dirección:</strong> BEETHOVEN 62", "etiqueta": "" }, "geometry": { "type": "Point", "coordinates": [ -72.395592, -37.029991 ] } },
{ "type": "Feature", "properties": { "capa": "colegios", "popup": "<strong>COLEGIO MONTE ÁGUILA COLLEGE</strong><br><br><strong>Dirección:</strong> LOS NARDOS 15", "etiqueta": "" }, "geometry": { "type": "Point", "coordinates": [ -72.395912, -37.028431 ] } },
{ "type": "Feature", "properties": { "capa": "colegios", "popup": "<strong>ESCUELA LOS LEONES</strong><br><br><strong>Dirección:</strong> SECTOR LOS LEONES 0", "etiqueta": "" }, "geometry": { "type": "Point", "coordinates": [ -72.492828, -37.008549 ] } },
{ "type": "Feature", "properties": { "capa": "colegios", "popup": "<strong>ESCUELA LOMAS DE ANGOL</strong><br><br><strong>Dirección:</strong> LOMAS DE ANGOL 5", "etiqueta": "" }, "geometry": { "type": "Point", "coordinates": [ -72.402573, -36.993992 ] } },
{ "type": "Feature", "properties": { "capa": "colegios", "popup": "<strong>ESCUELA LOS CAULLES</strong><br><br><strong>Dirección:</strong> SECTOR LOS CAULLES 0", "etiqueta": "" }, "geometry": { "type": "Point", "coordinates": [ -72.446114, -36.989769 ] } },
{ "type": "Feature", "properties": { "capa": "colegios", "popup": "<strong>ESCUELA QUINEL</strong><br><br><strong>Dirección:</strong> CAMINO QUINEL 0", "etiqueta": "" }, "geometry": { "type": "Point", "coordinates": [ -72.495888, -36.923771 ] } },
{ "type": "Feature", "properties": { "capa": "jardines", "popup": "<strong>NUBELUZ</strong><br><br><strong>Dirección:</strong> RECINTO ESC.HOGAR CHARRUA ", "etiqueta": "" }, "geometry": { "type": "MultiPoint", "coordinates": [ [ -72.323014, -37.101688 ] ] } },
{ "type": "Feature", "properties": { "capa": "jardines", "popup": "<strong>RAYITO DE LUZ</strong><br><br><strong>Dirección:</strong> AV PADRE HURTADO ESQ. LOS GUINDOS S/N CABRERO ", "etiqueta": "" }, "geometry": { "type": "MultiPoint", "coordinates": [ [ -72.3958, -37.0341 ] ] } },
{ "type": "Feature", "properties": { "capa": "jardines", "popup": "<strong>ARQUITA DE NOE</strong><br><br><strong>Dirección:</strong> AVENIDA PADRE HURTADO N 103,POB. SAN MARCOS ", "etiqueta": "" }, "geometry": { "type": "MultiPoint", "coordinates": [ [ -72.395927, -37.036052 ] ] } },
{ "type": "Feature", "properties": { "capa": "jardines", "popup": "<strong>CAPULLITOS DE SOL</strong><br><br><strong>Dirección:</strong> OHIGGINS #702 ", "etiqueta": "" }, "geometry": { "type": "MultiPoint", "coordinates": [ [ -72.436855, -37.089728 ] ] } },
{ "type": "Feature", "properties": { "capa": "jardines", "popup": "<strong>TRENCITO DE MIS SUEÑOS</strong><br><br><strong>Dirección:</strong> LOS CIPRESES N 13,VILLA VILORIO ", "etiqueta": "" }, "geometry": { "type": "MultiPoint", "coordinates": [ [ -72.431064, -37.085356 ] ] } },
{ "type": "Feature", "properties": { "capa": "jardines", "popup": "<strong>PEQUEÑOS ANGELITOS</strong><br><br><strong>Dirección:</strong> DELFIN MUÑOZ #1,MONTE AGUILA ", "etiqueta": "" }, "geometry": { "type": "MultiPoint", "coordinates": [ [ -72.4387, -37.0812 ] ] } },
{ "type": "Feature", "properties": { "capa": "jardines", "popup": "<strong>NA</strong><br><br><strong>Dirección:</strong> NA ", "etiqueta": "" }, "geometry": { "type": "MultiPoint", "coordinates": [ [ -72.434141356079806, -37.082870591585547 ] ] } },
{ "type": "Feature", "properties": { "capa": "jardines", "popup": "<strong>NA</strong><br><br><strong>Dirección:</strong> NA ", "etiqueta": "" }, "geometry": { "type": "MultiPoint", "coordinates": [ [ -72.397418999881822, -37.033080000444997 ] ] } },
{ "type": "Feature", "properties": { "capa": "bomberos", "popup": "<strong>Cuerpo de Bomberos</strong><br><br><strong>Dirección:</strong> Zañartu 169", "etiqueta": "" }, "geometry": { "type": "Point", "coordinates": [ -72.40251293790628, -37.034042298671935 ] } },
{ "type": "Feature", "properties": { "capa": "comisarias", "popup": "<strong>RETEN MONTE AGUILA</strong><br><br><strong>Dirección:</strong> ZANARTU 25", "etiqueta": "" }, "geometry": { "type": "Point", "coordinates": [ -72.441531425622074, -37.086259167005508 ] } },
{ "type": "Feature", "properties": { "capa": "comisarias", "popup": "<strong>RETEN SALTO DEL LAJA</strong><br><br><strong>Dirección:</strong> RUTA 5 SUR KM 476", "etiqueta": "" }, "geometry": { "type": "Point", "coordinates": [ -72.392681876123746, -37.188361734333981 ] } },
{ "type": "Feature", "properties": { "capa": "comisarias", "popup": "<strong>SCOM. CABRERO</strong><br><br><strong>Dirección:</strong> PALACIOS 906", "etiqueta": "" }, "geometry": { "type": "Point", "coordinates": [ -72.405226573134783, -37.037640939566252 ] } },
{ "type": "Feature", "properties": { "capa": "salud", "popup": "<strong>Posta de Salud Rural Chillancito</strong><br><br><strong>Tipo de atención:</strong> Posta de Salud Rural (PSR)<br><strong>Dirección:</strong>  NA", "etiqueta": "" }, "geometry": { "type": "Point", "coordinates": [ -72.350347, -37.202777 ] } },
{ "type": "Feature", "properties": { "capa": "salud", "popup": "<strong>Posta de Salud Rural Charrúa</strong><br><br><strong>Tipo de atención:</strong> Posta de Salud Rural (PSR)<br><strong>Dirección:</strong>  NA", "etiqueta": "" }, "geometry": { "type": "Point", "coordinates": [ -72.32417, -37.10167 ] } },
{ "type": "Feature", "properties": { "capa": "salud", "popup": "<strong>Centro de Salud Familiar Monteaguila</strong><br><br><strong>Tipo de atención:</strong> Centro de Salud Familiar (CESFAM)<br><strong>Dirección:</strong>  NA", "etiqueta": "" }, "geometry": { "type": "Point", "coordinates": [ -72.43603, -37.08616 ] } },
{ "type": "Feature", "properties": { "capa": "salud", "popup": "<strong>SUR Monteaguila</strong><br><br><strong>Tipo de atención:</strong> Servicio de Urgencia Rural (SUR)<br><strong>Dirección:</strong>  NA", "etiqueta": "" }, "geometry": { "type": "Point", "coordinates": [ -72.436029, -37.086161 ] } },
{ "type": "Feature", "properties": { "capa": "salud", "popup": "<strong>Policlínico AChS Cabrero</strong><br><br><strong>Tipo de atención:</strong> Centro de Salud Privado<br><strong>Dirección:</strong>  60", "etiqueta": "" }, "geometry": { "type": "Point", "coordinates": [ -72.398755, -37.040307 ] } },
{ "type": "Feature", "properties": { "capa": "salud", "popup": "<strong>Centro de Salud Familiar Lautaro Cáceres Ramos</strong><br><br><strong>Tipo de atención:</strong> Centro de Salud Familiar (CESFAM)<br><strong>Dirección:</strong>  360", "etiqueta": "" }, "geometry": { "type": "Point", "coordinates": [ -72.39762, -37.03815 ] } },
{ "type": "Feature", "properties": { "capa": "salud", "popup": "<strong>SAR Cabrero</strong><br><br><strong>Tipo de atención:</strong> Servicio de Atención Primaria de Urgencia de Alta Resolutividad (SAR)<br><strong>Dirección:</strong>  360", "etiqueta": "" }, "geometry": { "type": "Point", "coordinates": [ -72.398901, -37.037929 ] } },
{ "type": "Feature", "properties": { "capa": "salud", "popup": "<strong>Centro Comunitario de Salud Familiar Cabrero</strong><br><br><strong>Tipo de atención:</strong> Centro Comunitario de Salud Familiar (CECOSF)<br><strong>Dirección:</strong>  977", "etiqueta": "" }, "geometry": { "type": "Point", "coordinates": [ -72.41365, -37.03519 ] } },
{ "type": "Feature", "properties": { "capa": "salud", "popup": "<strong>Posta de Salud Rural Colicheo</strong><br><br><strong>Tipo de atención:</strong> Posta de Salud Rural (PSR)<br><strong>Dirección:</strong>  NA", "etiqueta": "" }, "geometry": { "type": "Point", "coordinates": [ -72.27722, -37.03417 ] } },
{ "type": "Feature", "properties": { "capa": "salud", "popup": "<strong>Posta de Salud Rural Quinel</strong><br><br><strong>Tipo de atención:</strong> Posta de Salud Rural (PSR)<br><strong>Dirección:</strong>  NA", "etiqueta": "" }, "geometry": { "type": "Point", "coordinates": [ -72.47917, -36.94722 ] } },
{ "type": "Feature", "properties": { "capa": "municipios", "popup": "<strong>Municipalidad de Cabrero</strong><br><br><strong>Dirección:</strong> Las Delicias Nº 355<br><strong>Región:</strong> Biobío", "etiqueta": "" }, "geometry": { "type": "Point", "coordinates": [ -72.40563004199997, -37.037450341999936 ] } }
]
}
