{
"type": "FeatureCollection",
"name": "8304",
"crs": { "type": "name", "properties": { "name": "urn:ogc:def:crs:OGC:1.3:CRS84" } },
"features": [
{ "type": "Feature", "properties": { "capa": "comuna", "popup": "", "etiqueta": "" }, "geometry": { "type": "Polygon", "coordinates": [ [ [ -72.599782285280966, -37.229058633451267 ], [ -72.594876294460235, -37.229245781570363 ], [ -72.591293305559034, -37.229172920381238 ], [ -72.588310455048003, -37.229016576898935 ], [ -72.583759915008798, -37.22930606346339 ], [ -72.578002628522526, -37.229952934209251 ], [ -72.57439208739325, -37.230739036704357 ], [ -72.570306767771697, -37.231419797400946 ], [ -72.566579751082671, -37.232107697819664 ], [ -72.56106719801916, -37.232567613965976 ], [ -72.558917300473865, -37.232523313559334 ], [ -72.5573584755209, -37.232682243891922 ], [ -72.556503944123733, -37.233238008922633 ], [ -72.554194510275551, -37.234432586760477 ], [ -72.551404131898991, -37.235712784757837 ], [ -72.549486996826957, -37.23586428822027 ], [ -72.54745646023008, -37.235822176818019 ], [ -72.546020096311608, -37.235887981192974 ], [ -72.544338596525122, -37.236139723574354 ], [ -72.543096027959507, -37.236346483948573 ], [ -72.542078225962825, -37.23656310548737 ], [ -72.541043196973916, -37.236780604652317 ], [ -72.539911432005354, -37.237100847903115 ], [ -72.53960689593751, -37.237167751827855 ], [ -72.538264386203281, -37.237462623867721 ], [ -72.537194919399653, -37.237589748387755 ], [ -72.535049076849546, -37.237485259302737 ], [ -72.534100948186293, -37.237330999214663 ], [ -72.533061139261775, -37.237257334822758 ], [ -72.532335170256488, -37.237317692556239 ], [ -72.531912680900248, -37.237531429847699 ], [ -72.531807759471704, -37.237617151163079 ], [ -72.531464933613208, -37.23807597667259 ], [ -72.531144284464105, -37.238972175081628 ], [ -72.531047759588532, -37.239698277592176 ], [ -72.530864101723623, -37.240859479400442 ], [ -72.530738756198787, -37.241352034201881 ], [ -72.530541539162968, -37.241813892048661 ], [ -72.530256235127041, -37.242739957034189 ], [ -72.529911572213791, -37.243256992573258 ], [ -72.529639542582842, -37.243775624288425 ], [ -72.529514179091663, -37.244268031311599 ], [ -72.529499001156623, -37.244733826566758 ], [ -72.529334291456024, -37.245312874536218 ], [ -72.529025925870116, -37.24583059608274 ], [ -72.528579103847804, -37.246103723153645 ], [ -72.528111537030625, -37.246332004174384 ], [ -72.527835364369565, -37.246499294162248 ], [ -72.527016999145729, -37.24669854768706 ], [ -72.526199192674028, -37.246876228555713 ], [ -72.525120180372184, -37.247176162619624 ], [ -72.524646843675924, -37.247166283684273 ], [ -72.523925382416749, -37.246947324240843 ], [ -72.523460700089942, -37.24667546880125 ], [ -72.523178504224902, -37.24655338742739 ], [ -72.522774611791704, -37.246486373843005 ], [ -72.522396351886783, -37.246472104138704 ], [ -72.521794480646435, -37.246378434600587 ], [ -72.521291495054243, -37.246164023746424 ], [ -72.521046144488906, -37.245867618963082 ], [ -72.520884185429679, -37.245252621174473 ], [ -72.520719372422832, -37.24472494703619 ], [ -72.520484506095158, -37.244108355224022 ], [ -72.520251643010582, -37.243433617453206 ], [ -72.519877911513049, -37.242610220245332 ], [ -72.51949552474774, -37.242048868296955 ], [ -72.518998294661557, -37.241659873954667 ], [ -72.518532617001426, -37.241417106449937 ], [ -72.51784477159849, -37.241286118028391 ], [ -72.517153111948844, -37.241271556991137 ], [ -72.516300469708725, -37.241719743298454 ], [ -72.515881941922913, -37.242264324943143 ], [ -72.515535179646804, -37.242839542348925 ], [ -72.515033139980616, -37.24370278715309 ], [ -72.514681683108847, -37.244423538663327 ], [ -72.514546586371594, -37.245207088943225 ], [ -72.514036017201761, -37.246332225138922 ], [ -72.513694952939517, -37.246732791294427 ], [ -72.51290463222054, -37.247502593664315 ], [ -72.512226210144931, -37.248187363302627 ], [ -72.511701253557504, -37.248642318844396 ], [ -72.511276102493113, -37.248835176106063 ], [ -72.509918063582575, -37.248979629055938 ], [ -72.509268938263304, -37.24896597549958 ], [ -72.509208869716886, -37.248964731991812 ], [ -72.509200658216869, -37.249883488413147 ], [ -72.509010461515032, -37.250430202714327 ], [ -72.508877560260316, -37.250978095028735 ], [ -72.508860915376417, -37.251482608638987 ], [ -72.508444176136337, -37.251932714887857 ], [ -72.507974643805312, -37.252244081612666 ], [ -72.506988847883889, -37.252544556328736 ], [ -72.506181114221448, -37.252665192204788 ], [ -72.505777982661286, -37.252702607141572 ], [ -72.50554095229208, -37.252927065625627 ], [ -72.505358178369448, -37.253244387301052 ], [ -72.505290289988466, -37.253564281021973 ], [ -72.50464864044902, -37.253871952910075 ], [ -72.504130807501809, -37.253906930446895 ], [ -72.503552445172417, -37.254032414139196 ], [ -72.503272672063716, -37.254066091691186 ], [ -72.503010164574746, -37.254173432173758 ], [ -72.502847399726747, -37.254522336664529 ], [ -72.502434536717118, -37.254487476676452 ], [ -72.501898049354708, -37.25460418399782 ], [ -72.501647214574547, -37.254557068648381 ], [ -72.501434297682536, -37.254523223286661 ], [ -72.501162391120758, -37.255129249232084 ], [ -72.50114873762675, -37.255542007417645 ], [ -72.501127522114686, -37.256184082015587 ], [ -72.500941771175192, -37.256593152895967 ], [ -72.500641229915416, -37.256999864218656 ], [ -72.500312450114691, -37.257532585305455 ], [ -72.50039043016956, -37.25775088336917 ], [ -72.500650187017101, -37.258468631291727 ], [ -72.501006940355794, -37.258878321090137 ], [ -72.501196576508903, -37.259306168962361 ], [ -72.501415469892507, -37.259632035535745 ], [ -72.497273485441127, -37.261609646241844 ], [ -72.488539074305464, -37.265279556836454 ], [ -72.48824139417988, -37.265594412931826 ], [ -72.487970796463486, -37.26682772454641 ], [ -72.487420773286374, -37.26782571692074 ], [ -72.484639037601141, -37.272104788949562 ], [ -72.484433562352947, -37.273039769564015 ], [ -72.483777920654632, -37.273760173934136 ], [ -72.482851463847609, -37.275713734615834 ], [ -72.479077634152503, -37.282104198823006 ], [ -72.474847816924239, -37.288332591996152 ], [ -72.474818008128153, -37.288415466764761 ], [ -72.4718719840522, -37.293193886357841 ], [ -72.467534117461554, -37.297506687950701 ], [ -72.449585752033698, -37.313650763790662 ], [ -72.44880031096335, -37.314410644206951 ], [ -72.447367975090586, -37.315796521122827 ], [ -72.446857974554334, -37.31628980961338 ], [ -72.446519743578506, -37.316617041246602 ], [ -72.445586853037426, -37.31749028589914 ], [ -72.444797595025435, -37.318228995176206 ], [ -72.444046117459322, -37.318919141162908 ], [ -72.441020225968089, -37.322176239892421 ], [ -72.438035482706752, -37.325461664791511 ], [ -72.437723469960829, -37.326189102771167 ], [ -72.436746563767429, -37.331261833502211 ], [ -72.434119768604106, -37.342585891905479 ], [ -72.434003281366273, -37.344572756940465 ], [ -72.433022042598267, -37.351189542439876 ], [ -72.43246666007218, -37.353164579575747 ], [ -72.433539169469668, -37.353842403205832 ], [ -72.434528858689546, -37.35426489110629 ], [ -72.436743117830005, -37.354484068174848 ], [ -72.437451526568111, -37.354729237312625 ], [ -72.438224287918217, -37.355201107565847 ], [ -72.438856895016045, -37.355561693318094 ], [ -72.439551984433436, -37.356203059397458 ], [ -72.439980028971362, -37.356270972819694 ], [ -72.440274101462776, -37.356047560207337 ], [ -72.440506597136405, -37.355538906303494 ], [ -72.44095025888555, -37.355147506543702 ], [ -72.441952749996545, -37.355169232581751 ], [ -72.442450172322182, -37.355292611594969 ], [ -72.443017488966831, -37.355480597734825 ], [ -72.44344569070995, -37.355543917562194 ], [ -72.444376366903853, -37.355564025430681 ], [ -72.445522684580027, -37.355588834648515 ], [ -72.447237625051301, -37.355743031636727 ], [ -72.448656745807895, -37.356174641564294 ], [ -72.449996909142612, -37.356829883455674 ], [ -72.451911488507648, -37.357443456126944 ], [ -72.4531836107478, -37.35798898059376 ], [ -72.453814605369672, -37.358399053865973 ], [ -72.454798533693634, -37.358992471777476 ], [ -72.455429478908158, -37.359407113586578 ], [ -72.456062200990331, -37.359767673420485 ], [ -72.456829384700853, -37.360410442292576 ], [ -72.457452500199352, -37.36105469150494 ], [ -72.458356906959423, -37.361876103210811 ], [ -72.458907101714743, -37.3625728881727 ], [ -72.459727986712949, -37.363734986720601 ], [ -72.460423160571992, -37.364380651046957 ], [ -72.460909130276065, -37.36484622695415 ], [ -72.462563411109429, -37.366828225588492 ], [ -72.463412263357384, -37.367980840657033 ], [ -72.463591874311916, -37.368224595659562 ], [ -72.46372414225435, -37.368335780598848 ], [ -72.464428372928083, -37.368927348672479 ], [ -72.465193547107319, -37.369633222089398 ], [ -72.46589277685986, -37.370161897987572 ], [ -72.466521761052107, -37.37063491484674 ], [ -72.466603179857884, -37.370683967884922 ], [ -72.467505302202184, -37.371228231001538 ], [ -72.468348414215455, -37.371759974012022 ], [ -72.468687161722571, -37.372189319425189 ], [ -72.468760627743151, -37.372282445421497 ], [ -72.469167625652304, -37.372980503705861 ], [ -72.469455583311571, -37.373521530530894 ], [ -72.469504886447609, -37.373614036648064 ], [ -72.470072301008628, -37.373883882924325 ], [ -72.470139720469021, -37.373916000532482 ], [ -72.470635383893338, -37.374097836335537 ], [ -72.471133713517403, -37.374221136398944 ], [ -72.471551590922971, -37.374576998414426 ], [ -72.471815585123721, -37.375267588251759 ], [ -72.471855989548558, -37.37571226099579 ], [ -72.471867657765799, -37.375840855996223 ], [ -72.471928965987303, -37.375958914149109 ], [ -72.47211786462357, -37.376322685343965 ], [ -72.472137450591703, -37.376360340746665 ], [ -72.47217578709477, -37.376371392010199 ], [ -72.472690391496855, -37.376520333701045 ], [ -72.472776254268339, -37.376545191671589 ], [ -72.473486922269387, -37.376736117771983 ], [ -72.47383948945884, -37.37691483932953 ], [ -72.47419389190641, -37.377035125870094 ], [ -72.474693445035911, -37.37710427467821 ], [ -72.475158461535983, -37.377330684877791 ], [ -72.475187130369974, -37.377344676348535 ], [ -72.475668233900166, -37.377981264090685 ], [ -72.475726031505545, -37.378383500781041 ], [ -72.475896400592447, -37.378567872730663 ], [ -72.476210268359452, -37.378907514339708 ], [ -72.476344271847012, -37.378995384595989 ], [ -72.476842145126938, -37.379322007549725 ], [ -72.477188791520334, -37.379676328478965 ], [ -72.477268700258122, -37.379826385028679 ], [ -72.47752615292697, -37.380309832705031 ], [ -72.477727832793107, -37.38071513917432 ], [ -72.477849770109771, -37.380913996582166 ], [ -72.478475370348363, -37.381934165488587 ], [ -72.478894137086058, -37.382285544626853 ], [ -72.479446339576029, -37.382928139862415 ], [ -72.479787497263061, -37.383449045934555 ], [ -72.479822740866609, -37.383603072891994 ], [ -72.480037590034783, -37.384540344451324 ], [ -72.480257173324532, -37.385120109488696 ], [ -72.480300795514722, -37.385235289367706 ], [ -72.480502505025242, -37.385640589200989 ], [ -72.480834154044985, -37.386445183823753 ], [ -72.481173335438399, -37.387024670755473 ], [ -72.481450756757681, -37.387318947744582 ], [ -72.481791951275653, -37.387839844725903 ], [ -72.481912046147656, -37.388531772042001 ], [ -72.481580246210953, -37.389060920698178 ], [ -72.482021006401723, -37.388989178479228 ], [ -72.482371648501541, -37.389226457277033 ], [ -72.482503352301975, -37.389571672694288 ], [ -72.482500987936135, -37.389644441418149 ], [ -72.482486240294122, -37.390084976361301 ], [ -72.482036756563616, -37.390647635530016 ], [ -72.481731247620331, -37.391213355896511 ], [ -72.481715886428958, -37.391672655871403 ], [ -72.481990834686286, -37.3920209553878 ], [ -72.482419199922774, -37.392088625844032 ], [ -72.482854413016668, -37.391926705538928 ], [ -72.483160359439523, -37.391891704396848 ], [ -72.48328669670444, -37.391877275993608 ], [ -72.483497965187908, -37.39199894954038 ], [ -72.483631686604483, -37.392285649547929 ], [ -72.484162051948218, -37.392620136738046 ], [ -72.484193688815893, -37.392640090501665 ], [ -72.484619406717258, -37.392766284836853 ], [ -72.48562128158396, -37.39284167117701 ], [ -72.48590951861928, -37.392793751717782 ], [ -72.486136289329608, -37.392451613653513 ], [ -72.486004470544799, -37.392106406502336 ], [ -72.485725099881336, -37.391870652030939 ], [ -72.485570146783047, -37.391652849589192 ], [ -72.485520076485741, -37.391582441642775 ], [ -72.485550090097689, -37.391537494003131 ], [ -72.485670986266925, -37.391355833949937 ], [ -72.486035072553278, -37.391192311904753 ], [ -72.486062101063553, -37.391180737528344 ], [ -72.486485724991965, -37.390998554880909 ], [ -72.48654422238495, -37.390973432628613 ], [ -72.486786772003242, -37.390738361909293 ], [ -72.487062962630617, -37.390470782403213 ], [ -72.487361413510712, -37.390134718274162 ], [ -72.487796695774904, -37.389972778046577 ], [ -72.488118538784988, -37.389979584891854 ], [ -72.488226963643157, -37.389981918075875 ], [ -72.48826215155114, -37.389920949077521 ], [ -72.488455460915475, -37.389585698995312 ], [ -72.488614019851312, -37.389129475293267 ], [ -72.488627728142546, -37.389105969746097 ], [ -72.48884251622529, -37.388733330219019 ], [ -72.489210335011649, -37.388457282827133 ], [ -72.489509730021112, -37.388375148610834 ], [ -72.489789482468566, -37.388298318152799 ], [ -72.490360492087348, -37.388364623005458 ], [ -72.490538571414334, -37.388476710955359 ], [ -72.49064185970569, -37.388541780159549 ], [ -72.491003715475188, -37.388846749458352 ], [ -72.49113001141761, -37.388953133905218 ], [ -72.491337442298175, -37.389187311626635 ], [ -72.491515357233453, -37.389273865839819 ], [ -72.491831348617794, -37.389427633165397 ], [ -72.49204078363978, -37.389603296817683 ], [ -72.492317007504795, -37.38977108045539 ], [ -72.49253269300452, -37.389902053766882 ], [ -72.492885368890128, -37.39008078677076 ], [ -72.493234301495932, -37.390372034128688 ], [ -72.493867530227917, -37.39072786375722 ], [ -72.494145016225914, -37.391022181167074 ], [ -72.494240504445671, -37.391102386868162 ], [ -72.494563164024356, -37.391373447058534 ], [ -72.495195339930831, -37.391787902051419 ], [ -72.495622973040369, -37.391855545596954 ], [ -72.496485430273282, -37.391815254383047 ], [ -72.496996631857087, -37.391537668149667 ], [ -72.497127738277868, -37.391438946974333 ], [ -72.497805422836606, -37.390928445369148 ], [ -72.498312909886707, -37.390674654255065 ], [ -72.498462244022903, -37.390599968754046 ], [ -72.499322044039218, -37.390618189419506 ], [ -72.500033062383238, -37.390804438353932 ], [ -72.500528903673981, -37.390986138997967 ], [ -72.501034359633209, -37.390879638244556 ], [ -72.501203218652108, -37.390795218488002 ], [ -72.501691073021675, -37.390551147854836 ], [ -72.502479018595039, -37.390567785490994 ], [ -72.50304680505856, -37.390750957691452 ], [ -72.503110086878763, -37.390814765915685 ], [ -72.503393882643309, -37.391100756019028 ], [ -72.503380551644483, -37.391501542009948 ], [ -72.503725640359207, -37.391909779151099 ], [ -72.504149007369449, -37.39207626866591 ], [ -72.504639557583189, -37.392269104361432 ], [ -72.504646062284152, -37.392271715820485 ], [ -72.504644543233013, -37.392272867745788 ], [ -72.505026745843665, -37.392560287548413 ], [ -72.5056321591412, -37.392942930570499 ], [ -72.506197904632401, -37.393355531976368 ], [ -72.506995331025294, -37.39377306059631 ], [ -72.50776332591451, -37.393912549121453 ], [ -72.508498888028711, -37.39386641743458 ], [ -72.508968220035428, -37.393691358279845 ], [ -72.509486390749188, -37.393209146650804 ], [ -72.510040076357711, -37.392820052397624 ], [ -72.510626295352566, -37.392616713808508 ], [ -72.511326220401131, -37.392477302807059 ], [ -72.511643213407012, -37.392237459237627 ], [ -72.512277186842368, -37.391757622771678 ], [ -72.513484056358578, -37.391474849037408 ], [ -72.515469093286313, -37.391023359519252 ], [ -72.516902498154252, -37.390899425460645 ], [ -72.518064659417092, -37.390800529296506 ], [ -72.519035788544898, -37.390636018246042 ], [ -72.520234534596, -37.390599556221375 ], [ -72.522273385999142, -37.390857971793672 ], [ -72.522957191678245, -37.391062384305982 ], [ -72.523382817951429, -37.391189472018141 ], [ -72.524787814496833, -37.39192780822345 ], [ -72.525986559649638, -37.3930625619168 ], [ -72.527741331420572, -37.394917777920973 ], [ -72.528829495758515, -37.39589601779894 ], [ -72.529574401249988, -37.396180856633677 ], [ -72.530262070583149, -37.396194251526538 ], [ -72.531228551827652, -37.396103286961171 ], [ -72.531949231552531, -37.396084909193796 ], [ -72.532755651878048, -37.395977685596996 ], [ -72.534207836027008, -37.395925304114343 ], [ -72.535121153176362, -37.39571707527994 ], [ -72.535695315881782, -37.395584973100178 ], [ -72.536150793171871, -37.395594436454438 ], [ -72.537428126538984, -37.395661870312566 ], [ -72.53803624646045, -37.395756056943611 ], [ -72.539410948221217, -37.395907049055211 ], [ -72.540279033399401, -37.395925090725939 ], [ -72.541200959104131, -37.395862687080538 ], [ -72.541923892702059, -37.395633102023261 ], [ -72.542592980383546, -37.395483949934835 ], [ -72.543263473928462, -37.395294011484836 ], [ -72.543878904339735, -37.395225358329903 ], [ -72.54506268266158, -37.394964504885905 ], [ -72.545831348592316, -37.394898917412952 ], [ -72.547421009115723, -37.394728072838603 ], [ -72.548908531191316, -37.394555109652892 ], [ -72.55019441113005, -37.394296377101426 ], [ -72.551175295063516, -37.393990564977642 ], [ -72.552825216372824, -37.393535535690162 ], [ -72.553550709270993, -37.393224396979271 ], [ -72.554123050193013, -37.392910113831974 ], [ -72.554904885425827, -37.392437043330432 ], [ -72.555896205087933, -37.391805183182036 ], [ -72.556676708119184, -37.391372881081018 ], [ -72.557505596208244, -37.391023031207951 ], [ -72.558278225506015, -37.390835171945909 ], [ -72.559212786913534, -37.390803025897384 ], [ -72.559837995486674, -37.390691927791416 ], [ -72.560459081690937, -37.390704792655015 ], [ -72.561132015958492, -37.390718674571964 ], [ -72.561779800991332, -37.390711316799454 ], [ -72.562844711539853, -37.390400512523172 ], [ -72.563926755655757, -37.389973310489346 ], [ -72.564864336300957, -37.389421819789845 ], [ -72.565648677833408, -37.388867273791497 ], [ -72.566480193494684, -37.388435877620537 ], [ -72.566952924726422, -37.388037895974684 ], [ -72.567218803592638, -37.387717234410104 ], [ -72.567628983334515, -37.387468968302016 ], [ -72.567923680155062, -37.387324931157018 ], [ -72.568755176053401, -37.387238699452865 ], [ -72.569840838583289, -37.387302423588345 ], [ -72.571491787565265, -37.387501670366888 ], [ -72.572160771042178, -37.387639376188083 ], [ -72.572750025444378, -37.387837426538937 ], [ -72.573334251975922, -37.388209876379889 ], [ -72.573840901796174, -37.388541865095071 ], [ -72.57424241998207, -37.388942643354262 ], [ -72.574357101606196, -37.389399631890548 ], [ -72.574676264043504, -37.38994349654272 ], [ -72.575131511364859, -37.390283455625287 ], [ -72.575838315711877, -37.390855951960845 ], [ -72.576291432229397, -37.391257818402238 ], [ -72.576791764198234, -37.391909330940052 ], [ -72.577081072923704, -37.392445309482234 ], [ -72.577468523492257, -37.393105552389123 ], [ -72.577712108868084, -37.39347744792169 ], [ -72.578103706059991, -37.393692085534923 ], [ -72.578419124319183, -37.393736552993659 ], [ -72.578880274470279, -37.393708039468109 ], [ -72.579481586060226, -37.393534310987228 ], [ -72.580271987627569, -37.393326064804882 ], [ -72.580892627369167, -37.393094103919395 ], [ -72.581738661602074, -37.392609244170572 ], [ -72.582510434805371, -37.391963821391393 ], [ -72.583042469218924, -37.391385005703441 ], [ -72.58336328096307, -37.390943080220389 ], [ -72.583943333023498, -37.390384206732676 ], [ -72.584415978915288, -37.389986159774232 ], [ -72.584935747731947, -37.389711333909815 ], [ -72.585336256211477, -37.38945916813266 ], [ -72.585668918530857, -37.389155627373732 ], [ -72.586438523201068, -37.388200494174257 ], [ -72.586920258246906, -37.387714335864246 ], [ -72.587512272273656, -37.387440183307064 ], [ -72.588132838353403, -37.387208187792332 ], [ -72.588961496473758, -37.387053410229484 ], [ -72.589848690614659, -37.386844226720321 ], [ -72.590634407467789, -37.386570960329749 ], [ -72.591326025794942, -37.38641715930828 ], [ -72.591731220785306, -37.386283284162538 ], [ -72.592307876315644, -37.386067732413103 ], [ -72.593236179160584, -37.38580376504315 ], [ -72.594059656696686, -37.385616637166457 ], [ -72.595240495730934, -37.385436854265699 ], [ -72.595908164972585, -37.385328110801098 ], [ -72.596850069209239, -37.384940968511479 ], [ -72.597632443431209, -37.384770861417714 ], [ -72.598175886448871, -37.384781907872984 ], [ -72.598534278314617, -37.384913206818041 ], [ -72.59901610229366, -37.385232998862556 ], [ -72.599450815924271, -37.385407062783358 ], [ -72.599883598177016, -37.385643178050238 ], [ -72.60029230647848, -37.385816849872946 ], [ -72.600793121740935, -37.385957379601777 ], [ -72.601094329550648, -37.386126576805999 ], [ -72.601240937299963, -37.386333404038147 ], [ -72.601536126397278, -37.386606698417495 ], [ -72.601868603663718, -37.386737373908716 ], [ -72.602436726097153, -37.386790232180154 ], [ -72.603068772646225, -37.386696631701803 ], [ -72.603380266165942, -37.386539891662345 ], [ -72.603748093935437, -37.386221205818998 ], [ -72.603960126885212, -37.385980855444046 ], [ -72.604280789509033, -37.385538880260036 ], [ -72.604855407660295, -37.385142808290738 ], [ -72.606205006898762, -37.384477088351034 ], [ -72.607248235709562, -37.383805064740777 ], [ -72.608136027230131, -37.383475354175566 ], [ -72.608785659199214, -37.383405910021239 ], [ -72.609664800841898, -37.383323987264475 ], [ -72.610636298278948, -37.383302926068538 ], [ -72.611199242823105, -37.383273462797376 ], [ -72.612016145589649, -37.383289958576022 ], [ -72.612882968634864, -37.383348318341866 ], [ -72.613735288379814, -37.383299215054635 ], [ -72.6147751017959, -37.383175583724658 ], [ -72.616231600553164, -37.382977634553313 ], [ -72.617090493271036, -37.382780775543928 ], [ -72.617705725154636, -37.382711745463773 ], [ -72.618577549120999, -37.382606954642711 ], [ -72.619240135694781, -37.382661044275586 ], [ -72.620208878897188, -37.38272139174817 ], [ -72.620876513104562, -37.382678563777738 ], [ -72.621711796300147, -37.382468076795924 ], [ -72.622255978631273, -37.38245832483625 ], [ -72.622855171095452, -37.382346438460814 ], [ -72.623841859942274, -37.382262956313205 ], [ -72.624651299505445, -37.382051912823933 ], [ -72.625038057472921, -37.381880777717825 ], [ -72.625710588396913, -37.381308609013374 ], [ -72.626402854409363, -37.380725866436514 ], [ -72.627010608716503, -37.380322104022497 ], [ -72.627338693221205, -37.379770762191455 ], [ -72.627521375515698, -37.378906534957224 ], [ -72.62751571792603, -37.378265735550443 ], [ -72.627729292384842, -37.377236792761551 ], [ -72.628045201124166, -37.376251201490248 ], [ -72.628351667671566, -37.375627974073801 ], [ -72.628669503297189, -37.375267352674562 ], [ -72.629246543306465, -37.374789687004082 ], [ -72.629671651251726, -37.374268201078635 ], [ -72.629994561460393, -37.37374468623667 ], [ -72.630326634484945, -37.372935866166429 ], [ -72.63113597074188, -37.371566014711213 ], [ -72.631614677566887, -37.370963979375212 ], [ -72.632099730989381, -37.370158346955137 ], [ -72.6325823239263, -37.369434119166293 ], [ -72.63280192608066, -37.368949274191607 ], [ -72.632979408926303, -37.36817819115015 ], [ -72.633096822327204, -37.36769132259974 ], [ -72.633211786022301, -37.367285858650526 ], [ -72.633541079659366, -37.366558593820315 ], [ -72.634169022704214, -37.366081922213503 ], [ -72.634853212862282, -37.365443293645946 ], [ -72.635418845165759, -37.364974881277981 ], [ -72.635429951935933, -37.364965535433662 ], [ -72.636152351036287, -37.36473539882676 ], [ -72.636196408909385, -37.364736329844249 ], [ -72.636560697316668, -37.364743565934589 ], [ -72.637220600622697, -37.364879118090329 ], [ -72.63844183869189, -37.36502579219102 ], [ -72.639049293860054, -37.365200957539543 ], [ -72.639655491386833, -37.36541697051215 ], [ -72.6402604195941, -37.365673611569811 ], [ -72.64111800166998, -37.366016927763262 ], [ -72.641881179792648, -37.366113697606572 ], [ -72.64330418755948, -37.366345907595644 ], [ -72.644833084240446, -37.366458005610475 ], [ -72.645551674483997, -37.366349997844615 ], [ -72.645909026100639, -37.366357049578959 ], [ -72.64657391146325, -37.366329588007012 ], [ -72.647695712318679, -37.366392663790108 ], [ -72.648257242914582, -37.366403809336198 ], [ -72.649848660542673, -37.36615006658581 ], [ -72.650877283645286, -37.365925950145936 ], [ -72.651799937883709, -37.365821929081655 ], [ -72.652514642015348, -37.365836141170846 ], [ -72.652870734193954, -37.365883950059342 ], [ -72.653682493207199, -37.366063126561649 ], [ -72.654644826930038, -37.366326864981403 ], [ -72.655856056868643, -37.366799352708199 ], [ -72.656510789471909, -37.36709768932392 ], [ -72.657110673638854, -37.367517351781835 ], [ -72.657864997067776, -37.367899240172648 ], [ -72.658324539234513, -37.367908328633042 ], [ -72.658734244665922, -37.367875638014162 ], [ -72.659043025273476, -37.367800241565668 ], [ -72.659720549033821, -37.367365223724903 ], [ -72.660102803746753, -37.367074336081224 ], [ -72.660449243527665, -37.366931125784745 ], [ -72.661320800694412, -37.36682603090442 ], [ -72.661767190627089, -37.366838614282443 ], [ -72.662135184584912, -37.366923664297254 ], [ -72.662486186909135, -37.367134554733731 ], [ -72.662682749971395, -37.367383001678519 ], [ -72.662880666794791, -37.367590815156191 ], [ -72.663333851584269, -37.36780362707529 ], [ -72.663738452788252, -37.367933957657037 ], [ -72.664085352506561, -37.368062313257603 ], [ -72.664446818407214, -37.368151764740873 ], [ -72.665000753747393, -37.368407274137631 ], [ -72.665656882332598, -37.368664924463509 ], [ -72.66590330189311, -37.368955139129426 ], [ -72.666093631545621, -37.369407391922664 ], [ -72.666134531840527, -37.369734391459062 ], [ -72.66627386413434, -37.370185643638351 ], [ -72.666442124875275, -37.370547361768949 ], [ -72.66669386785216, -37.370779623715848 ], [ -72.666922327395227, -37.370928767838386 ], [ -72.667305355557659, -37.371101674872989 ], [ -72.66772022360702, -37.371314995130419 ], [ -72.668124938897009, -37.371445231801729 ], [ -72.668376378243352, -37.371572479838932 ], [ -72.668880602612319, -37.371786267078178 ], [ -72.669332580964365, -37.37203983013903 ], [ -72.669837968651649, -37.372212912373669 ], [ -72.670394545937071, -37.372386985098963 ], [ -72.671151570600045, -37.372687297686994 ], [ -72.671409353848915, -37.37279655421041 ], [ -72.67153255958678, -37.372440987868423 ], [ -72.672305113426049, -37.370643965852182 ], [ -72.673179468844921, -37.369421415570173 ], [ -72.674414909278767, -37.368110432718659 ], [ -72.676145717591183, -37.366236930115932 ], [ -72.678864085217938, -37.36333367748302 ], [ -72.680693531243492, -37.36212966477958 ], [ -72.683239416047513, -37.360939672271087 ], [ -72.686274497304112, -37.359377753030181 ], [ -72.687716286148586, -37.359119834471848 ], [ -72.691438592072259, -37.358524968801419 ], [ -72.693590909678932, -37.358471562226981 ], [ -72.695993676688502, -37.358041497825027 ], [ -72.699488667522786, -37.35706042846239 ], [ -72.701317704814898, -37.355856118747475 ], [ -72.70269222960755, -37.353879902084429 ], [ -72.703210482068002, -37.352554650899897 ], [ -72.704450995288241, -37.351052802287647 ], [ -72.705315834853309, -37.350115789274327 ], [ -72.706425254229202, -37.348992792888495 ], [ -72.707231588316432, -37.346051696762565 ], [ -72.707539875748893, -37.343768735883032 ], [ -72.707967050717627, -37.337577462252383 ], [ -72.708042474167186, -37.335099076684322 ], [ -72.708108459018092, -37.328996255792795 ], [ -72.708151949155933, -37.327566401344491 ], [ -72.708445742271294, -37.325759980684282 ], [ -72.709106245651924, -37.323674446277359 ], [ -72.710369279636353, -37.321409843516378 ], [ -72.712298382962899, -37.316869096764975 ], [ -72.713095318875631, -37.314213867534974 ], [ -72.713744095648536, -37.312509639865461 ], [ -72.714503415507082, -37.31109366916796 ], [ -72.715748737409029, -37.3094009363232 ], [ -72.7167495576536, -37.307894184957739 ], [ -72.718349886569314, -37.306303693854474 ], [ -72.719626662980957, -37.303562330958378 ], [ -72.720135716692894, -37.302522985539262 ], [ -72.72064179608293, -37.301579008894997 ], [ -72.721932870080636, -37.298361011827566 ], [ -72.721984652566874, -37.296645208906753 ], [ -72.721439765956561, -37.294917862665507 ], [ -72.72137516361289, -37.293104469215862 ], [ -72.72201776716318, -37.291590801396268 ], [ -72.723396247238028, -37.289423617386504 ], [ -72.723886927707468, -37.288083876375815 ], [ -72.723916555942168, -37.288002943081771 ], [ -72.724497105669258, -37.28458058741689 ], [ -72.724767278482531, -37.28353657404395 ], [ -72.725654089941116, -37.281836815998403 ], [ -72.726054967628244, -37.2804138455624 ], [ -72.726464526634246, -37.278704918450799 ], [ -72.727589654849524, -37.277009663202321 ], [ -72.728572669586825, -37.276074823388733 ], [ -72.729037597153692, -37.275839788855301 ], [ -72.729299797418847, -37.275707309843348 ], [ -72.730618881785404, -37.275092921644344 ], [ -72.732222712334107, -37.27376037766215 ], [ -72.732398217089482, -37.27346420869808 ], [ -72.730351710243482, -37.272833306453599 ], [ -72.728862280146217, -37.272277270129997 ], [ -72.727834819463595, -37.271618897482796 ], [ -72.72621189073196, -37.2710046746489 ], [ -72.724228698943847, -37.27023779176043 ], [ -72.721703170862483, -37.269314664761637 ], [ -72.719186530712562, -37.268100130406346 ], [ -72.71794585938882, -37.266910144012023 ], [ -72.716700763862306, -37.265865819057773 ], [ -72.715455794099938, -37.264821475331104 ], [ -72.714397410710276, -37.263635018930962 ], [ -72.713525791559775, -37.262306375221925 ], [ -72.713023097021733, -37.260839053557952 ], [ -72.711969290548453, -37.259506966559222 ], [ -72.710919902888065, -37.258029119409819 ], [ -72.709679438176849, -37.256838958862801 ], [ -72.707719013291282, -37.25534346154307 ], [ -72.705923143596081, -37.254434217813774 ], [ -72.704122909885228, -37.253670471742801 ], [ -72.701224881896607, -37.253031177931604 ], [ -72.699233579219765, -37.252555183917252 ], [ -72.696509033878812, -37.252210643499581 ], [ -72.694677837036735, -37.252466550798793 ], [ -72.694288045458535, -37.252536442092804 ], [ -72.693834549851985, -37.252617695958662 ], [ -72.692477817990166, -37.252860960082067 ], [ -72.690642159216097, -37.253262407484343 ], [ -72.688099755383803, -37.252921212365379 ], [ -72.686477618966265, -37.252306546004611 ], [ -72.684677612529185, -37.251542563850379 ], [ -72.683046462416058, -37.251219132062516 ], [ -72.681064373759114, -37.250451538572612 ], [ -72.677286897802261, -37.248774131115169 ], [ -72.674753783448324, -37.248141350881717 ], [ -72.671856255821297, -37.247501380881033 ], [ -72.66951885023181, -37.246435094427028 ], [ -72.667723700087151, -37.245525155374281 ], [ -72.664475400104607, -37.244440813662628 ], [ -72.662853525096807, -37.243825805660514 ], [ -72.657437096260281, -37.242115468188146 ], [ -72.655264272810612, -37.241635106510209 ], [ -72.652727052257518, -37.241147583171959 ], [ -72.651100826708785, -37.240678008358223 ], [ -72.649101184072876, -37.240492562070024 ], [ -72.646395541980425, -37.239564253906053 ], [ -72.64538782357279, -37.239136045044283 ], [ -72.644236401669176, -37.238646791998129 ], [ -72.641995134679689, -37.23763299665103 ], [ -72.638843438624491, -37.236207307068931 ], [ -72.636160813166256, -37.234550349320045 ], [ -72.635702286994103, -37.234315065042559 ], [ -72.634098257917728, -37.233491714842167 ], [ -72.633019410007577, -37.232769114364913 ], [ -72.631946279874228, -37.232382280042223 ], [ -72.629339501870376, -37.231661166633458 ], [ -72.62649394627411, -37.230935212724894 ], [ -72.622692870676445, -37.230189970154143 ], [ -72.619954798503912, -37.229848252865509 ], [ -72.617446657314886, -37.229797753914212 ], [ -72.615401152090456, -37.230234482214719 ], [ -72.613370731376264, -37.230193500621752 ], [ -72.603006975741209, -37.229123995977609 ], [ -72.599782285280966, -37.229058633451267 ] ] ] } },
{ "type": "Feature", "properties": { "capa": "ds19", "popup": "<strong>LOS GUINDOS I</strong><br><br><strong>Programa:</strong> DS19<br><strong>Comuna:</strong> Laja<br><strong>Región:</strong> Biobío<br><strong>Año de inicio:</strong> 0", "etiqueta": "LOS GUINDOS I" }, "geometry": { "type": "Polygon", "coordinates": [ [ [ -72.705319474826823, -37.27491731169571 ], [ -72.706341319242313, -37.274055166549338 ], [ -72.706291097129721, -37.274032200410019 ], [ -72.706186134378669, -37.273924680212374 ], [ -72.706183447517645, -37.273916278057129 ], [ -72.706094675102946, -37.273766051309039 ], [ -72.706047333887483, -37.273629463341983 ], [ -72.705960471291093, -37.273391097888563 ], [ -72.705745102896671, -37.273172744365972 ], [ -72.705028709932307, -37.273934567790818 ], [ -72.704813529285772, -37.274609386232953 ], [ -72.704811354464468, -37.274626479892696 ], [ -72.704810268401289, -37.274634997055827 ], [ -72.705198948763481, -37.274995828662867 ], [ -72.705319474826823, -37.27491731169571 ] ] ] } },
{ "type": "Feature", "properties": { "capa": "ds19", "popup": "<strong>LOS GUINDOS II</strong><br><br><strong>Programa:</strong> DS19<br><strong>Comuna:</strong> Laja<br><strong>Región:</strong> Biobío<br><strong>Año de inicio:</strong> 0", "etiqueta": "LOS GUINDOS II" }, "geometry": { "type": "Polygon", "coordinates": [ [ [ -72.704834263300839, -37.275477468036812 ], [ -72.704746693730328, -37.275385144114281 ], [ -72.704485460950764, -37.275603954421832 ], [ -72.70412140071555, -37.275283749003755 ], [ -72.703785757786051, -37.275589959719433 ], [ -72.703777990952119, -37.275604884399634 ], [ -72.70378782930112, -37.275666338681859 ], [ -72.704012341646802, -37.275932756268162 ], [ -72.704016200809278, -37.275940475550478 ], [ -72.70421746206047, -37.276143895760164 ], [ -72.704448210510876, -37.276361144860459 ], [ -72.705184733822421, -37.275805549186501 ], [ -72.704984070849207, -37.275569303625424 ], [ -72.704834263300839, -37.275477468036812 ] ] ] } },
{ "type": "Feature", "properties": { "capa": "colegios", "popup": "<strong>ESCUELA FRANCISCO PEDRO ZATTERA GUELFI</strong><br><br><strong>Dirección:</strong> CAMINO LA COLONIA 25", "etiqueta": "" }, "geometry": { "type": "Point", "coordinates": [ -72.534172, -37.34993 ] } },
{ "type": "Feature", "properties": { "capa": "colegios", "popup": "<strong>ESCUELA LAS CIÉNAGAS</strong><br><br><strong>Dirección:</strong> SECTOR RURAL LAS CIENAGAS 0", "etiqueta": "" }, "geometry": { "type": "Point", "coordinates": [ -72.488617, -37.34988 ] } },
{ "type": "Feature", "properties": { "capa": "colegios", "popup": "<strong>ESCUELA DIEGO JOSE BENAVENTE BUSTAMANTE</strong><br><br><strong>Dirección:</strong> SECTOR RURAL CHORRILLOS 0", "etiqueta": "" }, "geometry": { "type": "Point", "coordinates": [ -72.619278, -37.311119 ] } },
{ "type": "Feature", "properties": { "capa": "colegios", "popup": "<strong>ESCUELA BASICA LA MANCHA</strong><br><br><strong>Dirección:</strong> CAMINO PUENTE PERALES 25", "etiqueta": "" }, "geometry": { "type": "Point", "coordinates": [ -72.455971, -37.307941 ] } },
{ "type": "Feature", "properties": { "capa": "colegios", "popup": "<strong>ESCUELA BASICA LA COLONIA</strong><br><br><strong>Dirección:</strong> CAMINO LAJA - LOS ANGELES 13", "etiqueta": "" }, "geometry": { "type": "Point", "coordinates": [ -72.590813, -37.288521 ] } },
{ "type": "Feature", "properties": { "capa": "colegios", "popup": "<strong>ESCUELA ESPECIAL DE LENGUAJE ALTO DEL LAJA</strong><br><br><strong>Dirección:</strong> LOS GUINDOS 321", "etiqueta": "" }, "geometry": { "type": "Point", "coordinates": [ -72.70922, -37.286785 ] } },
{ "type": "Feature", "properties": { "capa": "colegios", "popup": "<strong>LICEO POLIVALENTE HERMANAS MAESTRAS DE LA SANTA CRUZ</strong><br><br><strong>Dirección:</strong> FELIX EICHER 957", "etiqueta": "" }, "geometry": { "type": "Point", "coordinates": [ -72.702843, -37.286701 ] } },
{ "type": "Feature", "properties": { "capa": "colegios", "popup": "<strong>COLEGIO SAN JORGE</strong><br><br><strong>Dirección:</strong> RECINTO FACELA 0", "etiqueta": "" }, "geometry": { "type": "Point", "coordinates": [ -72.70879505, -37.28290819 ] } },
{ "type": "Feature", "properties": { "capa": "colegios", "popup": "<strong>COLEGIO SAN JORGE</strong><br><br><strong>Dirección:</strong> RECINTO FACELA -CASILLA 54 0", "etiqueta": "" }, "geometry": { "type": "Point", "coordinates": [ -72.7088, -37.282908 ] } },
{ "type": "Feature", "properties": { "capa": "colegios", "popup": "<strong>INSTITUTO EDUCACIÓN DE ADULTOS RUBÉN CAMPOS LÓPEZ</strong><br><br><strong>Dirección:</strong> FREIRE 12", "etiqueta": "" }, "geometry": { "type": "Point", "coordinates": [ -72.71432, -37.28196 ] } },
{ "type": "Feature", "properties": { "capa": "colegios", "popup": "<strong>ESCUELA ANDRES ALCAZAR</strong><br><br><strong>Dirección:</strong> BAQUEDANO 210", "etiqueta": "" }, "geometry": { "type": "Point", "coordinates": [ -72.711449, -37.280449 ] } },
{ "type": "Feature", "properties": { "capa": "colegios", "popup": "<strong>ESCUELA NIVEQUETEN</strong><br><br><strong>Dirección:</strong> LOS MAGNOLIOS 230", "etiqueta": "" }, "geometry": { "type": "Point", "coordinates": [ -72.702171, -37.28017 ] } },
{ "type": "Feature", "properties": { "capa": "colegios", "popup": "<strong>ESCUELA AMANDA LABARCA</strong><br><br><strong>Dirección:</strong> LUIS CRUZ MARTINEZ 15", "etiqueta": "" }, "geometry": { "type": "Point", "coordinates": [ -72.71698, -37.279938 ] } },
{ "type": "Feature", "properties": { "capa": "colegios", "popup": "<strong>ESCUELA JOSE ABELARDO NUNEZ</strong><br><br><strong>Dirección:</strong> BALMACEDA 320", "etiqueta": "" }, "geometry": { "type": "Point", "coordinates": [ -72.715347, -37.27948 ] } },
{ "type": "Feature", "properties": { "capa": "colegios", "popup": "<strong>LICEO BICENTENARIO POLITECNICO HEROES DE LA CONCEPCIÓN</strong><br><br><strong>Dirección:</strong> BAQUEDANO 273", "etiqueta": "" }, "geometry": { "type": "Point", "coordinates": [ -72.713203, -37.278782 ] } },
{ "type": "Feature", "properties": { "capa": "colegios", "popup": "<strong>ESCUELA ESPECIAL TRASTORNOS DE LA COMUNICACIÓN AYLEM</strong><br><br><strong>Dirección:</strong> LOS ACACIOS 386", "etiqueta": "" }, "geometry": { "type": "Point", "coordinates": [ -72.709915, -37.277756 ] } },
{ "type": "Feature", "properties": { "capa": "colegios", "popup": "<strong>ESCUELA ESPECIAL DE LENGUAJE AMANCAY</strong><br><br><strong>Dirección:</strong> LAS VIÑAS 242", "etiqueta": "" }, "geometry": { "type": "Point", "coordinates": [ -72.70967, -37.276988 ] } },
{ "type": "Feature", "properties": { "capa": "colegios", "popup": "<strong>CENTRO EDUCACIÓN ADULTOS MANANTIAL DE AGUA VIVA</strong><br><br><strong>Dirección:</strong> BALMACEDA 670", "etiqueta": "" }, "geometry": { "type": "Point", "coordinates": [ -72.71779, -37.27622 ] } },
{ "type": "Feature", "properties": { "capa": "colegios", "popup": "<strong>COLEGIO PARTICULAR SAN MAURICIO</strong><br><br><strong>Dirección:</strong> EL ESTANQUE 238", "etiqueta": "" }, "geometry": { "type": "Point", "coordinates": [ -72.714233, -37.273479 ] } },
{ "type": "Feature", "properties": { "capa": "colegios", "popup": "<strong>ESCUELA PARTICULAR ALFA Y OMEGA</strong><br><br><strong>Dirección:</strong> EL PINO 130", "etiqueta": "" }, "geometry": { "type": "Point", "coordinates": [ -72.710312, -37.270222 ] } },
{ "type": "Feature", "properties": { "capa": "colegios", "popup": "<strong>ESCUELA PUENTE PERALES</strong><br><br><strong>Dirección:</strong> CAMINO PUENTE PERALES 30", "etiqueta": "" }, "geometry": { "type": "Point", "coordinates": [ -72.52195, -37.249069 ] } },
{ "type": "Feature", "properties": { "capa": "jardines", "popup": "<strong>RAYITO DE SOL</strong><br><br><strong>Dirección:</strong> EL PINO #120 ", "etiqueta": "" }, "geometry": { "type": "MultiPoint", "coordinates": [ [ -72.709623, -37.270444 ] ] } },
{ "type": "Feature", "properties": { "capa": "jardines", "popup": "<strong>ARCOIRIS</strong><br><br><strong>Dirección:</strong> RUCAHUE #1700, POBLACION ALTOS DEL LAJA ", "etiqueta": "" }, "geometry": { "type": "MultiPoint", "coordinates": [ [ -72.705997, -37.265827 ] ] } },
{ "type": "Feature", "properties": { "capa": "jardines", "popup": "<strong>SANTA LUCIA</strong><br><br><strong>Dirección:</strong> LOS LAURELES #7, POBLACION NUEVO AMANECER ", "etiqueta": "" }, "geometry": { "type": "MultiPoint", "coordinates": [ [ -72.697057, -37.285447 ] ] } },
{ "type": "Feature", "properties": { "capa": "jardines", "popup": "<strong>MANITOS PINTADAS</strong><br><br><strong>Dirección:</strong> ESCUELA FRANCISCO ZATTERA GUELFI F-984 STA. ELENA ", "etiqueta": "" }, "geometry": { "type": "MultiPoint", "coordinates": [ [ -72.534248, -37.349572 ] ] } },
{ "type": "Feature", "properties": { "capa": "jardines", "popup": "<strong>MIS DULCES PASOS</strong><br><br><strong>Dirección:</strong> PUENTE PERALES #3562 ", "etiqueta": "" }, "geometry": { "type": "MultiPoint", "coordinates": [ [ -72.704477, -37.262785 ] ] } },
{ "type": "Feature", "properties": { "capa": "jardines", "popup": "<strong>MI PEQUEÑO MUNDO</strong><br><br><strong>Dirección:</strong> VIOLETA PARRA 2402, LAJA ", "etiqueta": "" }, "geometry": { "type": "MultiPoint", "coordinates": [ [ -72.705903, -37.263178 ] ] } },
{ "type": "Feature", "properties": { "capa": "jardines", "popup": "<strong>RENACER VILLA CAPPONI</strong><br><br><strong>Dirección:</strong> ROMA #16, VILLA CAPPONI ", "etiqueta": "" }, "geometry": { "type": "MultiPoint", "coordinates": [ [ -72.69685, -37.281411 ] ] } },
{ "type": "Feature", "properties": { "capa": "jardines", "popup": "<strong>NA</strong><br><br><strong>Dirección:</strong> NA ", "etiqueta": "" }, "geometry": { "type": "MultiPoint", "coordinates": [ [ -72.703163000339927, -37.280256000205732 ] ] } },
{ "type": "Feature", "properties": { "capa": "jardines", "popup": "<strong>NA</strong><br><br><strong>Dirección:</strong> NA ", "etiqueta": "" }, "geometry": { "type": "MultiPoint", "coordinates": [ [ -72.715145000441552, -37.282961000066763 ] ] } },
{ "type": "Feature", "properties": { "capa": "bomberos", "popup": "<strong>Cuerpo de Bomberos</strong><br><br><strong>Dirección:</strong> Balmaceda 10", "etiqueta": "" }, "geometry": { "type": "Point", "coordinates": [ -72.713379467583209, -37.284110738264566 ] } },
{ "type": "Feature", "properties": { "capa": "comisarias", "popup": "<strong>SCOM. LAJA</strong><br><br><strong>Dirección:</strong> BALMACEDA 541", "etiqueta": "" }, "geometry": { "type": "Point", "coordinates": [ -72.716548510920518, -37.277390595842625 ] } },
{ "type": "Feature", "properties": { "capa": "salud", "popup": "<strong>Posta de Salud Rural Santa Elena (Laja)</strong><br><br><strong>Tipo de atención:</strong> Posta de Salud Rural (PSR)<br><strong>Dirección:</strong>  NA", "etiqueta": "" }, "geometry": { "type": "Point", "coordinates": [ -72.534475, -37.349233 ] } },
{ "type": "Feature", "properties": { "capa": "salud", "popup": "<strong>Posta de Salud Rural La Colonia</strong><br><br><strong>Tipo de atención:</strong> Posta de Salud Rural (PSR)<br><strong>Dirección:</strong>  NA", "etiqueta": "" }, "geometry": { "type": "Point", "coordinates": [ -72.59125, -37.28843 ] } },
{ "type": "Feature", "properties": { "capa": "salud", "popup": "<strong>Policlínico AChS Laja</strong><br><br><strong>Tipo de atención:</strong> Centro de Salud Privado<br><strong>Dirección:</strong>  55", "etiqueta": "" }, "geometry": { "type": "Point", "coordinates": [ -72.713451, -37.282182 ] } },
{ "type": "Feature", "properties": { "capa": "salud", "popup": "<strong>Centro Comunitario de Salud Familiar Laja</strong><br><br><strong>Tipo de atención:</strong> Centro Comunitario de Salud Familiar (CECOSF)<br><strong>Dirección:</strong>  NA", "etiqueta": "" }, "geometry": { "type": "Point", "coordinates": [ -72.69649, -37.28154 ] } },
{ "type": "Feature", "properties": { "capa": "salud", "popup": "<strong>Hospital Comunitario de Laja</strong><br><br><strong>Tipo de atención:</strong> Hospital<br><strong>Dirección:</strong>  800", "etiqueta": "" }, "geometry": { "type": "Point", "coordinates": [ -72.70924, -37.26429 ] } },
{ "type": "Feature", "properties": { "capa": "salud", "popup": "<strong>Posta de Salud Rural Puente Perales</strong><br><br><strong>Tipo de atención:</strong> Posta de Salud Rural (PSR)<br><strong>Dirección:</strong>  NA", "etiqueta": "" }, "geometry": { "type": "Point", "coordinates": [ -72.52137, -37.24901 ] } },
{ "type": "Feature", "properties": { "capa": "salud", "popup": "<strong>Consultorio General Rural del  Laja</strong><br><br><strong>Tipo de atención:</strong> Consultorio General Rural (CGR)<br><strong>Dirección:</strong>  101", "etiqueta": "" }, "geometry": { "type": "Point", "coordinates": [ -72.713979, -37.278881 ] } },
{ "type": "Feature", "properties": { "capa": "municipios", "popup": "<strong>Municipalidad de Laja</strong><br><br><strong>Dirección:</strong> Balmaceda Nº 292<br><strong>Región:</strong> Biobío", "etiqueta": "" }, "geometry": { "type": "Point", "coordinates": [ -72.715564919999963, -37.280011030999965 ] } }
]
}
