{
"type": "FeatureCollection",
"name": "8307",
"crs": { "type": "name", "properties": { "name": "urn:ogc:def:crs:OGC:1.3:CRS84" } },
"features": [
{ "type": "Feature", "properties": { "capa": "comuna", "popup": "", "etiqueta": "" }, "geometry": { "type": "Polygon", "coordinates": [ [ [ -72.595534243930516, -37.531050776406666 ], [ -72.59532887109026, -37.533716929207948 ], [ -72.594908725438614, -37.537475620026818 ], [ -72.594169223313585, -37.539987935891581 ], [ -72.592881862052948, -37.542775174069988 ], [ -72.591925910860212, -37.544567714220825 ], [ -72.591689556922447, -37.546327337173665 ], [ -72.591635931093222, -37.549854997103829 ], [ -72.591186218292336, -37.552659285557993 ], [ -72.590381909906057, -37.555313334655693 ], [ -72.5896636538358, -37.557158326890402 ], [ -72.589210770880257, -37.558198179222018 ], [ -72.589015810412477, -37.558671056174767 ], [ -72.588808564584852, -37.559525198489446 ], [ -72.588423588874875, -37.559927474258103 ], [ -72.588002762300263, -37.5603670764011 ], [ -72.586420139178784, -37.561145345270106 ], [ -72.584231250258568, -37.562149628724626 ], [ -72.58161552772944, -37.563383595497079 ], [ -72.580640648135343, -37.563888193649809 ], [ -72.57990537258371, -37.564397612634281 ], [ -72.579587492042322, -37.564963360720917 ], [ -72.579504487710068, -37.565676888639885 ], [ -72.579782258474012, -37.566350163376597 ], [ -72.580477452095991, -37.567079766573428 ], [ -72.580501856627308, -37.568177050236145 ], [ -72.580018064439471, -37.570169924932713 ], [ -72.579740019689353, -37.571356392367015 ], [ -72.578616072758706, -37.572763892346231 ], [ -72.577104978890034, -37.575021739172215 ], [ -72.575911666748098, -37.576713979762985 ], [ -72.575466276640327, -37.577515471515909 ], [ -72.575022393905613, -37.578269238722847 ], [ -72.574816471296415, -37.579075717151177 ], [ -72.574676588335322, -37.579692735175833 ], [ -72.574308049998422, -37.579971294757236 ], [ -72.573403710612013, -37.580143508813343 ], [ -72.572083305721975, -37.580211716011455 ], [ -72.571306494766546, -37.580148016664047 ], [ -72.570658662122995, -37.579800843726375 ], [ -72.570266737045998, -37.578915651093681 ], [ -72.569821682908156, -37.578059445085081 ], [ -72.569252170780956, -37.577388927467283 ], [ -72.56879790262326, -37.576814846435902 ], [ -72.56839801218463, -37.57638310518962 ], [ -72.567772602388885, -37.575617296037279 ], [ -72.567248530642019, -37.575371230468889 ], [ -72.566428875437452, -37.575374256304933 ], [ -72.564813785404979, -37.575293284178329 ], [ -72.563372184308363, -37.575406534492146 ], [ -72.561924374056545, -37.575710511357535 ], [ -72.560230856608172, -37.576199973885039 ], [ -72.559257185248143, -37.576656687813561 ], [ -72.557230021825163, -37.578188380094112 ], [ -72.556009157455136, -37.578878361031471 ], [ -72.553771893358558, -37.579499560385578 ], [ -72.551528357224683, -37.580311390473298 ], [ -72.549831494450217, -37.580896087580676 ], [ -72.547953132462482, -37.581418546220306 ], [ -72.547466532141073, -37.58183194465272 ], [ -72.547146342031084, -37.58257820040911 ], [ -72.546711111869186, -37.583227914828299 ], [ -72.546229197160287, -37.583500204437172 ], [ -72.545730517193263, -37.583528857038964 ], [ -72.544659019298777, -37.583315834159507 ], [ -72.543344762478526, -37.58319312422428 ], [ -72.542268555615337, -37.583122954948522 ], [ -72.541140193465054, -37.582813449905061 ], [ -72.539958314181703, -37.582311883075363 ], [ -72.53919411916614, -37.581866770775903 ], [ -72.538858312743258, -37.581144508386984 ], [ -72.538341440993406, -37.580466129847075 ], [ -72.537468434844087, -37.579684927547554 ], [ -72.536415832113292, -37.578899953801582 ], [ -72.535653150758975, -37.578407242676086 ], [ -72.534707769143864, -37.578005984387936 ], [ -72.533752928268797, -37.577890618590104 ], [ -72.531773912748434, -37.577944605491425 ], [ -72.531035184072863, -37.578091016580345 ], [ -72.528868807831998, -37.579125501408825 ], [ -72.526189195323212, -37.580046365702678 ], [ -72.522243783815568, -37.580169249548618 ], [ -72.518751979305591, -37.580250123112123 ], [ -72.517841877226644, -37.580303113758347 ], [ -72.51622022410271, -37.580608250983389 ], [ -72.512600853432488, -37.580718208459473 ], [ -72.511943382764258, -37.580980902900123 ], [ -72.511020658457241, -37.581527075135043 ], [ -72.509075003671555, -37.581743088131795 ], [ -72.507596789040619, -37.58150625625322 ], [ -72.505936891041756, -37.580905569490831 ], [ -72.504783214366782, -37.580623993477651 ], [ -72.504188881788295, -37.580452206256815 ], [ -72.5035865739667, -37.580157845372412 ], [ -72.503384179939928, -37.580071826688403 ], [ -72.503097798823987, -37.580447065533946 ], [ -72.502642234397328, -37.580764301790104 ], [ -72.50243812189342, -37.580928378324288 ], [ -72.502181642998323, -37.581134602211115 ], [ -72.502059578120893, -37.581814266758286 ], [ -72.502194750316633, -37.582677514333149 ], [ -72.50229288587154, -37.583605185141522 ], [ -72.501947744156226, -37.584266310519588 ], [ -72.500897444705814, -37.584758331508588 ], [ -72.500304332937773, -37.585105697024751 ], [ -72.49920138053362, -37.585236598110043 ], [ -72.498365422703273, -37.58511608816638 ], [ -72.497536340578094, -37.58478989945133 ], [ -72.496843570610764, -37.583809749338329 ], [ -72.496879360389997, -37.583181875702564 ], [ -72.496750924660574, -37.582445361857587 ], [ -72.496766717941583, -37.580762690738048 ], [ -72.496602191497288, -37.579885028822012 ], [ -72.49629831389457, -37.579312912011311 ], [ -72.49479084023649, -37.578435210223439 ], [ -72.493356296304768, -37.577938294171148 ], [ -72.490099223375168, -37.57769134706038 ], [ -72.488073681411279, -37.577955430490121 ], [ -72.48643882305268, -37.578537681393378 ], [ -72.484985610332714, -37.57948370801757 ], [ -72.483919730502009, -37.58043797725329 ], [ -72.481708087255669, -37.584710199001556 ], [ -72.480775099696515, -37.587467010901911 ], [ -72.480411070004052, -37.590596040470615 ], [ -72.480452283810976, -37.595122016647124 ], [ -72.480321675955182, -37.59741120426267 ], [ -72.480216461675852, -37.597802444031046 ], [ -72.479941499943806, -37.598070350070785 ], [ -72.479283425607676, -37.598566620708283 ], [ -72.478783629034737, -37.599004045332812 ], [ -72.478410215540791, -37.599406741298694 ], [ -72.478217104704171, -37.599747360302644 ], [ -72.478015051138897, -37.60047327693669 ], [ -72.477951381246498, -37.600777012663109 ], [ -72.47792236566282, -37.600827170293172 ], [ -72.477858502632643, -37.600937692896679 ], [ -72.477850351319759, -37.601178755299202 ], [ -72.477838078536337, -37.601540385870834 ], [ -72.4779295818295, -37.601823822877058 ], [ -72.478021083326027, -37.602107260226788 ], [ -72.478060703521649, -37.602429867909166 ], [ -72.478099040024702, -37.602792589127702 ], [ -72.478138656627053, -37.603115123380256 ], [ -72.478135417302127, -37.603212787236195 ], [ -72.478127856182383, -37.603436635666654 ], [ -72.477848613079686, -37.603716767475291 ], [ -72.477771810716149, -37.603840292618152 ], [ -72.477824238192767, -37.604493384828729 ], [ -72.478052551310427, -37.604832048333741 ], [ -72.478214552590458, -37.60536005726334 ], [ -72.478462964614295, -37.606004339909497 ], [ -72.478472733793012, -37.606209888689904 ], [ -72.478356781052767, -37.606335382428995 ], [ -72.478363564231472, -37.606530614022439 ], [ -72.478446205644346, -37.606669583254963 ], [ -72.478814664929502, -37.607007431254409 ], [ -72.4789292522305, -37.607445469512108 ], [ -72.479021666415349, -37.607523408466911 ], [ -72.479334153471768, -37.60766149624196 ], [ -72.479519437287323, -37.607779353647047 ], [ -72.479713092503019, -37.608217859892598 ], [ -72.479833359851582, -37.608375792046445 ], [ -72.480344218278915, -37.608587950425573 ], [ -72.480582168522943, -37.608721002777322 ], [ -72.48064537757962, -37.608821132227483 ], [ -72.480704871204253, -37.609076212570372 ], [ -72.480604938120464, -37.609403899575881 ], [ -72.480606145456207, -37.609493387028223 ], [ -72.480819922035948, -37.609826054330746 ], [ -72.481111558296305, -37.610051841264934 ], [ -72.481216152738099, -37.610217688522859 ], [ -72.481241212141256, -37.610534008693449 ], [ -72.481009621969434, -37.610966768726328 ], [ -72.480945154373075, -37.611318870122304 ], [ -72.48097726824615, -37.611408626396475 ], [ -72.481116189111589, -37.611582390193476 ], [ -72.481111009425661, -37.611682103766775 ], [ -72.481011541669204, -37.611854789543493 ], [ -72.480994564408633, -37.611985997959223 ], [ -72.481134514743388, -37.612267262473708 ], [ -72.481158054197095, -37.612419783508066 ], [ -72.481122822271644, -37.612593228989631 ], [ -72.481130612461783, -37.612746214744455 ], [ -72.481276080249003, -37.613034327680275 ], [ -72.481314208342937, -37.613256900543803 ], [ -72.481139053930505, -37.613529390537394 ], [ -72.48086304925441, -37.613789949660749 ], [ -72.480819017432438, -37.613919963455963 ], [ -72.480941225142018, -37.614737418882846 ], [ -72.480917104478323, -37.614820938266206 ], [ -72.480625303826272, -37.615093035428366 ], [ -72.480588281558468, -37.615216198696693 ], [ -72.480601899119861, -37.61539469626841 ], [ -72.480717248192221, -37.615683478497893 ], [ -72.480677456418405, -37.616150869925619 ], [ -72.480749221029811, -37.616481826012169 ], [ -72.480841101615383, -37.616667311686165 ], [ -72.48092976533394, -37.616738128166027 ], [ -72.481249656304925, -37.617137255706446 ], [ -72.481339266847783, -37.617627837611579 ], [ -72.481477741250515, -37.618067970745685 ], [ -72.48164374542344, -37.618463819444322 ], [ -72.48224435453082, -37.619416074700574 ], [ -72.482723199696395, -37.620063425388622 ], [ -72.483282013786877, -37.620910927189207 ], [ -72.484031125190512, -37.622216655948726 ], [ -72.484215045363456, -37.622697509321206 ], [ -72.48425611813488, -37.623095939613201 ], [ -72.484156768956041, -37.623904662275827 ], [ -72.48416902556977, -37.624820199795955 ], [ -72.485318886201426, -37.624192894195964 ], [ -72.489591142538671, -37.621233383583537 ], [ -72.493575937985, -37.618078621270506 ], [ -72.494804864734718, -37.62190991765732 ], [ -72.493300170464138, -37.623425647405732 ], [ -72.492261947964408, -37.624568483313702 ], [ -72.491652798573611, -37.625288106531379 ], [ -72.490450209529712, -37.626445245004348 ], [ -72.488285302034342, -37.627376165100515 ], [ -72.485149559160263, -37.628337753605727 ], [ -72.483717729039014, -37.628615742636178 ], [ -72.482507354296558, -37.628982303890368 ], [ -72.476387871579334, -37.631235827131107 ], [ -72.477554148922806, -37.63292804792404 ], [ -72.478964604530191, -37.635138233187796 ], [ -72.480245378444835, -37.637178938697367 ], [ -72.480351464090006, -37.637347988492138 ], [ -72.481738500617922, -37.639557720047407 ], [ -72.483113826707807, -37.641767188843083 ], [ -72.484489236340991, -37.643976636739026 ], [ -72.485323962581091, -37.645340556528467 ], [ -72.485841041841795, -37.646185583613317 ], [ -72.487216622154904, -37.648394990419419 ], [ -72.488603997347695, -37.650604620976857 ], [ -72.489991553101845, -37.65281430029826 ], [ -72.491417333069663, -37.655057294707085 ], [ -72.491643567485752, -37.655366392475557 ], [ -72.492040962404516, -37.65484168378601 ], [ -72.49219780825311, -37.654575699846248 ], [ -72.49225835111001, -37.654492943450684 ], [ -72.492349492382104, -37.654207575739399 ], [ -72.492467390873244, -37.653655430252357 ], [ -72.492501224121796, -37.653151607168262 ], [ -72.492400951474835, -37.651931737439469 ], [ -72.492372054468774, -37.651315453691957 ], [ -72.492403750625257, -37.650766010038367 ], [ -72.492640520483022, -37.649684714694935 ], [ -72.492687946140137, -37.648243412362426 ], [ -72.49298084812672, -37.646520432531446 ], [ -72.493216694516349, -37.646033426328735 ], [ -72.493660981492951, -37.64570031716066 ], [ -72.494090537895502, -37.645664701514775 ], [ -72.49443826855547, -37.645722952490864 ], [ -72.494935813051995, -37.645913884068349 ], [ -72.495520632471639, -37.646125103834699 ], [ -72.496251075985356, -37.646377684060496 ], [ -72.49692308498814, -37.646609262183354 ], [ -72.49791506850525, -37.646614061899236 ], [ -72.498659249056288, -37.646546210048598 ], [ -72.499282158840614, -37.646344901776963 ], [ -72.500016778622083, -37.646071635854035 ], [ -72.501366687779296, -37.64543726940753 ], [ -72.502374296592464, -37.644858745724171 ], [ -72.50295566198983, -37.644384329326371 ], [ -72.503227684434293, -37.644056306412509 ], [ -72.503558147677836, -37.643749350971603 ], [ -72.503923873389581, -37.643578470607494 ], [ -72.504380884103853, -37.643519195798071 ], [ -72.504950762743675, -37.643410730285837 ], [ -72.505639588208609, -37.64339023814123 ], [ -72.50610215410461, -37.643445111466846 ], [ -72.5068314334017, -37.643674781757923 ], [ -72.507195281634495, -37.64407540279484 ], [ -72.507815433590878, -37.644731129766562 ], [ -72.50846625043782, -37.645123277151527 ], [ -72.50914696591235, -37.645537187233742 ], [ -72.509535081234219, -37.645845635391169 ], [ -72.509961702840741, -37.646358625256745 ], [ -72.510510703735051, -37.647028043336917 ], [ -72.510973601109384, -37.647699877967248 ], [ -72.51137043278446, -37.648190869839432 ], [ -72.511834333576971, -37.648885622778629 ], [ -72.512144818288618, -37.649070689742658 ], [ -72.512645838366964, -37.649330004770931 ], [ -72.513172186444763, -37.649520073573719 ], [ -72.513441370212931, -37.649740539290235 ], [ -72.513767842241677, -37.649959370616337 ], [ -72.514126280819823, -37.650245808718189 ], [ -72.51441873185216, -37.650351407182512 ], [ -72.514702566244267, -37.650274377289037 ], [ -72.515037407876534, -37.650058700559306 ], [ -72.515814195475755, -37.649464070288339 ], [ -72.516093715259558, -37.649295725889431 ], [ -72.516521024975589, -37.649214336331468 ], [ -72.517036788204379, -37.649176136957962 ], [ -72.518614403218152, -37.649106229073475 ], [ -72.520526917356349, -37.648820458004494 ], [ -72.522059779200987, -37.648408956060962 ], [ -72.522680474638136, -37.648161907137634 ], [ -72.52309598947447, -37.647829476107376 ], [ -72.523423138832953, -37.647453929156434 ], [ -72.523758929086171, -37.647261078254097 ], [ -72.524130016841823, -37.647204222581536 ], [ -72.524590363000755, -37.647213405129435 ], [ -72.524910370752721, -37.647295199460793 ], [ -72.525583542175511, -37.647549381045742 ], [ -72.525936700456427, -37.647721621467859 ], [ -72.526182494789509, -37.648057151255301 ], [ -72.526430539402398, -37.648438223086707 ], [ -72.526658504872046, -37.649002852227611 ], [ -72.526673634298064, -37.649322405735667 ], [ -72.526459079777283, -37.649648834240622 ], [ -72.526097794438002, -37.649911018559152 ], [ -72.525533396419718, -37.650133595515882 ], [ -72.524830911172586, -37.650474620848414 ], [ -72.524357918531095, -37.6508087036283 ], [ -72.523779000144557, -37.651328908829136 ], [ -72.523544328751314, -37.651838742791284 ], [ -72.523595743826604, -37.652317288600351 ], [ -72.523648137167243, -37.652818464493365 ], [ -72.523928073769326, -37.653267223246303 ], [ -72.524424098316402, -37.654029525560354 ], [ -72.5247382715106, -37.654591503497365 ], [ -72.525187209963732, -37.654966640975495 ], [ -72.525596704291047, -37.655114391864707 ], [ -72.525973234040706, -37.655171685269018 ], [ -72.526516500090253, -37.655109742049895 ], [ -72.526684405098322, -37.65501327503943 ], [ -72.526901042812227, -37.654732539964151 ], [ -72.52711993260256, -37.654497421903905 ], [ -72.527398268406827, -37.654306206574255 ], [ -72.527793707693206, -37.654157242179288 ], [ -72.528164828686542, -37.654100445126694 ], [ -72.529508592468915, -37.653945950665126 ], [ -72.530624906414602, -37.653843867847272 ], [ -72.531372364019816, -37.653844344358333 ], [ -72.531922194957446, -37.653919229807315 ], [ -72.53253040021886, -37.654015314897528 ], [ -72.532915498998022, -37.654255211658921 ], [ -72.532938343155692, -37.654308254847706 ], [ -72.532962401835647, -37.654322293342673 ], [ -72.533191129076641, -37.654660828721767 ], [ -72.533222696774047, -37.655519898266213 ], [ -72.533267550554484, -37.655809850965234 ], [ -72.533303860458275, -37.656044928599052 ], [ -72.533454064163678, -37.656358067484604 ], [ -72.533877644074636, -37.656731717488505 ], [ -72.534281808697386, -37.656995465577097 ], [ -72.534799405387687, -37.657298098497684 ], [ -72.53527562926925, -37.657736215207045 ], [ -72.536060269042366, -37.658583384091841 ], [ -72.53669277912212, -37.659407217356936 ], [ -72.536913644307774, -37.659984065310667 ], [ -72.536942340989512, -37.660435758330763 ], [ -72.536953154010604, -37.660604735284899 ], [ -72.536867978450317, -37.661365903382183 ], [ -72.536848026867844, -37.66143838613327 ], [ -72.536750185062047, -37.661792252414834 ], [ -72.536585015424023, -37.662389988310096 ], [ -72.536527247463042, -37.662598589780934 ], [ -72.536434354476143, -37.663598074390507 ], [ -72.536581033192348, -37.66460247138383 ], [ -72.536978564655044, -37.66527844419744 ], [ -72.537522038215414, -37.665594677946302 ], [ -72.537926549587866, -37.665635814950612 ], [ -72.538762508316523, -37.665679267975506 ], [ -72.539676903444217, -37.66556035608528 ], [ -72.540296677209895, -37.665290361537622 ], [ -72.540688795424671, -37.665072890933772 ], [ -72.540935320088082, -37.664814038346805 ], [ -72.541234791454357, -37.664462151974874 ], [ -72.541319257345577, -37.663819677337628 ], [ -72.541287769598242, -37.663157735174799 ], [ -72.541905184387957, -37.661630735846394 ], [ -72.542066563135492, -37.661397246091575 ], [ -72.54243109857947, -37.661203477760274 ], [ -72.542829796953711, -37.661122926177022 ], [ -72.543826988902822, -37.660932931163586 ], [ -72.545885444240412, -37.66068811067592 ], [ -72.547954259848169, -37.660362941072272 ], [ -72.548520927909181, -37.660185944643558 ], [ -72.549282936425342, -37.659888668517496 ], [ -72.54979647452717, -37.659804634411771 ], [ -72.550283452141016, -37.659767154484371 ], [ -72.550875393404226, -37.659520749963328 ], [ -72.551758114833319, -37.658739887186648 ], [ -72.552376695636283, -37.65844698890011 ], [ -72.553147476201204, -37.658332303982654 ], [ -72.553862960070504, -37.658264966345392 ], [ -72.554639186222659, -37.658264425857574 ], [ -72.55696558206003, -37.658217013683611 ], [ -72.557802458866931, -37.658283257588039 ], [ -72.558358885235378, -37.65849494212452 ], [ -72.558725167004269, -37.658941079364794 ], [ -72.558739344216093, -37.659237702885648 ], [ -72.558638675412098, -37.659537942871822 ], [ -72.558333851883361, -37.65977571321941 ], [ -72.558014019302846, -37.6600024983601 ], [ -72.557974083798584, -37.660369316514334 ], [ -72.558049012276442, -37.660732815366991 ], [ -72.558493783444973, -37.661016506016857 ], [ -72.558871359731924, -37.661096540716059 ], [ -72.559618875727622, -37.661096834417329 ], [ -72.560470235173526, -37.660865348407228 ], [ -72.561063332568494, -37.66064173618858 ], [ -72.561487464943369, -37.660491791032378 ], [ -72.562050724796194, -37.660246198204206 ], [ -72.562385364307517, -37.660030320735416 ], [ -72.562692453387399, -37.659838227868725 ], [ -72.563010368064766, -37.659874296833216 ], [ -72.563136240002365, -37.660099126719821 ], [ -72.563151528430197, -37.660418594076084 ], [ -72.563256122871977, -37.660803995209598 ], [ -72.563321150118767, -37.660962030401812 ], [ -72.563329979659713, -37.661144569032295 ], [ -72.563345276172356, -37.661464183361964 ], [ -72.563361659646503, -37.661806496434806 ], [ -72.563379137268669, -37.662171653007398 ], [ -72.563573224574029, -37.662622908885801 ], [ -72.563750592435284, -37.663326037480644 ], [ -72.564243578880067, -37.664614014078964 ], [ -72.564731820423503, -37.665502053826557 ], [ -72.565425952236808, -37.666189540276136 ], [ -72.56601985092901, -37.666582932526488 ], [ -72.56671222294267, -37.666630606726564 ], [ -72.567370381720423, -37.66656491994226 ], [ -72.567849730840862, -37.66636759613705 ], [ -72.568294866725395, -37.666056989008922 ], [ -72.568630897727104, -37.665269682010809 ], [ -72.568748237466124, -37.664717561901064 ], [ -72.568664594431723, -37.664171529777512 ], [ -72.568389729717708, -37.663837049162552 ], [ -72.568065141456103, -37.663664075269388 ], [ -72.567813638329383, -37.663214493298419 ], [ -72.567887728679082, -37.662960881608711 ], [ -72.568285303260893, -37.662857325647046 ], [ -72.568745643131592, -37.662866258788256 ], [ -72.568954375671012, -37.663020010765649 ], [ -72.569490790269882, -37.663415127210833 ], [ -72.570443402424715, -37.664094825688153 ], [ -72.571824540614486, -37.664715765646449 ], [ -72.572437340758611, -37.66490286744903 ], [ -72.573250029528154, -37.665061024758138 ], [ -72.573940101854674, -37.665062968913837 ], [ -72.575457359064501, -37.664925562347747 ], [ -72.575874900500139, -37.664638569322207 ], [ -72.57607821260514, -37.664083833313278 ], [ -72.576108281014328, -37.66351155130441 ], [ -72.576286144745623, -37.66302622242133 ], [ -72.576642906169141, -37.662672436690237 ], [ -72.577202932985259, -37.662358382902099 ], [ -72.577851169870698, -37.662087255253134 ], [ -72.578445222174821, -37.661886407256233 ], [ -72.579133158307613, -37.66184262915619 ], [ -72.579539399835284, -37.661921725691293 ], [ -72.58036414130099, -37.662330909141502 ], [ -72.580830053421423, -37.662453869679403 ], [ -72.581957274711286, -37.663173847047993 ], [ -72.58246620984562, -37.663592617277935 ], [ -72.582859196731292, -37.663992106866516 ], [ -72.583395513413777, -37.664981406773428 ], [ -72.583754204418526, -37.665861937225316 ], [ -72.58377728034155, -37.66634123742849 ], [ -72.583706630539396, -37.666663313923657 ], [ -72.583546376482587, -37.666919556067292 ], [ -72.583472340031818, -37.66717324809445 ], [ -72.583538609648656, -37.667354111076897 ], [ -72.583569640153499, -37.667369994493292 ], [ -72.583574348223905, -37.667408005314662 ], [ -72.583577596531981, -37.66743499223935 ], [ -72.58358921534186, -37.667442978381864 ], [ -72.583775058807831, -37.667571641838286 ], [ -72.584011061504341, -37.667614055555163 ], [ -72.584272725475245, -37.667674581829083 ], [ -72.585058925622022, -37.667879218421398 ], [ -72.585611008636064, -37.66799961132098 ], [ -72.586598294862554, -37.668198116857035 ], [ -72.586979137423896, -37.668346521198202 ], [ -72.587333626109739, -37.668541409305966 ], [ -72.587748713348006, -37.668803085340848 ], [ -72.588162790879906, -37.669041839279195 ], [ -72.588601212756004, -37.669188483473206 ], [ -72.589037339436572, -37.669289439490129 ], [ -72.589475763109292, -37.66943608177273 ], [ -72.589693507547651, -37.669573284447118 ], [ -72.589932613923452, -37.669618248301184 ], [ -72.590041821214214, -37.669636027628009 ], [ -72.590218332981024, -37.669630573803602 ], [ -72.590794766627482, -37.669658686237618 ], [ -72.591436391014099, -37.669844881780989 ], [ -72.592256786430497, -37.670162744297151 ], [ -72.593025308630786, -37.670596427768388 ], [ -72.59439012533015, -37.671469033173189 ], [ -72.595383994411037, -37.671804310598731 ], [ -72.595935015616433, -37.671901807414983 ], [ -72.596651765211959, -37.671857045457187 ], [ -72.597222608642397, -37.671771053190177 ], [ -72.5981833936697, -37.671421708358629 ], [ -72.599243585368001, -37.670749391534535 ], [ -72.600318049499563, -37.669779435334796 ], [ -72.600631636992205, -37.669129924526068 ], [ -72.600745994324498, -37.668223551933735 ], [ -72.60072171016742, -37.667721564160573 ], [ -72.600388199838406, -37.667366001773772 ], [ -72.5997985384994, -37.667064022849402 ], [ -72.599277300038935, -37.666988511393647 ], [ -72.59798538072657, -37.667027978710841 ], [ -72.59633015845877, -37.667284281459644 ], [ -72.595560478330086, -37.667422094663621 ], [ -72.59492658394646, -37.667395685131758 ], [ -72.594484948796591, -37.667180600690365 ], [ -72.594238791544129, -37.666845307353199 ], [ -72.594155970468194, -37.666322151038244 ], [ -72.594274125877519, -37.665792788856386 ], [ -72.59484400272072, -37.665089789582055 ], [ -72.596004074502218, -37.66440294218912 ], [ -72.597037659898447, -37.66377714198515 ], [ -72.597923224495432, -37.663064416092226 ], [ -72.598898202005884, -37.66241758436292 ], [ -72.59968552325013, -37.662050651170389 ], [ -72.600426402492502, -37.661913692019951 ], [ -72.601223649222334, -37.661752201316574 ], [ -72.601815419805632, -37.661505622044153 ], [ -72.602492279710944, -37.661233412481671 ], [ -72.603087350704612, -37.661055212743612 ], [ -72.603658199524958, -37.660969264852255 ], [ -72.603991700870822, -37.660730501302702 ], [ -72.604404590829915, -37.660352113131154 ], [ -72.604916943155558, -37.66024499636211 ], [ -72.605489894033681, -37.660204583876222 ], [ -72.606773493149902, -37.660291046813441 ], [ -72.607215209148137, -37.660506082948729 ], [ -72.607575145217865, -37.66081506060678 ], [ -72.607881023368748, -37.661194252851566 ], [ -72.608370196465131, -37.661796390505607 ], [ -72.608701496938536, -37.662106167082889 ], [ -72.608997429840898, -37.662279979472608 ], [ -72.609468911516103, -37.662516897640849 ], [ -72.60971078829624, -37.662760925593012 ], [ -72.609921714521576, -37.662960143462833 ], [ -72.610035370269628, -37.66293385607883 ], [ -72.610388779180511, -37.663105828991867 ], [ -72.610757555570956, -37.66300316071365 ], [ -72.611146204492101, -37.662716931115426 ], [ -72.611892460151452, -37.662099884948198 ], [ -72.612396966591433, -37.661832976224225 ], [ -72.61268302970376, -37.661801325777674 ], [ -72.613001058467162, -37.661837255117234 ], [ -72.613237314488572, -37.661967203351857 ], [ -72.613505625992588, -37.662164655480673 ], [ -72.613944048766996, -37.662311205170845 ], [ -72.614413328671432, -37.662502488775601 ], [ -72.614864959375467, -37.662922872776647 ], [ -72.615077007596597, -37.663144925745996 ], [ -72.615152212755547, -37.663508298651109 ], [ -72.61534106827267, -37.663845305204639 ], [ -72.615724249148684, -37.664039299885104 ], [ -72.616332704141769, -37.664134939522555 ], [ -72.616814012487836, -37.663982967637956 ], [ -72.617738791241919, -37.663783132420605 ], [ -72.618254381095866, -37.663744491827764 ], [ -72.618744651933525, -37.663775114595246 ], [ -72.619212846673094, -37.663943608213138 ], [ -72.619834614698689, -37.664312987512254 ], [ -72.620395594627297, -37.664615819580447 ], [ -72.620862682642453, -37.664761388083058 ], [ -72.621412563885741, -37.664835923323885 ], [ -72.621790211139611, -37.664915751240422 ], [ -72.622116028296531, -37.665111414214302 ], [ -72.622796408699443, -37.66550192796209 ], [ -72.625141932364173, -37.666435369433742 ], [ -72.62646160153399, -37.666966183334331 ], [ -72.626928718295218, -37.667111800558644 ], [ -72.627107721090297, -37.667243409180408 ], [ -72.628485446580314, -37.668080897092253 ], [ -72.629539106628187, -37.668459870897941 ], [ -72.630995660182691, -37.668849220788559 ], [ -72.632006127435091, -37.668932384265609 ], [ -72.632374892147411, -37.668829574722487 ], [ -72.632619889674856, -37.668547778357052 ], [ -72.632719152615437, -37.668224720226277 ], [ -72.632847059237164, -37.667900778955186 ], [ -72.632923025269164, -37.667098517519499 ], [ -72.633024419013594, -37.666821075673106 ], [ -72.633385377366125, -37.666558579875677 ], [ -72.633663554168578, -37.666367122550753 ], [ -72.63408643519027, -37.666194079177757 ], [ -72.634621845472637, -37.665971804935332 ], [ -72.634927643673464, -37.665756762588963 ], [ -72.635174845666597, -37.665520501149992 ], [ -72.63536133052969, -37.665217701216854 ], [ -72.635781875931656, -37.664998967480045 ], [ -72.636287516045499, -37.664754801108614 ], [ -72.636731220015463, -37.664421106764244 ], [ -72.637826273533335, -37.663884494725266 ], [ -72.639168589231474, -37.663111676546052 ], [ -72.639734930305707, -37.662934180351137 ], [ -72.640338834433564, -37.662938324067213 ], [ -72.640803810509453, -37.663038269547378 ], [ -72.641129571970836, -37.663233880580641 ], [ -72.641403633590969, -37.663545405486317 ], [ -72.642184536372497, -37.664229815303571 ], [ -72.642745590861296, -37.664532388867727 ], [ -72.64321057861531, -37.664632323668329 ], [ -72.643994642568316, -37.664790948039212 ], [ -72.644715649279973, -37.664837200468824 ], [ -72.645350633320035, -37.664886111690244 ], [ -72.646297892414083, -37.664856719592727 ], [ -72.646903026335551, -37.664883743000338 ], [ -72.647364569948763, -37.664915134001745 ], [ -72.647828450080027, -37.664992281683276 ], [ -72.648521838088257, -37.665062171056249 ], [ -72.648983476922879, -37.665093552737844 ], [ -72.64941405021834, -37.66508021387147 ], [ -72.649840244226795, -37.66497564469902 ], [ -72.650208867903629, -37.664872785586446 ], [ -72.650807374953246, -37.664762799628292 ], [ -72.650815534350954, -37.664760701865816 ], [ -72.650870908301712, -37.664729391865222 ], [ -72.650923839733196, -37.664699411620596 ], [ -72.650892289103794, -37.664552052426721 ], [ -72.650278437032483, -37.663847397304046 ], [ -72.649615100365438, -37.662818592837219 ], [ -72.649258060464192, -37.662267521901576 ], [ -72.648339827733594, -37.661808738641 ], [ -72.647848964007835, -37.661411621036741 ], [ -72.647448619021702, -37.66093686591546 ], [ -72.647093435039807, -37.660423146842383 ], [ -72.646359262619356, -37.658909288297522 ], [ -72.64629018576727, -37.65846169084184 ], [ -72.645688699005859, -37.657730796066936 ], [ -72.645482127812997, -37.657362359749946 ], [ -72.645413058147454, -37.656914760791182 ], [ -72.645398403930216, -37.656615439003026 ], [ -72.645611835556878, -37.656159024629837 ], [ -72.646000597665761, -37.655434973066264 ], [ -72.647035500890524, -37.654428559521349 ], [ -72.647713970576831, -37.653845345742695 ], [ -72.647963376137383, -37.653163018646254 ], [ -72.648013546147681, -37.652261993671445 ], [ -72.647942634935774, -37.651776963219689 ], [ -72.64768165997269, -37.65126032657983 ], [ -72.647371777132292, -37.650707787910839 ], [ -72.647075996943528, -37.649480206470876 ], [ -72.647046680424225, -37.648881490369604 ], [ -72.646555360354299, -37.647510000105775 ], [ -72.646082289559374, -37.646512771327309 ], [ -72.645776098794784, -37.646034946345409 ], [ -72.645297384783234, -37.64551943272059 ], [ -72.644554844555913, -37.645129715784698 ], [ -72.644227781435688, -37.644921163392844 ], [ -72.644162352641985, -37.644879497086862 ], [ -72.643582127206699, -37.644762537113095 ], [ -72.643198657971467, -37.644685318619395 ], [ -72.642985322464554, -37.644526676898707 ], [ -72.642289464089274, -37.644009304836473 ], [ -72.641648256520938, -37.64361864958606 ], [ -72.641124697712101, -37.643154983875917 ], [ -72.641096084573661, -37.643129742934605 ], [ -72.640680767366675, -37.642537342656915 ], [ -72.64067149854958, -37.642512906718871 ], [ -72.640370026635168, -37.642252113948615 ], [ -72.640335240274112, -37.641540206454593 ], [ -72.640472624122083, -37.640912129339739 ], [ -72.641227759628009, -37.640309463812734 ], [ -72.642982851199193, -37.638383641995034 ], [ -72.644488482412626, -37.637089343003879 ], [ -72.647317383243504, -37.635353041242325 ], [ -72.648947973706214, -37.634322197227384 ], [ -72.650500665860747, -37.632848140799204 ], [ -72.652335198147441, -37.631409829161569 ], [ -72.653229678523616, -37.630223515843518 ], [ -72.653356034653171, -37.629372966379442 ], [ -72.653207038283497, -37.628620029846189 ], [ -72.652957215006353, -37.628093095306582 ], [ -72.652539415754248, -37.627571219083897 ], [ -72.651288248514732, -37.626050380798247 ], [ -72.651033992949976, -37.625434354752315 ], [ -72.650829075555563, -37.624683221078108 ], [ -72.650959904396899, -37.623921610847674 ], [ -72.651421928608798, -37.623060588483952 ], [ -72.652320690355594, -37.621963225858643 ], [ -72.65250990430053, -37.621793378319488 ], [ -72.652527985590567, -37.621772301037602 ], [ -72.653227513583772, -37.621061177096692 ], [ -72.653379069253674, -37.620683346733387 ], [ -72.653425372914995, -37.620567963842142 ], [ -72.653441014380732, -37.620071101416187 ], [ -72.653438592522718, -37.620040622857545 ], [ -72.653403902281383, -37.619593953824783 ], [ -72.653283434608539, -37.619280718300878 ], [ -72.65283064417946, -37.618774538824624 ], [ -72.652633437025131, -37.618529140346517 ], [ -72.652265256217731, -37.618090889153351 ], [ -72.65177633285299, -37.617623314953683 ], [ -72.651158184139689, -37.61669546694106 ], [ -72.650755592467021, -37.615771859722372 ], [ -72.648315134843045, -37.61331978452602 ], [ -72.646422751950368, -37.611737036799092 ], [ -72.644462264182735, -37.610038430601506 ], [ -72.642981533370673, -37.60909329617575 ], [ -72.641849486331111, -37.608498397124173 ], [ -72.641220556936062, -37.607913627213698 ], [ -72.640819988269413, -37.606932798129364 ], [ -72.640347564261504, -37.605950571203415 ], [ -72.639655855204509, -37.605078432850547 ], [ -72.638813213908435, -37.604432056952099 ], [ -72.63804060617025, -37.603844324337125 ], [ -72.636833112324894, -37.603362330608164 ], [ -72.635410038082711, -37.602876051467227 ], [ -72.634348162043239, -37.602339797613972 ], [ -72.633507357801932, -37.601636203482663 ], [ -72.633171569345365, -37.600885598046325 ], [ -72.633346150632619, -37.599916308042552 ], [ -72.633487154691181, -37.599438530782535 ], [ -72.633635235677559, -37.599258468247896 ], [ -72.634153687563995, -37.597848171621195 ], [ -72.634499761730581, -37.597275214210221 ], [ -72.635104498596704, -37.596591475088367 ], [ -72.635818409515934, -37.595909974590562 ], [ -72.636535931662607, -37.595112492417918 ], [ -72.637448372954566, -37.59391305046141 ], [ -72.637837237471373, -37.593138025979755 ], [ -72.637886504674825, -37.59273311301078 ], [ -72.637898379504549, -37.592356437757992 ], [ -72.637800172982764, -37.592006554267755 ], [ -72.637422523932258, -37.591274153018524 ], [ -72.637153241349438, -37.590572870149408 ], [ -72.637173377086526, -37.589935498059141 ], [ -72.637297332019315, -37.589474035844198 ], [ -72.63753408480909, -37.588898909779722 ], [ -72.637594310560672, -37.588766423475448 ], [ -72.637690711468764, -37.588554150910127 ], [ -72.638069485209982, -37.588097813207284 ], [ -72.638148703143315, -37.587896476183111 ], [ -72.638527563122821, -37.587440134448109 ], [ -72.639016492775781, -37.586956998709105 ], [ -72.639501700708507, -37.586589769001968 ], [ -72.640010379822968, -37.586392070466168 ], [ -72.640031189296522, -37.586373789288622 ], [ -72.641637473144272, -37.585604844627362 ], [ -72.642523294659412, -37.584878586469884 ], [ -72.642736192686797, -37.58382514874107 ], [ -72.642534596364001, -37.582812267455317 ], [ -72.642295486394929, -37.581931319371762 ], [ -72.641795574837644, -37.5808593146443 ], [ -72.641578995514223, -37.580324014846717 ], [ -72.641027559287167, -37.579870273602381 ], [ -72.64035739272903, -37.578865954974844 ], [ -72.63965724579657, -37.57772558492303 ], [ -72.639159165005822, -37.576664948559007 ], [ -72.638959416517551, -37.575599013637763 ], [ -72.63882975368945, -37.574332833885215 ], [ -72.638878585209994, -37.572788746362001 ], [ -72.638933094083114, -37.568784266412884 ], [ -72.639324806259381, -37.567761992429219 ], [ -72.639982296690562, -37.567431806496074 ], [ -72.641205467934242, -37.567399055619603 ], [ -72.641656672836831, -37.567289842493054 ], [ -72.642088399569118, -37.567351636033294 ], [ -72.642979110614363, -37.567661459543658 ], [ -72.643839022021766, -37.567890973036768 ], [ -72.645065187350298, -37.568105689110162 ], [ -72.646496756960119, -37.568305848557607 ], [ -72.647204792897384, -37.568253836246541 ], [ -72.647835708467497, -37.568076900983563 ], [ -72.648474035138719, -37.567930285789387 ], [ -72.649418257028813, -37.56760401537457 ], [ -72.6499282306156, -37.567295536666286 ], [ -72.650119896062947, -37.566502890325687 ], [ -72.650092466005745, -37.565254593784211 ], [ -72.649797488910835, -37.564027421242507 ], [ -72.64918393867346, -37.562865974239124 ], [ -72.647682631949834, -37.560318122024157 ], [ -72.646881772195954, -37.558356554360927 ], [ -72.64649390391078, -37.556975491566128 ], [ -72.64621937426837, -37.55428051811888 ], [ -72.646499663908386, -37.552226024796319 ], [ -72.647503529441735, -37.550014316551533 ], [ -72.648706741916456, -37.548321523507632 ], [ -72.649170051617489, -37.547300768550954 ], [ -72.64936038127, -37.545816726993024 ], [ -72.649123450613814, -37.544209819047722 ], [ -72.648816375906975, -37.542544120197142 ], [ -72.64906782872805, -37.541404681335457 ], [ -72.649274372971433, -37.539405968470192 ], [ -72.64983807838864, -37.537471551946695 ], [ -72.650523901683869, -37.536226268060958 ], [ -72.651419855297121, -37.535156834627429 ], [ -72.65281248743095, -37.534411347547064 ], [ -72.638775575396352, -37.532787343424346 ], [ -72.638588745580194, -37.534156948809134 ], [ -72.634143486295642, -37.533839028238077 ], [ -72.634125399615712, -37.534410879531244 ], [ -72.627384121923427, -37.533989407642359 ], [ -72.627289453865544, -37.53244249506956 ], [ -72.624724282232378, -37.531761504537265 ], [ -72.622226484245559, -37.533485045858278 ], [ -72.620874155026925, -37.53306693751459 ], [ -72.619405876661347, -37.53405769699237 ], [ -72.613875652837891, -37.53171427313702 ], [ -72.613916951086452, -37.529699556538432 ], [ -72.614187167917166, -37.528360636184708 ], [ -72.614427518459649, -37.527368464527271 ], [ -72.614794617695452, -37.526560158952947 ], [ -72.615350441294339, -37.526021715438596 ], [ -72.615806529438814, -37.525160714536803 ], [ -72.61665184501949, -37.524226080561341 ], [ -72.617340176411005, -37.523454485943311 ], [ -72.619062456118129, -37.522262676076124 ], [ -72.617870919945474, -37.521323058348472 ], [ -72.616374129052787, -37.520949471782636 ], [ -72.614280163312003, -37.52004043327377 ], [ -72.613204547540278, -37.519655523035418 ], [ -72.611045950709766, -37.519406345729628 ], [ -72.605948211796687, -37.518964578273781 ], [ -72.603678683808383, -37.520291886997782 ], [ -72.604185933703235, -37.520783333040079 ], [ -72.604560635381276, -37.522173893849832 ], [ -72.604458066640461, -37.523507009004923 ], [ -72.603749529443263, -37.525066243346849 ], [ -72.602450305030985, -37.526375101314457 ], [ -72.60006480543781, -37.527947957634971 ], [ -72.597947627230113, -37.52862017120961 ], [ -72.596612817854492, -37.529165244112875 ], [ -72.596057384124421, -37.529678497342069 ], [ -72.595534243930516, -37.531050776406666 ] ] ] } },
{ "type": "Feature", "properties": { "capa": "colegios", "popup": "<strong>ESCUELA BASICA RIHUE</strong><br><br><strong>Dirección:</strong> CARRETERA LOS ANGELES - ANGOL 36", "etiqueta": "" }, "geometry": { "type": "Point", "coordinates": [ -72.593071, -37.626011 ] } },
{ "type": "Feature", "properties": { "capa": "colegios", "popup": "<strong>ESCUELA BASICA VAQUERIA</strong><br><br><strong>Dirección:</strong> PARCELAS VAQUERIA KM 5 0", "etiqueta": "" }, "geometry": { "type": "Point", "coordinates": [ -72.549278, -37.625401 ] } },
{ "type": "Feature", "properties": { "capa": "colegios", "popup": "<strong>COLEGIO ACUMAR</strong><br><br><strong>Dirección:</strong> PARCELA 2 B SANTA AMELIA 0", "etiqueta": "" }, "geometry": { "type": "Point", "coordinates": [ -72.595421, -37.590519 ] } },
{ "type": "Feature", "properties": { "capa": "colegios", "popup": "<strong>LICEO AGRICOLA DE NEGRETE</strong><br><br><strong>Dirección:</strong> PARCELA 1 Y 2 ESPIGA DE ORO 0", "etiqueta": "" }, "geometry": { "type": "Point", "coordinates": [ -72.527061, -37.590382 ] } },
{ "type": "Feature", "properties": { "capa": "colegios", "popup": "<strong>ESCUELA ESPECIAL DE LENGUAJE ANTUKUYEN</strong><br><br><strong>Dirección:</strong> IGNACIO CARRERA PINTO 363", "etiqueta": "" }, "geometry": { "type": "Point", "coordinates": [ -72.526215, -37.584793 ] } },
{ "type": "Feature", "properties": { "capa": "colegios", "popup": "<strong>ESCUELA ESPECIAL LOS GIRASOLES</strong><br><br><strong>Dirección:</strong> PARCELA SAN SEBASTIAN 0", "etiqueta": "" }, "geometry": { "type": "Point", "coordinates": [ -72.547485, -37.58458 ] } },
{ "type": "Feature", "properties": { "capa": "colegios", "popup": "<strong>LICEO POLIVALENTE LA FRONTERA</strong><br><br><strong>Dirección:</strong> EMILIO SERRANO 2", "etiqueta": "" }, "geometry": { "type": "Point", "coordinates": [ -72.532333, -37.58379 ] } },
{ "type": "Feature", "properties": { "capa": "colegios", "popup": "<strong>ESCUELA BASICA VILLA COIGUE</strong><br><br><strong>Dirección:</strong> JOAQUIN DIAZ GARCES 0", "etiqueta": "" }, "geometry": { "type": "Point", "coordinates": [ -72.59745, -37.553902 ] } },
{ "type": "Feature", "properties": { "capa": "jardines", "popup": "<strong>TRENCITO DE COIHUE</strong><br><br><strong>Dirección:</strong> JOAQUIN DIAZ GARCES N 360 COIHUE ", "etiqueta": "" }, "geometry": { "type": "MultiPoint", "coordinates": [ [ -72.595653, -37.556736 ] ] } },
{ "type": "Feature", "properties": { "capa": "jardines", "popup": "<strong>PIECESITOS DE AYUN</strong><br><br><strong>Dirección:</strong> EMILIO SERRANO # 02 ", "etiqueta": "" }, "geometry": { "type": "MultiPoint", "coordinates": [ [ -72.531581, -37.584056 ] ] } },
{ "type": "Feature", "properties": { "capa": "jardines", "popup": "<strong>SEMILLITAS(CECI)</strong><br><br><strong>Dirección:</strong> SN GABRIEL DE RIHUE S.N., FRENTE A ESCUELA F-1051 ", "etiqueta": "" }, "geometry": { "type": "MultiPoint", "coordinates": [ [ -72.593073, -37.625478 ] ] } },
{ "type": "Feature", "properties": { "capa": "jardines", "popup": "<strong>NA</strong><br><br><strong>Dirección:</strong> NA ", "etiqueta": "" }, "geometry": { "type": "MultiPoint", "coordinates": [ [ -72.526842000458259, -37.584738000426768 ] ] } },
{ "type": "Feature", "properties": { "capa": "bomberos", "popup": "<strong>Cuerpo de Bomberos</strong><br><br><strong>Dirección:</strong> Luis Cruz Martínez 173", "etiqueta": "" }, "geometry": { "type": "Point", "coordinates": [ -72.529029344567775, -37.586362586105999 ] } },
{ "type": "Feature", "properties": { "capa": "comisarias", "popup": "<strong>TCIA. NEGRETE</strong><br><br><strong>Dirección:</strong> NESTOR DEL RIO 290", "etiqueta": "" }, "geometry": { "type": "Point", "coordinates": [ -72.527307708540036, -37.585171824999215 ] } },
{ "type": "Feature", "properties": { "capa": "salud", "popup": "<strong>Posta de Salud Rural Rihue</strong><br><br><strong>Tipo de atención:</strong> Posta de Salud Rural (PSR)<br><strong>Dirección:</strong>  NA", "etiqueta": "" }, "geometry": { "type": "Point", "coordinates": [ -72.59237, -37.62591 ] } },
{ "type": "Feature", "properties": { "capa": "salud", "popup": "<strong>Centro de Salud Familiar Yanequén</strong><br><br><strong>Tipo de atención:</strong> Centro de Salud Familiar (CESFAM)<br><strong>Dirección:</strong>  NA", "etiqueta": "" }, "geometry": { "type": "Point", "coordinates": [ -72.53348, -37.58535 ] } },
{ "type": "Feature", "properties": { "capa": "salud", "popup": "<strong>SUR Negrete</strong><br><br><strong>Tipo de atención:</strong> Servicio de Urgencia Rural (SUR)<br><strong>Dirección:</strong>  NA", "etiqueta": "" }, "geometry": { "type": "Point", "coordinates": [ -72.533476, -37.585352 ] } },
{ "type": "Feature", "properties": { "capa": "salud", "popup": "<strong>Posta de Salud Rural Coigue</strong><br><br><strong>Tipo de atención:</strong> Posta de Salud Rural (PSR)<br><strong>Dirección:</strong>  NA", "etiqueta": "" }, "geometry": { "type": "Point", "coordinates": [ -72.5975, -37.55361 ] } }
]
}
