{
"type": "FeatureCollection",
"name": "8310",
"crs": { "type": "name", "properties": { "name": "urn:ogc:def:crs:OGC:1.3:CRS84" } },
"features": [
{ "type": "Feature", "properties": { "capa": "comuna", "popup": "", "etiqueta": "" }, "geometry": { "type": "Polygon", "coordinates": [ [ [ -72.793775420230745, -37.166607436240575 ], [ -72.793331194339586, -37.167117393466448 ], [ -72.792819434902015, -37.167508923309654 ], [ -72.792043895062704, -37.167378282587819 ], [ -72.791807623769941, -37.167429690915291 ], [ -72.790674254410277, -37.167462535245392 ], [ -72.788772438308783, -37.167539753224318 ], [ -72.787624548580851, -37.1675589370873 ], [ -72.786946948463722, -37.167383947062078 ], [ -72.786445294174769, -37.16701867386297 ], [ -72.78593864435453, -37.166508984415579 ], [ -72.785656862612839, -37.16630102615931 ], [ -72.785065790020525, -37.166222296460546 ], [ -72.784348452028482, -37.166181919360824 ], [ -72.783365941246032, -37.166569053709694 ], [ -72.782608653376684, -37.166951417095227 ], [ -72.782308611580206, -37.167391854275145 ], [ -72.782086351310937, -37.167604049461943 ], [ -72.781362629890495, -37.167779724036684 ], [ -72.77984757714637, -37.167940601100966 ], [ -72.777357032157127, -37.167979466126191 ], [ -72.776901924074636, -37.171811249882815 ], [ -72.769757749282505, -37.178862379884386 ], [ -72.774271912044284, -37.179907468612434 ], [ -72.774305443458886, -37.18030462574977 ], [ -72.773933951461345, -37.180703190763239 ], [ -72.773635293070399, -37.181071534071172 ], [ -72.773292112377362, -37.181727495626767 ], [ -72.773188948053487, -37.182198755065833 ], [ -72.773194288537866, -37.182613343193154 ], [ -72.773346643708365, -37.182940659905171 ], [ -72.773583062324832, -37.183472305438329 ], [ -72.773693897362918, -37.183988105504696 ], [ -72.773551801851283, -37.184535143702568 ], [ -72.77299989221207, -37.185565584299546 ], [ -72.77219853568981, -37.186532830734912 ], [ -72.771180556725028, -37.18689214548364 ], [ -72.769670418663807, -37.187206249814963 ], [ -72.769570799092079, -37.187528758902815 ], [ -72.769644142043447, -37.188097859212277 ], [ -72.769634265965209, -37.18872407635763 ], [ -72.768967891195871, -37.190004713070941 ], [ -72.768357101481385, -37.190588006303692 ], [ -72.768016197119266, -37.190662922818071 ], [ -72.767900871403086, -37.190703348378683 ], [ -72.767582175191421, -37.190748185016055 ], [ -72.767348052668808, -37.190794533736579 ], [ -72.767074076388624, -37.190755507982686 ], [ -72.766909974847465, -37.190583169399538 ], [ -72.766747220779251, -37.190360012380395 ], [ -72.766539748576164, -37.190220713432261 ], [ -72.766288542791798, -37.190131294983914 ], [ -72.765910292768382, -37.190039572102961 ], [ -72.765700930509951, -37.189967933271689 ], [ -72.765431466467433, -37.189776584278945 ], [ -72.765163000453185, -37.189551475489068 ], [ -72.764956977232671, -37.189361427898262 ], [ -72.76466646476473, -37.189169639398408 ], [ -72.764437310823965, -37.189046820849306 ], [ -72.764082288538845, -37.188887784268097 ], [ -72.763791787749, -37.188696141271954 ], [ -72.763402516295358, -37.18826549952508 ], [ -72.763156651893667, -37.18799007327214 ], [ -72.762993556465631, -37.187783821566676 ], [ -72.762766396784798, -37.187593335126088 ], [ -72.762369098884093, -37.187433497529518 ], [ -72.761885329154126, -37.187339655895656 ], [ -72.761209645143495, -37.187293093936141 ], [ -72.760744303453279, -37.187284269904112 ], [ -72.759116077356396, -37.187253506729768 ], [ -72.758736488843212, -37.187212429506474 ], [ -72.758691357483329, -37.188024122404414 ], [ -72.759090248097053, -37.188844216788397 ], [ -72.759127556927425, -37.18901417554644 ], [ -72.759099448642189, -37.18925071394429 ], [ -72.758916265087748, -37.189721185046473 ], [ -72.758839797795829, -37.190159850704021 ], [ -72.75924078597572, -37.190912275689435 ], [ -72.759458351649343, -37.191424181367836 ], [ -72.759499993054348, -37.191984186960951 ], [ -72.759387465590251, -37.192369090940183 ], [ -72.759197860878189, -37.192112015725868 ], [ -72.758773752757833, -37.191932797488036 ], [ -72.758353467867309, -37.191640984165929 ], [ -72.758004610719979, -37.191345940852123 ], [ -72.757865131102463, -37.191230666311228 ], [ -72.757722109427746, -37.191058899161497 ], [ -72.757381037080677, -37.190649215048701 ], [ -72.756816453111128, -37.190408694279732 ], [ -72.756098006598023, -37.190512243846349 ], [ -72.755593733720033, -37.190615338134123 ], [ -72.755155065705551, -37.190949484401187 ], [ -72.754925260486189, -37.191458845812662 ], [ -72.754912324746101, -37.191893721513949 ], [ -72.754909893006626, -37.191976751046951 ], [ -72.754751043016626, -37.192118176410084 ], [ -72.75446876540488, -37.192369422981997 ], [ -72.753956534351801, -37.192760733943679 ], [ -72.753655708326065, -37.193268729939412 ], [ -72.753279528021068, -37.193892474049512 ], [ -72.752692166369172, -37.194395019667581 ], [ -72.752324565873451, -37.194730518122057 ], [ -72.752291744127902, -37.194810968432478 ], [ -72.752111486386354, -37.194885468580772 ], [ -72.751720721034417, -37.195213434088366 ], [ -72.751328052152346, -37.194983597195005 ], [ -72.751300252887575, -37.194874958089898 ], [ -72.751156483814555, -37.19433604731141 ], [ -72.751083308848138, -37.193600137329263 ], [ -72.750907938840058, -37.193078685263977 ], [ -72.750237014103817, -37.192367407116137 ], [ -72.749426412120684, -37.191568005075958 ], [ -72.747607127837597, -37.190172654008215 ], [ -72.74690761421742, -37.189641154398863 ], [ -72.746343644695543, -37.189360047436715 ], [ -72.745830346443867, -37.188958216840071 ], [ -72.745083126892226, -37.188425927914494 ], [ -72.744438803966489, -37.188431635896421 ], [ -72.743916702225036, -37.18834956071445 ], [ -72.74321242304228, -37.187980183004669 ], [ -72.742853284676528, -37.188009404375819 ], [ -72.742597331295883, -37.188612781798469 ], [ -72.742350936888172, -37.188873934479687 ], [ -72.741922181782869, -37.18884779212943 ], [ -72.741665170186806, -37.188662634899607 ], [ -72.741491542012071, -37.188087089427654 ], [ -72.74107849754273, -37.187561032708317 ], [ -72.740447399614609, -37.187120909905104 ], [ -72.740418522371499, -37.186980715418443 ], [ -72.740239564492171, -37.186112049989134 ], [ -72.740218010315246, -37.186008080732805 ], [ -72.740211453511989, -37.185494262560866 ], [ -72.740203693864544, -37.184881367465835 ], [ -72.740505561037693, -37.184368869220705 ], [ -72.740516210565374, -37.184197903774979 ], [ -72.740521870849975, -37.184103333130984 ], [ -72.737687325904162, -37.18406722964356 ], [ -72.737199845233746, -37.184080414009934 ], [ -72.736584809182915, -37.184095706784198 ], [ -72.735970551073095, -37.184016431665341 ], [ -72.7359657136453, -37.184011861291346 ], [ -72.735566861659152, -37.183531018610537 ], [ -72.73526707049264, -37.182962102174564 ], [ -72.735119815956324, -37.182684387098291 ], [ -72.735107810870858, -37.182661666511052 ], [ -72.734848425027508, -37.182508007857621 ], [ -72.734516378952435, -37.182452067232759 ], [ -72.734327905219288, -37.182417720719208 ], [ -72.734449085256173, -37.182484670998747 ], [ -72.7346516823022, -37.18288964502878 ], [ -72.73442845275072, -37.183173741913897 ], [ -72.734416061389695, -37.183195535523033 ], [ -72.73007519801925, -37.183511507437721 ], [ -72.728023180907314, -37.183675000489835 ], [ -72.726925206068145, -37.18376206480967 ], [ -72.722809150589143, -37.184093050158722 ], [ -72.721921333017434, -37.184166073688353 ], [ -72.720819385828094, -37.184266489961828 ], [ -72.720264553969244, -37.184318918814796 ], [ -72.716664369516877, -37.184628082769592 ], [ -72.714181297612498, -37.184796463640076 ], [ -72.711303530226772, -37.185029203553711 ], [ -72.709878820152483, -37.185141339303506 ], [ -72.708115366164307, -37.185283041552445 ], [ -72.707289519770782, -37.185352611521068 ], [ -72.707153201324743, -37.185368027133649 ], [ -72.703074507676718, -37.185712581713751 ], [ -72.702013261356228, -37.185773023634148 ], [ -72.700304827382581, -37.18586152259887 ], [ -72.699653691633742, -37.185997606936603 ], [ -72.69731477058636, -37.186150425455189 ], [ -72.696661418693694, -37.186209142986492 ], [ -72.695334681579226, -37.186328153805604 ], [ -72.692669010025355, -37.186573670012301 ], [ -72.690579177433222, -37.186816812292506 ], [ -72.688850349905977, -37.186972351518328 ], [ -72.686455546461417, -37.187177916978428 ], [ -72.683879663316802, -37.187452025096334 ], [ -72.68252887920049, -37.18758780384703 ], [ -72.677783246641127, -37.187981397460874 ], [ -72.677762789307181, -37.187913470182643 ], [ -72.677834115540733, -37.187351608048736 ], [ -72.67801395466735, -37.185850186401069 ], [ -72.677885493785084, -37.184802269944342 ], [ -72.677548986676285, -37.184412646114588 ], [ -72.677274504644586, -37.183790016749946 ], [ -72.677274006977925, -37.183785456381869 ], [ -72.677549884093267, -37.183511561830272 ], [ -72.678340598274332, -37.183044905348481 ], [ -72.678786075518659, -37.18247237024471 ], [ -72.679240261031367, -37.181638669748935 ], [ -72.67972056416265, -37.18080548467173 ], [ -72.680282298676104, -37.179951313938801 ], [ -72.680691584594285, -37.178814865064531 ], [ -72.680573275573067, -37.178312333141598 ], [ -72.680380859134132, -37.177605679210252 ], [ -72.680497751512164, -37.177283585114353 ], [ -72.68068115695047, -37.177060531947269 ], [ -72.679324405325715, -37.175669995487077 ], [ -72.678486411912928, -37.174693807345648 ], [ -72.677517131518002, -37.17430532600892 ], [ -72.676768191692574, -37.174123943942014 ], [ -72.676239952661106, -37.174113565843989 ], [ -72.675756592562934, -37.1738742572023 ], [ -72.675275044366657, -37.173580939669421 ], [ -72.674902231845664, -37.173433990224446 ], [ -72.674347071203428, -37.173085094199955 ], [ -72.673629797890101, -37.172584395966915 ], [ -72.673530980513902, -37.172613959717829 ], [ -72.672509716410119, -37.172706545534481 ], [ -72.672004598217427, -37.173178765291482 ], [ -72.671273833106838, -37.173619532658627 ], [ -72.670435204585161, -37.173882380618309 ], [ -72.670050325893229, -37.17413166864165 ], [ -72.669551626163269, -37.174441754698201 ], [ -72.669580533949087, -37.17469016476754 ], [ -72.669330704383754, -37.175446715667945 ], [ -72.6690538795458, -37.175864905356732 ], [ -72.668782273021321, -37.176044254774553 ], [ -72.668591133986737, -37.176171143527263 ], [ -72.668156177811014, -37.176811436105204 ], [ -72.668192953940448, -37.17808730684645 ], [ -72.668027022531049, -37.178561615852594 ], [ -72.667752712975883, -37.178898763564867 ], [ -72.667131742654263, -37.179454261329774 ], [ -72.666762411104983, -37.180406693314538 ], [ -72.666793756020184, -37.180574067274769 ], [ -72.666892689279052, -37.181089688164434 ], [ -72.666905968175598, -37.181162046121315 ], [ -72.666990296624576, -37.181600773662822 ], [ -72.666751548676572, -37.181992612792804 ], [ -72.666178231285826, -37.182233557582002 ], [ -72.666154817596265, -37.182237677886221 ], [ -72.665533964953951, -37.182306507760629 ], [ -72.664820472649652, -37.182206907646311 ], [ -72.663556407399284, -37.182267529150906 ], [ -72.662943501253991, -37.182922316597072 ], [ -72.66269821985891, -37.183183348680132 ], [ -72.662357303818695, -37.183645132604873 ], [ -72.662287282837241, -37.183999783364548 ], [ -72.661687392382078, -37.184208760712067 ], [ -72.661231217999344, -37.184578164025112 ], [ -72.661132881221818, -37.18488719380251 ], [ -72.661210899005923, -37.185050910746256 ], [ -72.661467698599566, -37.185583202706006 ], [ -72.66163618661426, -37.186095643329935 ], [ -72.661743926956177, -37.186395195802191 ], [ -72.661693683284014, -37.186903334099277 ], [ -72.661738691574698, -37.187134052230299 ], [ -72.66161300558835, -37.187402081739194 ], [ -72.661456548710262, -37.188109823411388 ], [ -72.661483391269257, -37.18833113999905 ], [ -72.661631192879597, -37.188554838315298 ], [ -72.6620585529013, -37.188886345115399 ], [ -72.662044335265279, -37.189128417227188 ], [ -72.661886689916059, -37.189437585825161 ], [ -72.661896659419099, -37.189771604196423 ], [ -72.66203551919908, -37.19006783230293 ], [ -72.662112120339984, -37.190203988495696 ], [ -72.662023740489076, -37.190449979442704 ], [ -72.662029030667782, -37.190713881634565 ], [ -72.662126048718477, -37.191060484259218 ], [ -72.662405862251376, -37.19137559673144 ], [ -72.662612605920756, -37.19165429745189 ], [ -72.66279432252631, -37.191873253581534 ], [ -72.662860814925324, -37.192116959157964 ], [ -72.662833518717107, -37.192347921125624 ], [ -72.662672792146466, -37.192759404352181 ], [ -72.662542584939303, -37.193050380392407 ], [ -72.662496392669084, -37.193237867587946 ], [ -72.662506192390495, -37.193356534576935 ], [ -72.662549494780464, -37.193481248888126 ], [ -72.662713655610432, -37.193613735792383 ], [ -72.662882296338722, -37.193821657512707 ], [ -72.663113642168796, -37.194397021883113 ], [ -72.663225441997469, -37.194698070631219 ], [ -72.663051853348605, -37.194872306137121 ], [ -72.662747603843329, -37.195135607527192 ], [ -72.662538669182993, -37.195363041759293 ], [ -72.662404627067858, -37.195559595298818 ], [ -72.662307185910677, -37.195883433309412 ], [ -72.662232923084446, -37.196146698972441 ], [ -72.662075593043923, -37.196132675200388 ], [ -72.661353657474237, -37.196343806469379 ], [ -72.660982143917153, -37.196796055155403 ], [ -72.660823977545064, -37.196823902092156 ], [ -72.660406558280314, -37.19689733549427 ], [ -72.659907863041909, -37.196833425547581 ], [ -72.659482943742844, -37.196707820884811 ], [ -72.659194130887428, -37.196836609811832 ], [ -72.658161695334755, -37.197297110968996 ], [ -72.657886606041913, -37.197419789444282 ], [ -72.657595591415756, -37.197585250222986 ], [ -72.657201733164257, -37.197577424165914 ], [ -72.657035233121292, -37.197574158359309 ], [ -72.656523263477936, -37.197564003875151 ], [ -72.655956385211155, -37.197381590008568 ], [ -72.655250348923715, -37.197083765553067 ], [ -72.654966413021967, -37.197019472222294 ], [ -72.654746261098651, -37.197015128753208 ], [ -72.654466085544712, -37.197009613906729 ], [ -72.653591386071085, -37.19733833655178 ], [ -72.653452380764023, -37.197390527350152 ], [ -72.653163238226881, -37.197497465530084 ], [ -72.652805763541039, -37.197490347867166 ], [ -72.652310832243685, -37.197309385694872 ], [ -72.65198438536774, -37.197302857636132 ], [ -72.651582679433943, -37.197294887006564 ], [ -72.651238322846183, -37.197288097766908 ], [ -72.651186633784732, -37.197356483872547 ], [ -72.650939544080998, -37.19768316137651 ], [ -72.650921828405288, -37.198255164710645 ], [ -72.650264421517434, -37.198701663257204 ], [ -72.649764078768797, -37.198691712140125 ], [ -72.648829192171135, -37.198844464182578 ], [ -72.648603942308597, -37.199182418641911 ], [ -72.648452180026183, -37.19946777225784 ], [ -72.648364477504998, -37.19997971867312 ], [ -72.648280946759996, -37.200379134369221 ], [ -72.648264998070431, -37.20089248490639 ], [ -72.648610067920515, -37.201300380440955 ], [ -72.648517050966106, -37.201983419587073 ], [ -72.648155880611171, -37.202093453734328 ], [ -72.647870232520503, -37.202087723173207 ], [ -72.647684554344551, -37.202157656166328 ], [ -72.647290999723623, -37.202306031556432 ], [ -72.646788993295075, -37.202350142213092 ], [ -72.646574363315821, -37.202345835541905 ], [ -72.646218510987367, -37.202284771511501 ], [ -72.64571118114246, -37.202499971143759 ], [ -72.645625099182055, -37.202957842608797 ], [ -72.64568441853352, -37.203360012974201 ], [ -72.646034809105032, -37.203596824110591 ], [ -72.646243380846016, -37.203772173144209 ], [ -72.646517436177959, -37.204178720864327 ], [ -72.646500424781422, -37.204725758034606 ], [ -72.646496155987194, -37.204863163509586 ], [ -72.646485522629163, -37.205205495551304 ], [ -72.646045454141159, -37.205543646191856 ], [ -72.645757972588996, -37.205592064304454 ], [ -72.645433292699209, -37.205986953520934 ], [ -72.645386224571595, -37.206044198913524 ], [ -72.645412762601723, -37.206100947721531 ], [ -72.645520251415348, -37.206330705691286 ], [ -72.645652337898085, -37.206680373962271 ], [ -72.645641696455243, -37.207022631937953 ], [ -72.645699378177952, -37.207478803210435 ], [ -72.645723309297125, -37.207772540002381 ], [ -72.64575085793193, -37.208110742816466 ], [ -72.645736630414461, -37.208570089134327 ], [ -72.645086284284758, -37.208782461981365 ], [ -72.644734168049567, -37.208604153310752 ], [ -72.644453731085861, -37.208427399618266 ], [ -72.643877876852756, -37.208533113044368 ], [ -72.64375074278216, -37.208677181037999 ], [ -72.643580816564693, -37.208869654034537 ], [ -72.643448463282311, -37.208867014020619 ], [ -72.643152263580319, -37.208861153761781 ], [ -72.642650054132531, -37.208909682787088 ], [ -72.642404505039508, -37.209156736037421 ], [ -72.64220666457291, -37.209355969494126 ], [ -72.642127588573402, -37.209584169332615 ], [ -72.641764818318933, -37.209748184007779 ], [ -72.641354254996429, -37.209691742721219 ], [ -72.641266199437354, -37.20967969251182 ], [ -72.640694017517134, -37.209668298362018 ], [ -72.640544018627608, -37.210052707236464 ], [ -72.640538762584882, -37.210066226899173 ], [ -72.64052974619436, -37.210354484820549 ], [ -72.640515636356213, -37.210809252305282 ], [ -72.640222644538085, -37.211033257472991 ], [ -72.639934423672429, -37.211086039047714 ], [ -72.63957334674231, -37.211191469731979 ], [ -72.638781904027539, -37.211346966612147 ], [ -72.638345456648423, -37.211567998306769 ], [ -72.637902520738024, -37.212018832962428 ], [ -72.63738188504712, -37.212634789375109 ], [ -72.636933596974259, -37.213256712281101 ], [ -72.636851054376066, -37.213597491016323 ], [ -72.636690432009999, -37.214166507847473 ], [ -72.636311359129778, -37.214848368902622 ], [ -72.635784194483392, -37.215693975159994 ], [ -72.635347716561569, -37.215915072812138 ], [ -72.635154116143099, -37.216159112113971 ], [ -72.63514342529291, -37.216501298481148 ], [ -72.634916267408698, -37.216897812454214 ], [ -72.634194341720516, -37.218063946616738 ], [ -72.635066237552138, -37.218670831581498 ], [ -72.635091502669496, -37.218693450481958 ], [ -72.635220780120335, -37.218766159409839 ], [ -72.63641421712812, -37.21962648154809 ], [ -72.637884890402262, -37.22091052978724 ], [ -72.639014453600083, -37.221955377722999 ], [ -72.639860989092909, -37.222762273512643 ], [ -72.64036045328919, -37.223515783389914 ], [ -72.640616121005579, -37.224636069585102 ], [ -72.641048855647611, -37.225667063644494 ], [ -72.64166165938498, -37.226515753810808 ], [ -72.642037856757966, -37.227499110673079 ], [ -72.642552021883901, -37.229646961382471 ], [ -72.642516116221969, -37.232666760697796 ], [ -72.641995134679689, -37.23763299665103 ], [ -72.644236401669176, -37.238646791998129 ], [ -72.64538782357279, -37.239136045044283 ], [ -72.646395541980425, -37.239564253906053 ], [ -72.649101184072876, -37.240492562070024 ], [ -72.651100826708785, -37.240678008358223 ], [ -72.652727052257518, -37.241147583171959 ], [ -72.655264272810612, -37.241635106510209 ], [ -72.657437096260281, -37.242115468188146 ], [ -72.662853525096807, -37.243825805660514 ], [ -72.664475400104607, -37.244440813662628 ], [ -72.667723700087151, -37.245525155374281 ], [ -72.66951885023181, -37.246435094427028 ], [ -72.671856255821297, -37.247501380881033 ], [ -72.674753783448324, -37.248141350881717 ], [ -72.677286897802261, -37.248774131115169 ], [ -72.681064373759114, -37.250451538572612 ], [ -72.683046462416058, -37.251219132062516 ], [ -72.684677612529185, -37.251542563850379 ], [ -72.686477618966265, -37.252306546004611 ], [ -72.688099755383803, -37.252921212365379 ], [ -72.690642159216097, -37.253262407484343 ], [ -72.692477817990166, -37.252860960082067 ], [ -72.693834549851985, -37.252617695958662 ], [ -72.694288045458535, -37.252536442092804 ], [ -72.694677837036735, -37.252466550798793 ], [ -72.696509033878812, -37.252210643499581 ], [ -72.699233579219765, -37.252555183917252 ], [ -72.701224881896607, -37.253031177931604 ], [ -72.704122909885228, -37.253670471742801 ], [ -72.705923143596081, -37.254434217813774 ], [ -72.707719013291282, -37.25534346154307 ], [ -72.709679438176849, -37.256838958862801 ], [ -72.710919902888065, -37.258029119409819 ], [ -72.711969290548453, -37.259506966559222 ], [ -72.713023097021733, -37.260839053557952 ], [ -72.713525791559775, -37.262306375221925 ], [ -72.714397410710276, -37.263635018930962 ], [ -72.715455794099938, -37.264821475331104 ], [ -72.716700763862306, -37.265865819057773 ], [ -72.71794585938882, -37.266910144012023 ], [ -72.719186530712562, -37.268100130406346 ], [ -72.721703170862483, -37.269314664761637 ], [ -72.724228698943847, -37.27023779176043 ], [ -72.72621189073196, -37.2710046746489 ], [ -72.727834819463595, -37.271618897482796 ], [ -72.728862280146217, -37.272277270129997 ], [ -72.730351710243482, -37.272833306453599 ], [ -72.732398217089482, -37.27346420869808 ], [ -72.733731278343555, -37.271214067978796 ], [ -72.734001292155028, -37.270170115828762 ], [ -72.73451262758779, -37.26903536592269 ], [ -72.734541202098669, -37.268082065160222 ], [ -72.73457549438632, -37.26693817739045 ], [ -72.734606931828012, -37.265889655588829 ], [ -72.73510689548759, -37.265136148893063 ], [ -72.735652560038943, -37.262857504915139 ], [ -72.735922522646433, -37.261813476944575 ], [ -72.735976706329424, -37.260002390891145 ], [ -72.737002137717823, -37.257637509908278 ], [ -72.737516211215578, -37.256407385412075 ], [ -72.737908202767898, -37.255270343864673 ], [ -72.73853584667377, -37.25423315643728 ], [ -72.740003837578456, -37.253021269732571 ], [ -72.741224816034546, -37.252090834198036 ], [ -72.742457158178951, -37.250779068051223 ], [ -72.742860445147656, -37.249260694837254 ], [ -72.742772483013354, -37.248209826758568 ], [ -72.742800877861171, -37.247256602776623 ], [ -72.742835062350991, -37.246112716937375 ], [ -72.743232628847977, -37.244785003449415 ], [ -72.743255320292064, -37.244022366685641 ], [ -72.743056717155781, -37.242683265824347 ], [ -72.743485504600457, -37.240306960852578 ], [ -72.743882945333283, -37.238979249497497 ], [ -72.744393954677619, -37.237844398713719 ], [ -72.745518134271933, -37.236149018927847 ], [ -72.745679912769759, -37.234721385959311 ], [ -72.745713971495434, -37.233577502975002 ], [ -72.745736741092955, -37.232814935908195 ], [ -72.746012089998899, -37.231580235630489 ], [ -72.746883487265507, -37.230356911882083 ], [ -72.747749259281846, -37.229324164472843 ], [ -72.74897252574695, -37.228298308818715 ], [ -72.750794715181655, -37.227188355560038 ], [ -72.753459804627227, -37.225808232751859 ], [ -72.756133206184131, -37.224142178815868 ], [ -72.757231443331364, -37.223304565758653 ], [ -72.759070363888227, -37.221622520394213 ], [ -72.759921639790818, -37.221066385763592 ], [ -72.761385836211758, -37.219949574631045 ], [ -72.762367622053745, -37.21901429133257 ], [ -72.764317010237733, -37.217620462006032 ], [ -72.765551140029572, -37.216212991074613 ], [ -72.766544023658597, -37.214896512056988 ], [ -72.767531413191335, -37.213770531095633 ], [ -72.768521409635042, -37.212549257145277 ], [ -72.769619337761824, -37.21171147099669 ], [ -72.770473329271525, -37.211059900811826 ], [ -72.771928825508923, -37.210228923405161 ], [ -72.772535872841956, -37.209858791350172 ], [ -72.773259428074056, -37.209586267014807 ], [ -72.774953137761884, -37.20875968414088 ], [ -72.776538904986836, -37.207549516071616 ], [ -72.77811900923227, -37.206529987391207 ], [ -72.780766122490689, -37.205721280956283 ], [ -72.782445832833133, -37.205371199700046 ], [ -72.783524641217397, -37.204731906957129 ], [ -72.783537902147614, -37.204724028694763 ], [ -72.784516507953526, -37.203883875372014 ], [ -72.785980000993575, -37.202766721156038 ], [ -72.786338636302773, -37.20265642396717 ], [ -72.78691905936742, -37.202477771686866 ], [ -72.788025473878676, -37.202137256843862 ], [ -72.789688309368501, -37.202359048914914 ], [ -72.790863393795021, -37.202953345647416 ], [ -72.791675339657829, -37.203731519897381 ], [ -72.793191302395343, -37.204904304825483 ], [ -72.794358087286966, -37.205784437132252 ], [ -72.797648072691928, -37.207467244886999 ], [ -72.799901435496707, -37.20789058959614 ], [ -72.802387637131545, -37.208509059473556 ], [ -72.804272548736037, -37.209307035097481 ], [ -72.806165724841108, -37.209819109374997 ], [ -72.808183596989082, -37.210142639383605 ], [ -72.809613904465948, -37.210169124924946 ], [ -72.811526382671531, -37.21001371290118 ], [ -72.813710261687405, -37.208718690879017 ], [ -72.814965372531006, -37.206548071686996 ], [ -72.81512581074243, -37.205120340547353 ], [ -72.815757513236761, -37.203892017025403 ], [ -72.816743818502957, -37.202765677228733 ], [ -72.818808279976523, -37.201468442934789 ], [ -72.822175304001959, -37.200481189829112 ], [ -72.823784986176406, -37.199969471492935 ], [ -72.82319920825438, -37.198006896540406 ], [ -72.822777648654466, -37.196560844874213 ], [ -72.822524452203439, -37.195130974854955 ], [ -72.82215738530698, -37.194144184144676 ], [ -72.822072095660658, -37.194135869698165 ], [ -72.821802298343172, -37.193909904459133 ], [ -72.821678398207595, -37.193507641524242 ], [ -72.821688241048165, -37.193165338006885 ], [ -72.821694825699197, -37.192935757504593 ], [ -72.822400432591934, -37.192329207986447 ], [ -72.82258009564876, -37.191846142614978 ], [ -72.822484774515644, -37.191313808209635 ], [ -72.822177614468856, -37.191056506129023 ], [ -72.821750758402047, -37.190990002839037 ], [ -72.821183509131046, -37.19080840464143 ], [ -72.821044028615219, -37.190693133573625 ], [ -72.820985359643998, -37.190232454019224 ], [ -72.820996866164478, -37.189831647124024 ], [ -72.821292471181749, -37.189494577552658 ], [ -72.821690185900763, -37.18940424079981 ], [ -72.822228620810705, -37.189281977250651 ], [ -72.822453031646759, -37.18894358916414 ], [ -72.823102863041839, -37.188725768134972 ], [ -72.823689593178074, -37.188222904250139 ], [ -72.823568180477537, -37.187477101605793 ], [ -72.823404918861172, -37.187385848548651 ], [ -72.822934778370708, -37.187122965987783 ], [ -72.822508959858055, -37.186997982106519 ], [ -72.822442706410882, -37.186979238299514 ], [ -72.822082907783397, -37.186877506672609 ], [ -72.821981437682183, -37.186855471517319 ], [ -72.821514765587025, -37.186754386680839 ], [ -72.821322063483848, -37.186565854980124 ], [ -72.821097049878219, -37.186345673272413 ], [ -72.820603413951503, -37.1861067862609 ], [ -72.820534345184257, -37.186087025270069 ], [ -72.819964554579315, -37.185923729954055 ], [ -72.819540913582898, -37.185744791169434 ], [ -72.819195039740634, -37.185337366951472 ], [ -72.819061976789172, -37.184992370518053 ], [ -72.818637695293958, -37.184813375135157 ], [ -72.818283720444455, -37.184689672793134 ], [ -72.817790012652509, -37.18445077624942 ], [ -72.817510074253789, -37.18422025675391 ], [ -72.817517261674368, -37.183971246785681 ], [ -72.817520084180984, -37.18387351967462 ], [ -72.817676686586154, -37.183421240822533 ], [ -72.817759301049577, -37.183021756167854 ], [ -72.817775755490644, -37.182449721879522 ], [ -72.818003588907942, -37.181994333349202 ], [ -72.81821514844556, -37.181424784817118 ], [ -72.818236344194688, -37.181367718291447 ], [ -72.818400546347164, -37.180627228723779 ], [ -72.819000523938897, -37.179665001923574 ], [ -72.818896465791326, -37.17924563728242 ], [ -72.818872493349659, -37.179148848108461 ], [ -72.818847518388139, -37.179125447943044 ], [ -72.818315295328389, -37.178624922151428 ], [ -72.817533603826035, -37.17843930182638 ], [ -72.816461352245014, -37.178419503758242 ], [ -72.815677131086801, -37.178346495429409 ], [ -72.815033320200783, -37.178334637760457 ], [ -72.814536428779462, -37.178212800766296 ], [ -72.813829897520307, -37.177911376379271 ], [ -72.81326276053872, -37.177729658695782 ], [ -72.812777425943537, -37.177206931799468 ], [ -72.81257435189211, -37.176802190700542 ], [ -72.812451369834761, -37.176110444122543 ], [ -72.812323400330953, -37.175594427784006 ], [ -72.812261469576967, -37.175250746096324 ], [ -72.812130221222361, -37.174847305814232 ], [ -72.812281254072772, -37.174566207493449 ], [ -72.812713740779785, -37.174457070181425 ], [ -72.812728572863449, -37.173943610775957 ], [ -72.812374567471238, -37.173819890632828 ], [ -72.81209645085589, -37.173530922719543 ], [ -72.812089148450937, -37.173490272515508 ], [ -72.812035263008624, -37.173187289624167 ], [ -72.811830533362127, -37.172840975755179 ], [ -72.811255305254775, -37.172943046246068 ], [ -72.810815331089856, -37.173335958155164 ], [ -72.810448098903393, -37.173671618167077 ], [ -72.809942180311808, -37.173833516278549 ], [ -72.809295806532262, -37.173938680469931 ], [ -72.808933524063008, -37.17410333090065 ], [ -72.80835332288224, -37.174376467915678 ], [ -72.808223231557747, -37.174450617450994 ], [ -72.808062754718762, -37.17454227551837 ], [ -72.807844793786444, -37.174655413890683 ], [ -72.807054916835213, -37.174753449974212 ], [ -72.806559638788144, -37.174573077511411 ], [ -72.806425220278925, -37.174282129055953 ], [ -72.806448024012397, -37.174111878034026 ], [ -72.806516782860882, -37.173598898006112 ], [ -72.80660077623827, -37.173051404817777 ], [ -72.806604316498778, -37.173028265458854 ], [ -72.806546587165386, -37.172567546155513 ], [ -72.806338546328732, -37.172338374031511 ], [ -72.805992716503908, -37.171930906849624 ], [ -72.805504182109686, -37.171520794718894 ], [ -72.805088307947216, -37.171053437114288 ], [ -72.804742494292071, -37.170646038879575 ], [ -72.804466823789255, -37.170298449231481 ], [ -72.804117668401275, -37.170008054823739 ], [ -72.803419422303961, -37.16942283313697 ], [ -72.802656201062149, -37.168606633900538 ], [ -72.80168906584413, -37.167444070064818 ], [ -72.80126826801559, -37.167147850584918 ], [ -72.800352117579806, -37.166675732729765 ], [ -72.799839592777616, -37.166481050420145 ], [ -72.799715882186561, -37.166434101212069 ], [ -72.799358487450775, -37.166427422302725 ], [ -72.797998498297758, -37.166460822570194 ], [ -72.797682171841799, -37.166614884674161 ], [ -72.79698327446593, -37.166955612681136 ], [ -72.796554158237853, -37.166947610930499 ], [ -72.796078183189621, -37.166434915136954 ], [ -72.796068919762391, -37.166424880308263 ], [ -72.795505357177348, -37.166125986690808 ], [ -72.795393986743363, -37.166106237653594 ], [ -72.794793880692538, -37.166000098301872 ], [ -72.79428880382234, -37.166161975625521 ], [ -72.793775420230745, -37.166607436240575 ] ] ] } },
{ "type": "Feature", "properties": { "capa": "colegios", "popup": "<strong>ESCUELA ESPECIAL DE LENGUAJE RAYEN</strong><br><br><strong>Dirección:</strong> EJERCITO 402", "etiqueta": "" }, "geometry": { "type": "Point", "coordinates": [ -72.72205, -37.262547 ] } },
{ "type": "Feature", "properties": { "capa": "colegios", "popup": "<strong>LICEO ISIDORA AGUIRRE TUPPER</strong><br><br><strong>Dirección:</strong> VALLEJOS 550", "etiqueta": "" }, "geometry": { "type": "Point", "coordinates": [ -72.722427, -37.261749 ] } },
{ "type": "Feature", "properties": { "capa": "colegios", "popup": "<strong>ESCUELA BASICA TURQUIA</strong><br><br><strong>Dirección:</strong> ESTACION TURQUIA 0", "etiqueta": "" }, "geometry": { "type": "Point", "coordinates": [ -72.659416, -37.230721 ] } },
{ "type": "Feature", "properties": { "capa": "colegios", "popup": "<strong>ESCUELA BASICA LOS CALLEJONES</strong><br><br><strong>Dirección:</strong> KILOMETRO 5 LOS CALLEJONES 0", "etiqueta": "" }, "geometry": { "type": "Point", "coordinates": [ -72.668533, -37.21291 ] } },
{ "type": "Feature", "properties": { "capa": "jardines", "popup": "<strong>PRESIDENTA MICHELLE BACHELET</strong><br><br><strong>Dirección:</strong> 25 DE OCTUBRE S/N ", "etiqueta": "" }, "geometry": { "type": "MultiPoint", "coordinates": [ [ -72.72667, -37.265847 ] ] } },
{ "type": "Feature", "properties": { "capa": "jardines", "popup": "<strong>NA</strong><br><br><strong>Dirección:</strong> NA ", "etiqueta": "" }, "geometry": { "type": "MultiPoint", "coordinates": [ [ -72.727171999971617, -37.263484000091914 ] ] } },
{ "type": "Feature", "properties": { "capa": "bomberos", "popup": "<strong>Cuerpo de Bomberos</strong><br><br><strong>Dirección:</strong> Pedro Montt 362", "etiqueta": "" }, "geometry": { "type": "Point", "coordinates": [ -72.722018658060833, -37.264868183005056 ] } },
{ "type": "Feature", "properties": { "capa": "comisarias", "popup": "<strong>RETEN SAN ROSENDO</strong><br><br><strong>Dirección:</strong> ALMIRANTE LATORRE 355", "etiqueta": "" }, "geometry": { "type": "Point", "coordinates": [ -72.722711718635054, -37.263454843818046 ] } },
{ "type": "Feature", "properties": { "capa": "salud", "popup": "<strong>Centro de Salud Familiar Dr. Carlos Echeverría Véjar</strong><br><br><strong>Tipo de atención:</strong> Centro de Salud Familiar (CESFAM)<br><strong>Dirección:</strong>  95", "etiqueta": "" }, "geometry": { "type": "Point", "coordinates": [ -72.7268, -37.2625 ] } },
{ "type": "Feature", "properties": { "capa": "salud", "popup": "<strong>SUR San Rosendo</strong><br><br><strong>Tipo de atención:</strong> Servicio de Urgencia Rural (SUR)<br><strong>Dirección:</strong>  95", "etiqueta": "" }, "geometry": { "type": "Point", "coordinates": [ -72.726798, -37.262497 ] } },
{ "type": "Feature", "properties": { "capa": "salud", "popup": "<strong>Posta de Salud Rural Turquía</strong><br><br><strong>Tipo de atención:</strong> Posta de Salud Rural (PSR)<br><strong>Dirección:</strong>  NA", "etiqueta": "" }, "geometry": { "type": "Point", "coordinates": [ -72.65276, -37.229404 ] } }
]
}
