{
"type": "FeatureCollection",
"name": "9113",
"crs": { "type": "name", "properties": { "name": "urn:ogc:def:crs:OGC:1.3:CRS84" } },
"features": [
{ "type": "Feature", "properties": { "capa": "comuna", "popup": "", "etiqueta": "" }, "geometry": { "type": "Polygon", "coordinates": [ [ [ -72.393130152432818, -38.351568600739448 ], [ -72.392407162241, -38.351643638582907 ], [ -72.391603864459441, -38.35155428439262 ], [ -72.391104119090471, -38.351739969769305 ], [ -72.390461846120203, -38.351988299792602 ], [ -72.389873506202974, -38.35183411555348 ], [ -72.389220520822946, -38.351853013029412 ], [ -72.388725917410667, -38.352151082459351 ], [ -72.388363159732606, -38.352161650910794 ], [ -72.387914736014153, -38.351890791059262 ], [ -72.387573617852979, -38.351967446739536 ], [ -72.387339621094526, -38.35202004325501 ], [ -72.387308121669079, -38.352104199995495 ], [ -72.387210405627428, -38.352366135560025 ], [ -72.387091979825215, -38.35294157892676 ], [ -72.386234801092897, -38.353254624194136 ], [ -72.385957873847005, -38.353546389314019 ], [ -72.385546592770581, -38.354076276343427 ], [ -72.385121863016039, -38.354313788593075 ], [ -72.384998085949675, -38.354776840843506 ], [ -72.384353129711656, -38.354966619219006 ], [ -72.383345395134356, -38.355166949612183 ], [ -72.382676450284976, -38.354843916561812 ], [ -72.38209887937137, -38.35491911937298 ], [ -72.381306120624728, -38.355054700499757 ], [ -72.380505209666865, -38.355019223418168 ], [ -72.379717887524293, -38.355271682889246 ], [ -72.378796154957357, -38.355757678787796 ], [ -72.37795732072145, -38.356466587166402 ], [ -72.377390214282599, -38.356771202138177 ], [ -72.376884856239712, -38.356839796155811 ], [ -72.376586659582841, -38.356677251559098 ], [ -72.376283421580595, -38.356402234861903 ], [ -72.375622442092862, -38.356250145837684 ], [ -72.374671306768334, -38.356106340603851 ], [ -72.373222762592917, -38.356202090333909 ], [ -72.371992040110953, -38.356296127469932 ], [ -72.371682350408321, -38.356321796161907 ], [ -72.370906482683964, -38.356385899170277 ], [ -72.370476665769971, -38.356704980559847 ], [ -72.37034465744064, -38.356802947730365 ], [ -72.369578171721116, -38.357509713603044 ], [ -72.369309392194836, -38.357976848619664 ], [ -72.368967674857387, -38.358441653961407 ], [ -72.368387064943178, -38.358458353368214 ], [ -72.367567945134496, -38.358026933766361 ], [ -72.367259882280848, -38.357711959309704 ], [ -72.36718667946667, -38.357637090474924 ], [ -72.366525699978936, -38.357484877249505 ], [ -72.365953208139928, -38.357672545845737 ], [ -72.365748173964548, -38.357788621506913 ], [ -72.365316184025886, -38.358033134708336 ], [ -72.364450620418708, -38.358170621070904 ], [ -72.36444882827972, -38.35817037734472 ], [ -72.363719902918831, -38.358078991231736 ], [ -72.363305718487396, -38.358550289144425 ], [ -72.363317805319554, -38.358596730702367 ], [ -72.363394190864781, -38.358890105695522 ], [ -72.362762167671917, -38.35936322976638 ], [ -72.361904798496766, -38.359676104277462 ], [ -72.361044902360717, -38.359930523335215 ], [ -72.360531498107861, -38.359828135388412 ], [ -72.360150255796228, -38.35943819402312 ], [ -72.359774335104319, -38.359165218602591 ], [ -72.359121166468, -38.359183879599684 ], [ -72.358408755735283, -38.359488145027612 ], [ -72.357618685646287, -38.359681938792129 ], [ -72.357040950340959, -38.359757097836393 ], [ -72.356299618347677, -38.359435987142099 ], [ -72.355119957004788, -38.359068831785208 ], [ -72.354993622434804, -38.35897776590096 ], [ -72.354969772164011, -38.358960589028513 ], [ -72.354941451876371, -38.35897652967347 ], [ -72.354332584556587, -38.359321123576599 ], [ -72.353628047557351, -38.359796350267835 ], [ -72.352913013744015, -38.36004648760408 ], [ -72.352037106036335, -38.359958941395654 ], [ -72.351225741383502, -38.359693898031203 ], [ -72.350658120209971, -38.359710138587381 ], [ -72.350572658985442, -38.359712583545871 ], [ -72.350516133394507, -38.359736783065848 ], [ -72.35014509774112, -38.359896029863911 ], [ -72.350179549928896, -38.360642712039784 ], [ -72.349939191301573, -38.360725231626382 ], [ -72.358061644912866, -38.383152521238692 ], [ -72.327593280605498, -38.390250596120168 ], [ -72.327700785588803, -38.390259792353326 ], [ -72.326557516794708, -38.390545116505848 ], [ -72.312340267966846, -38.394091756915756 ], [ -72.302105335235098, -38.396547403740946 ], [ -72.29279512466357, -38.398604648590748 ], [ -72.28650942487269, -38.400123757854153 ], [ -72.278809008765037, -38.401983191380928 ], [ -72.271860703535765, -38.403426273387467 ], [ -72.271827353580846, -38.403395913951798 ], [ -72.271501504982893, -38.403278819588245 ], [ -72.271159615168898, -38.403288371782033 ], [ -72.271050062026745, -38.403281912136649 ], [ -72.270776429801316, -38.403089407962554 ], [ -72.27037287513464, -38.402740311478155 ], [ -72.270184293603677, -38.402466316022846 ], [ -72.269994792197863, -38.402169836437594 ], [ -72.269859145691655, -38.401948679236732 ], [ -72.26984255380836, -38.401921836290079 ], [ -72.269940701041364, -38.401752379135438 ], [ -72.269992706309779, -38.401445685955565 ], [ -72.270013592140131, -38.40132237148908 ], [ -72.270113082354484, -38.401270072687772 ], [ -72.270040589209373, -38.401164052906871 ], [ -72.269656027622773, -38.40091346283134 ], [ -72.269528417445059, -38.400862119056001 ], [ -72.269237847484959, -38.40074499172399 ], [ -72.268928974350942, -38.400519371035791 ], [ -72.268473722537976, -38.40035643456482 ], [ -72.268195627482214, -38.399981317570628 ], [ -72.26814606293641, -38.399778419111172 ], [ -72.268103944526004, -38.399605498846306 ], [ -72.267864892947443, -38.399540952579855 ], [ -72.267801662331209, -38.399523824760344 ], [ -72.267439413997948, -38.399601535283104 ], [ -72.267321099586823, -38.399627346312514 ], [ -72.266989445177174, -38.399722209844754 ], [ -72.26672219817678, -38.399585532482504 ], [ -72.266823193967554, -38.399343894761301 ], [ -72.266921952054943, -38.399048444308789 ], [ -72.266653005442038, -38.398880227932338 ], [ -72.266317501751388, -38.398889587807382 ], [ -72.266011376563824, -38.398722479886885 ], [ -72.265892857336823, -38.39857715036991 ], [ -72.265991520202775, -38.398281630605879 ], [ -72.266128579758941, -38.398011976153761 ], [ -72.26632448345778, -38.397389386774108 ], [ -72.266154396441877, -38.396925716561931 ], [ -72.266128054244504, -38.39634084027103 ], [ -72.26606367558135, -38.39624817031568 ], [ -72.266008323190164, -38.396168532747936 ], [ -72.265820428870398, -38.396142260040591 ], [ -72.265456131479979, -38.396340760714573 ], [ -72.265419795525048, -38.396360594207088 ], [ -72.265135961132927, -38.396688288534463 ], [ -72.264852236335287, -38.397020555478022 ], [ -72.26448755266928, -38.397206444546178 ], [ -72.264211199446834, -38.397063004420737 ], [ -72.263952319354999, -38.396928522136363 ], [ -72.263450601285669, -38.396559626533815 ], [ -72.262875657045967, -38.39622428222274 ], [ -72.262410015318423, -38.395827438804254 ], [ -72.261643049000199, -38.395375814708096 ], [ -72.26104019500292, -38.394919909963299 ], [ -72.261016514513713, -38.394902119238736 ], [ -72.260522683652582, -38.394528635517716 ], [ -72.259953026896611, -38.394310251463303 ], [ -72.259349846810892, -38.394178407101776 ], [ -72.258979808287478, -38.394247231095264 ], [ -72.258586860029382, -38.394641048001809 ], [ -72.258219448179844, -38.394768394722185 ], [ -72.25762969611101, -38.394933439049893 ], [ -72.257027818582429, -38.394828557584219 ], [ -72.256422399895015, -38.394642663810295 ], [ -72.256270402254003, -38.394519731307135 ], [ -72.256035002327053, -38.394329154746778 ], [ -72.256092480132182, -38.393944675534804 ], [ -72.256310787814229, -38.39372118665402 ], [ -72.256413622456378, -38.393615964070065 ], [ -72.256649410455523, -38.393050878507523 ], [ -72.256761542660854, -38.392223400387344 ], [ -72.25659930961551, -38.391935068680382 ], [ -72.256366371072431, -38.391734387331297 ], [ -72.256140185165364, -38.391600528108476 ], [ -72.255944635402741, -38.391484858016732 ], [ -72.255930406088623, -38.391472854745189 ], [ -72.255770899430161, -38.3913391337436 ], [ -72.255764490848918, -38.391196358607921 ], [ -72.255590587789698, -38.391080307660701 ], [ -72.255399058886283, -38.390968509945672 ], [ -72.255172789435889, -38.390916274767548 ], [ -72.255109759143977, -38.390934706492523 ], [ -72.254951766146746, -38.390980944205047 ], [ -72.2546428858262, -38.390755283891792 ], [ -72.254302262636784, -38.390647628568665 ], [ -72.253965287505707, -38.390625479852581 ], [ -72.253735184943991, -38.390487739005792 ], [ -72.253470769433378, -38.390348074301428 ], [ -72.253467790619894, -38.390346459101053 ], [ -72.25345660389965, -38.390343744803964 ], [ -72.25293930994161, -38.390217007785743 ], [ -72.252490612236983, -38.390198032313215 ], [ -72.252044730750754, -38.390241855437779 ], [ -72.251625533720059, -38.390046336081056 ], [ -72.251178240980522, -38.390058681782307 ], [ -72.250689648195802, -38.38998220866992 ], [ -72.250228158481534, -38.389711179129485 ], [ -72.249962028985337, -38.389461884341941 ], [ -72.249617797263411, -38.38909755904421 ], [ -72.249090300240383, -38.388711307925014 ], [ -72.249026592618748, -38.388664365351218 ], [ -72.248713471351735, -38.388433419752396 ], [ -72.248396812519132, -38.388305597861503 ], [ -72.248379431915026, -38.388298552459617 ], [ -72.247969095866281, -38.388084767207353 ], [ -72.247594894549849, -38.387865401860829 ], [ -72.247361178964056, -38.387525016529302 ], [ -72.247092167672434, -38.387217195536088 ], [ -72.246605048124792, -38.386915422424266 ], [ -72.24612230606752, -38.386887402221099 ], [ -72.24594671417556, -38.386862970966618 ], [ -72.24550692686023, -38.386801653741308 ], [ -72.245192111370585, -38.386907574881405 ], [ -72.24504015415377, -38.386958723664776 ], [ -72.244596090857669, -38.386952725878388 ], [ -72.244383959093241, -38.386949894568154 ], [ -72.244156500273405, -38.386939812117326 ], [ -72.243945860610637, -38.386930518996046 ], [ -72.243537860181618, -38.386770600090777 ], [ -72.243169002044496, -38.386668195193472 ], [ -72.242540005275828, -38.386455943658262 ], [ -72.24243795935449, -38.386331535448825 ], [ -72.242308836413869, -38.386174002248438 ], [ -72.242178022843888, -38.385691197555182 ], [ -72.242273047532947, -38.385373212856486 ], [ -72.242459373394226, -38.384651883265988 ], [ -72.24232594393014, -38.384110479629726 ], [ -72.241977958148638, -38.383660699084622 ], [ -72.241388029111675, -38.383505883774973 ], [ -72.240363841889931, -38.383417104783838 ], [ -72.239780535233237, -38.383406231766955 ], [ -72.239269505227654, -38.383388781138343 ], [ -72.238903281849261, -38.3833448883736 ], [ -72.238666850656386, -38.38324485730196 ], [ -72.238643342643698, -38.383234954601399 ], [ -72.23863733201614, -38.383226337708685 ], [ -72.238409795042884, -38.382899121063758 ], [ -72.238250209332662, -38.382588105969141 ], [ -72.238244301113042, -38.382581774746285 ], [ -72.238020291823901, -38.382337707126723 ], [ -72.23777650702209, -38.382179943411799 ], [ -72.237720117975073, -38.38214334801134 ], [ -72.237021110106426, -38.381991451093455 ], [ -72.236693881696183, -38.382073263989888 ], [ -72.236372488742035, -38.382153512815407 ], [ -72.235916040373127, -38.382535578139226 ], [ -72.235641550256602, -38.382917041492028 ], [ -72.235389743499312, -38.383163853411027 ], [ -72.23518761537386, -38.38336198692992 ], [ -72.235094752031372, -38.383428390439853 ], [ -72.234966944224325, -38.383554358436925 ], [ -72.253208633846953, -38.430237573508002 ], [ -72.253796558742522, -38.432053268293195 ], [ -72.259228141259555, -38.431004376763497 ], [ -72.259301254242231, -38.4313614559711 ], [ -72.25949234836105, -38.431804992119694 ], [ -72.259520601275057, -38.432432767441561 ], [ -72.25948187669978, -38.432837757660103 ], [ -72.258887064420918, -38.433572622274156 ], [ -72.258687315034337, -38.43420667163533 ], [ -72.258446720150118, -38.435200897807512 ], [ -72.258648008350775, -38.435868727285325 ], [ -72.258890129472661, -38.436176156738007 ], [ -72.256430401189235, -38.437322030517393 ], [ -72.262260042480051, -38.45143482866235 ], [ -72.262289021232803, -38.451496825507455 ], [ -72.262331462138405, -38.451503539026888 ], [ -72.262634395611784, -38.451551109109467 ], [ -72.26361402370047, -38.451539221340404 ], [ -72.264668034091329, -38.451432777952164 ], [ -72.265367333912451, -38.451289875319674 ], [ -72.265956505669649, -38.45109616663148 ], [ -72.26628040402511, -38.450886685479958 ], [ -72.266697291487233, -38.450566712464806 ], [ -72.266997328792115, -38.450265348793067 ], [ -72.267868087356575, -38.44957816357833 ], [ -72.268287831461294, -38.449319727593029 ], [ -72.268825619584234, -38.449073492631939 ], [ -72.269306814742578, -38.448875034107608 ], [ -72.26990335987162, -38.448627078201817 ], [ -72.271547399012434, -38.448134052548184 ], [ -72.272206968145184, -38.447976869335733 ], [ -72.272904828865222, -38.447803187816071 ], [ -72.273508313479851, -38.447709189446456 ], [ -72.273955092383019, -38.447619644361524 ], [ -72.275422284685447, -38.44754774677795 ], [ -72.275814472070493, -38.447552194560956 ], [ -72.276109602777296, -38.447574783131316 ], [ -72.276507459430121, -38.447702390445805 ], [ -72.276830450487154, -38.44790921443623 ], [ -72.277054895459216, -38.448103372796176 ], [ -72.277172595422684, -38.448199117527707 ], [ -72.277238162556955, -38.448252336349974 ], [ -72.277460422826223, -38.448400282288738 ], [ -72.277821295838791, -38.448575193549743 ], [ -72.278006310159768, -38.448636284594713 ], [ -72.278338697594691, -38.448745793865683 ], [ -72.278515495025758, -38.448828516849318 ], [ -72.278657114430274, -38.448894954488125 ], [ -72.278959618508964, -38.44903666375879 ], [ -72.279394665414529, -38.449116947287081 ], [ -72.279570782820926, -38.449112085927673 ], [ -72.279903700261855, -38.449102757182068 ], [ -72.280119783715236, -38.449112125325101 ], [ -72.280337867716767, -38.449167711538315 ], [ -72.280495972105086, -38.449194054313203 ], [ -72.280694557275055, -38.449250111120783 ], [ -72.280850980017163, -38.44929318013871 ], [ -72.281069086476563, -38.449287140389231 ], [ -72.281352779833171, -38.449353282829691 ], [ -72.282117297343945, -38.449701954274609 ], [ -72.282463967991873, -38.449751641730167 ], [ -72.282808178154227, -38.449800880306697 ], [ -72.283061018872417, -38.449875705797233 ], [ -72.283779261467942, -38.449892973640054 ], [ -72.284469866495442, -38.449987764139074 ], [ -72.285197572842492, -38.450213464615381 ], [ -72.285198724482669, -38.450214023205945 ], [ -72.28548430969127, -38.450344455383764 ], [ -72.285836439401194, -38.450384016033475 ], [ -72.285902751238837, -38.450391453571086 ], [ -72.287217794084938, -38.450735557037596 ], [ -72.287654245955636, -38.450993036810857 ], [ -72.288374473827915, -38.451320180860009 ], [ -72.289221584242526, -38.451853642253859 ], [ -72.289510704321771, -38.452061529992548 ], [ -72.289788762546621, -38.452261387445844 ], [ -72.290134084823293, -38.452470941287061 ], [ -72.290331549794104, -38.452590776213363 ], [ -72.290600726375743, -38.452764460983296 ], [ -72.290606049792117, -38.452768001646639 ], [ -72.290944469414143, -38.452968078741712 ], [ -72.291206212436791, -38.453207284554033 ], [ -72.291424358422077, -38.45352173759369 ], [ -72.291551509560662, -38.453989744540472 ], [ -72.291671444532554, -38.454214487731264 ], [ -72.291875403424555, -38.454732732062425 ], [ -72.292050360207611, -38.454962052517168 ], [ -72.292191117229478, -38.455124512693743 ], [ -72.292393000114842, -38.455254551199502 ], [ -72.292600789423204, -38.455341103417055 ], [ -72.292761620198419, -38.455429050499234 ], [ -72.293109457757907, -38.455493285145671 ], [ -72.293683848635411, -38.455538744320442 ], [ -72.29416347982685, -38.455568417773932 ], [ -72.29444814426229, -38.455622101777102 ], [ -72.29484941451318, -38.455653979141175 ], [ -72.295265623747255, -38.455700636208839 ], [ -72.29577294191408, -38.455812696056356 ], [ -72.296140475934465, -38.455944558093471 ], [ -72.296505852201534, -38.456029026544655 ], [ -72.296851885045641, -38.456129758117456 ], [ -72.297484598144635, -38.456348904287708 ], [ -72.2982042654682, -38.456573050636401 ], [ -72.298859580179766, -38.456777235179224 ], [ -72.299297912224347, -38.456913659431969 ], [ -72.299479459048314, -38.456934888822204 ], [ -72.299800272589081, -38.456972263057402 ], [ -72.299843115041625, -38.456977327887358 ], [ -72.300282977815428, -38.456933265261881 ], [ -72.30060033374069, -38.45684542271708 ], [ -72.301091741845511, -38.456610458121325 ], [ -72.301442108162519, -38.456363677538448 ], [ -72.301451830628849, -38.456352554514091 ], [ -72.301671206407747, -38.456104449142757 ], [ -72.302168989856128, -38.455569230272879 ], [ -72.302597421567953, -38.455272863104405 ], [ -72.30355150156997, -38.454614208447445 ], [ -72.303611232349851, -38.45458425673008 ], [ -72.303885297563241, -38.454446853762015 ], [ -72.304246445460294, -38.45443665832348 ], [ -72.304488494716949, -38.454461410732534 ], [ -72.304714181160733, -38.454565590100536 ], [ -72.304940682376483, -38.454685539730946 ], [ -72.305512356748551, -38.455047544960244 ], [ -72.305958516712522, -38.455297743960671 ], [ -72.306155780460713, -38.455408332787577 ], [ -72.308515968224114, -38.456996152872271 ], [ -72.309880466021554, -38.458258512329074 ], [ -72.310431327326825, -38.4589213732852 ], [ -72.310881186553118, -38.459462808770184 ], [ -72.311313375917777, -38.460436250748359 ], [ -72.311327077920808, -38.46046700685266 ], [ -72.311539887014987, -38.461308353273907 ], [ -72.31160405098079, -38.462369697009322 ], [ -72.311754371467174, -38.463520998646082 ], [ -72.311783535272852, -38.463612644699182 ], [ -72.312250141791012, -38.46412326863409 ], [ -72.314373863327233, -38.464910581652916 ], [ -72.31544334540223, -38.465131205654139 ], [ -72.316146858322043, -38.465276287334667 ], [ -72.316889729129386, -38.46605647609362 ], [ -72.317030425065823, -38.466273223197426 ], [ -72.317360169657164, -38.466780546450558 ], [ -72.318098586617353, -38.467917305715915 ], [ -72.319879573923231, -38.470224095879928 ], [ -72.31992770385952, -38.472000561015768 ], [ -72.320069970051065, -38.472388031586853 ], [ -72.320202783270872, -38.472845583338994 ], [ -72.320555808601114, -38.473231057651603 ], [ -72.32089432074963, -38.473457831065076 ], [ -72.321247757508274, -38.47369473248434 ], [ -72.322047347044347, -38.474067453163855 ], [ -72.32276294410137, -38.474287425341508 ], [ -72.322897684207462, -38.474328837958083 ], [ -72.323684178103335, -38.474416314603936 ], [ -72.324552390842285, -38.47441895611793 ], [ -72.324605818143809, -38.474419209298198 ], [ -72.324663215998882, -38.474440456744212 ], [ -72.324796173847446, -38.474490035734874 ], [ -72.325263330134561, -38.474663990580567 ], [ -72.325836675373068, -38.475001416029301 ], [ -72.325892830858109, -38.475034431866206 ], [ -72.326270881455542, -38.475256892077006 ], [ -72.326302358423078, -38.475300350652049 ], [ -72.326834112562267, -38.476035403875223 ], [ -72.326866873222357, -38.476114914009536 ], [ -72.326971856634671, -38.476370521137191 ], [ -72.326985627807971, -38.476447398604691 ], [ -72.327032061725006, -38.476707770520598 ], [ -72.327258879147735, -38.476977108682277 ], [ -72.327314893597261, -38.47699677024147 ], [ -72.327627879218682, -38.477106612701398 ], [ -72.328048120091736, -38.477254066967198 ], [ -72.328998815241761, -38.477471300113905 ], [ -72.329532144127626, -38.477538262720515 ], [ -72.330970294795208, -38.477719024667962 ], [ -72.332265813656917, -38.477760586511174 ], [ -72.332914558988804, -38.477856719454998 ], [ -72.332936771630841, -38.477859998686085 ], [ -72.335033249061141, -38.478559951820323 ], [ -72.335042117229634, -38.47856294620798 ], [ -72.335245976408643, -38.478630935230399 ], [ -72.336254253568356, -38.478884619231742 ], [ -72.336316850872294, -38.478900398414908 ], [ -72.336510131490527, -38.478960863920335 ], [ -72.337868059009978, -38.479385740577001 ], [ -72.338575094224026, -38.479536045992091 ], [ -72.339491196150774, -38.479730709238424 ], [ -72.340433806463238, -38.479769483739339 ], [ -72.341264282773722, -38.479925324843009 ], [ -72.341705257661872, -38.48013649097345 ], [ -72.342210561805814, -38.480492233580684 ], [ -72.342272571611545, -38.480535848630332 ], [ -72.342836436928877, -38.480860471278298 ], [ -72.343066456845577, -38.48096806670609 ], [ -72.344238738528418, -38.481516471435825 ], [ -72.34476351814773, -38.481842127599585 ], [ -72.3460075294077, -38.482464993189033 ], [ -72.346628086504268, -38.48263845835131 ], [ -72.346643021894181, -38.482642681056916 ], [ -72.34670899327034, -38.482654151625802 ], [ -72.347039617312348, -38.482711851119213 ], [ -72.347196360753017, -38.48273917455888 ], [ -72.347420912624571, -38.482732455508319 ], [ -72.348527341508898, -38.482699024091161 ], [ -72.348955673507717, -38.48263650838242 ], [ -72.350194807813992, -38.482304215475914 ], [ -72.350307434991066, -38.482309477532901 ], [ -72.350762380478486, -38.482330987057104 ], [ -72.350784117911729, -38.482332062251857 ], [ -72.350790080030279, -38.482333072048888 ], [ -72.351693288437758, -38.482495242033004 ], [ -72.352326021299689, -38.482692091264752 ], [ -72.394063593641178, -38.472997795653328 ], [ -72.423308918757201, -38.465882238831007 ], [ -72.423390926857806, -38.466551915576197 ], [ -72.423687309816117, -38.467171632152557 ], [ -72.423811493819315, -38.467431382750618 ], [ -72.423937080990967, -38.467472871749635 ], [ -72.424812490133661, -38.467762443732319 ], [ -72.425283950249295, -38.467846941952239 ], [ -72.425294741710786, -38.467848840273831 ], [ -72.426800013598111, -38.468118628610796 ], [ -72.427853985361381, -38.467970639408371 ], [ -72.428308051398176, -38.467957410259331 ], [ -72.429053766271707, -38.467696750022142 ], [ -72.429502374144803, -38.46756648566469 ], [ -72.430467301303878, -38.467453185789488 ], [ -72.430797230948173, -38.467704239932452 ], [ -72.430822620931366, -38.468239487629091 ], [ -72.430612565173533, -38.468606000035734 ], [ -72.430326831742903, -38.468970155122008 ], [ -72.430489530115594, -38.469204195372448 ], [ -72.430800742462608, -38.469375136552202 ], [ -72.431184811772454, -38.469481065358245 ], [ -72.431277225058992, -38.469834207611704 ], [ -72.43122151873159, -38.470254715586421 ], [ -72.43101432590457, -38.470679666762742 ], [ -72.430876924090285, -38.470980952190345 ], [ -72.430972204799204, -38.471392532719534 ], [ -72.431597627171371, -38.471793140763097 ], [ -72.431544693943266, -38.472272089255092 ], [ -72.431642975025227, -38.472746751500559 ], [ -72.431968297210432, -38.473214605585333 ], [ -72.43222583971081, -38.473377745523436 ], [ -72.43259343032507, -38.473610641286839 ], [ -72.43314868439208, -38.474130342010639 ], [ -72.433371665110229, -38.474265342353803 ], [ -72.433616882724891, -38.474413933302927 ], [ -72.433858124396139, -38.474704110360108 ], [ -72.433923240576135, -38.475049342647559 ], [ -72.433959503767525, -38.475241627593547 ], [ -72.434133242435053, -38.475709497135867 ], [ -72.434590438202278, -38.475759173710976 ], [ -72.435126037130871, -38.475860566928674 ], [ -72.435731450428392, -38.475842716669192 ], [ -72.43612411032727, -38.476128516500481 ], [ -72.436449480123187, -38.476596429515077 ], [ -72.43683081136804, -38.476643750975455 ], [ -72.437425085556043, -38.476387558298299 ], [ -72.437867955889431, -38.476135812138004 ], [ -72.437910103045922, -38.476117968979281 ], [ -72.438462154618932, -38.4758841178434 ], [ -72.439062076515143, -38.475744941727704 ], [ -72.43983032293265, -38.475961019740538 ], [ -72.440041881571943, -38.476264009603938 ], [ -72.440237027991017, -38.47654364722748 ], [ -72.440632796060783, -38.476892361660717 ], [ -72.441479407012096, -38.47716479273695 ], [ -72.442314888735353, -38.476919413037265 ], [ -72.443084770086671, -38.476300034112747 ], [ -72.443105205861073, -38.476283640414159 ], [ -72.444077906142297, -38.476016277940147 ], [ -72.4451545432985, -38.476340431472707 ], [ -72.445709812636878, -38.476860069620436 ], [ -72.445654092834744, -38.477280584440848 ], [ -72.445500568057739, -38.477667966156901 ], [ -72.445823984916217, -38.478022557782211 ], [ -72.446007920360543, -38.478342143187483 ], [ -72.446187721757909, -38.478931432158042 ], [ -72.446220669267589, -38.479146023128799 ], [ -72.446230451022714, -38.479209422311072 ], [ -72.446422713849714, -38.47941408144451 ], [ -72.44652697860981, -38.47936208250875 ], [ -72.446955928649544, -38.479147536484831 ], [ -72.448568288701864, -38.479577416916122 ], [ -72.450180765535166, -38.480007346119109 ], [ -72.450640162174849, -38.479935202337266 ], [ -72.4507340397153, -38.479990143149394 ], [ -72.451021833881185, -38.480158250790055 ], [ -72.4519274839096, -38.480072939303881 ], [ -72.453048717928112, -38.479742597987304 ], [ -72.453945764791044, -38.479477386158337 ], [ -72.455148312512449, -38.479261666081435 ], [ -72.455759644809362, -38.479365228057581 ], [ -72.45631231352499, -38.479826444342088 ], [ -72.456780631333743, -38.480109862737869 ], [ -72.457389145615622, -38.480150403529954 ], [ -72.45814039500965, -38.48001108516079 ], [ -72.458897611912079, -38.479988701539938 ], [ -72.459727097380807, -38.479901152894392 ], [ -72.461025406409817, -38.480101413513573 ], [ -72.4611587352626, -38.480129201366587 ], [ -72.461252616396308, -38.480148784711588 ], [ -72.461411615506648, -38.480179355900219 ], [ -72.462632263382702, -38.480414292235579 ], [ -72.463986293112143, -38.480193998392984 ], [ -72.464883206126103, -38.479928706650774 ], [ -72.465426438937982, -38.479559204007934 ], [ -72.465617281528523, -38.479429571484438 ], [ -72.466121486134554, -38.478878649470346 ], [ -72.4665248458668, -38.478636895166986 ], [ -72.466858556520108, -38.478442367504947 ], [ -72.467539909798504, -38.47842217539425 ], [ -72.468361131664949, -38.478159100782335 ], [ -72.468957913949211, -38.477961269397561 ], [ -72.469540633107727, -38.477466524351847 ], [ -72.470061848211984, -38.47727092951331 ], [ -72.470583366048487, -38.477079749866732 ], [ -72.47078762048622, -38.476596225570511 ], [ -72.471530258629912, -38.476276939046613 ], [ -72.472051365038013, -38.476081338167411 ], [ -72.472802818349621, -38.475941920509754 ], [ -72.474022222058991, -38.476081430294748 ], [ -72.475070619775934, -38.475811489605071 ], [ -72.476727332348773, -38.475586560528335 ], [ -72.477574235252561, -38.475858792592526 ], [ -72.477909043647173, -38.476086097142939 ], [ -72.478584683640335, -38.476544804086458 ], [ -72.478749584682092, -38.476657091051891 ], [ -72.479596592688765, -38.476929155918668 ], [ -72.479687866911533, -38.476966734988899 ], [ -72.480679130878087, -38.477374420508227 ], [ -72.481980252532253, -38.477632957117244 ], [ -72.482577085122173, -38.477737179671649 ], [ -72.482768258292737, -38.477841224154389 ], [ -72.483266971497443, -38.478112635459496 ], [ -72.484330682795033, -38.478396294069192 ], [ -72.485210938348686, -38.478541210523105 ], [ -72.485887120924303, -38.478980522125568 ], [ -72.48647949787042, -38.479192526463258 ], [ -72.487152875905707, -38.479573394450981 ], [ -72.487529906016974, -38.479845903298418 ], [ -72.487775428160532, -38.480410655181714 ], [ -72.487880973019898, -38.481092118574502 ], [ -72.488118347443844, -38.481485904330363 ], [ -72.488563839959539, -38.481931709666661 ], [ -72.488730167525972, -38.48209825307373 ], [ -72.488992809762209, -38.482231519166383 ], [ -72.489476236335733, -38.482476864610121 ], [ -72.490076812205459, -38.482859812877926 ], [ -72.490680093800819, -38.483296696056911 ], [ -72.49085275179506, -38.483767162226158 ], [ -72.490584425918001, -38.484331003002161 ], [ -72.490606677187586, -38.484789795302994 ], [ -72.490480596840825, -38.485194419963648 ], [ -72.490550413904714, -38.485528036974557 ], [ -72.490575290051567, -38.485646549868015 ], [ -72.490648467712916, -38.485798969309073 ], [ -72.490737119753362, -38.485984062433218 ], [ -72.491343566113471, -38.486483868731121 ], [ -72.491884157878417, -38.486531864359698 ], [ -72.492293677358546, -38.486568198049568 ], [ -72.492931284479226, -38.486206820746318 ], [ -72.493431641600907, -38.486020747278737 ], [ -72.494160933474433, -38.486052912161313 ], [ -72.494966033276469, -38.486146051927157 ], [ -72.496422328116168, -38.486161057446729 ], [ -72.497430439087566, -38.486151734195751 ], [ -72.498489937286493, -38.486166325550613 ], [ -72.499555607809711, -38.48623857911754 ], [ -72.500321169162831, -38.486536837109156 ], [ -72.500371508056404, -38.486556510123989 ], [ -72.500409353181013, -38.486568292272992 ], [ -72.501701759380296, -38.48697158079608 ], [ -72.501805000959251, -38.487036678246909 ], [ -72.502135054571056, -38.487244570755614 ], [ -72.502227251363607, -38.487302618853569 ], [ -72.502686873480414, -38.487597621076368 ], [ -72.50299553461204, -38.487954851279326 ], [ -72.503139207565312, -38.488216731357596 ], [ -72.503308250738854, -38.48858552093084 ], [ -72.503349675649872, -38.489440020427018 ], [ -72.503089551391355, -38.490078399510288 ], [ -72.502611338639753, -38.490723306323652 ], [ -72.502269946492433, -38.4911884808837 ], [ -72.501946813501576, -38.49163333044006 ], [ -72.501928764550897, -38.49165807641063 ], [ -72.501930510875795, -38.491694110100326 ], [ -72.501956448831336, -38.492229315389714 ], [ -72.502411934206251, -38.492616539422109 ], [ -72.502722093727741, -38.493008114247743 ], [ -72.503252967517938, -38.493447170334491 ], [ -72.503555398833072, -38.493704369666318 ], [ -72.503708276823076, -38.493834321028189 ], [ -72.504465502708669, -38.494231613051852 ], [ -72.505011752961593, -38.494741412676909 ], [ -72.5052173117531, -38.494933249257613 ], [ -72.505169609414892, -38.495448077219685 ], [ -72.505049366320847, -38.495969655879243 ], [ -72.504784876250056, -38.496425226464254 ], [ -72.504780636201929, -38.496432659253912 ], [ -72.50478594524526, -38.496447259775969 ], [ -72.504998085992852, -38.497022416890651 ], [ -72.505032027039235, -38.497114235494664 ], [ -72.505859301754043, -38.497661511993108 ], [ -72.507036799953752, -38.497733737160281 ], [ -72.508695529244406, -38.497465042523707 ], [ -72.50934458719, -38.497445572154405 ], [ -72.509852015849603, -38.497589968714315 ], [ -72.509874200643864, -38.49759623994138 ], [ -72.509891021597554, -38.497635142628447 ], [ -72.510332142911082, -38.498656599563795 ], [ -72.510192703717735, -38.49960957791302 ], [ -72.510708492099383, -38.500087942256663 ], [ -72.51116407898391, -38.500475200680043 ], [ -72.511565528897876, -38.500492447268385 ], [ -72.511966501806413, -38.500509558872032 ], [ -72.512346579901433, -38.500840486222906 ], [ -72.51243578081251, -38.501180147044479 ], [ -72.512382668819654, -38.501582674672989 ], [ -72.512355613359929, -38.50192818736555 ], [ -72.512337674902028, -38.502156017798868 ], [ -72.512578003884926, -38.502608181170629 ], [ -72.512913557881205, -38.502728132433944 ], [ -72.513170839870156, -38.502820104049384 ], [ -72.513787616856035, -38.502746156706124 ], [ -72.513821975619024, -38.502742025162867 ], [ -72.514395151974256, -38.502553673077493 ], [ -72.514802617905659, -38.502659577731755 ], [ -72.514985139401716, -38.502707005104476 ], [ -72.515026992809126, -38.502843375499104 ], [ -72.515071513314595, -38.502988228030432 ], [ -72.515680804639203, -38.503541908467739 ], [ -72.515754624595999, -38.503605662289395 ], [ -72.516516864877502, -38.504264475423192 ], [ -72.517056039100936, -38.504874349425286 ], [ -72.517301981656047, -38.505439018340326 ], [ -72.517097873643706, -38.50573340220307 ], [ -72.517040181141226, -38.505740524021242 ], [ -72.516518986698216, -38.505804825620899 ], [ -72.516377984436289, -38.505852308566098 ], [ -72.516223860482967, -38.505904171693906 ], [ -72.515946009768967, -38.505997684382336 ], [ -72.515929914654023, -38.506238078040795 ], [ -72.515923585124526, -38.506331841254848 ], [ -72.515903770984309, -38.506625111487509 ], [ -72.516216814097888, -38.507075006468547 ], [ -72.516296744395234, -38.507123375007978 ], [ -72.517116970928342, -38.507620081551508 ], [ -72.51765977704045, -38.507914364411789 ], [ -72.517715146499626, -38.507944357945156 ], [ -72.518098044406329, -38.50833370054243 ], [ -72.518357513792978, -38.508498947147743 ], [ -72.518699080213466, -38.508716479757624 ], [ -72.518705870578685, -38.508853905136768 ], [ -72.518726914512555, -38.509287707186488 ], [ -72.51845841615895, -38.509750661506473 ], [ -72.517820968040084, -38.510116674634368 ], [ -72.517325902893745, -38.510415307549238 ], [ -72.51727819516563, -38.510930213239533 ], [ -72.517882101090123, -38.511371503617369 ], [ -72.51912084013766, -38.511392759850573 ], [ -72.519828251745807, -38.510970615086059 ], [ -72.520594302680763, -38.510258454796599 ], [ -72.521072684315641, -38.509617972808989 ], [ -72.521760639313058, -38.508795544019542 ], [ -72.522750574671306, -38.508193669041944 ], [ -72.523334958408043, -38.508234661494804 ], [ -72.523936020266333, -38.508617412415703 ], [ -72.524391598167739, -38.50899996869633 ], [ -72.524704617925096, -38.509449988021785 ], [ -72.525252557010759, -38.510235189960547 ], [ -72.525575137537714, -38.510584556756264 ], [ -72.526175088179997, -38.511234320629853 ], [ -72.526136012363452, -38.511924676063714 ], [ -72.526535765359824, -38.512655818703564 ], [ -72.526887508794161, -38.513078835728635 ], [ -72.526999766763637, -38.513213817233883 ], [ -72.527035944615079, -38.513233389478444 ], [ -72.5278972142752, -38.513700220903033 ], [ -72.528942234326692, -38.514100176963133 ], [ -72.529010188284659, -38.514126096072474 ], [ -72.529067448697504, -38.514127319102769 ], [ -72.53074416585342, -38.514163056179122 ], [ -72.531196606837838, -38.514172716707087 ], [ -72.532055053093018, -38.513862978195696 ], [ -72.532171676874768, -38.513708765998636 ], [ -72.532444957858942, -38.513347032101997 ], [ -72.532807236734925, -38.512867415389714 ], [ -72.533114467748618, -38.512166966068918 ], [ -72.533265715296366, -38.511822126685033 ], [ -72.533953451104836, -38.510999635205955 ], [ -72.534370264006782, -38.510646400822516 ], [ -72.535281513234381, -38.509873970028927 ], [ -72.535556924124052, -38.509679090168369 ], [ -72.536125889177242, -38.509276382851006 ], [ -72.537126942983789, -38.508903851288984 ], [ -72.537178485619847, -38.508907311169239 ], [ -72.537838236212281, -38.508950894961188 ], [ -72.538295502946397, -38.508981118627474 ], [ -72.539039453528716, -38.509305449344716 ], [ -72.539718793682553, -38.509798359759195 ], [ -72.539922903491515, -38.510009584557153 ], [ -72.540255739185767, -38.510354096622422 ], [ -72.540333838716563, -38.510464344437096 ], [ -72.540831791946545, -38.510801200896587 ], [ -72.541404917996118, -38.510922289197381 ], [ -72.541743157056786, -38.510993738397275 ], [ -72.543202786442819, -38.511066569468632 ], [ -72.544002277164225, -38.511042420618985 ], [ -72.544601483103136, -38.511078576058587 ], [ -72.545005318044176, -38.511102939989783 ], [ -72.545243649173884, -38.511117411715382 ], [ -72.546412245069106, -38.511194522036256 ], [ -72.547416133060366, -38.510880335973404 ], [ -72.547914594736795, -38.510582654639684 ], [ -72.54812336051387, -38.510458027937283 ], [ -72.548671294209626, -38.509756732744478 ], [ -72.548915577576409, -38.509265593449946 ], [ -72.549135141103221, -38.50882383536149 ], [ -72.549501748960552, -38.508444546143224 ], [ -72.54975870036948, -38.508178833304072 ], [ -72.550309166416028, -38.507531620298316 ], [ -72.550851307774835, -38.506713377727507 ], [ -72.550918920373007, -38.506262503362066 ], [ -72.550638425018789, -38.505346142526321 ], [ -72.549887340016468, -38.505094644444789 ], [ -72.549232316359067, -38.504875277360611 ], [ -72.548133529442893, -38.504737482352617 ], [ -72.547944563432992, -38.504723805824284 ], [ -72.547544574179682, -38.504694834492902 ], [ -72.547037805781827, -38.504658177432731 ], [ -72.546998929391279, -38.504457452896268 ], [ -72.546905686959732, -38.503975814222194 ], [ -72.546884784959701, -38.503919256540485 ], [ -72.546798631134052, -38.503687126556457 ], [ -72.546833940314613, -38.503465260255638 ], [ -72.546889187602915, -38.503117780214062 ], [ -72.546750431129183, -38.5030019962783 ], [ -72.546357861061807, -38.50267444132075 ], [ -72.546184566162026, -38.502107633972088 ], [ -72.546603810803447, -38.501752587192406 ], [ -72.547607353841641, -38.501433983665812 ], [ -72.548479397895264, -38.501407458206778 ], [ -72.549530526490685, -38.500578355351564 ], [ -72.550075476881389, -38.499814198095812 ], [ -72.550555988421806, -38.499227553160203 ], [ -72.550593308031964, -38.499127091999611 ], [ -72.550877418206866, -38.498361992734729 ], [ -72.550940816808051, -38.497880841289494 ], [ -72.550983493072252, -38.497556987113036 ], [ -72.551240650195382, -38.496864581618709 ], [ -72.551863782761885, -38.496215155628605 ], [ -72.552442412789205, -38.496138990360194 ], [ -72.553039013613798, -38.496216288267611 ], [ -72.553174908055027, -38.496233855770541 ], [ -72.553320988493283, -38.496187429520077 ], [ -72.554041775117696, -38.495958388507347 ], [ -72.554178151954233, -38.49591513362251 ], [ -72.554215836280392, -38.495883289523221 ], [ -72.554947076599774, -38.495265689230244 ], [ -72.555197332864893, -38.494712589898754 ], [ -72.555209532884746, -38.494685725892012 ], [ -72.555172796281212, -38.493939150121975 ], [ -72.554638742454912, -38.493441838781443 ], [ -72.554174674575776, -38.492883952816726 ], [ -72.554143702461403, -38.492254313570051 ], [ -72.553523173212582, -38.491475955852714 ], [ -72.553260737588857, -38.491315600423036 ], [ -72.551647358847006, -38.490330280490632 ], [ -72.550909524893441, -38.489793016397684 ], [ -72.550590423541593, -38.489560726983264 ], [ -72.550109710778543, -38.488660919324793 ], [ -72.55022143964031, -38.487972855341042 ], [ -72.550253149271541, -38.487937946934366 ], [ -72.550704626363654, -38.487440220095962 ], [ -72.551861884621687, -38.487292551111352 ], [ -72.551943515429869, -38.48728380037327 ], [ -72.553382193408524, -38.487129268280853 ], [ -72.554494779345788, -38.487554843533147 ], [ -72.555174098838378, -38.488047742486124 ], [ -72.555193789909396, -38.488447999220959 ], [ -72.555660806059308, -38.489064385983504 ], [ -72.556323228241411, -38.489215380677379 ], [ -72.557013862913294, -38.489937573842958 ], [ -72.557852611809238, -38.490713777648892 ], [ -72.558836794356424, -38.491485551222333 ], [ -72.559955020815352, -38.492023585956169 ], [ -72.562183093349944, -38.492928672668207 ], [ -72.563734632067636, -38.493394807477657 ], [ -72.564478201764288, -38.493714487135207 ], [ -72.565655177144478, -38.493966859518601 ], [ -72.565756004950288, -38.493977881121303 ], [ -72.566072558679977, -38.494012582003499 ], [ -72.566460100876711, -38.494054932454738 ], [ -72.566792464955427, -38.493957204013874 ], [ -72.567179248075732, -38.493843423921426 ], [ -72.5675363185197, -38.49373837321501 ], [ -72.568156474069355, -38.493030286411511 ], [ -72.568351103058816, -38.492299829726086 ], [ -72.568402121977059, -38.492108473385805 ], [ -72.568605881443062, -38.491106688891577 ], [ -72.568636248092943, -38.490957287205653 ], [ -72.568619388511678, -38.490615909676897 ], [ -72.568610930873277, -38.490444668003576 ], [ -72.568652830094749, -38.490409001422073 ], [ -72.569099857831276, -38.490028822803623 ], [ -72.570111662675146, -38.489880908810228 ], [ -72.5708244183609, -38.489575338741794 ], [ -72.571390563602407, -38.489500716858508 ], [ -72.571981148409535, -38.489422911115895 ], [ -72.572291749003881, -38.489814280406023 ], [ -72.572299729636867, -38.489821859425241 ], [ -72.572306320576089, -38.489827930233851 ], [ -72.572804949339158, -38.490296280255386 ], [ -72.57282592410273, -38.49031600708755 ], [ -72.572908750568558, -38.490327645887824 ], [ -72.573130747631467, -38.490358721819952 ], [ -72.573485590253526, -38.490408468455257 ], [ -72.573686563145529, -38.490059994489755 ], [ -72.574390630325851, -38.489579035802421 ], [ -72.575173222838458, -38.489212786112446 ], [ -72.575752521212351, -38.489400376432023 ], [ -72.575986683260837, -38.489476164211361 ], [ -72.575931039815515, -38.489820273168021 ], [ -72.575781030146203, -38.490166233918494 ], [ -72.575604378242218, -38.490573373689656 ], [ -72.575274822297075, -38.491268114222748 ], [ -72.57528767359554, -38.491309637316142 ], [ -72.575448587015742, -38.491834787494241 ], [ -72.574702905379866, -38.492947601466852 ], [ -72.574553676346554, -38.49316151792015 ], [ -72.573946829337842, -38.494031062650876 ], [ -72.57388730157723, -38.494116564322042 ], [ -72.573068774656647, -38.495226945564809 ], [ -72.572678667769793, -38.495482309850217 ], [ -72.5721522208773, -38.495827070694176 ], [ -72.571808596416503, -38.496238343438286 ], [ -72.571906706818581, -38.496748886059443 ], [ -72.572857087558262, -38.49683247218249 ], [ -72.573360268084869, -38.496704490581187 ], [ -72.574576119855621, -38.496266414029208 ], [ -72.575814292066227, -38.496287162889587 ], [ -72.575850325288911, -38.496299934769134 ], [ -72.576258917707676, -38.496444700624629 ], [ -72.576425543514787, -38.49657649609739 ], [ -72.577092247965837, -38.49710381407953 ], [ -72.577553941597685, -38.497607733439928 ], [ -72.578283445473616, -38.497639437572673 ], [ -72.57921124077042, -38.497268717347907 ], [ -72.579377571031785, -38.496490406069597 ], [ -72.579466144918811, -38.496075847222492 ], [ -72.579506692175784, -38.495885987199074 ], [ -72.579517102751609, -38.495140931965743 ], [ -72.579522753154762, -38.494741381741385 ], [ -72.579543468305204, -38.49309180384757 ], [ -72.579552212506158, -38.492398381639454 ], [ -72.579498297419462, -38.49131008309022 ], [ -72.579176952974336, -38.49085249947597 ], [ -72.578950170585912, -38.490529649402298 ], [ -72.578941283552808, -38.490520844213833 ], [ -72.578438196450989, -38.49001826887892 ], [ -72.578337638139772, -38.489917811750857 ], [ -72.57845186162308, -38.489283666217801 ], [ -72.578786856867254, -38.488701434212885 ], [ -72.57945424763119, -38.488180465297596 ], [ -72.579627813822185, -38.488045127487929 ], [ -72.579823184820043, -38.487584277399442 ], [ -72.579823385144365, -38.487178917297783 ], [ -72.57967618360864, -38.487111028451565 ], [ -72.579182031150637, -38.486883215829323 ], [ -72.578578276143119, -38.48644231402718 ], [ -72.578194770076962, -38.485927077163616 ], [ -72.578124093325357, -38.485402195435043 ], [ -72.578412463311338, -38.484902491330857 ], [ -72.578579931738176, -38.484701000831869 ], [ -72.578620512232831, -38.484652161575937 ], [ -72.578835030820997, -38.484394105803766 ], [ -72.578935684353624, -38.484350661149151 ], [ -72.579273127506966, -38.484205071474605 ], [ -72.579572228767333, -38.483916606243682 ], [ -72.579625791714449, -38.483860727561066 ], [ -72.579955133860551, -38.483517540155802 ], [ -72.580073553374575, -38.483194089039635 ], [ -72.580370593001362, -38.48286982076452 ], [ -72.580583260161731, -38.482722437757879 ], [ -72.580846757594131, -38.482539847381638 ], [ -72.581279487744581, -38.482242859005083 ], [ -72.58171934602683, -38.48208977384472 ], [ -72.582427488863615, -38.481928544540082 ], [ -72.582862916654861, -38.481873662868281 ], [ -72.583140854505459, -38.481838657980802 ], [ -72.583183587363536, -38.481833290408503 ], [ -72.583249928845575, -38.481813694863483 ], [ -72.583784527050938, -38.481655338248736 ], [ -72.583845223519731, -38.48163739167822 ], [ -72.584535955209702, -38.481125272264606 ], [ -72.584824448264882, -38.480625475920441 ], [ -72.58506305966894, -38.480019098396916 ], [ -72.58517077036646, -38.479582473829545 ], [ -72.585211965308773, -38.479415542755909 ], [ -72.585503792011963, -38.478983164175546 ], [ -72.585984858711228, -38.478756775934393 ], [ -72.586285442191823, -38.478714870782845 ], [ -72.586361242933805, -38.478704355988917 ], [ -72.586607099250656, -38.478670105542079 ], [ -72.587112574972835, -38.478933846361862 ], [ -72.587655659562685, -38.479056813126135 ], [ -72.588365538842908, -38.478931432861252 ], [ -72.588709110303114, -38.478641654677077 ], [ -72.588913278502545, -38.478248043257878 ], [ -72.588970264030934, -38.478083577475985 ], [ -72.589148184356091, -38.477569747128605 ], [ -72.589025813153143, -38.47690691410142 ], [ -72.588886090990485, -38.476766267343059 ], [ -72.588343020773678, -38.476219650029307 ], [ -72.587450707133982, -38.475829190076915 ], [ -72.58621649469714, -38.475303976008192 ], [ -72.585768999836674, -38.474991667261229 ], [ -72.585103795572138, -38.474527443773546 ], [ -72.58380574166469, -38.473616809811254 ], [ -72.58356334565832, -38.473241386871948 ], [ -72.5834976824043, -38.472819963747177 ], [ -72.583837866317552, -38.472458205952158 ], [ -72.584172936121902, -38.472099408646372 ], [ -72.584517723002691, -38.471730275899908 ], [ -72.584941901191641, -38.471262334116226 ], [ -72.585323121045406, -38.470827365563629 ], [ -72.585530845675052, -38.470598212296146 ], [ -72.585747382777654, -38.470359417920271 ], [ -72.58617498624281, -38.469958962268535 ], [ -72.586733307158184, -38.469682753836153 ], [ -72.586786442507247, -38.469656403069266 ], [ -72.587375472330621, -38.469581152889312 ], [ -72.58759868122084, -38.469552687184191 ], [ -72.587853692268752, -38.469520071843043 ], [ -72.588754261425905, -38.469632070835935 ], [ -72.589768619281813, -38.470236103650883 ], [ -72.59033558738011, -38.470387622376059 ], [ -72.590584827650645, -38.470454284212551 ], [ -72.591887710002752, -38.470558413054 ], [ -72.592459802091426, -38.470365142225845 ], [ -72.592615745133173, -38.469900981084798 ], [ -72.5924588364025, -38.469446353366997 ], [ -72.59224371145153, -38.469195342565506 ], [ -72.592079004445878, -38.469003144884141 ], [ -72.592057245453063, -38.468920352192718 ], [ -72.591968597005888, -38.468583174695773 ], [ -72.591851874409429, -38.468336520880776 ], [ -72.59171457590142, -38.468045998880072 ], [ -72.591621980256861, -38.46761795434616 ], [ -72.59160580159859, -38.467543549570415 ], [ -72.59154414752571, -38.467258454224272 ], [ -72.591653057474119, -38.466809243246303 ], [ -72.591696811716659, -38.466750930360689 ], [ -72.59202268456913, -38.466315942331697 ], [ -72.592529965905015, -38.465958033052068 ], [ -72.592718951677867, -38.465484666732912 ], [ -72.592724613759103, -38.465470176696428 ], [ -72.592925954960364, -38.465117084112087 ], [ -72.593387957612677, -38.464724624131541 ], [ -72.593680954820684, -38.464589879538103 ], [ -72.593944221386053, -38.464468812534633 ], [ -72.594456585389821, -38.464209846083243 ], [ -72.595135549149532, -38.463779129139176 ], [ -72.595447985900307, -38.46326145201391 ], [ -72.595539898825237, -38.463109045410235 ], [ -72.595663385735762, -38.46301972271668 ], [ -72.5961312265391, -38.46268108974364 ], [ -72.596497352001137, -38.462120287130027 ], [ -72.597080129550136, -38.461516885520609 ], [ -72.597194344948605, -38.461369548193048 ], [ -72.597409187828589, -38.461092336862208 ], [ -72.59785957526428, -38.460903225955718 ], [ -72.597885594068174, -38.460892316061248 ], [ -72.598585658355603, -38.460988636796806 ], [ -72.598974098867615, -38.4611805843222 ], [ -72.599168948842632, -38.461276943360183 ], [ -72.599631240752458, -38.461704308762492 ], [ -72.599673448994395, -38.461743376429176 ], [ -72.599845181723893, -38.46185985409597 ], [ -72.59996873600808, -38.461943646687345 ], [ -72.600353103558575, -38.462204417049712 ], [ -72.601203899760804, -38.462592590194284 ], [ -72.601733557232095, -38.46267982082275 ], [ -72.602082880605067, -38.462653200910914 ], [ -72.602910269405911, -38.462590016476227 ], [ -72.603216015504458, -38.462566653949288 ], [ -72.604254441921739, -38.462327454550568 ], [ -72.605333267373993, -38.462019551964268 ], [ -72.605670795867269, -38.461765850826218 ], [ -72.60563999353451, -38.461149803902892 ], [ -72.605354948213389, -38.460767402927225 ], [ -72.605311798537045, -38.460709475550281 ], [ -72.605064445626908, -38.460136038293598 ], [ -72.604825301521871, -38.459729124030716 ], [ -72.604588042082284, -38.459358089209069 ], [ -72.604587683654486, -38.459352786788529 ], [ -72.604565536589476, -38.458908340139999 ], [ -72.60471820796694, -38.458457696312379 ], [ -72.605237343471345, -38.458338094119732 ], [ -72.605430840583523, -38.458249113015484 ], [ -72.605701310739164, -38.458124698965449 ], [ -72.605793518311501, -38.458082303484986 ], [ -72.605837875323616, -38.458025148437407 ], [ -72.606076391506278, -38.457717232410289 ], [ -72.606122512809577, -38.457657808473257 ], [ -72.606311795924796, -38.457066413967077 ], [ -72.606330463814714, -38.457030491697452 ], [ -72.606384583717301, -38.45692632292333 ], [ -72.606511576752396, -38.456681911941999 ], [ -72.606690068406095, -38.455975805016394 ], [ -72.606730751308675, -38.455814859195613 ], [ -72.606981048896287, -38.455568418477419 ], [ -72.607567048702222, -38.455032388050164 ], [ -72.608204285716994, -38.454699703413134 ], [ -72.608548008094147, -38.454520261861923 ], [ -72.609097371009526, -38.454124973230108 ], [ -72.609648239501325, -38.453765647851078 ], [ -72.610116899568197, -38.453507962706041 ], [ -72.610274701224256, -38.453313367250963 ], [ -72.610403688519284, -38.453154419018517 ], [ -72.610487846288351, -38.45305057669357 ], [ -72.61051020535578, -38.452973952863523 ], [ -72.610560866744549, -38.452800669586757 ], [ -72.610594921876967, -38.452685753110799 ], [ -72.610599990171806, -38.45266884542 ], [ -72.610575071804135, -38.452624600069441 ], [ -72.610531107355811, -38.452546553326663 ], [ -72.61040796180508, -38.452327936593548 ], [ -72.610285433396967, -38.452228848001148 ], [ -72.610043209867129, -38.452032943406252 ], [ -72.609961596126936, -38.451772088436527 ], [ -72.609626858699244, -38.450703538909018 ], [ -72.609376086801149, -38.449997460005953 ], [ -72.609372151281903, -38.449986290975026 ], [ -72.609372131518967, -38.449984003842076 ], [ -72.609372551032209, -38.449621807176541 ], [ -72.609373155598391, -38.449125962962192 ], [ -72.609479473008889, -38.448920855547563 ], [ -72.609572621117337, -38.448741465052649 ], [ -72.610087238095829, -38.44842937826423 ], [ -72.61016730134385, -38.448380859872586 ], [ -72.610534831770977, -38.448387748157941 ], [ -72.610965653899783, -38.448594878330368 ], [ -72.611387376094754, -38.448871581194197 ], [ -72.61141803110381, -38.448891666201085 ], [ -72.611459685983547, -38.448893332857537 ], [ -72.612233111188658, -38.448923624630297 ], [ -72.612382607021615, -38.448929487121376 ], [ -72.612945508446629, -38.448808501474133 ], [ -72.613936674496827, -38.44850315691545 ], [ -72.615062925606196, -38.44841885131536 ], [ -72.615329886942334, -38.448424329015481 ], [ -72.615674628009032, -38.448431462125747 ], [ -72.61642020633866, -38.448593718912434 ], [ -72.616580633770283, -38.448628683657219 ], [ -72.61667834262542, -38.448584117833548 ], [ -72.617257605066712, -38.448319444282667 ], [ -72.617263074908479, -38.448308721735543 ], [ -72.617554319503384, -38.447733789384863 ], [ -72.617730524046351, -38.447183369561607 ], [ -72.617828891366599, -38.446727821229558 ], [ -72.617862726411772, -38.446571216790097 ], [ -72.617890259775223, -38.446510074748367 ], [ -72.618082637586582, -38.446082465257675 ], [ -72.618172699982026, -38.445440178076801 ], [ -72.618195183915262, -38.445298683365969 ], [ -72.618234683736631, -38.445050840406658 ], [ -72.618320058722915, -38.444928580430869 ], [ -72.618462872886795, -38.444724033790926 ], [ -72.618503863013188, -38.444637385816669 ], [ -72.618647060757695, -38.444335418343691 ], [ -72.619006481194447, -38.444193687880663 ], [ -72.619701268777916, -38.444239793018532 ], [ -72.620636549735977, -38.444210931754469 ], [ -72.621095568184899, -38.444156363312111 ], [ -72.621405902877896, -38.444119529818835 ], [ -72.621929851555578, -38.444008709099649 ], [ -72.622176258539682, -38.443853197746449 ], [ -72.622679973563905, -38.443535047477141 ], [ -72.623270920392088, -38.443133906063466 ], [ -72.623640824168206, -38.442868231021492 ], [ -72.623782117484311, -38.442766742168388 ], [ -72.623722227702629, -38.44238575155061 ], [ -72.623336842360914, -38.442422701317454 ], [ -72.62323580345101, -38.442432397497171 ], [ -72.622331436216825, -38.44226668558958 ], [ -72.622064981530499, -38.441824566021879 ], [ -72.622072082712819, -38.441675872046936 ], [ -72.62208493670623, -38.441409593577937 ], [ -72.622265722657147, -38.44095355638413 ], [ -72.622297640697525, -38.440946370467984 ], [ -72.622426777112864, -38.440916987219168 ], [ -72.622556857657585, -38.441075160298659 ], [ -72.622735468787198, -38.441389382655046 ], [ -72.623024997599899, -38.441475096630143 ], [ -72.62337818372859, -38.441207356742098 ], [ -72.623980272361251, -38.441031087258601 ], [ -72.624422786961787, -38.440922852471481 ], [ -72.624929007387323, -38.440456730884286 ], [ -72.625318017431198, -38.440093345142586 ], [ -72.625492096560237, -38.440048988650396 ], [ -72.625760482624415, -38.439980530531379 ], [ -72.625943485617455, -38.439790301123729 ], [ -72.626108738798806, -38.439618479266272 ], [ -72.626494772724186, -38.43919216160532 ], [ -72.627094651501224, -38.438711986566936 ], [ -72.627121175158308, -38.43869079755099 ], [ -72.627468208725602, -38.438297121475571 ], [ -72.627653690170533, -38.437935609898489 ], [ -72.627641387742713, -38.437665756526258 ], [ -72.627692183878779, -38.436889488225638 ], [ -72.627791134205637, -38.436179249989337 ], [ -72.627954333838247, -38.435854366402104 ], [ -72.628318471328569, -38.435068458155989 ], [ -72.628695271471102, -38.434529735916506 ], [ -72.629075074681666, -38.434058515054943 ], [ -72.629472728315221, -38.43364215887204 ], [ -72.629629073802207, -38.43347835697336 ], [ -72.629798114280803, -38.433348844281149 ], [ -72.629989283858094, -38.433202263591866 ], [ -72.630449684814252, -38.432849413479275 ], [ -72.631148490561984, -38.432476397482155 ], [ -72.631718154504455, -38.432210993543464 ], [ -72.632683695212862, -38.431793679534685 ], [ -72.633300022142762, -38.431562904101952 ], [ -72.633426755564741, -38.431493513981685 ], [ -72.634260126247085, -38.431037638627195 ], [ -72.634740535379549, -38.43077941844016 ], [ -72.634984286943705, -38.430437855212809 ], [ -72.635075697710377, -38.430309639631432 ], [ -72.635679398818979, -38.429831517358132 ], [ -72.636068218420021, -38.429535625057333 ], [ -72.636314626302465, -38.429391006332345 ], [ -72.636765156570291, -38.429126623410504 ], [ -72.637505052157408, -38.428680271394697 ], [ -72.63855843013431, -38.428224094677049 ], [ -72.639038427838386, -38.427956499171302 ], [ -72.63943071763137, -38.427737603166761 ], [ -72.640091665678085, -38.427505405188427 ], [ -72.640095891353184, -38.427505495266622 ], [ -72.640262487515869, -38.42750902168693 ], [ -72.640237075074793, -38.427432696569944 ], [ -72.640099684938619, -38.427021065801611 ], [ -72.640061601760479, -38.426907279304672 ], [ -72.639864982104342, -38.426562060807953 ], [ -72.639601276262795, -38.426337884583958 ], [ -72.639302876586669, -38.426084087548496 ], [ -72.639056298024329, -38.42563688770533 ], [ -72.63900597440211, -38.425397071847655 ], [ -72.638938097699238, -38.425073011704093 ], [ -72.638775548446887, -38.424515089375255 ], [ -72.638514424363478, -38.423780027019106 ], [ -72.638265961135673, -38.423296871737399 ], [ -72.638103417273214, -38.422738875163247 ], [ -72.63702767843229, -38.421853423619531 ], [ -72.635921518144258, -38.421252793269716 ], [ -72.63506023411108, -38.421067831718098 ], [ -72.634737058899404, -38.42114575907113 ], [ -72.634395717956053, -38.421228087183046 ], [ -72.633740317006243, -38.42156826315675 ], [ -72.632599261660999, -38.42206305377961 ], [ -72.631538714229819, -38.422375277786621 ], [ -72.630267025875952, -38.422946197873166 ], [ -72.629525426184742, -38.423356471057183 ], [ -72.628796030106628, -38.424014237088997 ], [ -72.627928794734714, -38.424604100814001 ], [ -72.625809588131091, -38.425268764273035 ], [ -72.625175072113322, -38.425383024164624 ], [ -72.624535674650275, -38.425686567799332 ], [ -72.623690299780804, -38.426230709429824 ], [ -72.622807475045434, -38.426028318177266 ], [ -72.621483687998349, -38.425727029396647 ], [ -72.620690643587437, -38.425864177392242 ], [ -72.619154434620057, -38.425681970176981 ], [ -72.618146723398951, -38.42588425824492 ], [ -72.616868358765913, -38.426495827107985 ], [ -72.615776624523008, -38.426475469853223 ], [ -72.614379756832619, -38.426171857048118 ], [ -72.613607069144336, -38.426713607924107 ], [ -72.612375445652162, -38.426805795459082 ], [ -72.61091773955917, -38.426738095381502 ], [ -72.610595799530984, -38.426117452314685 ], [ -72.61045070813789, -38.425728528390948 ], [ -72.610427978964566, -38.425667758574754 ], [ -72.609899995054647, -38.425283192007342 ], [ -72.609855983893922, -38.425296061619889 ], [ -72.609469781983606, -38.425409071597151 ], [ -72.609199369320152, -38.425818264606583 ], [ -72.608386667075877, -38.42555950849632 ], [ -72.60822414477299, -38.425217758011314 ], [ -72.607626308764864, -38.424893853298201 ], [ -72.606453276090463, -38.42470035668174 ], [ -72.605692523419066, -38.424544401885377 ], [ -72.605498142364624, -38.424504563161378 ], [ -72.604559987695964, -38.424646071887231 ], [ -72.604001911122339, -38.425122630958924 ], [ -72.60300237816358, -38.425495740539795 ], [ -72.601712658825335, -38.425877772469313 ], [ -72.601321985999832, -38.426101216814473 ], [ -72.600864094038286, -38.426363256778743 ], [ -72.599359159019201, -38.426805901724215 ], [ -72.598714359088035, -38.427001362470108 ], [ -72.59747720556696, -38.426980877980718 ], [ -72.596237145995943, -38.426901875975787 ], [ -72.595145394685062, -38.426881326010196 ], [ -72.593768451627668, -38.426977780816642 ], [ -72.592525713280466, -38.42684473071607 ], [ -72.590409010281533, -38.426684462377942 ], [ -72.589537714524539, -38.426711188453638 ], [ -72.589241459126995, -38.426603235511912 ], [ -72.589228392232869, -38.426591311965247 ], [ -72.588937140451463, -38.426328752055447 ], [ -72.588719270248973, -38.426335433432293 ], [ -72.588271858033494, -38.426525964307565 ], [ -72.5881493898125, -38.426578054820048 ], [ -72.587582911296025, -38.426883738437517 ], [ -72.586337193237028, -38.426692193003845 ], [ -72.585957211261729, -38.426361500226207 ], [ -72.585795157879417, -38.42625828157859 ], [ -72.585356569814991, -38.425979121091331 ], [ -72.584265298204471, -38.4257139698475 ], [ -72.584105307354065, -38.425675109282508 ], [ -72.583080567668432, -38.425535354219193 ], [ -72.581698055056293, -38.425519078474096 ], [ -72.580899450073758, -38.42554351496242 ], [ -72.57979348741506, -38.425235011344164 ], [ -72.579070269949497, -38.425315649296728 ], [ -72.577972542147037, -38.42517358028342 ], [ -72.576880812395729, -38.425152932003606 ], [ -72.575998196967831, -38.424950177405215 ], [ -72.575361557332712, -38.425311964423933 ], [ -72.574429085406535, -38.4255701710849 ], [ -72.573749593437427, -38.425653131051185 ], [ -72.573200182013039, -38.425720233955516 ], [ -72.571965917473889, -38.425757910080115 ], [ -72.571864743816718, -38.425775978229602 ], [ -72.571173067099082, -38.425899217892393 ], [ -72.57065639747016, -38.425743850503515 ], [ -72.570410366880139, -38.425179293395381 ], [ -72.570169979506744, -38.424727249579746 ], [ -72.5696561997581, -38.424630308985584 ], [ -72.568924331516342, -38.424535514743994 ], [ -72.568111581661341, -38.424276552056781 ], [ -72.567209470995166, -38.423673466685912 ], [ -72.567099336642997, -38.423479051892343 ], [ -72.566890884377955, -38.423111113112242 ], [ -72.566859882619184, -38.42248154937193 ], [ -72.566979910117553, -38.42196442262545 ], [ -72.566817805531272, -38.421627024981426 ], [ -72.566225707062898, -38.421415341289112 ], [ -72.565281955890015, -38.421444093428853 ], [ -72.564969694310733, -38.421425266208395 ], [ -72.564042036456172, -38.421369317994703 ], [ -72.5625787841646, -38.421184139268043 ], [ -72.562123376943106, -38.420797067928582 ], [ -72.561865340369323, -38.420383399830548 ], [ -72.56149194304507, -38.41978491584608 ], [ -72.561063732318786, -38.419269567340514 ], [ -72.561028337798291, -38.41922695759682 ], [ -72.560626274335007, -38.418441900190736 ], [ -72.559497864574013, -38.417674504652823 ], [ -72.558668212018631, -38.417069148479122 ], [ -72.557914218271435, -38.416520078498259 ], [ -72.558109535370392, -38.416054689037146 ], [ -72.557495112868878, -38.415388835037234 ], [ -72.556531686794656, -38.415017180208544 ], [ -72.555504262942947, -38.41481866747489 ], [ -72.554571652676245, -38.415076718789379 ], [ -72.553868132569903, -38.415557534547396 ], [ -72.553390700454273, -38.416198038685884 ], [ -72.552907875751984, -38.416730667986222 ], [ -72.552058838451089, -38.417211314374057 ], [ -72.551372129416976, -38.418033944248094 ], [ -72.550598615278659, -38.418570882893761 ], [ -72.549733202588456, -38.418714245145381 ], [ -72.548705577514141, -38.418477895861507 ], [ -72.548422975610578, -38.418242716267194 ], [ -72.548180870658371, -38.418066377345731 ], [ -72.547988199996212, -38.417943665562703 ], [ -72.547589162058813, -38.417765219345831 ], [ -72.547313474488007, -38.41766539003239 ], [ -72.547068852456363, -38.417527572608051 ], [ -72.546810965901244, -38.417310383469101 ], [ -72.546749856207384, -38.417259618633793 ], [ -72.54667113234747, -38.417109616311443 ], [ -72.546573083030836, -38.416909722060176 ], [ -72.546517008394162, -38.416710768995117 ], [ -72.546481775570413, -38.416512217980362 ], [ -72.546446637069764, -38.416313665716103 ], [ -72.546390466313369, -38.416114642032603 ], [ -72.546355327812719, -38.415916088675708 ], [ -72.546320096785578, -38.415717537588534 ], [ -72.54626392692748, -38.415518515078304 ], [ -72.546249729054438, -38.415320433777246 ], [ -72.546256468215688, -38.415122751019801 ], [ -72.546237237082096, -38.415072857429969 ], [ -72.546179363119904, -38.414923329191105 ], [ -72.546165069127113, -38.414725177279927 ], [ -72.546108999880332, -38.414526298439469 ], [ -72.546031895682873, -38.414326875668337 ], [ -72.545975821046198, -38.414127850031186 ], [ -72.545898811171824, -38.413928424752534 ], [ -72.545842643110376, -38.413729400833311 ], [ -72.545807415676521, -38.413530850071723 ], [ -72.545772187344326, -38.413332298764537 ], [ -72.545716118097573, -38.413133346406347 ], [ -72.545639110019835, -38.412933919790582 ], [ -72.545582943755008, -38.412734896651365 ], [ -72.545505937473919, -38.412535471047505 ], [ -72.545449864633881, -38.412336443291416 ], [ -72.545372671503188, -38.412137023626691 ], [ -72.545317205025967, -38.411921595599438 ], [ -72.545176786668975, -38.411737299968749 ], [ -72.54509968875972, -38.411537875834938 ], [ -72.545043618614613, -38.411338848850505 ], [ -72.544966614130161, -38.411139422913116 ], [ -72.544952325527234, -38.41094127047942 ], [ -72.544917198704695, -38.410742789485312 ], [ -72.54484000916726, -38.410543368941937 ], [ -72.54478394441206, -38.410344415943769 ], [ -72.544748211226704, -38.410162261792507 ], [ -72.544748815792886, -38.410145860808058 ], [ -72.544651380025584, -38.409929416033904 ], [ -72.54461112202614, -38.409879125373628 ], [ -72.544570455293211, -38.409845377924142 ], [ -72.544550532456853, -38.409811959887932 ], [ -72.544509861232356, -38.409778138496712 ], [ -72.544510970651729, -38.409745192048369 ], [ -72.54443387543742, -38.409545768751961 ], [ -72.544397642788752, -38.409380233370243 ], [ -72.544424117038503, -38.409215826687458 ], [ -72.544451705199165, -38.40901861996948 ], [ -72.544412414685297, -38.408842329630502 ], [ -72.544265813224186, -38.40832237403113 ], [ -72.544268030266295, -38.408256480495993 ], [ -72.544273571973292, -38.408091747451152 ], [ -72.544300053409557, -38.407927487773456 ], [ -72.54434756171166, -38.407763624033947 ], [ -72.544353104316968, -38.407598890569609 ], [ -72.544400616212357, -38.407435100701768 ], [ -72.544448025699779, -38.407271166156477 ], [ -72.544453569203412, -38.407106433681413 ], [ -72.544522013641526, -38.406943042533278 ], [ -72.544527558941766, -38.406778383223745 ], [ -72.544616933227701, -38.406615318665757 ], [ -72.544685283342716, -38.406451929927002 ], [ -72.544732700016695, -38.406288142387361 ], [ -72.544780202030594, -38.406124205944323 ], [ -72.544786853156964, -38.405926526185418 ], [ -72.544772569943945, -38.405728446747283 ], [ -72.544779223765246, -38.405530841228583 ], [ -72.544681291229622, -38.405330940990396 ], [ -72.544625229169355, -38.405131913102075 ], [ -72.544505162145114, -38.404964563372303 ], [ -72.544365361829023, -38.404763790772613 ], [ -72.544225468088143, -38.404563020430999 ], [ -72.544064739720866, -38.404361922189715 ], [ -72.543882471549722, -38.404176750556559 ], [ -72.543678064398406, -38.404024055160065 ], [ -72.54351571816531, -38.403872300643656 ], [ -72.543353786953872, -38.403704077189282 ], [ -72.54325406048261, -38.403553672917973 ], [ -72.543212284330323, -38.403552797884252 ], [ -72.543174849735806, -38.403420065071849 ], [ -72.543156135133486, -38.403353771435249 ], [ -72.543120922072674, -38.403155219620032 ], [ -72.543023508763255, -38.402938918639165 ], [ -72.542944806462899, -38.402788838716887 ], [ -72.542883114660768, -38.402754619107796 ], [ -72.542844063098741, -38.402671304087747 ], [ -72.542701453750752, -38.402552970955377 ], [ -72.542515771083202, -38.402466640557542 ], [ -72.542331293056463, -38.402347359531753 ], [ -72.542123662749901, -38.402293571847281 ], [ -72.54191663431456, -38.402223309534143 ], [ -72.541709415436415, -38.402152978162434 ], [ -72.541522718570903, -38.402099589491876 ], [ -72.541337644062807, -38.401996856422727 ], [ -72.541172481611312, -38.401927392844193 ], [ -72.54100945355691, -38.401792185350935 ], [ -72.540865130223366, -38.401723122848388 ], [ -72.540723129933141, -38.40158831202249 ], [ -72.540537545181976, -38.401501975544605 ], [ -72.540352981815275, -38.401382767549926 ], [ -72.540146462724707, -38.40129595633649 ], [ -72.539939943634138, -38.40120914501879 ], [ -72.53975315963207, -38.401155829570328 ], [ -72.539568688791832, -38.401036544269495 ], [ -72.539361665746398, -38.400966276510559 ], [ -72.539153853980167, -38.400912489206377 ], [ -72.538968802828265, -38.400819713879734 ], [ -72.538172775112287, -38.398720582563072 ], [ -72.53757412433221, -38.397187108331757 ], [ -72.536598841394564, -38.394688903376142 ], [ -72.536231830193643, -38.393748756424237 ], [ -72.534726067826213, -38.389746939858661 ], [ -72.534257091552348, -38.388443021083546 ], [ -72.533346521451136, -38.385911097602182 ], [ -72.53181743792058, -38.382008383079295 ], [ -72.530452495457055, -38.378348282859257 ], [ -72.523456535500273, -38.359894342135419 ], [ -72.523324061843653, -38.359872278392025 ], [ -72.523321577103559, -38.359821063968091 ], [ -72.523306818681775, -38.35951694786295 ], [ -72.523293723041562, -38.359247098164545 ], [ -72.52322756212088, -38.359218315649457 ], [ -72.522788980344657, -38.359028051814398 ], [ -72.521961670595545, -38.359052935537946 ], [ -72.521872750857142, -38.359101732997921 ], [ -72.521406900720464, -38.359357869991278 ], [ -72.520809782466301, -38.359862292895876 ], [ -72.520554277344971, -38.360080442847881 ], [ -72.520262856680276, -38.360329191554257 ], [ -72.520020062720235, -38.360660753500042 ], [ -72.520010476797822, -38.360689231851069 ], [ -72.519838959664014, -38.361197681585345 ], [ -72.519510531104558, -38.361901170771048 ], [ -72.518915049580812, -38.362138390394271 ], [ -72.518850040300336, -38.362164327493737 ], [ -72.518132088758961, -38.362307516344472 ], [ -72.517626882531374, -38.362570355328636 ], [ -72.517387993547871, -38.362982897663585 ], [ -72.517051693949909, -38.363524558017069 ], [ -72.516454917055512, -38.364033451301189 ], [ -72.515792430194736, -38.364255989473222 ], [ -72.515292868980396, -38.364635838344739 ], [ -72.514592740014251, -38.365147825038605 ], [ -72.51377505840837, -38.365375083798952 ], [ -72.513317933608036, -38.365388799427699 ], [ -72.51315451119325, -38.365393628387714 ], [ -72.513037439152157, -38.365337439586284 ], [ -72.513036384529997, -38.36533695499952 ], [ -72.512677209333333, -38.365164712366685 ], [ -72.512351364328623, -38.364850222564705 ], [ -72.512273359120925, -38.364551470778487 ], [ -72.512272669214795, -38.364548834400509 ], [ -72.512224220376567, -38.364363064950723 ], [ -72.512256171654613, -38.363952163880427 ], [ -72.512500969756047, -38.363661071798177 ], [ -72.512577587964941, -38.363588297538165 ], [ -72.512946514374036, -38.363237838301373 ], [ -72.513036410581151, -38.362951392152105 ], [ -72.512847717659085, -38.362263434697375 ], [ -72.512768810542838, -38.362213332759175 ], [ -72.512668538794202, -38.362149775164127 ], [ -72.512420236364846, -38.361992507683645 ], [ -72.511990678165645, -38.361676625633415 ], [ -72.511511631777452, -38.361407167167812 ], [ -72.510756195335915, -38.361273515965863 ], [ -72.510728023270275, -38.361268530358444 ], [ -72.510573372904233, -38.361297593810619 ], [ -72.509958300022447, -38.361413147349467 ], [ -72.509397370399469, -38.361592091202368 ], [ -72.509106805829262, -38.362010740397118 ], [ -72.508998787009588, -38.362300679017423 ], [ -72.508923447103356, -38.362502705664248 ], [ -72.508694602183041, -38.363122152437612 ], [ -72.508585791049299, -38.36320378451915 ], [ -72.508504845655679, -38.363264656867429 ], [ -72.50829463718425, -38.363422312503801 ], [ -72.507737697877772, -38.36368230606255 ], [ -72.507382006347768, -38.363799006712718 ], [ -72.506921956632894, -38.363949899379946 ], [ -72.506311198359413, -38.364170908659389 ], [ -72.506024609732648, -38.364670461974931 ], [ -72.505682251896403, -38.365090580939565 ], [ -72.505395436894162, -38.36558563704353 ], [ -72.504543853767757, -38.366183127324092 ], [ -72.503877311013454, -38.366324765034285 ], [ -72.503113377407644, -38.366590782859042 ], [ -72.50229790026745, -38.366862911850866 ], [ -72.501331103714264, -38.36721616308003 ], [ -72.500203061364232, -38.367452532777619 ], [ -72.498924039164379, -38.367779081866459 ], [ -72.498629363903419, -38.368112226089444 ], [ -72.498444085477757, -38.368568072329573 ], [ -72.497888831410748, -38.368868483787004 ], [ -72.497567637882597, -38.368999695336875 ], [ -72.497341460958665, -38.369087479934919 ], [ -72.497228377437452, -38.369131445441674 ], [ -72.49631312801192, -38.369487617602744 ], [ -72.496062391148115, -38.369657162342023 ], [ -72.495503312952934, -38.369876573751505 ], [ -72.494940455545375, -38.370019567749978 ], [ -72.493885529771262, -38.369762722630909 ], [ -72.493234674296772, -38.369705612477183 ], [ -72.492534202174184, -38.369649831291163 ], [ -72.491689661839615, -38.369711103894275 ], [ -72.491153328987423, -38.369961328107756 ], [ -72.490249990324244, -38.369835053314027 ], [ -72.490121208743432, -38.369739856178136 ], [ -72.489785011553394, -38.36949313439117 ], [ -72.489381257460749, -38.369274254272177 ], [ -72.489170764223388, -38.369160089493015 ], [ -72.488732787013333, -38.369139856243443 ], [ -72.488205182192473, -38.369115427446545 ], [ -72.487372019020967, -38.36914031685842 ], [ -72.486538945680991, -38.369165123858188 ], [ -72.485240226121888, -38.369317728766603 ], [ -72.484196673019269, -38.369384796646848 ], [ -72.483601418769297, -38.369443021258412 ], [ -72.482805031727196, -38.369466710428647 ], [ -72.482107957931348, -38.369487440823214 ], [ -72.481696601396436, -38.369224924173253 ], [ -72.481596679990759, -38.368990487949027 ], [ -72.481415867988687, -38.368566583418648 ], [ -72.481105963588703, -38.368341637075389 ], [ -72.48045133608835, -38.368203464308159 ], [ -72.480193190818397, -38.368133206903529 ], [ -72.479794673005543, -38.368024759363159 ], [ -72.479252151659381, -38.367937267880123 ], [ -72.478206180292005, -38.367752114249086 ], [ -72.477224264194291, -38.367434500053335 ], [ -72.476501110509119, -38.366906473721571 ], [ -72.475835301678401, -38.366534373123173 ], [ -72.475081013283784, -38.366399127626543 ], [ -72.474267854695327, -38.36607183064762 ], [ -72.473161318013197, -38.365865992939113 ], [ -72.472256209668899, -38.365699115097271 ], [ -72.471406187814452, -38.365643285745541 ], [ -72.470890444348584, -38.365658500155007 ], [ -72.470659534201431, -38.365665416755093 ], [ -72.469981689742539, -38.366081872338242 ], [ -72.469402933951073, -38.36649088639178 ], [ -72.468621396060627, -38.366824800739032 ], [ -72.467839975849486, -38.367163281787995 ], [ -72.467388430485414, -38.367100050415416 ], [ -72.466772364965252, -38.366726424534036 ], [ -72.466361170127087, -38.366463847861368 ], [ -72.466350189121059, -38.366465500220208 ], [ -72.466064203263841, -38.366508651001496 ], [ -72.465870694473537, -38.366631495884214 ], [ -72.465672777650141, -38.366974166460004 ], [ -72.465640489503883, -38.367030175092303 ], [ -72.465565283446608, -38.36754588549163 ], [ -72.46532571533676, -38.36774662127474 ], [ -72.464690009949535, -38.368004167299723 ], [ -72.464299024510325, -38.368168938859071 ], [ -72.464004290858853, -38.368258762041833 ], [ -72.463460348377907, -38.368351379118529 ], [ -72.462970069455409, -38.368523584586683 ], [ -72.462527650076296, -38.36865371071746 ], [ -72.462085325918608, -38.368783905636413 ], [ -72.461646765701943, -38.368995018043137 ], [ -72.460582785808086, -38.36915708845342 ], [ -72.460308999072424, -38.369507527481041 ], [ -72.46003244642398, -38.369803953643483 ], [ -72.459674984314574, -38.369927130290883 ], [ -72.459037369109055, -38.369834680036369 ], [ -72.458363616476277, -38.369853324901278 ], [ -72.457567900475695, -38.369930841933773 ], [ -72.456839680292319, -38.369898247786466 ], [ -72.456027967093164, -38.369633952157777 ], [ -72.455434016298653, -38.36936772648059 ], [ -72.455002747707169, -38.369082676576305 ], [ -72.454683845781304, -38.368871872207372 ], [ -72.454157006325048, -38.368491043333165 ], [ -72.453699905779246, -38.368045059130083 ], [ -72.45339049455437, -38.367653313191752 ], [ -72.452637789889607, -38.367103499490462 ], [ -72.451758949182519, -38.366958196585877 ], [ -72.450984610390748, -38.366911130724823 ], [ -72.449864413028095, -38.36684288573543 ], [ -72.448480155887665, -38.366766539509008 ], [ -72.448023316751616, -38.366325099591819 ], [ -72.447345884619452, -38.365831482574656 ], [ -72.447243387743839, -38.365615393240162 ], [ -72.447103693428957, -38.365320622732632 ], [ -72.447288853277001, -38.364630547281777 ], [ -72.44763541702541, -38.364277994828008 ], [ -72.447621746463398, -38.363990141268822 ], [ -72.447235902980893, -38.363395100963189 ], [ -72.446718609022852, -38.36333210014638 ], [ -72.44577061420857, -38.36345851870599 ], [ -72.445635652218584, -38.363476510863677 ], [ -72.44433519082618, -38.363631884623587 ], [ -72.443023725969852, -38.363553405029727 ], [ -72.442485985457623, -38.362938607935845 ], [ -72.442467534061691, -38.362849928379227 ], [ -72.442391905796242, -38.362486480526307 ], [ -72.442381027198138, -38.362257066477412 ], [ -72.442431810757782, -38.361796105461934 ], [ -72.442418282129609, -38.361512749350851 ], [ -72.442103908611102, -38.361008500658997 ], [ -72.441585172857017, -38.360794012081826 ], [ -72.44119808520783, -38.360291898321343 ], [ -72.440958726405427, -38.359839462761272 ], [ -72.440928882575065, -38.359209733229662 ], [ -72.440402064678366, -38.358824337578639 ], [ -72.440036639902274, -38.358781052605806 ], [ -72.439311181140042, -38.358802285484046 ], [ -72.438714209311257, -38.358473036755406 ], [ -72.438042736602696, -38.358096380341244 ], [ -72.437096818693334, -38.358065622197451 ], [ -72.436322911991226, -38.358601821450428 ], [ -72.435748151906154, -38.358735729057649 ], [ -72.43458729140383, -38.358769853269081 ], [ -72.433789197562703, -38.358793182459713 ], [ -72.432606734374431, -38.358368450399837 ], [ -72.431588272116016, -38.35833970134707 ], [ -72.430411353329674, -38.35803190339557 ], [ -72.42944928371152, -38.357659132358187 ], [ -72.427479613365051, -38.357487131385959 ], [ -72.426386080694968, -38.357406512855768 ], [ -72.425375601764458, -38.357548688303872 ], [ -72.424577704654382, -38.357572022114496 ], [ -72.423642605156004, -38.357770500436402 ], [ -72.42256518556718, -38.358031726588081 ], [ -72.421927821889938, -38.358329310604127 ], [ -72.421783017059383, -38.358396934583475 ], [ -72.421353304349964, -38.358526606967366 ], [ -72.420786261691489, -38.358826926970011 ], [ -72.42007691870549, -38.359194497741512 ], [ -72.419571786139755, -38.359263269085297 ], [ -72.419136369128267, -38.35927598139741 ], [ -72.418480980754865, -38.359241018483459 ], [ -72.417655984167624, -38.35869308363241 ], [ -72.416476262637588, -38.358326628917339 ], [ -72.415154200355843, -38.358018333595055 ], [ -72.413668281773042, -38.357318500651431 ], [ -72.413149761614633, -38.357108305155926 ], [ -72.412346081150744, -38.357014605084174 ], [ -72.411631404866881, -38.357265235968157 ], [ -72.411048267991774, -38.357223624469995 ], [ -72.410336328874607, -38.357532690286739 ], [ -72.409699451185944, -38.3578935130068 ], [ -72.40905922906947, -38.357797983177718 ], [ -72.408754248335569, -38.357222963019431 ], [ -72.408774591583494, -38.357093296753625 ], [ -72.408842432353737, -38.356661738698719 ], [ -72.408541520988081, -38.356440834698866 ], [ -72.408369522357262, -38.356428497349036 ], [ -72.407958203551587, -38.356399212864901 ], [ -72.407163047201436, -38.356480870842773 ], [ -72.406864789459121, -38.35631840785846 ], [ -72.406962872911734, -38.356147662518715 ], [ -72.406999097475577, -38.356084764581347 ], [ -72.407055690440146, -38.355740839280017 ], [ -72.406551545122923, -38.355510786062752 ], [ -72.406461710001238, -38.355469783598934 ], [ -72.406013112907914, -38.355199073487562 ], [ -72.405830649802368, -38.354935530066463 ], [ -72.405701363368365, -38.354748740566642 ], [ -72.405459712065351, -38.354242273649312 ], [ -72.404868587370729, -38.354029723400352 ], [ -72.40420483927528, -38.353819282365187 ], [ -72.403686161911708, -38.353604620326159 ], [ -72.403586430050552, -38.353588330497409 ], [ -72.403100621144887, -38.353509017914782 ], [ -72.402676074646692, -38.3537510891381 ], [ -72.402307924382001, -38.353644665787357 ], [ -72.401786726345719, -38.353376046727178 ], [ -72.401480582293516, -38.353042658566366 ], [ -72.401397082091236, -38.352884644296751 ], [ -72.40124139866262, -38.352590131209325 ], [ -72.400857154181296, -38.352141815866268 ], [ -72.400411521528412, -38.351929520810636 ], [ -72.40020245840897, -38.351887915404156 ], [ -72.399898135241841, -38.351827378681321 ], [ -72.399470941408495, -38.352010918948288 ], [ -72.398898399263828, -38.352198674997666 ], [ -72.398315515713634, -38.352161494518569 ], [ -72.397646729866082, -38.351838617133453 ], [ -72.396690063614372, -38.351578106222959 ], [ -72.395583173894323, -38.351209323827185 ], [ -72.394782399480363, -38.351173940670712 ], [ -72.394054464062947, -38.351141015425497 ], [ -72.393409472790623, -38.351330844894328 ], [ -72.393130152432818, -38.351568600739448 ] ] ] } },
{ "type": "Feature", "properties": { "capa": "colegios", "popup": "<strong>ESCUELA PARTICULAR LA ESTRELLA</strong><br><br><strong>Dirección:</strong> REDUCCION PICHUNLAO 0", "etiqueta": "" }, "geometry": { "type": "Point", "coordinates": [ -72.571487, -38.481892 ] } },
{ "type": "Feature", "properties": { "capa": "colegios", "popup": "<strong>ESCUELA LOS QUIQUES</strong><br><br><strong>Dirección:</strong> COMUNIDAD INDIGENA FERNANDO CARILAO 0", "etiqueta": "" }, "geometry": { "type": "Point", "coordinates": [ -72.499901, -38.476749 ] } },
{ "type": "Feature", "properties": { "capa": "colegios", "popup": "<strong>ESC. BASICA PARLAMENTO</strong><br><br><strong>Dirección:</strong> QUILLEM 0", "etiqueta": "" }, "geometry": { "type": "Point", "coordinates": [ -72.385803, -38.466709 ] } },
{ "type": "Feature", "properties": { "capa": "colegios", "popup": "<strong>LICEO AGRICOLA SAN SEBASTIAN</strong><br><br><strong>Dirección:</strong> KM. 1,2 ACCESO SUR PERQUENCO 0", "etiqueta": "" }, "geometry": { "type": "Point", "coordinates": [ -72.390778, -38.430969 ] } },
{ "type": "Feature", "properties": { "capa": "colegios", "popup": "<strong>ESCUELA EDUARDO FREI MONTALVA</strong><br><br><strong>Dirección:</strong> 21 DE MAYO 448", "etiqueta": "" }, "geometry": { "type": "Point", "coordinates": [ -72.375977, -38.421421 ] } },
{ "type": "Feature", "properties": { "capa": "colegios", "popup": "<strong>LICEO ISABEL POBLETE V.</strong><br><br><strong>Dirección:</strong> 21 DE MAYO 552", "etiqueta": "" }, "geometry": { "type": "Point", "coordinates": [ -72.375351, -38.42049 ] } },
{ "type": "Feature", "properties": { "capa": "colegios", "popup": "<strong>ESCUELA BASICA PART VISTA HERMOSA</strong><br><br><strong>Dirección:</strong> HIJUELA SANTA CECILIA CAMINO A LA ESPERANZA 0", "etiqueta": "" }, "geometry": { "type": "Point", "coordinates": [ -72.288307, -38.4189 ] } },
{ "type": "Feature", "properties": { "capa": "colegios", "popup": "<strong>ESCUELA PARTICULAR LAS CEREZAS</strong><br><br><strong>Dirección:</strong> COMUNIDAD JACINTA MILLALEN 508", "etiqueta": "" }, "geometry": { "type": "Point", "coordinates": [ -72.359093, -38.366901 ] } },
{ "type": "Feature", "properties": { "capa": "jardines", "popup": "<strong>LOS OSITOS</strong><br><br><strong>Dirección:</strong> SECTOR LOS QUIQUES ", "etiqueta": "" }, "geometry": { "type": "MultiPoint", "coordinates": [ [ -72.454951, -38.441804 ] ] } },
{ "type": "Feature", "properties": { "capa": "jardines", "popup": "<strong>RINCON FELIZ</strong><br><br><strong>Dirección:</strong> ESMERALDA 780 ", "etiqueta": "" }, "geometry": { "type": "MultiPoint", "coordinates": [ [ -72.382154, -38.419718 ] ] } },
{ "type": "Feature", "properties": { "capa": "jardines", "popup": "<strong>LAS ARDILLITAS (QUILLEM)</strong><br><br><strong>Dirección:</strong> CALLE LAUTARO N. 185 ", "etiqueta": "" }, "geometry": { "type": "MultiPoint", "coordinates": [ [ -72.386355, -38.46674 ] ] } },
{ "type": "Feature", "properties": { "capa": "jardines", "popup": "<strong>NA</strong><br><br><strong>Dirección:</strong> NA ", "etiqueta": "" }, "geometry": { "type": "MultiPoint", "coordinates": [ [ -72.375605999569785, -38.422972999656579 ] ] } },
{ "type": "Feature", "properties": { "capa": "bomberos", "popup": "<strong>Cuerpo de Bomberos</strong><br><br><strong>Dirección:</strong> Orella 541", "etiqueta": "" }, "geometry": { "type": "Point", "coordinates": [ -72.379720254481811, -38.422127827216059 ] } },
{ "type": "Feature", "properties": { "capa": "comisarias", "popup": "<strong>RETEN PERQUENCO</strong><br><br><strong>Dirección:</strong> 21 DE MAYO 282", "etiqueta": "" }, "geometry": { "type": "Point", "coordinates": [ -72.377359450999904, -38.419817772999913 ] } },
{ "type": "Feature", "properties": { "capa": "salud", "popup": "<strong>Posta de Salud Rural Quillem</strong><br><br><strong>Tipo de atención:</strong> Posta de Salud Rural (PSR)<br><strong>Dirección:</strong>  NA", "etiqueta": "" }, "geometry": { "type": "Point", "coordinates": [ -72.388235, -38.463813 ] } },
{ "type": "Feature", "properties": { "capa": "salud", "popup": "<strong>Posta de Salud Rural Pitraco</strong><br><br><strong>Tipo de atención:</strong> Posta de Salud Rural (PSR)<br><strong>Dirección:</strong>  NA", "etiqueta": "" }, "geometry": { "type": "Point", "coordinates": [ -72.55306, -38.46531 ] } },
{ "type": "Feature", "properties": { "capa": "salud", "popup": "<strong>SUR Perquenco</strong><br><br><strong>Tipo de atención:</strong> Servicio de Urgencia Rural (SUR)<br><strong>Dirección:</strong>  NA", "etiqueta": "" }, "geometry": { "type": "Point", "coordinates": [ -72.372275, -38.418376 ] } },
{ "type": "Feature", "properties": { "capa": "salud", "popup": "<strong>Centro de Salud Familiar  Perquenco</strong><br><br><strong>Tipo de atención:</strong> Centro de Salud Familiar (CESFAM)<br><strong>Dirección:</strong>  880", "etiqueta": "" }, "geometry": { "type": "Point", "coordinates": [ -72.37236, -38.41834 ] } }
]
}
