{
"type": "FeatureCollection",
"name": "9209",
"crs": { "type": "name", "properties": { "name": "urn:ogc:def:crs:OGC:1.3:CRS84" } },
"features": [
{ "type": "Feature", "properties": { "capa": "comuna", "popup": "", "etiqueta": "" }, "geometry": { "type": "Polygon", "coordinates": [ [ [ -72.682631139819179, -37.62069870577497 ], [ -72.682452749675107, -37.620939700575867 ], [ -72.682287161422153, -37.621163763898416 ], [ -72.681681289983828, -37.621571248669966 ], [ -72.681273044314764, -37.621982592603032 ], [ -72.681263330831584, -37.622296986469969 ], [ -72.68128125222151, -37.622487049727042 ], [ -72.681312830698701, -37.622822145620717 ], [ -72.681303118113846, -37.623136539494602 ], [ -72.681115663968569, -37.623506078365175 ], [ -72.681092496417392, -37.623551746041031 ], [ -72.681070549676676, -37.623558261251141 ], [ -72.680921302677064, -37.623602333000406 ], [ -72.680759893386806, -37.623650030525518 ], [ -72.680232925471458, -37.623639700973705 ], [ -72.679577530809851, -37.623521941989132 ], [ -72.678857788027813, -37.623350543378372 ], [ -72.678401531000048, -37.623184274316806 ], [ -72.677864502851833, -37.623126056897931 ], [ -72.677810400915533, -37.623120217579348 ], [ -72.677547009484343, -37.623115006518994 ], [ -72.677084204636486, -37.62315830512587 ], [ -72.676613353578631, -37.623463619532494 ], [ -72.675949820180548, -37.623607787359582 ], [ -72.67566990064644, -37.623570394467727 ], [ -72.675490383116681, -37.623546326541266 ], [ -72.675161856640855, -37.62340749841708 ], [ -72.675099980684095, -37.623381384157661 ], [ -72.674935871956407, -37.62337816318729 ], [ -72.674770647521157, -37.623374902372632 ], [ -72.674303610709998, -37.623272125093266 ], [ -72.674246957558296, -37.623259722168257 ], [ -72.674222569196644, -37.623265648279236 ], [ -72.673848406507759, -37.623356722776997 ], [ -72.673715116282537, -37.623406486661338 ], [ -72.673385691491433, -37.623400004166996 ], [ -72.673051938617277, -37.623494022691702 ], [ -72.672914911400497, -37.623705227932078 ], [ -72.672639988295998, -37.624066779572345 ], [ -72.672500040656189, -37.624326118556738 ], [ -72.672228392809217, -37.624582846177162 ], [ -72.67206047522474, -37.624579592530282 ], [ -72.671964906156589, -37.6245776992535 ], [ -72.671770548458355, -37.624468998334009 ], [ -72.671581162935212, -37.624203168885877 ], [ -72.671588044030287, -37.623981187313213 ], [ -72.67159091504594, -37.623888774542571 ], [ -72.671597483527293, -37.623679273864582 ], [ -72.67127302372478, -37.623515511444417 ], [ -72.671030994231032, -37.623565412542064 ], [ -72.6708086198757, -37.623611233154001 ], [ -72.670734604984517, -37.623871837347188 ], [ -72.670660593686563, -37.624132514622303 ], [ -72.670458073895645, -37.624285758386876 ], [ -72.670067770277726, -37.624120796299124 ], [ -72.669870224458549, -37.624116911535815 ], [ -72.669687529587648, -37.624390198445802 ], [ -72.669662728899283, -37.624427353998406 ], [ -72.669654200293976, -37.624457655731568 ], [ -72.669514605692086, -37.624948711564606 ], [ -72.669432417928419, -37.625471262898678 ], [ -72.66941927647413, -37.625890410800046 ], [ -72.669353210774887, -37.62601290944967 ], [ -72.669279314461292, -37.626149746979436 ], [ -72.66893860862686, -37.626510018174955 ], [ -72.668875093244694, -37.626488305462566 ], [ -72.668612452805078, -37.626398698302161 ], [ -72.668159484509587, -37.626127638581238 ], [ -72.667772461539101, -37.625857845726465 ], [ -72.667645330163452, -37.625772727240417 ], [ -72.667449694162556, -37.625641769403394 ], [ -72.667125237054975, -37.625478069648224 ], [ -72.667007644889338, -37.625494423062442 ], [ -72.66646326403054, -37.625569884933249 ], [ -72.666124045806214, -37.625877631228413 ], [ -72.665989056866792, -37.625979836434993 ], [ -72.665915022212644, -37.626240438727585 ], [ -72.665906846645242, -37.626502460205153 ], [ -72.666092930859705, -37.62687312282722 ], [ -72.6662824008245, -37.627139031660292 ], [ -72.666404322869795, -37.627455897397361 ], [ -72.665938286781866, -37.627603974790027 ], [ -72.665651439440296, -37.62756551884965 ], [ -72.665478830853388, -37.627542476011051 ], [ -72.665215237301254, -37.627537243916848 ], [ -72.665011095152948, -37.627742852705012 ], [ -72.665004141294332, -37.627767496266934 ], [ -72.664937061397112, -37.628003528499612 ], [ -72.665213381381875, -37.628142974833303 ], [ -72.665261526589532, -37.628167233364657 ], [ -72.665717697379009, -37.628333557445664 ], [ -72.666012097755512, -37.628538711546994 ], [ -72.666104723942766, -37.628603282975142 ], [ -72.666162399377257, -37.62886657673257 ], [ -72.666083385361503, -37.629284380064092 ], [ -72.665681682122639, -37.629486098824927 ], [ -72.665088721271601, -37.629474360713864 ], [ -72.664629253665012, -37.629412858502413 ], [ -72.664343346859539, -37.629369130980358 ], [ -72.663842121066978, -37.629292467777915 ], [ -72.663777306720903, -37.629265111267244 ], [ -72.66319158718936, -37.629017420982727 ], [ -72.662542663991033, -37.628690070841905 ], [ -72.66224697722707, -37.628524651103959 ], [ -72.6621539503912, -37.628472636050191 ], [ -72.661564386070225, -37.628356125498826 ], [ -72.660978120362969, -37.62813478810191 ], [ -72.660520262537389, -37.62802082261679 ], [ -72.659410301477394, -37.627684307315526 ], [ -72.658891596266031, -37.627411931806535 ], [ -72.658501294444775, -37.627246857130402 ], [ -72.658326600868079, -37.627190731756585 ], [ -72.657979200788162, -37.627079230767848 ], [ -72.657378133539979, -37.626676860357662 ], [ -72.657333709154244, -37.626647021985214 ], [ -72.656948324710825, -37.62632481674509 ], [ -72.656824834207029, -37.626060239729114 ], [ -72.656502002151811, -37.625844135535246 ], [ -72.656044261107198, -37.62573022132181 ], [ -72.655982634882065, -37.625709108159192 ], [ -72.655718219371465, -37.625618862572694 ], [ -72.655646978477847, -37.625617382692731 ], [ -72.655520572940972, -37.625614883972233 ], [ -72.655064440779043, -37.625448592939073 ], [ -72.655051635294654, -37.625403159794899 ], [ -72.655020288582818, -37.625291809093575 ], [ -72.655005107054521, -37.625237667996501 ], [ -72.655077571453546, -37.625029445392293 ], [ -72.655084182155719, -37.624819869665373 ], [ -72.655090704822982, -37.624610370188513 ], [ -72.654835524891809, -37.624343160238098 ], [ -72.654263469634031, -37.624240311725018 ], [ -72.654180059263268, -37.624225261492093 ], [ -72.653989123247968, -37.624011700542624 ], [ -72.653865651608797, -37.623747192846658 ], [ -72.653812941162855, -37.623326765673831 ], [ -72.653824474632799, -37.622960065533192 ], [ -72.653834395626788, -37.622645665220873 ], [ -72.653379069253674, -37.620683346733387 ], [ -72.653227513583772, -37.621061177096692 ], [ -72.652527985590567, -37.621772301037602 ], [ -72.65250990430053, -37.621793378319488 ], [ -72.652320690355594, -37.621963225858643 ], [ -72.651421928608798, -37.623060588483952 ], [ -72.650959904396899, -37.623921610847674 ], [ -72.650829075555563, -37.624683221078108 ], [ -72.651033992949976, -37.625434354752315 ], [ -72.651288248514732, -37.626050380798247 ], [ -72.652539415754248, -37.627571219083897 ], [ -72.652957215006353, -37.628093095306582 ], [ -72.653207038283497, -37.628620029846189 ], [ -72.653356034653171, -37.629372966379442 ], [ -72.653229678523616, -37.630223515843518 ], [ -72.652335198147441, -37.631409829161569 ], [ -72.650500665860747, -37.632848140799204 ], [ -72.648947973706214, -37.634322197227384 ], [ -72.647317383243504, -37.635353041242325 ], [ -72.644488482412626, -37.637089343003879 ], [ -72.642982851199193, -37.638383641995034 ], [ -72.641227759628009, -37.640309463812734 ], [ -72.640472624122083, -37.640912129339739 ], [ -72.640335240274112, -37.641540206454593 ], [ -72.640370026635168, -37.642252113948615 ], [ -72.64067149854958, -37.642512906718871 ], [ -72.640680767366675, -37.642537342656915 ], [ -72.641096084573661, -37.643129742934605 ], [ -72.641124697712101, -37.643154983875917 ], [ -72.641648256520938, -37.64361864958606 ], [ -72.642289464089274, -37.644009304836473 ], [ -72.642985322464554, -37.644526676898707 ], [ -72.643198657971467, -37.644685318619395 ], [ -72.643582127206699, -37.644762537113095 ], [ -72.644162352641985, -37.644879497086862 ], [ -72.644227781435688, -37.644921163392844 ], [ -72.644554844555913, -37.645129715784698 ], [ -72.645297384783234, -37.64551943272059 ], [ -72.645776098794784, -37.646034946345409 ], [ -72.646082289559374, -37.646512771327309 ], [ -72.646555360354299, -37.647510000105775 ], [ -72.647046680424225, -37.648881490369604 ], [ -72.647075996943528, -37.649480206470876 ], [ -72.647371777132292, -37.650707787910839 ], [ -72.64768165997269, -37.65126032657983 ], [ -72.647942634935774, -37.651776963219689 ], [ -72.648013546147681, -37.652261993671445 ], [ -72.647963376137383, -37.653163018646254 ], [ -72.647713970576831, -37.653845345742695 ], [ -72.647035500890524, -37.654428559521349 ], [ -72.646000597665761, -37.655434973066264 ], [ -72.645611835556878, -37.656159024629837 ], [ -72.645398403930216, -37.656615439003026 ], [ -72.645413058147454, -37.656914760791182 ], [ -72.645482127812997, -37.657362359749946 ], [ -72.645688699005859, -37.657730796066936 ], [ -72.64629018576727, -37.65846169084184 ], [ -72.646359262619356, -37.658909288297522 ], [ -72.647093435039807, -37.660423146842383 ], [ -72.647448619021702, -37.66093686591546 ], [ -72.647848964007835, -37.661411621036741 ], [ -72.648339827733594, -37.661808738641 ], [ -72.649258060464192, -37.662267521901576 ], [ -72.649615100365438, -37.662818592837219 ], [ -72.650278437032483, -37.663847397304046 ], [ -72.650892289103794, -37.664552052426721 ], [ -72.650923839733196, -37.664699411620596 ], [ -72.650870908301712, -37.664729391865222 ], [ -72.650815534350954, -37.664760701865816 ], [ -72.650807374953246, -37.664762799628292 ], [ -72.650208867903629, -37.664872785586446 ], [ -72.649840244226795, -37.66497564469902 ], [ -72.64941405021834, -37.66508021387147 ], [ -72.648983476922879, -37.665093552737844 ], [ -72.648521838088257, -37.665062171056249 ], [ -72.647828450080027, -37.664992281683276 ], [ -72.647364569948763, -37.664915134001745 ], [ -72.646903026335551, -37.664883743000338 ], [ -72.646297892414083, -37.664856719592727 ], [ -72.645350633320035, -37.664886111690244 ], [ -72.644715649279973, -37.664837200468824 ], [ -72.643994642568316, -37.664790948039212 ], [ -72.64321057861531, -37.664632323668329 ], [ -72.642745590861296, -37.664532388867727 ], [ -72.642184536372497, -37.664229815303571 ], [ -72.641403633590969, -37.663545405486317 ], [ -72.641129571970836, -37.663233880580641 ], [ -72.640803810509453, -37.663038269547378 ], [ -72.640338834433564, -37.662938324067213 ], [ -72.639734930305707, -37.662934180351137 ], [ -72.639168589231474, -37.663111676546052 ], [ -72.637826273533335, -37.663884494725266 ], [ -72.636731220015463, -37.664421106764244 ], [ -72.636287516045499, -37.664754801108614 ], [ -72.635781875931656, -37.664998967480045 ], [ -72.63536133052969, -37.665217701216854 ], [ -72.635174845666597, -37.665520501149992 ], [ -72.634927643673464, -37.665756762588963 ], [ -72.634621845472637, -37.665971804935332 ], [ -72.63408643519027, -37.666194079177757 ], [ -72.633663554168578, -37.666367122550753 ], [ -72.633385377366125, -37.666558579875677 ], [ -72.633024419013594, -37.666821075673106 ], [ -72.632923025269164, -37.667098517519499 ], [ -72.632847059237164, -37.667900778955186 ], [ -72.632719152615437, -37.668224720226277 ], [ -72.632619889674856, -37.668547778357052 ], [ -72.632374892147411, -37.668829574722487 ], [ -72.632006127435091, -37.668932384265609 ], [ -72.630995660182691, -37.668849220788559 ], [ -72.629539106628187, -37.668459870897941 ], [ -72.628485446580314, -37.668080897092253 ], [ -72.627107721090297, -37.667243409180408 ], [ -72.626928718295218, -37.667111800558644 ], [ -72.62646160153399, -37.666966183334331 ], [ -72.625141932364173, -37.666435369433742 ], [ -72.622796408699443, -37.66550192796209 ], [ -72.622116028296531, -37.665111414214302 ], [ -72.621790211139611, -37.664915751240422 ], [ -72.621412563885741, -37.664835923323885 ], [ -72.620862682642453, -37.664761388083058 ], [ -72.620395594627297, -37.664615819580447 ], [ -72.619834614698689, -37.664312987512254 ], [ -72.619212846673094, -37.663943608213138 ], [ -72.618744651933525, -37.663775114595246 ], [ -72.618254381095866, -37.663744491827764 ], [ -72.617738791241919, -37.663783132420605 ], [ -72.616814012487836, -37.663982967637956 ], [ -72.616332704141769, -37.664134939522555 ], [ -72.615724249148684, -37.664039299885104 ], [ -72.61534106827267, -37.663845305204639 ], [ -72.615152212755547, -37.663508298651109 ], [ -72.615077007596597, -37.663144925745996 ], [ -72.614864959375467, -37.662922872776647 ], [ -72.614413328671432, -37.662502488775601 ], [ -72.613944048766996, -37.662311205170845 ], [ -72.613505625992588, -37.662164655480673 ], [ -72.613237314488572, -37.661967203351857 ], [ -72.613001058467162, -37.661837255117234 ], [ -72.61268302970376, -37.661801325777674 ], [ -72.612396966591433, -37.661832976224225 ], [ -72.611892460151452, -37.662099884948198 ], [ -72.611146204492101, -37.662716931115426 ], [ -72.610757555570956, -37.66300316071365 ], [ -72.610388779180511, -37.663105828991867 ], [ -72.610035370269628, -37.66293385607883 ], [ -72.609921714521576, -37.662960143462833 ], [ -72.60971078829624, -37.662760925593012 ], [ -72.609468911516103, -37.662516897640849 ], [ -72.608997429840898, -37.662279979472608 ], [ -72.608701496938536, -37.662106167082889 ], [ -72.608370196465131, -37.661796390505607 ], [ -72.607881023368748, -37.661194252851566 ], [ -72.607575145217865, -37.66081506060678 ], [ -72.607215209148137, -37.660506082948729 ], [ -72.606773493149902, -37.660291046813441 ], [ -72.605489894033681, -37.660204583876222 ], [ -72.604916943155558, -37.66024499636211 ], [ -72.604404590829915, -37.660352113131154 ], [ -72.603991700870822, -37.660730501302702 ], [ -72.603658199524958, -37.660969264852255 ], [ -72.603087350704612, -37.661055212743612 ], [ -72.602492279710944, -37.661233412481671 ], [ -72.601815419805632, -37.661505622044153 ], [ -72.601223649222334, -37.661752201316574 ], [ -72.600426402492502, -37.661913692019951 ], [ -72.59968552325013, -37.662050651170389 ], [ -72.598898202005884, -37.66241758436292 ], [ -72.597923224495432, -37.663064416092226 ], [ -72.597037659898447, -37.66377714198515 ], [ -72.596004074502218, -37.66440294218912 ], [ -72.59484400272072, -37.665089789582055 ], [ -72.594274125877519, -37.665792788856386 ], [ -72.594155970468194, -37.666322151038244 ], [ -72.594238791544129, -37.666845307353199 ], [ -72.594484948796591, -37.667180600690365 ], [ -72.59492658394646, -37.667395685131758 ], [ -72.595560478330086, -37.667422094663621 ], [ -72.59633015845877, -37.667284281459644 ], [ -72.59798538072657, -37.667027978710841 ], [ -72.599277300038935, -37.666988511393647 ], [ -72.5997985384994, -37.667064022849402 ], [ -72.600388199838406, -37.667366001773772 ], [ -72.60072171016742, -37.667721564160573 ], [ -72.600745994324498, -37.668223551933735 ], [ -72.600631636992205, -37.669129924526068 ], [ -72.600318049499563, -37.669779435334796 ], [ -72.599243585368001, -37.670749391534535 ], [ -72.5981833936697, -37.671421708358629 ], [ -72.597222608642397, -37.671771053190177 ], [ -72.596651765211959, -37.671857045457187 ], [ -72.595935015616433, -37.671901807414983 ], [ -72.595383994411037, -37.671804310598731 ], [ -72.59439012533015, -37.671469033173189 ], [ -72.593025308630786, -37.670596427768388 ], [ -72.592256786430497, -37.670162744297151 ], [ -72.591436391014099, -37.669844881780989 ], [ -72.590794766627482, -37.669658686237618 ], [ -72.590218332981024, -37.669630573803602 ], [ -72.590041821214214, -37.669636027628009 ], [ -72.589932613923452, -37.669618248301184 ], [ -72.589693507547651, -37.669573284447118 ], [ -72.589475763109292, -37.66943608177273 ], [ -72.589037339436572, -37.669289439490129 ], [ -72.588601212756004, -37.669188483473206 ], [ -72.588162790879906, -37.669041839279195 ], [ -72.587748713348006, -37.668803085340848 ], [ -72.587333626109739, -37.668541409305966 ], [ -72.586979137423896, -37.668346521198202 ], [ -72.586598294862554, -37.668198116857035 ], [ -72.585611008636064, -37.66799961132098 ], [ -72.585058925622022, -37.667879218421398 ], [ -72.584272725475245, -37.667674581829083 ], [ -72.584011061504341, -37.667614055555163 ], [ -72.583775058807831, -37.667571641838286 ], [ -72.58358921534186, -37.667442978381864 ], [ -72.583577596531981, -37.66743499223935 ], [ -72.583574348223905, -37.667408005314662 ], [ -72.583569640153499, -37.667369994493292 ], [ -72.583538609648656, -37.667354111076897 ], [ -72.583472340031818, -37.66717324809445 ], [ -72.583546376482587, -37.666919556067292 ], [ -72.583706630539396, -37.666663313923657 ], [ -72.58377728034155, -37.66634123742849 ], [ -72.583754204418526, -37.665861937225316 ], [ -72.583395513413777, -37.664981406773428 ], [ -72.582859196731292, -37.663992106866516 ], [ -72.58246620984562, -37.663592617277935 ], [ -72.581957274711286, -37.663173847047993 ], [ -72.580830053421423, -37.662453869679403 ], [ -72.58036414130099, -37.662330909141502 ], [ -72.579539399835284, -37.661921725691293 ], [ -72.579133158307613, -37.66184262915619 ], [ -72.578445222174821, -37.661886407256233 ], [ -72.577851169870698, -37.662087255253134 ], [ -72.577202932985259, -37.662358382902099 ], [ -72.576642906169141, -37.662672436690237 ], [ -72.576286144745623, -37.66302622242133 ], [ -72.576108281014328, -37.66351155130441 ], [ -72.57607821260514, -37.664083833313278 ], [ -72.575874900500139, -37.664638569322207 ], [ -72.575457359064501, -37.664925562347747 ], [ -72.573940101854674, -37.665062968913837 ], [ -72.573250029528154, -37.665061024758138 ], [ -72.572437340758611, -37.66490286744903 ], [ -72.571824540614486, -37.664715765646449 ], [ -72.570443402424715, -37.664094825688153 ], [ -72.569490790269882, -37.663415127210833 ], [ -72.568954375671012, -37.663020010765649 ], [ -72.568745643131592, -37.662866258788256 ], [ -72.568285303260893, -37.662857325647046 ], [ -72.567887728679082, -37.662960881608711 ], [ -72.567813638329383, -37.663214493298419 ], [ -72.568065141456103, -37.663664075269388 ], [ -72.568389729717708, -37.663837049162552 ], [ -72.568664594431723, -37.664171529777512 ], [ -72.568748237466124, -37.664717561901064 ], [ -72.568630897727104, -37.665269682010809 ], [ -72.568294866725395, -37.666056989008922 ], [ -72.567849730840862, -37.66636759613705 ], [ -72.567370381720423, -37.66656491994226 ], [ -72.56671222294267, -37.666630606726564 ], [ -72.56601985092901, -37.666582932526488 ], [ -72.565425952236808, -37.666189540276136 ], [ -72.564731820423503, -37.665502053826557 ], [ -72.564243578880067, -37.664614014078964 ], [ -72.563750592435284, -37.663326037480644 ], [ -72.563573224574029, -37.662622908885801 ], [ -72.563379137268669, -37.662171653007398 ], [ -72.563361659646503, -37.661806496434806 ], [ -72.563345276172356, -37.661464183361964 ], [ -72.563329979659713, -37.661144569032295 ], [ -72.563321150118767, -37.660962030401812 ], [ -72.563256122871977, -37.660803995209598 ], [ -72.563151528430197, -37.660418594076084 ], [ -72.563136240002365, -37.660099126719821 ], [ -72.563010368064766, -37.659874296833216 ], [ -72.562692453387399, -37.659838227868725 ], [ -72.562385364307517, -37.660030320735416 ], [ -72.562050724796194, -37.660246198204206 ], [ -72.561487464943369, -37.660491791032378 ], [ -72.561063332568494, -37.66064173618858 ], [ -72.560470235173526, -37.660865348407228 ], [ -72.559618875727622, -37.661096834417329 ], [ -72.558871359731924, -37.661096540716059 ], [ -72.558493783444973, -37.661016506016857 ], [ -72.558049012276442, -37.660732815366991 ], [ -72.557974083798584, -37.660369316514334 ], [ -72.558014019302846, -37.6600024983601 ], [ -72.558333851883361, -37.65977571321941 ], [ -72.558638675412098, -37.659537942871822 ], [ -72.558739344216093, -37.659237702885648 ], [ -72.558725167004269, -37.658941079364794 ], [ -72.558358885235378, -37.65849494212452 ], [ -72.557802458866931, -37.658283257588039 ], [ -72.55696558206003, -37.658217013683611 ], [ -72.554639186222659, -37.658264425857574 ], [ -72.553862960070504, -37.658264966345392 ], [ -72.553147476201204, -37.658332303982654 ], [ -72.552376695636283, -37.65844698890011 ], [ -72.551758114833319, -37.658739887186648 ], [ -72.550875393404226, -37.659520749963328 ], [ -72.550283452141016, -37.659767154484371 ], [ -72.54979647452717, -37.659804634411771 ], [ -72.549282936425342, -37.659888668517496 ], [ -72.548520927909181, -37.660185944643558 ], [ -72.547954259848169, -37.660362941072272 ], [ -72.545885444240412, -37.66068811067592 ], [ -72.543826988902822, -37.660932931163586 ], [ -72.542829796953711, -37.661122926177022 ], [ -72.54243109857947, -37.661203477760274 ], [ -72.542066563135492, -37.661397246091575 ], [ -72.541905184387957, -37.661630735846394 ], [ -72.541287769598242, -37.663157735174799 ], [ -72.541319257345577, -37.663819677337628 ], [ -72.541234791454357, -37.664462151974874 ], [ -72.540935320088082, -37.664814038346805 ], [ -72.540688795424671, -37.665072890933772 ], [ -72.540296677209895, -37.665290361537622 ], [ -72.539676903444217, -37.66556035608528 ], [ -72.538762508316523, -37.665679267975506 ], [ -72.537926549587866, -37.665635814950612 ], [ -72.537522038215414, -37.665594677946302 ], [ -72.536978564655044, -37.66527844419744 ], [ -72.536581033192348, -37.66460247138383 ], [ -72.536434354476143, -37.663598074390507 ], [ -72.536527247463042, -37.662598589780934 ], [ -72.536585015424023, -37.662389988310096 ], [ -72.536750185062047, -37.661792252414834 ], [ -72.536848026867844, -37.66143838613327 ], [ -72.536867978450317, -37.661365903382183 ], [ -72.536953154010604, -37.660604735284899 ], [ -72.536942340989512, -37.660435758330763 ], [ -72.536913644307774, -37.659984065310667 ], [ -72.53669277912212, -37.659407217356936 ], [ -72.536060269042366, -37.658583384091841 ], [ -72.53527562926925, -37.657736215207045 ], [ -72.534799405387687, -37.657298098497684 ], [ -72.534281808697386, -37.656995465577097 ], [ -72.533877644074636, -37.656731717488505 ], [ -72.533454064163678, -37.656358067484604 ], [ -72.533303860458275, -37.656044928599052 ], [ -72.533267550554484, -37.655809850965234 ], [ -72.533222696774047, -37.655519898266213 ], [ -72.533191129076641, -37.654660828721767 ], [ -72.532962401835647, -37.654322293342673 ], [ -72.532938343155692, -37.654308254847706 ], [ -72.532915498998022, -37.654255211658921 ], [ -72.53253040021886, -37.654015314897528 ], [ -72.531922194957446, -37.653919229807315 ], [ -72.531372364019816, -37.653844344358333 ], [ -72.530624906414602, -37.653843867847272 ], [ -72.529508592468915, -37.653945950665126 ], [ -72.528164828686542, -37.654100445126694 ], [ -72.527793707693206, -37.654157242179288 ], [ -72.527398268406827, -37.654306206574255 ], [ -72.52711993260256, -37.654497421903905 ], [ -72.526901042812227, -37.654732539964151 ], [ -72.526684405098322, -37.65501327503943 ], [ -72.526516500090253, -37.655109742049895 ], [ -72.525973234040706, -37.655171685269018 ], [ -72.525596704291047, -37.655114391864707 ], [ -72.525187209963732, -37.654966640975495 ], [ -72.5247382715106, -37.654591503497365 ], [ -72.524424098316402, -37.654029525560354 ], [ -72.523928073769326, -37.653267223246303 ], [ -72.523648137167243, -37.652818464493365 ], [ -72.523595743826604, -37.652317288600351 ], [ -72.523544328751314, -37.651838742791284 ], [ -72.523779000144557, -37.651328908829136 ], [ -72.524357918531095, -37.6508087036283 ], [ -72.524830911172586, -37.650474620848414 ], [ -72.525533396419718, -37.650133595515882 ], [ -72.526097794438002, -37.649911018559152 ], [ -72.526459079777283, -37.649648834240622 ], [ -72.526673634298064, -37.649322405735667 ], [ -72.526658504872046, -37.649002852227611 ], [ -72.526430539402398, -37.648438223086707 ], [ -72.526182494789509, -37.648057151255301 ], [ -72.525936700456427, -37.647721621467859 ], [ -72.525583542175511, -37.647549381045742 ], [ -72.524910370752721, -37.647295199460793 ], [ -72.524590363000755, -37.647213405129435 ], [ -72.524130016841823, -37.647204222581536 ], [ -72.523758929086171, -37.647261078254097 ], [ -72.523423138832953, -37.647453929156434 ], [ -72.52309598947447, -37.647829476107376 ], [ -72.522680474638136, -37.648161907137634 ], [ -72.522059779200987, -37.648408956060962 ], [ -72.520526917356349, -37.648820458004494 ], [ -72.518614403218152, -37.649106229073475 ], [ -72.517036788204379, -37.649176136957962 ], [ -72.516521024975589, -37.649214336331468 ], [ -72.516093715259558, -37.649295725889431 ], [ -72.515814195475755, -37.649464070288339 ], [ -72.515037407876534, -37.650058700559306 ], [ -72.514702566244267, -37.650274377289037 ], [ -72.51441873185216, -37.650351407182512 ], [ -72.514126280819823, -37.650245808718189 ], [ -72.513767842241677, -37.649959370616337 ], [ -72.513441370212931, -37.649740539290235 ], [ -72.513172186444763, -37.649520073573719 ], [ -72.512645838366964, -37.649330004770931 ], [ -72.512144818288618, -37.649070689742658 ], [ -72.511834333576971, -37.648885622778629 ], [ -72.51137043278446, -37.648190869839432 ], [ -72.510973601109384, -37.647699877967248 ], [ -72.510510703735051, -37.647028043336917 ], [ -72.509961702840741, -37.646358625256745 ], [ -72.509535081234219, -37.645845635391169 ], [ -72.50914696591235, -37.645537187233742 ], [ -72.50846625043782, -37.645123277151527 ], [ -72.507815433590878, -37.644731129766562 ], [ -72.507195281634495, -37.64407540279484 ], [ -72.5068314334017, -37.643674781757923 ], [ -72.50610215410461, -37.643445111466846 ], [ -72.505639588208609, -37.64339023814123 ], [ -72.504950762743675, -37.643410730285837 ], [ -72.504380884103853, -37.643519195798071 ], [ -72.503923873389581, -37.643578470607494 ], [ -72.503558147677836, -37.643749350971603 ], [ -72.503227684434293, -37.644056306412509 ], [ -72.50295566198983, -37.644384329326371 ], [ -72.502374296592464, -37.644858745724171 ], [ -72.501366687779296, -37.64543726940753 ], [ -72.500016778622083, -37.646071635854035 ], [ -72.499282158840614, -37.646344901776963 ], [ -72.498659249056288, -37.646546210048598 ], [ -72.49791506850525, -37.646614061899236 ], [ -72.49692308498814, -37.646609262183354 ], [ -72.496251075985356, -37.646377684060496 ], [ -72.495520632471639, -37.646125103834699 ], [ -72.494935813051995, -37.645913884068349 ], [ -72.49443826855547, -37.645722952490864 ], [ -72.494090537895502, -37.645664701514775 ], [ -72.493660981492951, -37.64570031716066 ], [ -72.493216694516349, -37.646033426328735 ], [ -72.49298084812672, -37.646520432531446 ], [ -72.492687946140137, -37.648243412362426 ], [ -72.492640520483022, -37.649684714694935 ], [ -72.492403750625257, -37.650766010038367 ], [ -72.492372054468774, -37.651315453691957 ], [ -72.492400951474835, -37.651931737439469 ], [ -72.492501224121796, -37.653151607168262 ], [ -72.492467390873244, -37.653655430252357 ], [ -72.492349492382104, -37.654207575739399 ], [ -72.49225835111001, -37.654492943450684 ], [ -72.49219780825311, -37.654575699846248 ], [ -72.492040962404516, -37.65484168378601 ], [ -72.491643567485752, -37.655366392475557 ], [ -72.491463049232777, -37.655592856823972 ], [ -72.491414385697212, -37.65565378334508 ], [ -72.490585100552778, -37.656431220083654 ], [ -72.489500654341782, -37.657217611661238 ], [ -72.489458623067961, -37.657259669304906 ], [ -72.48890224520855, -37.657635271922956 ], [ -72.488540693069623, -37.657897425910804 ], [ -72.488263212461504, -37.658111330396594 ], [ -72.487924072390598, -37.658235692524883 ], [ -72.487672120106225, -37.658380276482646 ], [ -72.487513773172793, -37.65868209516497 ], [ -72.487354264717681, -37.658961143366518 ], [ -72.487137367390645, -37.659241814805924 ], [ -72.486746178033883, -37.659481961364669 ], [ -72.486410235965394, -37.659674786220201 ], [ -72.486105069280214, -37.659912311493102 ], [ -72.485977591154878, -37.660258972575761 ], [ -72.485912745367784, -37.660718027115337 ], [ -72.485446321207647, -37.662423171698364 ], [ -72.485413510241898, -37.662949841420655 ], [ -72.485244627866791, -37.663949186189228 ], [ -72.485318132514919, -37.664289753404489 ], [ -72.485389415629328, -37.664584849428202 ], [ -72.48571908566052, -37.664872226658034 ], [ -72.48601485686612, -37.665046284301518 ], [ -72.486649717836983, -37.665096134040759 ], [ -72.486995305116679, -37.665108710602269 ], [ -72.487307875716411, -37.665030896026849 ], [ -72.487503624905017, -37.664910854575069 ], [ -72.487674814153777, -37.66488290674117 ], [ -72.488049140336031, -37.664894630013237 ], [ -72.488232093921752, -37.665117780715313 ], [ -72.48822697711789, -37.665620825723984 ], [ -72.487606278985808, -37.667102051604566 ], [ -72.487149140710756, -37.667778409101203 ], [ -72.486802594030337, -37.668360048622567 ], [ -72.486728893549497, -37.668469466082477 ], [ -72.486537720378919, -37.668705242429731 ], [ -72.486466657351755, -37.668886834077256 ], [ -72.486416937397408, -37.66906026652412 ], [ -72.486351799657839, -37.66932677808574 ], [ -72.486332088823886, -37.669407437380514 ], [ -72.486114001229097, -37.669798183083557 ], [ -72.486024093343872, -37.669920404551732 ], [ -72.485945258991165, -37.670027316084955 ], [ -72.485715361245354, -37.67033641623123 ], [ -72.485646729059326, -37.670637423345795 ], [ -72.485647852851741, -37.670855698905179 ], [ -72.485648750268709, -37.671009698842049 ], [ -72.485647724392663, -37.671025449221574 ], [ -72.48561803507252, -37.671485899079343 ], [ -72.485503904115674, -37.671832459894333 ], [ -72.485224952067128, -37.672291796954156 ], [ -72.484807796008738, -37.672863343608064 ], [ -72.48475919086367, -37.673084492987279 ], [ -72.48471429576071, -37.673236158270861 ], [ -72.484689403444193, -37.673279625332533 ], [ -72.484556556088407, -37.673512124228438 ], [ -72.484339705473744, -37.673792863654995 ], [ -72.484238712377945, -37.674092981488052 ], [ -72.484134513194874, -37.674324631017441 ], [ -72.484030310418532, -37.674556208011431 ], [ -72.484015455877, -37.674853778055045 ], [ -72.484055957319896, -37.675104026572164 ], [ -72.484209205415794, -37.67530518292839 ], [ -72.484414416559304, -37.675390554659288 ], [ -72.484702658086206, -37.675404906986252 ], [ -72.484929224878954, -37.675329642203813 ], [ -72.485183374442499, -37.675230680953824 ], [ -72.485527942134354, -37.675220485843646 ], [ -72.485821619367044, -37.675348921803753 ], [ -72.485980127098912, -37.675664240243734 ], [ -72.485897316802763, -37.676352394032328 ], [ -72.485768647511364, -37.676676137726623 ], [ -72.485466721049434, -37.67698227592701 ], [ -72.485217909275306, -37.677195326977838 ], [ -72.484855276463094, -37.677434622703046 ], [ -72.484370268854661, -37.677517533402224 ], [ -72.483936244231899, -37.677461733958722 ], [ -72.483643724029292, -37.677356138505495 ], [ -72.48309597538649, -37.677326652519604 ], [ -72.482755579470805, -37.677428158431781 ], [ -72.482219669725126, -37.677649691645065 ], [ -72.481268862285702, -37.678226298999398 ], [ -72.480657384461693, -37.67867869933432 ], [ -72.480189443047053, -37.679126782755198 ], [ -72.479895927511123, -37.67961546945542 ], [ -72.479743912802107, -37.680054216587941 ], [ -72.479793916624075, -37.680509876169381 ], [ -72.48001106907266, -37.68084634908881 ], [ -72.48090254099094, -37.682077095259821 ], [ -72.481905923230684, -37.683235961775502 ], [ -72.482145294609495, -37.683743219181601 ], [ -72.482223088713113, -37.684175175365674 ], [ -72.482323130493043, -37.684469348457206 ], [ -72.4825933437305, -37.684712805874625 ], [ -72.482863555171349, -37.684956189268959 ], [ -72.483045571814188, -37.6851564956781 ], [ -72.483087054217393, -37.685429594993245 ], [ -72.483105219050756, -37.685817555597147 ], [ -72.48315427604841, -37.686250435956445 ], [ -72.483287349779673, -37.686635071670239 ], [ -72.483320538936141, -37.687651242649579 ], [ -72.483342982445222, -37.688130519407714 ], [ -72.483274904519718, -37.688521103952795 ], [ -72.483238870398722, -37.688979231571764 ], [ -72.483329619107039, -37.690302269025075 ], [ -72.483527596117554, -37.69084499034394 ], [ -72.483691573691218, -37.691274470500339 ], [ -72.483672647086479, -37.692097784487217 ], [ -72.483630113654414, -37.692419051847644 ], [ -72.483470617775723, -37.692698020822995 ], [ -72.482081292340453, -37.692819105613495 ], [ -72.481282328930135, -37.692957044833847 ], [ -72.480574864321383, -37.693206520738151 ], [ -72.479105805319804, -37.693775623085763 ], [ -72.47784847833239, -37.694567024043941 ], [ -72.476106042226931, -37.696058433674921 ], [ -72.474806067721389, -37.697170996621061 ], [ -72.474563469594088, -37.697521043296369 ], [ -72.474489123224544, -37.697774608654221 ], [ -72.474464660302715, -37.698175416810678 ], [ -72.474616776521358, -37.698353738509198 ], [ -72.474619469670586, -37.698411373827106 ], [ -72.474657988531646, -37.698512158583441 ], [ -72.474650077068944, -37.698744355211538 ], [ -72.474653956892652, -37.69875981325842 ], [ -72.474714277865658, -37.69900711882503 ], [ -72.474809181282168, -37.699185505335947 ], [ -72.474886170495296, -37.699330322251072 ], [ -72.475045644814415, -37.699483186257261 ], [ -72.475133949206835, -37.699568037596315 ], [ -72.47534528057237, -37.699804908495302 ], [ -72.475346729554929, -37.699806120358261 ], [ -72.475651350962721, -37.700061567120869 ], [ -72.475665176933262, -37.700073188881035 ], [ -72.475875456371597, -37.70033916826057 ], [ -72.476123332101196, -37.70057680360847 ], [ -72.476333704066022, -37.700842706551235 ], [ -72.476345999307298, -37.700942789325943 ], [ -72.476350357933072, -37.700978380582015 ], [ -72.476362341458952, -37.701075742392426 ], [ -72.476458171936827, -37.70148436449972 ], [ -72.47647212636646, -37.701834442693389 ], [ -72.476477940262981, -37.701978630395942 ], [ -72.476522374530177, -37.702183966272436 ], [ -72.476541097217336, -37.70227050112144 ], [ -72.476604820110339, -37.702407591186208 ], [ -72.476609259584464, -37.702417127963471 ], [ -72.476694063242235, -37.702464736492388 ], [ -72.476824557910305, -37.702537933906321 ], [ -72.477061280157344, -37.70256666643202 ], [ -72.477115831251282, -37.702573173999973 ], [ -72.477410094185529, -37.702521384233741 ], [ -72.477669651607101, -37.702410765373799 ], [ -72.477952591277187, -37.702416801020767 ], [ -72.477962448490814, -37.702417027037676 ], [ -72.478181140651785, -37.702421712268681 ], [ -72.478253072349844, -37.702452282114436 ], [ -72.478653853917208, -37.702622368807177 ], [ -72.47868569829572, -37.702635893535422 ], [ -72.47870017554483, -37.702653474470189 ], [ -72.478979112322037, -37.702992772332536 ], [ -72.479001668120503, -37.703020224640547 ], [ -72.479162616575024, -37.703662720884189 ], [ -72.47917854639995, -37.70427304263022 ], [ -72.479193594977588, -37.704425887204494 ], [ -72.47913012990108, -37.705054643002846 ], [ -72.479028013911147, -37.705331911306914 ], [ -72.478673868381748, -37.705753823739947 ], [ -72.478229171773378, -37.706086893674509 ], [ -72.477838692984008, -37.706349872901541 ], [ -72.4774163401717, -37.706545155112345 ], [ -72.476900150243139, -37.706583274499216 ], [ -72.476641613307748, -37.706590907471252 ], [ -72.476479865352644, -37.706207110144504 ], [ -72.476228646093531, -37.705757391519242 ], [ -72.475956240966781, -37.70546837525481 ], [ -72.47565721157163, -37.705225754265307 ], [ -72.475279475384554, -37.705145459424621 ], [ -72.474910274090988, -37.705247721847371 ], [ -72.474582637845614, -37.705623156903471 ], [ -72.474249564097832, -37.705884356021549 ], [ -72.473697475693882, -37.70638073038495 ], [ -72.47317714453186, -37.706944580439881 ], [ -72.472373929395289, -37.708842493299755 ], [ -72.472274039430658, -37.70978251396145 ], [ -72.472347655469861, -37.711974651920698 ], [ -72.472550953201804, -37.712631481753547 ], [ -72.472950385499644, -37.713113664168432 ], [ -72.473480991591885, -37.713794419547433 ], [ -72.474042226642041, -37.714388876895633 ], [ -72.474043009972974, -37.714389738890077 ], [ -72.474292741621966, -37.714654188078313 ], [ -72.475365171967709, -37.715374297704244 ], [ -72.476030552302035, -37.715813194972739 ], [ -72.476366547371114, -37.716034721534569 ], [ -72.476613357698795, -37.716149062149981 ], [ -72.476794733842851, -37.716233008276269 ], [ -72.4785295279802, -37.717036188651271 ], [ -72.479030564228239, -37.717268183707496 ], [ -72.479140173964254, -37.717333213054246 ], [ -72.479460117037533, -37.717523099869844 ], [ -72.479864824242711, -37.717763251065051 ], [ -72.480858594508916, -37.718353009400772 ], [ -72.481466954280577, -37.718743596027359 ], [ -72.481726589855569, -37.718909207716713 ], [ -72.481777252142649, -37.718941511698688 ], [ -72.482361850576737, -37.719314566563938 ], [ -72.483024216164935, -37.719869824672166 ], [ -72.483357387829102, -37.720149201956445 ], [ -72.483620938262106, -37.720469457399119 ], [ -72.483989635600793, -37.720917822640807 ], [ -72.484307646397909, -37.72124421474831 ], [ -72.484491010513679, -37.721354215729143 ], [ -72.484558505432574, -37.721394728490409 ], [ -72.484572044840519, -37.721406063390752 ], [ -72.484771858007491, -37.721573586222341 ], [ -72.484652500652317, -37.721861553418627 ], [ -72.484568765989735, -37.721942335353347 ], [ -72.484387801274067, -37.722117290099682 ], [ -72.48423486489358, -37.722317318472349 ], [ -72.484194900643217, -37.722503302238387 ], [ -72.484148021161801, -37.722722112257109 ], [ -72.483977941332427, -37.72320649279952 ], [ -72.483945566947895, -37.723298744302781 ], [ -72.483932116473142, -37.723697454757342 ], [ -72.483919222055562, -37.724078288792214 ], [ -72.48389987683592, -37.724648469309571 ], [ -72.483940152801679, -37.725107067851141 ], [ -72.484032470866808, -37.726158163472441 ], [ -72.484058271380079, -37.726452684393877 ], [ -72.48407840442222, -37.72669571121417 ], [ -72.484158656316453, -37.727661773377676 ], [ -72.48412429126526, -37.727820580550947 ], [ -72.483940249819739, -37.728191717116168 ], [ -72.483779619368832, -37.728447915788237 ], [ -72.48373717037839, -37.728769179774048 ], [ -72.483729816769483, -37.72922653005029 ], [ -72.483665469547375, -37.72964556609071 ], [ -72.483648107807866, -37.729701358235779 ], [ -72.483533463014695, -37.730072287151465 ], [ -72.483283105239948, -37.730608710220487 ], [ -72.483011547224507, -37.731190485760919 ], [ -72.482902443239979, -37.73142405137812 ], [ -72.482404156735029, -37.732234012488156 ], [ -72.482208152424874, -37.732552585181971 ], [ -72.482205823093338, -37.732556418091825 ], [ -72.481990122322273, -37.732972179998498 ], [ -72.481892885082658, -37.733159709945262 ], [ -72.481812061859898, -37.733465428798773 ], [ -72.481808909671571, -37.73347747798249 ], [ -72.481781917093926, -37.733510232428046 ], [ -72.481694354709916, -37.733616736138636 ], [ -72.481627010707996, -37.733698581576064 ], [ -72.481503758257773, -37.733848577671189 ], [ -72.481219586997412, -37.734040895906752 ], [ -72.481202296224836, -37.734052625298077 ], [ -72.481129428482248, -37.73410193987317 ], [ -72.481116450521341, -37.734118485334164 ], [ -72.48109760117174, -37.734142586328801 ], [ -72.481042813820878, -37.734212843198385 ], [ -72.48086169728991, -37.734444771669089 ], [ -72.48054970251026, -37.73501902698262 ], [ -72.480504496590228, -37.73511328210747 ], [ -72.480274169449686, -37.73559405078651 ], [ -72.480085006708748, -37.736007401511394 ], [ -72.48008390447589, -37.736009648578751 ], [ -72.48007665956311, -37.736025582649937 ], [ -72.480073506476472, -37.736049513943257 ], [ -72.479866296581463, -37.737574938548804 ], [ -72.479832861286582, -37.737821246460932 ], [ -72.479318318868266, -37.738972053792189 ], [ -72.479231845242381, -37.739117860672181 ], [ -72.479032729168068, -37.739453936878178 ], [ -72.478986298844305, -37.739532064080365 ], [ -72.478697595583341, -37.740018982987458 ], [ -72.478534604359879, -37.740509272284662 ], [ -72.478484367874259, -37.740914826187137 ], [ -72.478487141871838, -37.740960132516307 ], [ -72.478531787243142, -37.741671008049991 ], [ -72.478516095471775, -37.742135468939978 ], [ -72.478516965040953, -37.742138174006058 ], [ -72.47853379138455, -37.74218586853906 ], [ -72.47864944318917, -37.742515892042931 ], [ -72.478639623704808, -37.742806152531102 ], [ -72.478660771843224, -37.742844938044549 ], [ -72.478773094491402, -37.743050332572224 ], [ -72.478880643492161, -37.743247085792419 ], [ -72.479295618441043, -37.743953067806018 ], [ -72.47961275248241, -37.744308427057966 ], [ -72.479626259551011, -37.744328914062109 ], [ -72.479786707643925, -37.74457347621528 ], [ -72.479928453710912, -37.745011880095269 ], [ -72.479973776411939, -37.745151946226244 ], [ -72.479985397018467, -37.745187692408884 ], [ -72.479985644055162, -37.74519890291058 ], [ -72.479991543291632, -37.745402054068443 ], [ -72.479995629727853, -37.745544741293848 ], [ -72.480002150598509, -37.745769055762175 ], [ -72.479961424576786, -37.745913436411733 ], [ -72.479883625083289, -37.746188878981584 ], [ -72.479794361290146, -37.746505252136757 ], [ -72.479725138910979, -37.746846715955186 ], [ -72.479711181786413, -37.746915765302759 ], [ -72.479706418918767, -37.746939079360843 ], [ -72.479669235852526, -37.74720660591133 ], [ -72.479659348096206, -37.747277231821641 ], [ -72.479658023979468, -37.747286643490355 ], [ -72.479645170884382, -37.747317800011913 ], [ -72.479538516605643, -37.747574537688692 ], [ -72.4795264010274, -37.747627369241584 ], [ -72.479452683478556, -37.747950293102697 ], [ -72.479114843269898, -37.748204417501277 ], [ -72.4790452669545, -37.748215182184346 ], [ -72.478823518724923, -37.748249337224152 ], [ -72.478783838342196, -37.748255455083729 ], [ -72.478347086434212, -37.748187989547731 ], [ -72.477949013287414, -37.748063290265989 ], [ -72.477620028670799, -37.748056256094259 ], [ -72.477214777086573, -37.748242548125482 ], [ -72.477136982982969, -37.748278278609291 ], [ -72.476544150590982, -37.748498006890003 ], [ -72.47642567448311, -37.748538332908161 ], [ -72.476063119824332, -37.748661957413795 ], [ -72.475397242721669, -37.748880072175965 ], [ -72.474653725127311, -37.749129406691146 ], [ -72.473941044001705, -37.749368453170405 ], [ -72.473374313956953, -37.749558464542808 ], [ -72.473361959426839, -37.749562592764242 ], [ -72.472581011729545, -37.749937965892265 ], [ -72.472082523103666, -37.750341092938271 ], [ -72.472069983520612, -37.750351204558449 ], [ -72.472030487292514, -37.750383145364864 ], [ -72.471641523960997, -37.75069765030527 ], [ -72.471445386700196, -37.750856280218031 ], [ -72.471076392917439, -37.751154695365102 ], [ -72.470703654058283, -37.751607615887252 ], [ -72.469924039460864, -37.75255497705232 ], [ -72.469855088372924, -37.752638856342607 ], [ -72.469784559843347, -37.75276854034535 ], [ -72.469308759068255, -37.753643766825753 ], [ -72.468620105181557, -37.75452939656671 ], [ -72.467898395089037, -37.755684638765224 ], [ -72.467759846126143, -37.755906438106535 ], [ -72.467486633413955, -37.756343723001564 ], [ -72.467420473391599, -37.756449659769274 ], [ -72.467207951758297, -37.756868919557441 ], [ -72.466910560890241, -37.757455331691858 ], [ -72.466873343688007, -37.757548090940418 ], [ -72.466430771595299, -37.75865037855295 ], [ -72.466268252885669, -37.759135325156862 ], [ -72.465860469848963, -37.7603518650334 ], [ -72.465832010322458, -37.76039137568619 ], [ -72.465109082114395, -37.761391209614551 ], [ -72.465064113349598, -37.761453420573915 ], [ -72.465054073777978, -37.761467369900203 ], [ -72.463818738447031, -37.763357799567615 ], [ -72.463682552053328, -37.763529192294662 ], [ -72.463092298724547, -37.764271596939949 ], [ -72.46261882638268, -37.764879121257167 ], [ -72.462530149189433, -37.764992951131582 ], [ -72.462554297700876, -37.765512253903765 ], [ -72.462571093501737, -37.765872064433538 ], [ -72.462583997800792, -37.766146525865473 ], [ -72.462521657415039, -37.766450139276131 ], [ -72.462461067845737, -37.766785288204083 ], [ -72.462552735530608, -37.767115885137407 ], [ -72.46252600975258, -37.767359924599617 ], [ -72.4624313659492, -37.767786114370189 ], [ -72.462308868982106, -37.768109578698763 ], [ -72.462146395188256, -37.768217976912908 ], [ -72.461772224414531, -37.768382123045619 ], [ -72.461437561547001, -37.768572118250852 ], [ -72.461103204106678, -37.768766678254707 ], [ -72.460998683326736, -37.768981418260175 ], [ -72.460973121765335, -37.769252508651974 ], [ -72.460906853046822, -37.769466123865826 ], [ -72.460654080600605, -37.769775408697939 ], [ -72.460468623410179, -37.769991124997304 ], [ -72.460352218817363, -37.770126580769876 ], [ -72.460435213268156, -37.770813383881425 ], [ -72.460485904301322, -37.771017065443928 ], [ -72.460684455335297, -37.771815085735277 ], [ -72.460674607104849, -37.772004531751215 ], [ -72.460647131233557, -37.772559376941281 ], [ -72.460481846611174, -37.77364987394278 ], [ -72.460231279528983, -37.774459032833825 ], [ -72.459887246334716, -37.77481151755633 ], [ -72.459809589673355, -37.774998455103876 ], [ -72.459692863483667, -37.775276653006436 ], [ -72.459727402808014, -37.776018904217011 ], [ -72.459787271928434, -37.776249844656313 ], [ -72.459903415111526, -37.776698397487877 ], [ -72.460367097613414, -37.777369432367394 ], [ -72.460839075158631, -37.778216018897645 ], [ -72.461145036852827, -37.778629319700897 ], [ -72.461377472339336, -37.778943451076707 ], [ -72.46157594162662, -37.779458143792986 ], [ -72.461696650946294, -37.779771132802381 ], [ -72.461705536182777, -37.779794119845249 ], [ -72.461709753773036, -37.779882484567182 ], [ -72.461721221665954, -37.780130050350493 ], [ -72.461753425370588, -37.780819748187092 ], [ -72.461876013965806, -37.781901703667295 ], [ -72.461862866223342, -37.783163376715407 ], [ -72.461719619071502, -37.783998828581439 ], [ -72.461636237446825, -37.784485351910455 ], [ -72.461657943439022, -37.784619624609043 ], [ -72.485699936273605, -37.775923403948994 ], [ -72.488227706549893, -37.77604224176558 ], [ -72.489949017873144, -37.776314169674166 ], [ -72.491276258044181, -37.77685599535306 ], [ -72.492450232153004, -37.777596085015823 ], [ -72.493311213453921, -37.778603833047001 ], [ -72.494250610492614, -37.779544596163547 ], [ -72.494410065947108, -37.779475285458041 ], [ -72.49855590417107, -37.777673045139501 ], [ -72.500992381359978, -37.775856947760374 ], [ -72.502960586554224, -37.776185841229328 ], [ -72.503507964192835, -37.775717585896267 ], [ -72.503964850939582, -37.775058143887598 ], [ -72.504446207794686, -37.77491465868156 ], [ -72.50517747596183, -37.774892881465895 ], [ -72.525613837858472, -37.777819010066985 ], [ -72.525442472539922, -37.777924587336571 ], [ -72.525175618103304, -37.77824343267234 ], [ -72.525014209711358, -37.778554542446905 ], [ -72.5249950567312, -37.778892905403424 ], [ -72.52500950882748, -37.77919882228511 ], [ -72.525018703084413, -37.779392201276444 ], [ -72.524817063642473, -37.779596471229347 ], [ -72.524473069974107, -37.77977349143125 ], [ -72.524164077364148, -37.779949387987664 ], [ -72.523936435288007, -37.780348090080018 ], [ -72.523230934396466, -37.780711504766451 ], [ -72.522671398958806, -37.781070619385666 ], [ -72.522192057923206, -37.781602979471018 ], [ -72.52171259022515, -37.782130837998999 ], [ -72.521302606315999, -37.782602520229077 ], [ -72.520814919033072, -37.782959551122559 ], [ -72.520250008975097, -37.783206120452007 ], [ -72.520066583773854, -37.783896263131311 ], [ -72.519808539115218, -37.784534688252677 ], [ -72.51932369320356, -37.784950004070012 ], [ -72.519060086176694, -37.785471471881543 ], [ -72.518508403811254, -37.786285171363254 ], [ -72.518507374341937, -37.78732130037266 ], [ -72.518422776398381, -37.787458959958798 ], [ -72.518165993872714, -37.78787372547913 ], [ -72.517897298788085, -37.78830796179794 ], [ -72.517295596431026, -37.789298946186939 ], [ -72.517254035874373, -37.789371628273919 ], [ -72.516496866582656, -37.790696630875054 ], [ -72.515165548060224, -37.793024695238508 ], [ -72.514918100827003, -37.793887963217443 ], [ -72.514873315318511, -37.79446133551928 ], [ -72.514535016969049, -37.794930927314958 ], [ -72.514199459379498, -37.795454459928742 ], [ -72.513656194228275, -37.796159915289024 ], [ -72.513453607962035, -37.796449731038507 ], [ -72.512893906336046, -37.796808806803178 ], [ -72.512259753237643, -37.797116005313292 ], [ -72.511345197311499, -37.797598213105495 ], [ -72.510863091261456, -37.798072087222565 ], [ -72.510223194335111, -37.798262397944427 ], [ -72.509633840219919, -37.797996137130205 ], [ -72.507321952174394, -37.797893926146919 ], [ -72.507183995201274, -37.797889403119164 ], [ -72.506383268398025, -37.797863302716763 ], [ -72.506048702548568, -37.798147888173396 ], [ -72.50582893420588, -37.798334807159407 ], [ -72.504906538682249, -37.79865055550998 ], [ -72.503821332496543, -37.798570254093406 ], [ -72.503101348965984, -37.798591765247913 ], [ -72.502475000430778, -37.799065250399913 ], [ -72.502000722300096, -37.799710075439236 ], [ -72.50159011945172, -37.80017720917165 ], [ -72.500817237727347, -37.800601096661893 ], [ -72.49982557131554, -37.800977464955146 ], [ -72.499113631300034, -37.801169785435036 ], [ -72.498767010957778, -37.801463933987975 ], [ -72.497991335472875, -37.80182928903097 ], [ -72.497074353197149, -37.802257437826491 ], [ -72.496821177407355, -37.803008292444318 ], [ -72.496330870637081, -37.803311131986995 ], [ -72.496115439360608, -37.803366095639525 ], [ -72.495832185280165, -37.803438497012301 ], [ -72.495123063279706, -37.803689308457926 ], [ -72.494715249700278, -37.804214935274707 ], [ -72.494603635822855, -37.804343195886382 ], [ -72.494304884905446, -37.804686612811764 ], [ -72.493750630663357, -37.805162487688492 ], [ -72.493179665960355, -37.8052920611254 ], [ -72.492833183958624, -37.805586115187978 ], [ -72.492564110683276, -37.805994993768358 ], [ -72.492004443193267, -37.80635847395704 ], [ -72.4918452374704, -37.806493533051231 ], [ -72.49162346049475, -37.8091666475718 ], [ -72.491642220012821, -37.811886718059164 ], [ -72.496455086979637, -37.826558571201986 ], [ -72.497687586329221, -37.825787681087256 ], [ -72.499573031532975, -37.824029006761904 ], [ -72.501120751512403, -37.821843449892818 ], [ -72.502056630748427, -37.819464131052982 ], [ -72.504505449891042, -37.819563534729781 ], [ -72.504772196529828, -37.819744667924311 ], [ -72.505062033464668, -37.820413456246975 ], [ -72.505112880804703, -37.8206483275492 ], [ -72.505261456762796, -37.820848699812927 ], [ -72.505487699263739, -37.821015243897001 ], [ -72.506039855041337, -37.821140635486778 ], [ -72.506185454880907, -37.821278068131456 ], [ -72.506134190722577, -37.821452882369563 ], [ -72.506017319904117, -37.821503597615873 ], [ -72.505883732336528, -37.821617839133189 ], [ -72.505842806888808, -37.822012936558856 ], [ -72.505833454528386, -37.822233881235896 ], [ -72.505763054457887, -37.822425058550152 ], [ -72.505635423618941, -37.822665100623432 ], [ -72.505523117140456, -37.822810293334321 ], [ -72.505490057341348, -37.822953050454679 ], [ -72.505514503195172, -37.823046862146541 ], [ -72.505519624490617, -37.82315696793831 ], [ -72.505466124425567, -37.823284615916194 ], [ -72.505355397185312, -37.823461200777942 ], [ -72.505283411588351, -37.823620911376295 ], [ -72.505232891235082, -37.823811496146753 ], [ -72.505182273863767, -37.8240020094673 ], [ -72.505066331004983, -37.824068490473685 ], [ -72.504912019303788, -37.824167627535118 ], [ -72.504753169313801, -37.824377232446608 ], [ -72.50464681058078, -37.824648152981851 ], [ -72.504656498012807, -37.824852737034583 ], [ -72.504662458334721, -37.824978611706797 ], [ -72.504629488367158, -37.825121367471219 ], [ -72.504576732107154, -37.825264784984093 ], [ -72.504423996949285, -37.825395313694877 ], [ -72.504292641695187, -37.825556866389761 ], [ -72.504205556316606, -37.826236883989793 ], [ -72.504072509534808, -37.827201888203547 ], [ -72.503934017165776, -37.827631404752005 ], [ -72.503826167229406, -37.82787092966533 ], [ -72.503773311256396, -37.828014275847494 ], [ -72.503779270679985, -37.828140151512912 ], [ -72.503907233895589, -37.828325419411634 ], [ -72.504052751090143, -37.828462857124997 ], [ -72.50407934212086, -37.828603911074048 ], [ -72.504066161140713, -37.828746076590114 ], [ -72.503974559032855, -37.828906297256104 ], [ -72.504001708815679, -37.829063054363438 ], [ -72.504066483635867, -37.829171458245661 ], [ -72.504172328532547, -37.829310077873551 ], [ -72.504300294443098, -37.829495344963448 ], [ -72.504354124189874, -37.829793078704796 ], [ -72.504404974224826, -37.830027876167009 ], [ -72.504490283634112, -37.830151314039576 ], [ -72.504535919847157, -37.830276006841665 ], [ -72.504621978451382, -37.830415289210968 ], [ -72.504784410024428, -37.83048926969235 ], [ -72.504868972035396, -37.830596935003491 ], [ -72.504957270139599, -37.830783457537223 ], [ -72.505083003736658, -37.830921483823523 ], [ -72.505322456862174, -37.830945861910735 ], [ -72.505499554330555, -37.830909070926133 ], [ -72.505595623760286, -37.830843181429564 ], [ -72.505888765597064, -37.830739906233724 ], [ -72.506203937717871, -37.830683279283782 ], [ -72.506496242324801, -37.830564306566622 ], [ -72.506625458690195, -37.830355582710204 ], [ -72.506596630854418, -37.830167437135906 ], [ -72.506491431846442, -37.830044520077642 ], [ -72.506427487967898, -37.829951812780671 ], [ -72.506439083421583, -37.829778255371139 ], [ -72.506489697199626, -37.829587667562485 ], [ -72.50679209348047, -37.829263522272576 ], [ -72.506981520326121, -37.829068795871486 ], [ -72.507212953292765, -37.828920123165318 ], [ -72.507428882235914, -37.828866453562398 ], [ -72.507646298789183, -37.828844177128751 ], [ -72.507898919420114, -37.82872638423639 ], [ -72.508107385159889, -37.828515295270073 ], [ -72.508234362923631, -37.828259476521261 ], [ -72.508399423865512, -37.827970935771347 ], [ -72.508507915199019, -37.827747182165545 ], [ -72.508772204945487, -37.827455680612317 ], [ -72.508866216334908, -37.827342617462541 ], [ -72.508977029813423, -37.827165953194729 ], [ -72.508973210176833, -37.827087320423296 ], [ -72.509045936883922, -37.826943379257216 ], [ -72.509163466167479, -37.826908360151101 ], [ -72.509304513345185, -37.826951385811455 ], [ -72.509444817616156, -37.826978713386453 ], [ -72.509544698597651, -37.826991453337563 ], [ -72.509762205880762, -37.826969243745005 ], [ -72.509897381669774, -37.82688646486411 ], [ -72.510125537582269, -37.82667485833796 ], [ -72.510196022992716, -37.8264836764222 ], [ -72.510185575585965, -37.82626339584013 ], [ -72.510196411064911, -37.826073993848205 ], [ -72.510308808273265, -37.825928867870594 ], [ -72.510462928633302, -37.825829728917753 ], [ -72.51065681651265, -37.82572940415529 ], [ -72.510808789000848, -37.825583022284086 ], [ -72.510922495952869, -37.825469443250661 ], [ -72.511082675449515, -37.825496102256352 ], [ -72.511165755240228, -37.825572441998155 ], [ -72.511270113425113, -37.825679586569777 ], [ -72.511489853920025, -37.825704540423871 ], [ -72.511668339285507, -37.825699286832219 ], [ -72.511824040680438, -37.825631537888604 ], [ -72.511898162471169, -37.825519066557767 ], [ -72.512030252547163, -37.825373350550343 ], [ -72.512223390333261, -37.825257326031448 ], [ -72.512410552526063, -37.825015351721206 ], [ -72.512605179718904, -37.824930720803046 ], [ -72.512796821810042, -37.824783226160839 ], [ -72.512974462759161, -37.824762201595682 ], [ -72.513056139381419, -37.824806996045922 ], [ -72.513197936652375, -37.824865861229696 ], [ -72.513358117047332, -37.82489251619598 ], [ -72.513540331319547, -37.824965894114406 ], [ -72.51360585892796, -37.825089915204209 ], [ -72.513672790603138, -37.825245482671988 ], [ -72.513857991773691, -37.825381722700591 ], [ -72.513905134461481, -37.825537879909511 ], [ -72.513872931655186, -37.825696406722862 ], [ -72.513885628443418, -37.825963852673155 ], [ -72.513775573143008, -37.826156218767004 ], [ -72.513644234058589, -37.826317706645717 ], [ -72.513551073373733, -37.826446542626734 ], [ -72.5135173766691, -37.826573600952827 ], [ -72.513568996560295, -37.826824090436375 ], [ -72.513696981335428, -37.827009346738798 ], [ -72.513876117081182, -37.827019715373218 ], [ -72.513953318296714, -37.826970176092495 ], [ -72.514048722074818, -37.826888580032282 ], [ -72.514141975286151, -37.826759742694321 ], [ -72.514278542565535, -37.826708356276292 ], [ -72.514379172741968, -37.826736863215601 ], [ -72.514441717943626, -37.826798020837565 ], [ -72.514523960504533, -37.826858590191776 ], [ -72.514684241510778, -37.826885313974195 ], [ -72.514862724181313, -37.82687998099702 ], [ -72.515021325337997, -37.826875241912781 ], [ -72.515238080731223, -37.826837252596626 ], [ -72.515353365124895, -37.82675506178559 ], [ -72.515426733229077, -37.826626817400317 ], [ -72.515498606536653, -37.826467102663763 ], [ -72.51563143951941, -37.826337154845717 ], [ -72.515887023692471, -37.826282209711671 ], [ -72.516125806674779, -37.826290792496799 ], [ -72.516446088412906, -37.826344245430107 ], [ -72.516753400274979, -37.826539856738371 ], [ -72.516820340034997, -37.826695421149608 ], [ -72.516827066619854, -37.826836991482089 ], [ -72.516774986791262, -37.826996114363936 ], [ -72.516779565504237, -37.827090516227187 ], [ -72.516861902388257, -37.82715108108404 ], [ -72.516963280861333, -37.827195283031649 ], [ -72.517220366119233, -37.827171877203973 ], [ -72.517315017109127, -37.827074507405285 ], [ -72.517388380721755, -37.826946262156099 ], [ -72.517401535650791, -37.826804096010662 ], [ -72.517474153661709, -37.826660152873039 ], [ -72.517588682572239, -37.826562115419335 ], [ -72.517726093369674, -37.826526567515039 ], [ -72.517863406250754, -37.826490947928725 ], [ -72.518019014220883, -37.826423267829107 ], [ -72.518092376036876, -37.826295022157673 ], [ -72.519396933746989, -37.828666491180954 ], [ -72.520132501251084, -37.830240059849025 ], [ -72.520203042357082, -37.83037721160872 ], [ -72.523522676658018, -37.836426179824365 ], [ -72.528475730216499, -37.836584051828858 ], [ -72.529009863992854, -37.835374372959208 ], [ -72.529140753021323, -37.834934652444794 ], [ -72.529206651633928, -37.834788689687549 ], [ -72.532378148354624, -37.829659613251593 ], [ -72.535767067916794, -37.824344215960672 ], [ -72.539238479771498, -37.819411486363045 ], [ -72.541629952263023, -37.814922024358324 ], [ -72.542349364465039, -37.813718962928434 ], [ -72.544403533940383, -37.813348902624163 ], [ -72.544532630829863, -37.809621028936171 ], [ -72.544467481412198, -37.804537751168688 ], [ -72.546372384124993, -37.799703301711503 ], [ -72.547270826071568, -37.800215628154845 ], [ -72.547833784988782, -37.800481164067165 ], [ -72.550009776796458, -37.801648296427892 ], [ -72.55233251199904, -37.802836640610586 ], [ -72.563905646144903, -37.807237995279657 ], [ -72.564185443508137, -37.806998302624613 ], [ -72.56412843731853, -37.806486378811989 ], [ -72.564037879053032, -37.805949863545841 ], [ -72.563887611567253, -37.805517811918484 ], [ -72.563745982281247, -37.805265276293255 ], [ -72.563593249818339, -37.804781934669286 ], [ -72.563352186911828, -37.804480972098801 ], [ -72.563139749720193, -37.804102167277506 ], [ -72.563064003775423, -37.803873318974688 ], [ -72.562924848449697, -37.803672072331516 ], [ -72.562714883421734, -37.803344556774576 ], [ -72.562302359975263, -37.802843397016233 ], [ -72.562083896884687, -37.802002487706886 ], [ -72.564032019342449, -37.801455523635347 ], [ -72.566682512961279, -37.800707461206954 ], [ -72.569152621277823, -37.800247318867832 ], [ -72.567776359143394, -37.796873210466579 ], [ -72.579314497620757, -37.793518009397047 ], [ -72.577263222517217, -37.789239978814059 ], [ -72.58003127686068, -37.78859078087082 ], [ -72.591443215515326, -37.786008658407468 ], [ -72.594283107233721, -37.791186906617845 ], [ -72.596541416162466, -37.789705298918271 ], [ -72.597035945014568, -37.78922789966532 ], [ -72.597432466770869, -37.788727813365455 ], [ -72.598253860215536, -37.787315852368536 ], [ -72.598347003832387, -37.786568216838397 ], [ -72.598457485832554, -37.786179602485525 ], [ -72.598703627813663, -37.785915251890358 ], [ -72.599010565078245, -37.785571994758151 ], [ -72.599150957384126, -37.785131100769561 ], [ -72.599331127989089, -37.784843009827384 ], [ -72.599549842607928, -37.784682299506684 ], [ -72.599933849934004, -37.784593505319641 ], [ -72.600378737883545, -37.784425726825276 ], [ -72.600756516291426, -37.784208781813405 ], [ -72.600966498387407, -37.783868411985765 ], [ -72.601198784753564, -37.782988104772663 ], [ -72.601638340303566, -37.780046866794855 ], [ -72.601848311619761, -37.779706570101446 ], [ -72.602350313556713, -37.779383015924267 ], [ -72.603070996874877, -37.77889866998337 ], [ -72.60444651250927, -37.777572430577116 ], [ -72.604848975722859, -37.777200550422734 ], [ -72.605101300808073, -37.777064408941435 ], [ -72.605486508283377, -37.777001243344181 ], [ -72.605767212945054, -37.776787184118831 ], [ -72.606025772338327, -37.77677926087879 ], [ -72.60625816740064, -37.77690055118417 ], [ -72.606430934989348, -37.777126397258201 ], [ -72.606982580523848, -37.777160855622526 ], [ -72.607560481119165, -37.777066093129434 ], [ -72.607907043969263, -37.77687569302126 ], [ -72.608404098883952, -37.776449536469265 ], [ -72.609877471595524, -37.774812047963898 ], [ -72.610175479606184, -37.774289260221771 ], [ -72.610222702244045, -37.77392818555888 ], [ -72.610145606131411, -37.773673801590014 ], [ -72.609776405736184, -37.773402621607943 ], [ -72.609607474852041, -37.77325370971068 ], [ -72.609367500703669, -37.772978490741764 ], [ -72.609356359797516, -37.772747692038713 ], [ -72.60944320352931, -37.77253964332953 ], [ -72.609956371525243, -37.772112912894528 ], [ -72.610331559191863, -37.771844580284217 ], [ -72.611079339292246, -37.771256701579901 ], [ -72.611343859905745, -37.770709183261751 ], [ -72.611458188491966, -37.770397487310021 ], [ -72.611675582587338, -37.770211038746112 ], [ -72.612155164371444, -37.770093591155224 ], [ -72.61247821561561, -37.770083675379425 ], [ -72.612964045182508, -37.770094517829982 ], [ -72.613511978878279, -37.770051939065098 ], [ -72.613731866696881, -37.769916775715906 ], [ -72.613714374701658, -37.769557834855803 ], [ -72.613629768673277, -37.76914944200022 ], [ -72.613517860148448, -37.768844690717472 ], [ -72.613306541359321, -37.768491627213145 ], [ -72.613190886859741, -37.768109944407819 ], [ -72.613139842788669, -37.767726276982074 ], [ -72.61318695942532, -37.76736527820816 ], [ -72.613368288857004, -37.767102887732896 ], [ -72.613585669477658, -37.766916437963332 ], [ -72.614062727894122, -37.766747695471182 ], [ -72.614493827602345, -37.766631727969227 ], [ -72.615313719063835, -37.76619562732099 ], [ -72.616044193120274, -37.765916364133616 ], [ -72.6164343323465, -37.765955740438983 ], [ -72.617248164671395, -37.766059141754376 ], [ -72.617630800270035, -37.76594465096457 ], [ -72.618006020276013, -37.765676293840343 ], [ -72.618632063384041, -37.765246130738099 ], [ -72.619036984388245, -37.764925493045723 ], [ -72.619310189015593, -37.764557540316417 ], [ -72.619852744497734, -37.763744704535391 ], [ -72.620247731931542, -37.763218910548169 ], [ -72.620486027128649, -37.762800663936943 ], [ -72.620500898738172, -37.762440655951359 ], [ -72.620197573599356, -37.762193089169003 ], [ -72.619931653410632, -37.762047175063223 ], [ -72.619789934293081, -37.761794711725713 ], [ -72.619847029415908, -37.761638862171509 ], [ -72.620253270943579, -37.761343861953861 ], [ -72.620895321131655, -37.760913194989847 ], [ -72.621271757456512, -37.760670473666266 ], [ -72.621226939608675, -37.760415029939892 ], [ -72.620963437684708, -37.760320481768069 ], [ -72.620637925056684, -37.760279057115767 ], [ -72.620403060525632, -37.760106506347235 ], [ -72.620422849513034, -37.759849149541338 ], [ -72.620441472487187, -37.759565997500495 ], [ -72.620710808070626, -37.759121187897733 ], [ -72.62105984757595, -37.758981964230017 ], [ -72.621438685097559, -37.758790533212171 ], [ -72.621877207584987, -37.758494608308908 ], [ -72.622149122231576, -37.758100933138188 ], [ -72.622163800703333, -37.757740930687362 ], [ -72.621977264636257, -37.757233026346661 ], [ -72.621777085854987, -37.756776905191934 ], [ -72.621828005958548, -37.756492833722476 ], [ -72.622036483376419, -37.756126940613647 ], [ -72.622255152181211, -37.75596604428894 ], [ -72.622855052517835, -37.755665075368206 ], [ -72.623258652998572, -37.755318782853131 ], [ -72.623330501153305, -37.754802926345228 ], [ -72.623024792784008, -37.754504149481583 ], [ -72.622466869822304, -37.754341546455763 ], [ -72.622040737797619, -37.754226249153163 ], [ -72.621891515052511, -37.753819850546122 ], [ -72.621905129918957, -37.753434198405557 ], [ -72.622021712378213, -37.753173861583377 ], [ -72.622460102813264, -37.752877792758468 ], [ -72.623308560700806, -37.752697583721627 ], [ -72.623688612744701, -37.752531790480276 ], [ -72.623929459157196, -37.752164896902322 ], [ -72.623806269589039, -37.751629363025756 ], [ -72.623663211981722, -37.751351188387524 ], [ -72.623379894120902, -37.750846339134128 ], [ -72.623297767442679, -37.750489241957609 ], [ -72.623341078815784, -37.750051384062481 ], [ -72.623543356959885, -37.749557119958588 ], [ -72.623725769759787, -37.749320364790364 ], [ -72.624092126088854, -37.748872560760709 ], [ -72.624360239065183, -37.74840195113967 ], [ -72.624408548664519, -37.748066594614627 ], [ -72.624015866307758, -37.747642086179987 ], [ -72.623784793565534, -37.747546471843137 ], [ -72.623527686748062, -37.747580068886528 ], [ -72.623078064677003, -37.74764534721848 ], [ -72.622910326755587, -37.747522025028282 ], [ -72.622805842806571, -37.747371220598211 ], [ -72.622730078895501, -37.747142412555128 ], [ -72.622683923456194, -37.746861327921671 ], [ -72.622665237599975, -37.746476595607824 ], [ -72.622610417011458, -37.746016075149193 ], [ -72.622340549625378, -37.745125426572308 ], [ -72.622293238054311, -37.744818694623227 ], [ -72.62237259881978, -37.744456701098706 ], [ -72.622322688422571, -37.74409861128153 ], [ -72.622181003441014, -37.74384622166027 ], [ -72.622163484496355, -37.743487209695282 ], [ -72.622337192621146, -37.742737077328293 ], [ -72.62216446635496, -37.742511252679265 ], [ -72.622028945612882, -37.742387010540121 ], [ -72.621889857660804, -37.742185832310533 ], [ -72.621882346846732, -37.742031895663523 ], [ -72.622001511064099, -37.74182284489229 ], [ -72.622154214780934, -37.741638370163493 ], [ -72.622140451692459, -37.741356288575936 ], [ -72.622072108763959, -37.741281270467162 ], [ -72.621837308013312, -37.741108792604201 ], [ -72.621698131128028, -37.740907616583542 ], [ -72.621588740580947, -37.740654085159235 ], [ -72.621578736043631, -37.74044900862598 ], [ -72.621664260150254, -37.74021523705229 ], [ -72.621908828282969, -37.739925133344656 ], [ -72.622252868663736, -37.739683407328435 ], [ -72.622723479871425, -37.739386493865773 ], [ -72.623263581156223, -37.73919009481498 ], [ -72.623643659251243, -37.739024301858841 ], [ -72.624050926654974, -37.738754941325745 ], [ -72.624425901420878, -37.738486573660779 ], [ -72.62492878280851, -37.738188585532562 ], [ -72.6260337716934, -37.737306964435959 ], [ -72.626331629685424, -37.736784218502322 ], [ -72.626738875529597, -37.736514850529026 ], [ -72.626947364625551, -37.736148801092469 ], [ -72.626897537771697, -37.735790784041654 ], [ -72.626757105041634, -37.735563970599927 ], [ -72.626620434456001, -37.735414161270512 ], [ -72.626384384148807, -37.735215900299643 ], [ -72.62612105919294, -37.735121282985467 ], [ -72.625826696545687, -37.735053302491565 ], [ -72.625605364236108, -37.735007943527442 ], [ -72.625325080884309, -37.734990375952741 ], [ -72.625052122395331, -37.734787862607028 ], [ -72.62499842290427, -37.734748114495353 ], [ -72.62558737726917, -37.734612931397919 ], [ -72.62575715706123, -37.734493165256175 ], [ -72.626084683712136, -37.734262268495328 ], [ -72.626115137498587, -37.734240813927826 ], [ -72.626646569142551, -37.733949687215336 ], [ -72.627567047661387, -37.733488861475394 ], [ -72.628247384945183, -37.733193139458749 ], [ -72.628691670125136, -37.733049041622863 ], [ -72.628784515501323, -37.733018948324634 ], [ -72.629428707273036, -37.732999089781813 ], [ -72.630103248626611, -37.732870174659212 ], [ -72.630412024742597, -37.732811133866583 ], [ -72.631103594560713, -37.732749289575125 ], [ -72.632138425920232, -37.732600246105264 ], [ -72.632738010948188, -37.732652593159301 ], [ -72.63278635019195, -37.732656784133255 ], [ -72.632820842803923, -37.732645756450395 ], [ -72.633345608948503, -37.73247746081929 ], [ -72.633470210668307, -37.732437454281872 ], [ -72.634074306137293, -37.732234529702325 ], [ -72.634104841670435, -37.732224287724385 ], [ -72.634374924652178, -37.732215876598403 ], [ -72.634749110697271, -37.732204323820447 ], [ -72.636088501480828, -37.73219905079128 ], [ -72.636482776550594, -37.731962079534213 ], [ -72.636570609327521, -37.731909403758529 ], [ -72.637431528644669, -37.731793804373559 ], [ -72.637704320047007, -37.731757257424576 ], [ -72.637877944628499, -37.731714624623081 ], [ -72.638439871381408, -37.731576891100453 ], [ -72.63887607352045, -37.731365184207391 ], [ -72.63952203946485, -37.731385730920628 ], [ -72.640377835689947, -37.731634025989777 ], [ -72.641073534165102, -37.731653026657469 ], [ -72.641866151876258, -37.731628509230539 ], [ -72.642464529568471, -37.731686600364959 ], [ -72.642723852529755, -37.731917316885422 ], [ -72.643421410517533, -37.731972259738271 ], [ -72.644197374361639, -37.732060859922569 ], [ -72.644637280254585, -37.732218383098406 ], [ -72.645226615505152, -37.732483967891859 ], [ -72.645287443128012, -37.732528652047897 ], [ -72.645666309395722, -37.732807393328891 ], [ -72.645749508662377, -37.732868653579494 ], [ -72.645823549604714, -37.733112406738755 ], [ -72.645921459682484, -37.733435419502555 ], [ -72.646059984390874, -37.733571200814261 ], [ -72.646375698195783, -37.733880750810023 ], [ -72.646688409831043, -37.734384559908662 ], [ -72.647009930345959, -37.735063810490125 ], [ -72.647469431190189, -37.735621591896553 ], [ -72.647659870437167, -37.735921144764212 ], [ -72.647859777927238, -37.736235608150395 ], [ -72.64800187793044, -37.736241611204463 ], [ -72.648653826654652, -37.736269522202576 ], [ -72.649444913636543, -37.736245073794244 ], [ -72.650034421363657, -37.736515056550239 ], [ -72.650405684290803, -37.736676160694479 ], [ -72.650770494619252, -37.736834511630533 ], [ -72.651873186511992, -37.736578025839002 ], [ -72.651910030913356, -37.736569502961686 ], [ -72.651965053622817, -37.736567796538985 ], [ -72.652674389422316, -37.736545714630381 ], [ -72.65270111520033, -37.736544959456424 ], [ -72.652750452472375, -37.7360839552139 ], [ -72.653182084881564, -37.736070560914712 ], [ -72.653207555713095, -37.736072648845557 ], [ -72.653688406816713, -37.736113369524013 ], [ -72.654103122152463, -37.735758143562592 ], [ -72.654232775099103, -37.735465933730168 ], [ -72.654431668391226, -37.735117331566336 ], [ -72.654921161287845, -37.73481837789469 ], [ -72.655485215251375, -37.73457120107426 ], [ -72.655623359074085, -37.734449718447408 ], [ -72.65567834585093, -37.734105730786801 ], [ -72.656012722155879, -37.733581852533284 ], [ -72.656582518150714, -37.733451538133643 ], [ -72.656872889583155, -37.733496613162039 ], [ -72.657393246796317, -37.733822802064864 ], [ -72.658115265909288, -37.733858815872203 ], [ -72.658319683840404, -37.733622801213826 ], [ -72.658286001508813, -37.732939141133969 ], [ -72.658631437871549, -37.732640220584265 ], [ -72.658982533620573, -37.732458095188321 ], [ -72.659333724590994, -37.732276038969388 ], [ -72.65975136843457, -37.731979298990851 ], [ -72.660102554015126, -37.731797240884219 ], [ -72.660223650508684, -37.73133392932062 ], [ -72.660347726714051, -37.730929196102039 ], [ -72.660834379137739, -37.73057178400343 ], [ -72.66103868298282, -37.730335694214297 ], [ -72.661312506549393, -37.7300434217739 ], [ -72.661660795063142, -37.729802852840621 ], [ -72.662377011957716, -37.729721977169483 ], [ -72.663010144569952, -37.72941852209938 ], [ -72.663963310087013, -37.72914775963806 ], [ -72.664470589626276, -37.72871183378939 ], [ -72.664673495692739, -37.72835548881141 ], [ -72.665057954871429, -37.727396606118383 ], [ -72.665172335559902, -37.726967373619594 ], [ -72.665811541681805, -37.72642999411007 ], [ -72.666030306606302, -37.726191896695454 ], [ -72.665961312399219, -37.725771029284296 ], [ -72.665373698320735, -37.725414500340719 ], [ -72.665228822523289, -37.725169202025299 ], [ -72.66526432753659, -37.724634751781373 ], [ -72.665086425177719, -37.724158826016485 ], [ -72.66519075731145, -37.723209698070796 ], [ -72.665272714208072, -37.722739187488948 ], [ -72.665715046450615, -37.721972814011679 ], [ -72.666737403804106, -37.721251917266606 ], [ -72.668594831452467, -37.720468094522232 ], [ -72.669677998462475, -37.719933538588954 ], [ -72.671188241626567, -37.71959281043496 ], [ -72.673641795789052, -37.718926551718653 ], [ -72.675823075978769, -37.718440105213141 ], [ -72.676428403936356, -37.718266817360323 ], [ -72.67759589670041, -37.717164775324399 ], [ -72.678621279579801, -37.716337930851807 ], [ -72.679800604054478, -37.715924334607337 ], [ -72.680286229703796, -37.715311829849313 ], [ -72.680538725468907, -37.714694728665009 ], [ -72.680001807813468, -37.71374445329824 ], [ -72.679702596958634, -37.713206292799654 ], [ -72.679812490562298, -37.712337716729394 ], [ -72.680928745219177, -37.711803723954702 ], [ -72.682273878932364, -37.711406692020716 ], [ -72.683028789859478, -37.710706789987583 ], [ -72.683777915636156, -37.710192150521827 ], [ -72.684064760282794, -37.709815363456435 ], [ -72.684171976906882, -37.709611497789794 ], [ -72.684595870329886, -37.709154925411148 ], [ -72.685180899056988, -37.707944768932563 ], [ -72.685734062744345, -37.706920324900864 ], [ -72.687988440645384, -37.705660028750927 ], [ -72.69025211790624, -37.704938425311283 ], [ -72.690759945417838, -37.704768638882896 ], [ -72.691133722729461, -37.704241290884774 ], [ -72.691407031561383, -37.70383251411031 ], [ -72.692151136653933, -37.703370821525354 ], [ -72.69241735508335, -37.703189711589019 ], [ -72.692766177196361, -37.70286527692884 ], [ -72.692885115936619, -37.702391375534795 ], [ -72.692518816201414, -37.701597279052429 ], [ -72.692289871568107, -37.700578289102438 ], [ -72.691910353123504, -37.699369930155804 ], [ -72.692415721946162, -37.698199579966158 ], [ -72.692782550789062, -37.697295705554367 ], [ -72.693138425575384, -37.696743601273575 ], [ -72.693743748143078, -37.696548384222439 ], [ -72.694473616734996, -37.696542018285832 ], [ -72.695200905365439, -37.696618309976664 ], [ -72.695613073977356, -37.696771274111171 ], [ -72.696527488867986, -37.697534578195643 ], [ -72.697445323644914, -37.698194449516549 ], [ -72.698265189953588, -37.698645219072489 ], [ -72.70006666064458, -37.69853541893572 ], [ -72.700860703982102, -37.698136824691801 ], [ -72.700922957231285, -37.698086972984179 ], [ -72.701137226986106, -37.6980422325123 ], [ -72.701746784212062, -37.696842961724627 ], [ -72.702471385083157, -37.695887813032208 ], [ -72.703079544530496, -37.695364204702798 ], [ -72.704379597189458, -37.695107159480301 ], [ -72.705693910603557, -37.694881163293147 ], [ -72.706531427909255, -37.694769198826549 ], [ -72.707832676225863, -37.694115707947283 ], [ -72.708672151858877, -37.693210925772107 ], [ -72.709293928867595, -37.692961608398996 ], [ -72.710002562184528, -37.692556493513671 ], [ -72.709556090505188, -37.692097586161772 ], [ -72.709138515831867, -37.691718944922357 ], [ -72.708620004656623, -37.691293888126786 ], [ -72.708000044041398, -37.690934973991155 ], [ -72.707178735936679, -37.69037081378108 ], [ -72.706271277599612, -37.689741760699206 ], [ -72.705349604321455, -37.688924002340421 ], [ -72.704701459962507, -37.688291278795447 ], [ -72.703724303139154, -37.686826711296618 ], [ -72.703077461337372, -37.685865090898837 ], [ -72.702589465932306, -37.684844526173251 ], [ -72.702273759313911, -37.684070638076477 ], [ -72.702076313207726, -37.682459921243392 ], [ -72.702078658708942, -37.681658100876319 ], [ -72.702225197287959, -37.680941855447742 ], [ -72.702559163961141, -37.680129610237834 ], [ -72.702821210614346, -37.679409733369781 ], [ -72.703097337461344, -37.678666905009443 ], [ -72.703244037737122, -37.677928071316558 ], [ -72.70359272330623, -37.677115360829106 ], [ -72.703767209372074, -37.67660095884181 ], [ -72.70436114220027, -37.675906655794392 ], [ -72.704421244882667, -37.675062429106205 ], [ -72.704148628651822, -37.674476482895692 ], [ -72.703948762484259, -37.6737441197048 ], [ -72.703821942824021, -37.672694117969691 ], [ -72.70382400086433, -37.67189230653117 ], [ -72.703898725424608, -37.670989171650582 ], [ -72.703669452906226, -37.670275666013232 ], [ -72.703671557658936, -37.669554956877981 ], [ -72.703673849261236, -37.66878014844265 ], [ -72.703531576781486, -37.66806848102604 ], [ -72.703159328402464, -37.667026194600552 ], [ -72.703031787395062, -37.666192442954582 ], [ -72.702932421148219, -37.665596543156184 ], [ -72.702645792097258, -37.664839819469222 ], [ -72.702158756991238, -37.663661584228478 ], [ -72.701972915321889, -37.663045819533806 ], [ -72.701485636772432, -37.661912604697285 ], [ -72.70117052663538, -37.661062235264865 ], [ -72.700984702034035, -37.66044646820918 ], [ -72.700613101340323, -37.659066300607371 ], [ -72.700196699866808, -37.658403754236758 ], [ -72.699779673165821, -37.657885355192981 ], [ -72.699752438941346, -37.657372792712863 ], [ -72.699926453391683, -37.65711058140058 ], [ -72.700302781020383, -37.65666630072846 ], [ -72.700967088766248, -37.656532888279663 ], [ -72.702152493937078, -37.65616015115215 ], [ -72.700982300837282, -37.655307574416256 ], [ -72.699820146760942, -37.654672290463218 ], [ -72.699619252022387, -37.654249534096735 ], [ -72.699178979616804, -37.653834368208003 ], [ -72.699037960286859, -37.653409731597897 ], [ -72.698403906003136, -37.652714603494694 ], [ -72.698212481304296, -37.652482242859691 ], [ -72.697767407403518, -37.651971873493068 ], [ -72.697559442923676, -37.651406313871497 ], [ -72.697356208073799, -37.650935951390828 ], [ -72.697152980410422, -37.650465663456437 ], [ -72.697057668260484, -37.649753544491688 ], [ -72.697079732680493, -37.6489901413551 ], [ -72.697128680982004, -37.648811340379787 ], [ -72.697434996612415, -37.647691940912225 ], [ -72.697528732219055, -37.647164584688475 ], [ -72.697811510192381, -37.646821991437491 ], [ -72.69827615119668, -37.646521436148426 ], [ -72.69873851227679, -37.646173201583153 ], [ -72.699136187469918, -37.645731649412106 ], [ -72.699237000902684, -37.645347092589788 ], [ -72.699395311903515, -37.644913054618534 ], [ -72.69961348843151, -37.644477211676367 ], [ -72.699829203575646, -37.643993771363121 ], [ -72.700104960316722, -37.643508371091194 ], [ -72.700382894574048, -37.643070649152101 ], [ -72.700601056729013, -37.642634730669805 ], [ -72.700761719519264, -37.642248291306707 ], [ -72.700977515511752, -37.64176484644598 ], [ -72.701195669581878, -37.641328927414413 ], [ -72.70146895415931, -37.640796001072424 ], [ -72.701893836627434, -37.640368714152366 ], [ -72.701865403152055, -37.640330641827497 ], [ -72.701169125263547, -37.639589733514839 ], [ -72.70058558055328, -37.638702331365053 ], [ -72.700212347620734, -37.638428009414589 ], [ -72.69990124846143, -37.638199483131039 ], [ -72.699645280707742, -37.637873876440501 ], [ -72.699633463370176, -37.637635878041444 ], [ -72.699679137312486, -37.637348398951701 ], [ -72.699842160875292, -37.637009560575642 ], [ -72.699820888769366, -37.636581163473707 ], [ -72.69980188760448, -37.636200367295913 ], [ -72.699598784806952, -37.635730078541521 ], [ -72.699515205552913, -37.63525596238604 ], [ -72.69950111817262, -37.634970359986333 ], [ -72.699723905752975, -37.634629793459474 ], [ -72.699891647267663, -37.634386082112421 ], [ -72.700296536830848, -37.634087396575836 ], [ -72.70082566788939, -37.633880080902316 ], [ -72.701235090351489, -37.63367652441859 ], [ -72.701879290208026, -37.633370315040295 ], [ -72.702403681755129, -37.633067793769676 ], [ -72.702789536915759, -37.632388232441606 ], [ -72.703012387378166, -37.632047510373845 ], [ -72.703230510007273, -37.631611663095484 ], [ -72.703510841868081, -37.631221459861791 ], [ -72.703798268623018, -37.630974054266225 ], [ -72.70437539127731, -37.630526918776368 ], [ -72.704665178804817, -37.630327111622449 ], [ -72.705012447730724, -37.630077823430213 ], [ -72.705175436259225, -37.629739052924826 ], [ -72.705520330039533, -37.629442088902643 ], [ -72.70581001965067, -37.629242356379756 ], [ -72.706159646654186, -37.629040663992384 ], [ -72.706566660733017, -37.628789490410227 ], [ -72.706736741460688, -37.628593518293329 ], [ -72.7071438435744, -37.628342340354195 ], [ -72.707613158513141, -37.628136878361559 ], [ -72.708024990256831, -37.627980896308145 ], [ -72.708190232658396, -37.627689652521703 ], [ -72.708238240423796, -37.627449770987766 ], [ -72.708164280329839, -37.627166128557015 ], [ -72.708097993645026, -37.627070284784111 ], [ -72.708035021743612, -37.626979500846232 ], [ -72.707843733588689, -37.62674715077609 ], [ -72.707761214346689, -37.626662591101493 ], [ -72.707527925460667, -37.626423370057182 ], [ -72.707511259017195, -37.626090176520819 ], [ -72.707554629679123, -37.625755167929782 ], [ -72.707667219126932, -37.625608603019593 ], [ -72.708071844585419, -37.625309900703492 ], [ -72.708246645959917, -37.625209051377013 ], [ -72.708596247810618, -37.625007353025062 ], [ -72.708830894051047, -37.624904619268989 ], [ -72.70912064654425, -37.624704802692207 ], [ -72.709244941938522, -37.624597793883076 ], [ -72.709350461645073, -37.624506873165011 ], [ -72.70948338984924, -37.624392506527471 ], [ -72.708839056143702, -37.624048592319433 ], [ -72.708825616448749, -37.624041414038167 ], [ -72.708812546859676, -37.624041677291636 ], [ -72.708166030248009, -37.624054793004902 ], [ -72.707306502421218, -37.624142944426417 ], [ -72.706911322747956, -37.624135230398558 ], [ -72.70651762170165, -37.624075143914226 ], [ -72.706193189746898, -37.62391162712116 ], [ -72.706046996120932, -37.623764863625375 ], [ -72.705897587424559, -37.623615027583213 ], [ -72.705873468557513, -37.623590842273671 ], [ -72.705682300776829, -37.623377376977352 ], [ -72.705655409708797, -37.623345972686415 ], [ -72.705588700815795, -37.623267629815849 ], [ -72.705445045828824, -37.623099089445304 ], [ -72.705364247758908, -37.623004215191209 ], [ -72.704978600109129, -37.622682254572887 ], [ -72.704628489811967, -37.622498433186259 ], [ -72.704459775421839, -37.622409939712142 ], [ -72.703804275657319, -37.622292392944814 ], [ -72.703213140182925, -37.622228465645783 ], [ -72.702752032252647, -37.622219487060143 ], [ -72.702157471502062, -37.622260308700753 ], [ -72.701365465543617, -37.622297292420349 ], [ -72.70097029395518, -37.622289557567107 ], [ -72.700382307974181, -37.622120795832728 ], [ -72.699733301232527, -37.62179365581126 ], [ -72.699076230314589, -37.621728381891302 ], [ -72.698420738634923, -37.621610732299082 ], [ -72.697961304266016, -37.621549359481143 ], [ -72.697373333556357, -37.621380655834201 ], [ -72.69665033168647, -37.621314115754103 ], [ -72.695932341517533, -37.621090370224437 ], [ -72.695278530585767, -37.620920326444548 ], [ -72.694819009080277, -37.620858943806816 ], [ -72.694229465420548, -37.620742522358078 ], [ -72.693570735314282, -37.62072959390369 ], [ -72.693173993470722, -37.620774279243193 ], [ -72.69283649731679, -37.621029795307592 ], [ -72.692372234503253, -37.621125596350893 ], [ -72.692042819593624, -37.621119091600434 ], [ -72.691718429859662, -37.620955532017348 ], [ -72.691649800368609, -37.620954212849263 ], [ -72.691191483503914, -37.620945250474833 ], [ -72.690801157428126, -37.620780358530631 ], [ -72.690411505987115, -37.620668431682176 ], [ -72.690409154197695, -37.620667767826426 ], [ -72.690287517816643, -37.620620876684313 ], [ -72.689692772911442, -37.620391683723405 ], [ -72.689247865198979, -37.619858614336351 ], [ -72.68905403032025, -37.61960697497662 ], [ -72.688550863268347, -37.61895380984172 ], [ -72.688386972831296, -37.618797245685279 ], [ -72.688102810554099, -37.618525628854101 ], [ -72.68765476322973, -37.618097446112088 ], [ -72.687203459512446, -37.617774010535193 ], [ -72.686479751566736, -37.617733628307654 ], [ -72.685687777947635, -37.617770503987963 ], [ -72.685351944575302, -37.61797362373639 ], [ -72.684947006503108, -37.618280302844191 ], [ -72.684611441727029, -37.618464519608729 ], [ -72.684209485163265, -37.618685200580657 ], [ -72.683676111361635, -37.618884381562253 ], [ -72.683340174683039, -37.619087498267632 ], [ -72.683043250938908, -37.619312199020946 ], [ -72.68300273871624, -37.619342911263566 ], [ -72.682792138579345, -37.619758193786424 ], [ -72.682843329974119, -37.620231049783996 ], [ -72.682631139819179, -37.62069870577497 ] ] ] } },
{ "type": "Feature", "properties": { "capa": "colegios", "popup": "<strong>LICEO AGRICOLA FORESTAL MANZANARES</strong><br><br><strong>Dirección:</strong> CAMINO ANGOL-MININCO 18", "etiqueta": "" }, "geometry": { "type": "Point", "coordinates": [ -72.545532, -37.774021 ] } },
{ "type": "Feature", "properties": { "capa": "colegios", "popup": "<strong>ESCUELA BASICA LOS NOGALES</strong><br><br><strong>Dirección:</strong> CALLE PLAZA 0", "etiqueta": "" }, "geometry": { "type": "Point", "coordinates": [ -72.615227, -37.731781 ] } },
{ "type": "Feature", "properties": { "capa": "colegios", "popup": "<strong>ESC. BASICA JULIO MONTT SALAMANCA</strong><br><br><strong>Dirección:</strong> FUNDO EL ALMENDRO 0", "etiqueta": "" }, "geometry": { "type": "Point", "coordinates": [ -72.647812, -37.709839 ] } },
{ "type": "Feature", "properties": { "capa": "colegios", "popup": "<strong>ESC. ESP. DE LENGUAJE TORNASOL</strong><br><br><strong>Dirección:</strong> CAUPOLICAN 24", "etiqueta": "" }, "geometry": { "type": "Point", "coordinates": [ -72.58074, -37.69067 ] } },
{ "type": "Feature", "properties": { "capa": "colegios", "popup": "<strong>ESCUELA ESPECIAL DE LENGUAJE COLEN</strong><br><br><strong>Dirección:</strong> MALLECO 373", "etiqueta": "" }, "geometry": { "type": "Point", "coordinates": [ -72.58145, -37.68164 ] } },
{ "type": "Feature", "properties": { "capa": "colegios", "popup": "<strong>LICEO POLITECNICO DOMINGO STA MARIA</strong><br><br><strong>Dirección:</strong> CORNELIO OLSEN 345", "etiqueta": "" }, "geometry": { "type": "Point", "coordinates": [ -72.581139, -37.6726 ] } },
{ "type": "Feature", "properties": { "capa": "colegios", "popup": "<strong>SAN FRANCISCO DE ASIS - RENAICO</strong><br><br><strong>Dirección:</strong> ARTURO PRAT 349", "etiqueta": "" }, "geometry": { "type": "Point", "coordinates": [ -72.582848, -37.672489 ] } },
{ "type": "Feature", "properties": { "capa": "colegios", "popup": "<strong>ESCUELA MUNICIP. LA NOBEL GABRIELA</strong><br><br><strong>Dirección:</strong> LORENZO DE LA MAZA 160", "etiqueta": "" }, "geometry": { "type": "Point", "coordinates": [ -72.589012, -37.67144 ] } },
{ "type": "Feature", "properties": { "capa": "colegios", "popup": "<strong>ESCUELA BASICA TOLPAN</strong><br><br><strong>Dirección:</strong> CAMINO TOLPAN 10", "etiqueta": "" }, "geometry": { "type": "Point", "coordinates": [ -72.656326, -37.656651 ] } },
{ "type": "Feature", "properties": { "capa": "jardines", "popup": "<strong>SALA CUNA TESORITO</strong><br><br><strong>Dirección:</strong> LOS TILOS 210 - POB. PADRE BASTIAS ", "etiqueta": "" }, "geometry": { "type": "MultiPoint", "coordinates": [ [ -72.58774, -37.679638 ] ] } },
{ "type": "Feature", "properties": { "capa": "jardines", "popup": "<strong>ANGELITOS DE AMOR</strong><br><br><strong>Dirección:</strong> CIRCUNVALACION PEDRO DE VALDIVIA S/N VILLA LOS CON ", "etiqueta": "" }, "geometry": { "type": "MultiPoint", "coordinates": [ [ -72.591713, -37.678607 ] ] } },
{ "type": "Feature", "properties": { "capa": "jardines", "popup": "<strong>CUNCUNA AMARILLA</strong><br><br><strong>Dirección:</strong> LAUTARO N0 50 ", "etiqueta": "" }, "geometry": { "type": "MultiPoint", "coordinates": [ [ -72.590441, -37.673827 ] ] } },
{ "type": "Feature", "properties": { "capa": "jardines", "popup": "<strong>NA</strong><br><br><strong>Dirección:</strong> NA ", "etiqueta": "" }, "geometry": { "type": "MultiPoint", "coordinates": [ [ -72.57822300001429, -37.670548999687981 ] ] } },
{ "type": "Feature", "properties": { "capa": "jardines", "popup": "<strong>NA</strong><br><br><strong>Dirección:</strong> NA ", "etiqueta": "" }, "geometry": { "type": "MultiPoint", "coordinates": [ [ -72.616695999576663, -37.730355000031196 ] ] } },
{ "type": "Feature", "properties": { "capa": "bomberos", "popup": "<strong>Cuerpo de Bomberos</strong><br><br><strong>Dirección:</strong> Caupolicán 100", "etiqueta": "" }, "geometry": { "type": "Point", "coordinates": [ -72.583718786846063, -37.670466098670332 ] } },
{ "type": "Feature", "properties": { "capa": "comisarias", "popup": "<strong>RETEN TIJERAL</strong><br><br><strong>Dirección:</strong> SANTA ELISA 270", "etiqueta": "" }, "geometry": { "type": "Point", "coordinates": [ -72.612956560868582, -37.733874464320266 ] } },
{ "type": "Feature", "properties": { "capa": "comisarias", "popup": "<strong>TCIA. RENAICO</strong><br><br><strong>Dirección:</strong> LORENZO DE LA MAZA S/N", "etiqueta": "" }, "geometry": { "type": "Point", "coordinates": [ -72.589866999999899, -37.670724 ] } },
{ "type": "Feature", "properties": { "capa": "salud", "popup": "<strong>Centro de Salud Familiar Renaico</strong><br><br><strong>Tipo de atención:</strong> Centro de Salud Familiar (CESFAM)<br><strong>Dirección:</strong>  NA", "etiqueta": "" }, "geometry": { "type": "Point", "coordinates": [ -72.58068, -37.67299 ] } },
{ "type": "Feature", "properties": { "capa": "salud", "popup": "<strong>SUR RENAICO</strong><br><br><strong>Tipo de atención:</strong> Servicio de Urgencia Rural (SUR)<br><strong>Dirección:</strong>  NA", "etiqueta": "" }, "geometry": { "type": "Point", "coordinates": [ -72.580822589999968, -37.672813669999975 ] } },
{ "type": "Feature", "properties": { "capa": "salud", "popup": "<strong>CECOSF Tijeral</strong><br><br><strong>Tipo de atención:</strong> Centro Comunitario de Salud Familiar (CECOSF)<br><strong>Dirección:</strong>  NA", "etiqueta": "" }, "geometry": { "type": "Point", "coordinates": [ -72.615982229999972, -37.73292653999993 ] } }
]
}
